{"type":"FeatureCollection","peaks_destination_id":"xIPfAyxLURtGgiUqNy0c","peaks_trailhead_id":"94F0C1CE8A14286B9F99","peaks_source":"https://api.openstreetmap.org/api/0.6","peaks_license_name":"Open Data Commons Open Database License (ODbL) 1.0","peaks_license":"https://opendatacommons.org/licenses/odbl/1-0/","peaks_attribution":"© OpenStreetMap contributors","peaks_retrieved_at":"2026-07-28T02:20:17.651Z","features":[{"type":"Feature","properties":{"name":"Castle Peak OSM route candidate","trailhead_name":"Castle Creek Trailhead","destination_name":"Castle Peak","distance_m":9660.320470307872,"trailhead_snap_m":5.6574967304100365,"summit_snap_m":12.400620430365747,"osm_way_ids":[17121341,928741746,17118921,17120940,928741744,128682316],"osm_way_urls":["https://www.openstreetmap.org/way/17121341","https://www.openstreetmap.org/way/928741746","https://www.openstreetmap.org/way/17118921","https://www.openstreetmap.org/way/17120940","https://www.openstreetmap.org/way/928741744","https://www.openstreetmap.org/way/128682316"],"osm_way_names":["Pearl Pass Road","Montezuma Road","Forest Road 129.1 Montezuma","Castle Peak Trail"],"osm_foot_access_override_way_ids":[]},"geometry":{"type":"LineString","coordinates":[[-106.8079893,39.0288834],[-106.8080239,39.0288402],[-106.8081514,39.0287562],[-106.8082852,39.0286653],[-106.8083815,39.0285759],[-106.8084325,39.0284621],[-106.8084413,39.0283456],[-106.8083928,39.0282246],[-106.8083779,39.0280577],[-106.8084312,39.0278264],[-106.808539,39.027601],[-106.808605,39.027237],[-106.808591,39.0266175],[-106.808577,39.025998],[-106.8085518,39.0255396],[-106.808617,39.0250694],[-106.8086177,39.0248929],[-106.808573,39.0247852],[-106.808461,39.024661],[-106.8083738,39.0245788],[-106.8083512,39.024516],[-106.8083683,39.0244659],[-106.808418,39.0243894],[-106.8085113,39.0242589],[-106.8086353,39.024068],[-106.8087063,39.0239127],[-106.8087225,39.0236264],[-106.808728,39.023481],[-106.8087121,39.0234087],[-106.8086773,39.0233565],[-106.8086122,39.0232571],[-106.808625,39.022826],[-106.8085,39.02238],[-106.808498,39.021995],[-106.808557,39.021576],[-106.808695,39.021078],[-106.808775,39.020883],[-106.808859,39.020787],[-106.809295,39.020429],[-106.809406,39.020315],[-106.809638,39.019873],[-106.810005,39.019341],[-106.810129,39.01925],[-106.810294,39.01919],[-106.810451,39.01917],[-106.810706,39.019174],[-106.810788,39.019199],[-106.810907,39.019293],[-106.811065,39.0195],[-106.811175,39.019617],[-106.811243,39.019663],[-106.811377,39.01971],[-106.811654,39.019766],[-106.811733,39.019769],[-106.811872,39.019732],[-106.811954,39.019684],[-106.812022,39.019614],[-106.812222,39.019207],[-106.812856,39.018253],[-106.813178,39.017702],[-106.813306,39.017522],[-106.813445,39.017369],[-106.813557,39.017279],[-106.813731,39.017177],[-106.813914,39.017106],[-106.814112,39.016999],[-106.814221,39.016952],[-106.814543,39.016888],[-106.814615,39.016862],[-106.814996,39.016631],[-106.815204,39.01652],[-106.815425,39.01643],[-106.815594,39.016323],[-106.815837,39.016119],[-106.81644,39.0154],[-106.816497,39.015345],[-106.816674,39.015227],[-106.816726,39.015172],[-106.816739,39.015107],[-106.816655,39.014905],[-106.816677,39.014813],[-106.816782,39.01471],[-106.816937,39.014604],[-106.817191,39.014484],[-106.817378,39.014445],[-106.817666,39.014432],[-106.817821,39.014407],[-106.818048,39.014322],[-106.81818,39.014299],[-106.818681,39.014349],[-106.818771,39.014319],[-106.818939,39.014163],[-106.819064,39.014072],[-106.819603,39.013937],[-106.81969,39.013896],[-106.819896,39.013697],[-106.820033,39.013592],[-106.820271,39.013468],[-106.820399,39.013379],[-106.820511,39.013236],[-106.820642,39.012965],[-106.820729,39.01283],[-106.820847,39.012723],[-106.821483,39.012467],[-106.821661,39.012389],[-106.821777,39.012316],[-106.821828,39.012269],[-106.821964,39.012039],[-106.822036,39.011959],[-106.82229,39.01178],[-106.822421,39.011709],[-106.822607,39.011645],[-106.822841,39.011603],[-106.823157,39.011576],[-106.823592,39.011432],[-106.823935,39.011242],[-106.82411,39.011115],[-106.824205,39.011067],[-106.824395,39.011009],[-106.824845,39.010924],[-106.824985,39.010864],[-106.825151,39.010742],[-106.825463,39.010456],[-106.825556,39.010404],[-106.826042,39.010257],[-106.826261,39.010129],[-106.826494,39.009955],[-106.826812,39.009673],[-106.827047,39.009489],[-106.827231,39.009401],[-106.827645,39.009258],[-106.827819,39.009219],[-106.82838,39.009144],[-106.828643,39.00906],[-106.828761,39.009006],[-106.828829,39.008959],[-106.828899,39.008879],[-106.82895,39.008672],[-106.829005,39.008576],[-106.829058,39.008532],[-106.829199,39.008482],[-106.829627,39.008423],[-106.829888,39.00845],[-106.830018,39.008479],[-106.83018,39.008561],[-106.830331,39.008594],[-106.830412,39.008592],[-106.830496,39.00857],[-106.830588,39.008486],[-106.830754,39.008196],[-106.830779,39.008084],[-106.830778,39.007895],[-106.830746,39.007803],[-106.830518,39.007492],[-106.830523,39.007407],[-106.830577,39.007363],[-106.831068,39.007299],[-106.831561,39.00713],[-106.831775,39.007031],[-106.831924,39.006896],[-106.832163,39.006743],[-106.832233,39.006677],[-106.83245,39.006268],[-106.832551,39.006176],[-106.832668,39.006124],[-106.832814,39.006077],[-106.833003,39.006055],[-106.833408,39.006056],[-106.833899,39.006016],[-106.83415,39.005956],[-106.834291,39.00588],[-106.834623,39.005623],[-106.834701,39.005546],[-106.834906,39.005322],[-106.835133,39.004989],[-106.835299,39.004808],[-106.835394,39.004764],[-106.8355483,39.0047502],[-106.835842,39.00477],[-106.836155,39.004692],[-106.836256,39.00469],[-106.8368184,39.0048379],[-106.8370516,39.0049431],[-106.8371495,39.0049872],[-106.8372328,39.0050433],[-106.8372847,39.0050926],[-106.837288,39.0051743],[-106.8372152,39.0053955],[-106.8371094,39.0056343],[-106.8372025,39.0056654],[-106.8373815,39.0055665],[-106.837656,39.0052768],[-106.8377921,39.0051646],[-106.8379178,39.0050319],[-106.8379795,39.0049015],[-106.8380943,39.0047113],[-106.8381812,39.0047936],[-106.8382098,39.004911],[-106.8382046,39.0049986],[-106.838173,39.0051406],[-106.838128,39.0052609],[-106.8380832,39.0053714],[-106.8380903,39.005431],[-106.838124,39.0054649],[-106.8381723,39.0055045],[-106.8381881,39.0056071],[-106.838235,39.005723],[-106.838203,39.005789],[-106.837995,39.006045],[-106.837958,39.00611],[-106.837952,39.006174],[-106.838014,39.006222],[-106.838111,39.006214],[-106.838195,39.006182],[-106.838343,39.006097],[-106.838454,39.005986],[-106.83852,39.005945],[-106.838598,39.005943],[-106.838648,39.005999],[-106.838629,39.006067],[-106.83836,39.006555],[-106.838357,39.006624],[-106.838413,39.006759],[-106.838571,39.006942],[-106.838594,39.007036],[-106.838492,39.007401],[-106.83849,39.007479],[-106.838537,39.007578],[-106.838763,39.007804],[-106.838861,39.007935],[-106.838892,39.00801],[-106.838901,39.008096],[-106.838883,39.008154],[-106.838785,39.008285],[-106.838689,39.008475],[-106.838681,39.008553],[-106.838701,39.008622],[-106.838771,39.008724],[-106.838967,39.008895],[-106.83917,39.009174],[-106.839482,39.009465],[-106.83952,39.009548],[-106.839514,39.00966],[-106.8394816,39.0097115],[-106.839475,39.009722],[-106.839398,39.009764],[-106.839296,39.00977],[-106.8386325,39.0096602],[-106.8385199,39.0096639],[-106.8384571,39.0096553],[-106.8384178,39.0096306],[-106.8383852,39.0095828],[-106.8383545,39.0094935],[-106.8383262,39.0094469],[-106.8382691,39.0094114],[-106.8382066,39.0093995],[-106.8381433,39.0094234],[-106.8381146,39.0094507],[-106.8381069,39.0095003],[-106.8381381,39.0095712],[-106.8381897,39.0096645],[-106.838454,39.009988],[-106.838598,39.010277],[-106.838791,39.010469],[-106.838851,39.010656],[-106.838926,39.01073],[-106.839276,39.01088],[-106.839477,39.011072],[-106.839604,39.011231],[-106.839721,39.011339],[-106.839778,39.011423],[-106.839794,39.011492],[-106.839834,39.0117119],[-106.8399359,39.0118098],[-106.8399446,39.0119006],[-106.8398664,39.0119326],[-106.8397321,39.0117974],[-106.8396587,39.0116391],[-106.8395154,39.0114653],[-106.8394309,39.0113851],[-106.8393811,39.0113416],[-106.8393056,39.0113282],[-106.8392995,39.0114002],[-106.8393536,39.0114821],[-106.8394732,39.0116239],[-106.8395347,39.011799],[-106.8395492,39.0118885],[-106.839543,39.011952],[-106.839636,39.012084],[-106.8398262,39.0122323],[-106.839855,39.012347],[-106.83992,39.012544],[-106.8400049,39.012617],[-106.8401897,39.012788],[-106.8403216,39.0130393],[-106.8404408,39.0131028],[-106.840729,39.013168],[-106.840841,39.013211],[-106.84121,39.013435],[-106.841386,39.013517],[-106.841833,39.01368],[-106.841941,39.013745],[-106.842298,39.014053],[-106.842406,39.014118],[-106.842702,39.014233],[-106.842835,39.014301],[-106.8429999,39.0144384],[-106.8431076,39.0144856],[-106.8432286,39.0145133],[-106.84331,39.0145337],[-106.8434085,39.0145843],[-106.8435183,39.0146694],[-106.8436734,39.0148195],[-106.843848,39.014915],[-106.8439737,39.0149453],[-106.844229,39.0150025],[-106.8444694,39.015041],[-106.8447706,39.0150539],[-106.844991,39.01509],[-106.845113,39.015135],[-106.8451902,39.0151999],[-106.8451982,39.015258],[-106.8451815,39.015315],[-106.8451387,39.0153739],[-106.8450398,39.0154191],[-106.8448172,39.0154795],[-106.8446373,39.0155354],[-106.8443547,39.0156595],[-106.8440731,39.0157316],[-106.8438835,39.0157596],[-106.8434266,39.0157768],[-106.8434009,39.0157922],[-106.8433969,39.0158091],[-106.8434115,39.0158291],[-106.843636,39.0158687],[-106.8438828,39.0159374],[-106.8440608,39.0159521],[-106.844503,39.015994],[-106.844681,39.01602],[-106.845012,39.016114],[-106.845383,39.016148],[-106.845728,39.016145],[-106.845881,39.016163],[-106.84614,39.016254],[-106.846353,39.016434],[-106.84662,39.016586],[-106.846861,39.016691],[-106.847575,39.01693],[-106.84764,39.017],[-106.847698,39.017181],[-106.84777,39.01733],[-106.847839,39.017645],[-106.847916,39.017763],[-106.8482901,39.0180543],[-106.8483797,39.0181636],[-106.8484168,39.0182674],[-106.8484723,39.018349],[-106.8485591,39.018407],[-106.8488355,39.0185169],[-106.848899,39.0185757],[-106.8489349,39.0186417],[-106.8489314,39.0186917],[-106.8489006,39.0187414],[-106.8488109,39.0188007],[-106.8486884,39.0188609],[-106.8485589,39.0188926],[-106.8484346,39.018893],[-106.8482757,39.0188603],[-106.848185,39.0188352],[-106.8481177,39.0188384],[-106.8480752,39.0188554],[-106.848047,39.0188949],[-106.8480519,39.0189382],[-106.8480915,39.0189959],[-106.8481698,39.0190722],[-106.848438,39.019252],[-106.848537,39.019296],[-106.8489751,39.0193588],[-106.8492514,39.0195538],[-106.8496698,39.0195788],[-106.850224,39.0198977],[-106.8505496,39.0199789],[-106.8507642,39.0200873],[-106.8515581,39.0202373],[-106.8520814,39.0202169],[-106.8528096,39.0199987],[-106.8531567,39.0198539],[-106.853443,39.0197462],[-106.8539536,39.0196971],[-106.8542421,39.0195903],[-106.854633,39.0193748],[-106.8546863,39.0193226],[-106.8547524,39.0193116],[-106.8548091,39.0193756],[-106.8548164,39.019475],[-106.8549591,39.0195288],[-106.8553927,39.0192778],[-106.8554419,39.0189369],[-106.8555385,39.0186869],[-106.8556473,39.0185599],[-106.8558121,39.0185145],[-106.8561124,39.0184683],[-106.8564816,39.0183751],[-106.8571902,39.0179744],[-106.8573321,39.0177819],[-106.8573366,39.0175887],[-106.8574896,39.0172181],[-106.8577697,39.016618],[-106.8579426,39.01616],[-106.8581663,39.01587],[-106.8583762,39.0157378],[-106.8585441,39.0156726],[-106.8587225,39.0156908],[-106.8589009,39.015624],[-106.8589658,39.0154704],[-106.8589341,39.0151923],[-106.8588717,39.0149827],[-106.858823,39.0148195],[-106.858626,39.0146556],[-106.8582386,39.0145045],[-106.8580391,39.0144301],[-106.8576768,39.0140573],[-106.8576569,39.0138461],[-106.8576548,39.013438],[-106.8578274,39.0128688],[-106.8580598,39.0126349],[-106.8581623,39.0123663],[-106.8581507,39.012165],[-106.8583387,39.0118763],[-106.8584353,39.0118346],[-106.8585855,39.0116012],[-106.8587142,39.0114762],[-106.858789,39.0114049],[-106.8588528,39.0113395],[-106.8589093,39.0112764],[-106.8589921,39.011156],[-106.8590047,39.0110532],[-106.859099,39.0109668],[-106.8594838,39.0106817],[-106.8596401,39.0104347],[-106.859775,39.0103335],[-106.8599064,39.0101524],[-106.860229,39.0099913],[-106.8604414,39.0099186],[-106.860712,39.0098219],[-106.8608008,39.0097356],[-106.8609129,39.0096987],[-106.8610923,39.0096836],[-106.8613686,39.009742],[-106.861324,39.009636]]}}]}
