{"type":"FeatureCollection","peaks_destination_id":"w87L3l4ODUKIZbX11vBc","peaks_trailhead_id":"95BE20144379E778FB78","peaks_source":"https://api.openstreetmap.org/api/0.6","peaks_license_name":"Open Data Commons Open Database License (ODbL) 1.0","peaks_license":"https://opendatacommons.org/licenses/odbl/1-0/","peaks_attribution":"© OpenStreetMap contributors","peaks_retrieved_at":"2026-07-28T02:20:39.565Z","features":[{"type":"Feature","properties":{"name":"Challenger Point OSM route candidate","trailhead_name":"Willow Creek Trailhead","destination_name":"Challenger Point","distance_m":9845.532943108872,"trailhead_snap_m":0,"summit_snap_m":1.899846622366111,"osm_way_ids":[231660132,1081024767,1081024766,258730114,1389935378,1081041704,1389935377],"osm_way_urls":["https://www.openstreetmap.org/way/231660132","https://www.openstreetmap.org/way/1081024767","https://www.openstreetmap.org/way/1081024766","https://www.openstreetmap.org/way/258730114","https://www.openstreetmap.org/way/1389935378","https://www.openstreetmap.org/way/1081041704","https://www.openstreetmap.org/way/1389935377"],"osm_way_names":["Willow Lake Trail","Challenger Peak Route"],"osm_foot_access_override_way_ids":[]},"geometry":{"type":"LineString","coordinates":[[-105.6627379,37.9888556],[-105.6627379,37.9888556],[-105.6624212,37.9889544],[-105.6620941,37.9889988],[-105.6616182,37.9891968],[-105.6615236,37.9891342],[-105.6614329,37.9890614],[-105.6613232,37.9888828],[-105.6611607,37.9886732],[-105.6611512,37.9885487],[-105.6611546,37.9884979],[-105.6611579,37.9884628],[-105.6612385,37.988366],[-105.6612493,37.9882638],[-105.6612049,37.9882027],[-105.6610326,37.9881647],[-105.6609429,37.9881889],[-105.6606118,37.9883459],[-105.6605474,37.988354],[-105.6603616,37.9883201],[-105.6599885,37.9883748],[-105.6594875,37.9885614],[-105.6584999,37.9887282],[-105.6581298,37.9887747],[-105.6570998,37.9887832],[-105.6572925,37.9885928],[-105.6575919,37.9883963],[-105.6568803,37.9886394],[-105.6561884,37.9888235],[-105.6563741,37.988633],[-105.6566814,37.9884745],[-105.6557694,37.9887451],[-105.6551525,37.9890707],[-105.6545201,37.9895296],[-105.6538651,37.98995],[-105.6537851,37.9898972],[-105.6541767,37.9893182],[-105.6532803,37.989819],[-105.6532272,37.9898042],[-105.6534221,37.9895655],[-105.6534055,37.9895302],[-105.6528017,37.9898878],[-105.6522435,37.9901616],[-105.6515479,37.990392],[-105.6514618,37.9902418],[-105.651698,37.9901022],[-105.6518637,37.9899035],[-105.6520202,37.9897069],[-105.6522187,37.989445],[-105.6525293,37.9886986],[-105.6526205,37.9885041],[-105.6526926,37.9883084],[-105.652677,37.9882584],[-105.6526002,37.9882656],[-105.6524329,37.988444],[-105.6523408,37.9884966],[-105.6522306,37.9885708],[-105.651945,37.9887569],[-105.6518176,37.9887861],[-105.6518863,37.988484],[-105.6511017,37.9887444],[-105.6503266,37.988844],[-105.6497222,37.9889391],[-105.649431,37.9889486],[-105.6490317,37.9888973],[-105.648624,37.9889481],[-105.64805,37.9889354],[-105.6474009,37.9891679],[-105.6470844,37.9892905],[-105.6466535,37.9894092],[-105.6459579,37.9897725],[-105.6455551,37.9900458],[-105.6449977,37.9902967],[-105.6441292,37.9905726],[-105.6432795,37.9907055],[-105.6420859,37.9907317],[-105.641503,37.9907113],[-105.6411352,37.9906703],[-105.6407751,37.9905678],[-105.6408738,37.9906557],[-105.640945,37.9907435],[-105.6407277,37.9906563],[-105.6405538,37.9905023],[-105.640361,37.9904371],[-105.640077,37.9904273],[-105.6395304,37.9904298],[-105.6398533,37.9905668],[-105.6398203,37.9905861],[-105.6394404,37.9905015],[-105.639108,37.9902352],[-105.638948,37.9901232],[-105.6386705,37.9900645],[-105.6383052,37.9900139],[-105.6381948,37.9900006],[-105.6381113,37.9900082],[-105.6370469,37.9904241],[-105.6367406,37.9904803],[-105.636394,37.990575],[-105.6357226,37.9908463],[-105.6360371,37.990886],[-105.6350676,37.9910531],[-105.6340865,37.9910831],[-105.6345849,37.9912244],[-105.6336987,37.9912762],[-105.6328097,37.9913283],[-105.6329224,37.9914509],[-105.6327507,37.9914382],[-105.6328848,37.9915481],[-105.6326059,37.9915481],[-105.6327775,37.9916411],[-105.6323752,37.9917553],[-105.632799,37.9918525],[-105.6322385,37.9920402],[-105.6318817,37.992381],[-105.6320177,37.9924167],[-105.6321275,37.9924801],[-105.632461,37.9924782],[-105.631438,37.9929678],[-105.6307812,37.9932094],[-105.6301787,37.9932681],[-105.6300133,37.9933321],[-105.6297983,37.9935014],[-105.6295581,37.9934665],[-105.6293648,37.9934947],[-105.6292357,37.9934422],[-105.6289044,37.9934421],[-105.6286806,37.9933647],[-105.6282339,37.9932096],[-105.6279877,37.9932218],[-105.6276621,37.9931054],[-105.6273104,37.9931249],[-105.6267909,37.9930109],[-105.6270054,37.9932942],[-105.6266836,37.9931504],[-105.6268552,37.993328],[-105.6264743,37.9932138],[-105.6264128,37.9933076],[-105.626258,37.9933556],[-105.6256536,37.9932223],[-105.6255933,37.9931968],[-105.6252461,37.9929993],[-105.6248275,37.9927446],[-105.6248619,37.9926177],[-105.6248764,37.992565],[-105.6249597,37.9924324],[-105.6251657,37.9922569],[-105.6251194,37.9920867],[-105.6249975,37.992115],[-105.6246826,37.9922415],[-105.6246116,37.9921985],[-105.6247264,37.9920688],[-105.6247095,37.9920343],[-105.6244997,37.9921402],[-105.6244091,37.9920888],[-105.6245928,37.9918389],[-105.624544,37.9917796],[-105.6243652,37.9917896],[-105.6242815,37.9918404],[-105.6239777,37.9917479],[-105.6237875,37.9913225],[-105.6237743,37.9912192],[-105.623947,37.9910281],[-105.6239625,37.9909708],[-105.6239371,37.9909597],[-105.6238621,37.9910074],[-105.6237889,37.9910402],[-105.6237515,37.9910589],[-105.6237415,37.9910528],[-105.6237867,37.9909885],[-105.6238022,37.9909367],[-105.6238141,37.9908971],[-105.6238159,37.9908607],[-105.6238066,37.9908418],[-105.6237832,37.9908412],[-105.623734,37.9908968],[-105.6237145,37.9908932],[-105.6237406,37.9908114],[-105.6237593,37.990765],[-105.6237319,37.9906471],[-105.6237301,37.9905893],[-105.6236695,37.9906058],[-105.6236582,37.9906634],[-105.6236143,37.990717],[-105.6235249,37.9907811],[-105.6234916,37.990816],[-105.6234794,37.9908263],[-105.6234337,37.9908649],[-105.6234205,37.9908654],[-105.6234343,37.9908054],[-105.6234459,37.9907841],[-105.6234652,37.9907486],[-105.6234868,37.9907103],[-105.6234905,37.9906935],[-105.6234584,37.9906969],[-105.6234186,37.9907497],[-105.6233914,37.9907923],[-105.6233771,37.9908001],[-105.6233649,37.9907932],[-105.623379,37.9907336],[-105.6233801,37.9907181],[-105.6233624,37.990714],[-105.6233185,37.9907563],[-105.6232585,37.9908356],[-105.623175,37.9908887],[-105.6231206,37.9908927],[-105.6230837,37.9909308],[-105.6230633,37.9910004],[-105.6230451,37.9909889],[-105.6230236,37.9909154],[-105.6230332,37.9908872],[-105.6230492,37.9908645],[-105.6230478,37.9908515],[-105.6230151,37.9908566],[-105.6228974,37.9909092],[-105.6227929,37.9909379],[-105.6227433,37.9909627],[-105.6227275,37.990992],[-105.6224294,37.9910418],[-105.6216811,37.9912781],[-105.6214115,37.9912801],[-105.6212264,37.9912165],[-105.6208682,37.991289],[-105.6206734,37.9913396],[-105.6206432,37.9914594],[-105.620648,37.9914889],[-105.6207169,37.9915738],[-105.6207838,37.9916421],[-105.6209234,37.9917081],[-105.6209811,37.9917454],[-105.6209261,37.991839],[-105.6209157,37.9919734],[-105.6207766,37.9920328],[-105.6207993,37.9921282],[-105.6208343,37.9922438],[-105.6207938,37.9922895],[-105.6205759,37.9923067],[-105.6202077,37.9923775],[-105.6201096,37.992362],[-105.6199453,37.9922849],[-105.6197738,37.9922533],[-105.6192456,37.9920916],[-105.6189884,37.9921611],[-105.6188716,37.9921652],[-105.6188314,37.9920664],[-105.6187221,37.9920362],[-105.6185268,37.9919929],[-105.6182024,37.9920724],[-105.6181273,37.9923176],[-105.6180107,37.9923254],[-105.6178845,37.9924937],[-105.6177216,37.9925505],[-105.617637,37.9925862],[-105.6171262,37.9928496],[-105.616701,37.9928847],[-105.6165728,37.9929108],[-105.6164765,37.9928946],[-105.6163065,37.9928994],[-105.6161541,37.9929007],[-105.6160341,37.9929358],[-105.6159839,37.992952],[-105.6158961,37.9929379],[-105.6157952,37.9929025],[-105.6156609,37.9929396],[-105.6153962,37.99304],[-105.6153072,37.9929894],[-105.6151112,37.9929187],[-105.6149955,37.9929434],[-105.6148383,37.9929528],[-105.6147556,37.9929166],[-105.6146395,37.9929544],[-105.614268,37.9931099],[-105.6140605,37.9932847],[-105.6138904,37.9933598],[-105.6132618,37.9933703],[-105.6120226,37.9935901],[-105.6119509,37.9936348],[-105.6117702,37.9937517],[-105.6117193,37.9938264],[-105.6117344,37.9939952],[-105.6116338,37.9940492],[-105.6116296,37.9941168],[-105.6115638,37.9941459],[-105.6114829,37.9941762],[-105.6113834,37.9941734],[-105.6113534,37.9943586],[-105.6114553,37.9944981],[-105.6113695,37.9946968],[-105.6109403,37.9949758],[-105.6108223,37.9951914],[-105.6106964,37.9954394],[-105.6103866,37.9955419],[-105.609786,37.9957558],[-105.6095768,37.9958181],[-105.6092838,37.9957906],[-105.6090032,37.9957887],[-105.6087783,37.9956636],[-105.6086101,37.9956766],[-105.6083737,37.9957917],[-105.6079199,37.9957323],[-105.6077474,37.9956536],[-105.6075885,37.9955522],[-105.60751,37.9954544],[-105.6074006,37.995457],[-105.6073046,37.9953718],[-105.6072085,37.9952795],[-105.607128,37.9952268],[-105.6070499,37.9952203],[-105.6069984,37.9951407],[-105.606915,37.9950904],[-105.6067986,37.9950171],[-105.6067157,37.9949607],[-105.606627,37.9948661],[-105.6065386,37.9947713],[-105.6064765,37.9946901],[-105.6063581,37.9946297],[-105.6062516,37.9945831],[-105.6061469,37.9945205],[-105.6060885,37.9944658],[-105.6060041,37.9944366],[-105.6058924,37.9943787],[-105.6057895,37.9942878],[-105.6057374,37.9941737],[-105.6057078,37.9941091],[-105.6056482,37.99404],[-105.6055551,37.993956],[-105.6055624,37.9938942],[-105.6054454,37.9937269],[-105.6054275,37.9936105],[-105.6054365,37.9934675],[-105.6053771,37.9934277],[-105.605254,37.9932711],[-105.6052306,37.9930646],[-105.6051911,37.9927795],[-105.6052469,37.9925812],[-105.6053402,37.9925247],[-105.6054308,37.9924599],[-105.6053846,37.9923657],[-105.6053879,37.9922672],[-105.6054776,37.9922401],[-105.605595,37.992263],[-105.6057308,37.9922652],[-105.6058424,37.9922189],[-105.6059431,37.9921868],[-105.6059361,37.9921186],[-105.6058721,37.992041],[-105.605812,37.9919145],[-105.605783,37.9918047],[-105.6057945,37.9916909],[-105.6058573,37.9915679],[-105.6058817,37.9915177],[-105.6059433,37.9914917],[-105.6060187,37.9915151],[-105.6061319,37.9915555],[-105.6062207,37.9915313],[-105.6063209,37.9915421],[-105.6064191,37.9914891],[-105.6065498,37.9914466],[-105.606626,37.9914132],[-105.6066384,37.9913288],[-105.6066647,37.9912887],[-105.6067565,37.9913227],[-105.6067739,37.9912689],[-105.6068619,37.9912723],[-105.6068621,37.9912389],[-105.6068131,37.9911274],[-105.6067611,37.99108],[-105.6067218,37.9909563],[-105.6066201,37.990849],[-105.6064901,37.9907214],[-105.6063792,37.9905232],[-105.606311,37.9903955],[-105.6062799,37.9902999],[-105.6062399,37.9902102],[-105.6062295,37.9901104],[-105.6062703,37.9900698],[-105.6062954,37.9899585],[-105.6064019,37.9898689],[-105.606493,37.9898829],[-105.6065947,37.9899302],[-105.6067063,37.990016],[-105.6068811,37.9901479],[-105.6069515,37.9902091],[-105.6069932,37.9902082],[-105.606963,37.990132],[-105.6068913,37.989991],[-105.6068649,37.9898716],[-105.6068801,37.9897952],[-105.6069408,37.9897269],[-105.6069691,37.9896467],[-105.6069627,37.989518],[-105.6069647,37.9893506],[-105.6069659,37.989161],[-105.606967,37.9890563],[-105.6069815,37.9889131],[-105.6070068,37.9887641],[-105.6070337,37.9887053],[-105.6070816,37.988666],[-105.6071008,37.9886098],[-105.6070473,37.98851],[-105.607023,37.9884134],[-105.6070415,37.988377],[-105.6071039,37.9883505],[-105.6071239,37.9883186],[-105.6071091,37.9882585],[-105.6071153,37.9882093],[-105.6071913,37.9882067],[-105.6072308,37.988184],[-105.6072281,37.9881219],[-105.6072367,37.9880752],[-105.6073117,37.9880865],[-105.6073664,37.9881138],[-105.6073669,37.9880663],[-105.6073778,37.9880218],[-105.6074326,37.9880481],[-105.607483,37.9880867],[-105.6075334,37.9880853],[-105.6075704,37.988053],[-105.6075867,37.9879893],[-105.607667,37.9879216],[-105.6077254,37.9878423],[-105.6077712,37.9877275],[-105.6078411,37.9876385],[-105.6078987,37.9875366],[-105.6080221,37.9874431],[-105.6081242,37.9873494],[-105.6082787,37.9872958],[-105.6083455,37.9872501],[-105.6084203,37.9871226],[-105.6085372,37.9869963],[-105.6087415,37.9869353],[-105.6088629,37.9868623],[-105.6089998,37.9867457],[-105.6090504,37.9865611],[-105.6090499,37.9864247],[-105.6090545,37.9862892],[-105.6090676,37.9862051],[-105.6091338,37.9861605],[-105.6093128,37.9860049],[-105.6094417,37.9858306],[-105.6094733,37.9856439],[-105.6094233,37.9854758],[-105.6093443,37.9852704],[-105.6093567,37.985082],[-105.6094633,37.9850104],[-105.6095143,37.9849091],[-105.6095469,37.9847901],[-105.609507,37.9846231],[-105.6094806,37.9843807],[-105.6094879,37.9841355],[-105.6095426,37.9839629],[-105.6095651,37.9838575],[-105.609607,37.9837252],[-105.6096468,37.9835688],[-105.6096351,37.9834399],[-105.6095959,37.9833331],[-105.6094946,37.9832471],[-105.6094067,37.9832016],[-105.6092961,37.9832159],[-105.6091603,37.983208],[-105.6090219,37.9831199],[-105.6087891,37.9829217],[-105.6086057,37.982776],[-105.6084285,37.9826191],[-105.6082631,37.982485],[-105.6080707,37.9823396],[-105.6079375,37.982116],[-105.6078202,37.9819348],[-105.6077721,37.9818295],[-105.6076058,37.9817378],[-105.607443,37.9815508],[-105.6072932,37.9813175],[-105.607175,37.9810945],[-105.6070427,37.980874],[-105.6067805,37.980623],[-105.6066009,37.9804115],[-105.606618,37.980401]]}}]}
