{"type":"FeatureCollection","peaks_destination_id":"ZAov0aNubZDMhTjlwkYq","peaks_trailhead_id":"EC7F585E18BFDD5CF857","peaks_source":"https://api.openstreetmap.org/api/0.6","peaks_license_name":"Open Data Commons Open Database License (ODbL) 1.0","peaks_license":"https://opendatacommons.org/licenses/odbl/1-0/","peaks_attribution":"© OpenStreetMap contributors","peaks_retrieved_at":"2026-07-28T02:20:20.480Z","features":[{"type":"Feature","properties":{"name":"Crestone Needle OSM route candidate","trailhead_name":"South Colony Lakes Trailhead","destination_name":"Crestone Needle","distance_m":8282.125128702912,"trailhead_snap_m":1.0929699330138447,"summit_snap_m":9.411473234080663,"osm_way_ids":[233237471,1389594866,248171399,258727480,258728100],"osm_way_urls":["https://www.openstreetmap.org/way/233237471","https://www.openstreetmap.org/way/1389594866","https://www.openstreetmap.org/way/248171399","https://www.openstreetmap.org/way/258727480","https://www.openstreetmap.org/way/258728100"],"osm_way_names":["South Colony Road","South Colony Spur","South Colony Trail","Broken Hand Pass","Crestone Needle Climber's Route"],"osm_foot_access_override_way_ids":[258728100]},"geometry":{"type":"LineString","coordinates":[[-105.5065336,37.9761816],[-105.5065451,37.9761778],[-105.5066494,37.9761582],[-105.5070521,37.9760475],[-105.5071834,37.9760397],[-105.5075513,37.9761608],[-105.507838,37.9761904],[-105.508266,37.9761845],[-105.5084078,37.976176],[-105.5085302,37.9761568],[-105.508748,37.9760048],[-105.5089087,37.9758797],[-105.5090514,37.975753],[-105.5091819,37.975628],[-105.5093125,37.9755266],[-105.5094069,37.9753936],[-105.5094632,37.9752859],[-105.5095121,37.975257],[-105.5096285,37.9751641],[-105.509725,37.9750445],[-105.5097557,37.9749843],[-105.5097874,37.9748787],[-105.5097523,37.974769],[-105.5097505,37.9746997],[-105.5098185,37.9745758],[-105.5098935,37.9745331],[-105.5099527,37.9744247],[-105.5100438,37.9743684],[-105.5101688,37.9743261],[-105.5103204,37.9742907],[-105.5103958,37.97427],[-105.5104479,37.9742772],[-105.5104759,37.9743039],[-105.5105027,37.9743716],[-105.5104468,37.9747082],[-105.5104343,37.9747652],[-105.5104657,37.9748089],[-105.5105105,37.9748227],[-105.5105651,37.9747951],[-105.5106058,37.9747406],[-105.5106807,37.9746718],[-105.5107799,37.9746367],[-105.5108929,37.9746122],[-105.5110127,37.9745571],[-105.5111111,37.9744795],[-105.5111852,37.974362],[-105.5113243,37.974185],[-105.5114187,37.9740438],[-105.5118739,37.9737557],[-105.5119138,37.9736708],[-105.5119755,37.9735647],[-105.5120737,37.9734368],[-105.5122859,37.9732777],[-105.5125545,37.9731477],[-105.5127788,37.9730532],[-105.513142,37.9728954],[-105.5134154,37.9728049],[-105.5137219,37.9727507],[-105.5140536,37.9726849],[-105.5142422,37.9726557],[-105.5144127,37.9725798],[-105.5146798,37.9724531],[-105.5150635,37.9722647],[-105.5153827,37.9721437],[-105.5158268,37.9720021],[-105.5162469,37.9719309],[-105.5167305,37.9718543],[-105.5170065,37.9718597],[-105.5172126,37.9718466],[-105.5174217,37.9717627],[-105.5175955,37.9717175],[-105.517771,37.9717146],[-105.5179663,37.9717283],[-105.5182562,37.9716377],[-105.5183743,37.9715933],[-105.5184429,37.9716004],[-105.518618,37.9715594],[-105.5186592,37.9715295],[-105.5190486,37.9714665],[-105.5191774,37.9714397],[-105.5194238,37.9713669],[-105.5196219,37.9712716],[-105.5197762,37.9712326],[-105.5199331,37.9712391],[-105.5200423,37.9712512],[-105.5201017,37.971269],[-105.5201796,37.9712728],[-105.5203671,37.9712051],[-105.5207662,37.9709953],[-105.5210132,37.9709074],[-105.5213714,37.9708999],[-105.5216458,37.9708677],[-105.5218237,37.9708425],[-105.5219666,37.9707887],[-105.5220979,37.9707152],[-105.5224065,37.9705974],[-105.5226171,37.9705458],[-105.5232518,37.9702757],[-105.523572,37.9701564],[-105.5238165,37.9701609],[-105.5239567,37.9701669],[-105.5240902,37.9701426],[-105.5244657,37.9700462],[-105.5247306,37.9699843],[-105.5248878,37.9699475],[-105.5250741,37.9698374],[-105.5251811,37.9697624],[-105.5253186,37.9697204],[-105.52542,37.9696968],[-105.5255747,37.9696928],[-105.525811,37.969687],[-105.525907,37.9696577],[-105.5262276,37.9695429],[-105.5263795,37.9694615],[-105.5266347,37.9694199],[-105.5270101,37.9693368],[-105.5273413,37.9692553],[-105.527685,37.9691775],[-105.5278896,37.969089],[-105.5280584,37.9689843],[-105.528206,37.9688579],[-105.528322,37.9687332],[-105.5285013,37.9686251],[-105.5286342,37.9685436],[-105.5287924,37.968512],[-105.5290293,37.9685457],[-105.5291983,37.9686004],[-105.5293714,37.9686254],[-105.5296234,37.9686284],[-105.5298193,37.968633],[-105.5300494,37.9685852],[-105.5305071,37.9685054],[-105.5306518,37.968515],[-105.5307897,37.9684871],[-105.53095,37.9684455],[-105.5312643,37.9683508],[-105.5314582,37.9683728],[-105.5316106,37.968393],[-105.5319327,37.9683816],[-105.5321269,37.9683275],[-105.5322176,37.9682726],[-105.5322884,37.9682179],[-105.5323915,37.9681658],[-105.5324876,37.9681479],[-105.5326618,37.9681018],[-105.5328295,37.9680546],[-105.5330784,37.9679611],[-105.5331647,37.967955],[-105.5332484,37.9679493],[-105.5333322,37.9679302],[-105.5334206,37.9678898],[-105.5334852,37.9678419],[-105.5336392,37.9676823],[-105.5337447,37.9675643],[-105.5338185,37.9674928],[-105.5339682,37.9674462],[-105.5340683,37.9674548],[-105.5341707,37.9674196],[-105.5344934,37.9673348],[-105.5347151,37.9672572],[-105.5348369,37.9672293],[-105.5349796,37.9671901],[-105.5350491,37.967195],[-105.5351594,37.9672353],[-105.5353036,37.9672963],[-105.5353924,37.9672991],[-105.5355004,37.967294],[-105.5356452,37.9672548],[-105.5357749,37.9671918],[-105.5358937,37.9670969],[-105.5361056,37.967035],[-105.5362763,37.966989],[-105.5364063,37.9669455],[-105.5365529,37.9669056],[-105.5367042,37.9668664],[-105.5368858,37.9668613],[-105.5370607,37.9668766],[-105.5372058,37.9669089],[-105.5373253,37.9669371],[-105.5374762,37.9669701],[-105.5376083,37.9669984],[-105.5376703,37.9669942],[-105.5377849,37.966989],[-105.5380118,37.966955],[-105.5381717,37.9669294],[-105.5383684,37.96688],[-105.5385175,37.9668476],[-105.5387488,37.9667897],[-105.5387969,37.9667413],[-105.5388625,37.9666775],[-105.5389741,37.9666183],[-105.5391378,37.9665954],[-105.5393119,37.9665854],[-105.5393979,37.9665828],[-105.5394603,37.9664504],[-105.5395343,37.9663388],[-105.5396202,37.9662932],[-105.5397538,37.9662836],[-105.5398445,37.9662649],[-105.5401536,37.9662257],[-105.5407717,37.9661456],[-105.5411586,37.9660758],[-105.5413255,37.9660296],[-105.5413989,37.9660243],[-105.5415455,37.9660506],[-105.541768,37.9660927],[-105.5420079,37.966086],[-105.5421477,37.9660953],[-105.5422463,37.9661327],[-105.5423755,37.9661112],[-105.5425815,37.9660672],[-105.5427406,37.9660178],[-105.5428836,37.9659463],[-105.5430584,37.9658806],[-105.5431744,37.9658296],[-105.543267,37.9657185],[-105.5433165,37.9656261],[-105.5434042,37.9654826],[-105.5434991,37.9654137],[-105.5436224,37.9653874],[-105.5437261,37.9653772],[-105.543925,37.9653601],[-105.5440763,37.9653618],[-105.5442062,37.9653099],[-105.5444403,37.9652754],[-105.544531,37.965257],[-105.5446711,37.9652195],[-105.545126,37.9650694],[-105.5452972,37.9649808],[-105.5454384,37.9649032],[-105.5455821,37.9648065],[-105.5457271,37.9647163],[-105.5458223,37.964655],[-105.5461084,37.9647084],[-105.546232,37.9647074],[-105.5463732,37.9647167],[-105.5464969,37.9647254],[-105.5465992,37.9647226],[-105.5466504,37.9647031],[-105.5467,37.9646989],[-105.5467788,37.9646457],[-105.5468373,37.9645867],[-105.5468593,37.9645376],[-105.546861,37.9645027],[-105.5469067,37.9644237],[-105.5469396,37.9644089],[-105.5469577,37.9643746],[-105.5469935,37.9643616],[-105.54704,37.9643116],[-105.5470372,37.964272],[-105.5470921,37.9641923],[-105.5471951,37.9640942],[-105.547208,37.9639859],[-105.5472423,37.963881],[-105.5472756,37.9638492],[-105.5473326,37.9638068],[-105.5473834,37.963769],[-105.5474421,37.963775],[-105.5475384,37.9638201],[-105.54765,37.9637998],[-105.5478509,37.9637735],[-105.5479457,37.9637924],[-105.548045,37.96379],[-105.5482465,37.963832],[-105.5483667,37.9638134],[-105.5486156,37.9638235],[-105.5488945,37.9638641],[-105.5490361,37.9638912],[-105.5491863,37.9638371],[-105.5493108,37.9638438],[-105.5494395,37.9637863],[-105.5495211,37.9637931],[-105.5496155,37.9638472],[-105.5497314,37.9638709],[-105.5498258,37.9639318],[-105.5499417,37.9639419],[-105.5501197,37.9639856],[-105.5501391,37.9640536],[-105.5501925,37.964136],[-105.55034,37.9641575],[-105.5505411,37.9641525],[-105.5506133,37.9640918],[-105.5506567,37.9640797],[-105.5507882,37.9640832],[-105.550887,37.9640493],[-105.5510701,37.9639711],[-105.5512121,37.9639681],[-105.5513242,37.9640241],[-105.5514475,37.9640329],[-105.5514886,37.964083],[-105.5514437,37.9641684],[-105.5514138,37.9642244],[-105.5514549,37.9642656],[-105.5515222,37.9642686],[-105.5516118,37.9642303],[-105.5517389,37.9642185],[-105.5518323,37.9642686],[-105.5519182,37.9642656],[-105.5520377,37.9642862],[-105.5521797,37.9643599],[-105.5523067,37.9643923],[-105.5523927,37.9644041],[-105.5524498,37.9644021],[-105.5524597,37.9644472],[-105.5524379,37.9644949],[-105.5524566,37.9645244],[-105.5525432,37.9645852],[-105.5526592,37.9646361],[-105.5527364,37.9646456],[-105.5528117,37.9646779],[-105.5528733,37.9647326],[-105.5529531,37.9647987],[-105.5530726,37.9648076],[-105.5531847,37.9648783],[-105.5533267,37.9649548],[-105.5533875,37.9649934],[-105.5534313,37.9650579],[-105.5535724,37.9651626],[-105.5536287,37.9651948],[-105.553655,37.9652163],[-105.5536906,37.9652102],[-105.553736,37.9651745],[-105.5537994,37.9651034],[-105.5538933,37.965052],[-105.554029,37.9649872],[-105.5542009,37.9649048],[-105.5544662,37.9648501],[-105.5546093,37.9648732],[-105.5547491,37.9648732],[-105.5548438,37.9648382],[-105.5548959,37.964821],[-105.5550013,37.9648511],[-105.5550274,37.9648444],[-105.5550944,37.9647739],[-105.5551203,37.9647601],[-105.555162,37.9647613],[-105.5551776,37.9647343],[-105.5552035,37.9647127],[-105.555229,37.9647153],[-105.5552549,37.9647255],[-105.5553296,37.964695],[-105.5553563,37.9646851],[-105.5554687,37.9647018],[-105.5555882,37.9646578],[-105.555664,37.9646257],[-105.5558052,37.9645716],[-105.5558773,37.9645189],[-105.5559444,37.9645064],[-105.555967,37.9644893],[-105.555993,37.9644517],[-105.5559977,37.9644063],[-105.5560096,37.9643273],[-105.5560508,37.9642437],[-105.5560778,37.964201],[-105.5561172,37.9641806],[-105.5562,37.9641895],[-105.5562602,37.9642306],[-105.5563664,37.9643269],[-105.5564739,37.9644515],[-105.5565395,37.9644993],[-105.5566512,37.9645784],[-105.5567829,37.9646462],[-105.5569899,37.9646686],[-105.5570588,37.9646922],[-105.5571895,37.9647582],[-105.5572772,37.9647886],[-105.5573598,37.9648083],[-105.5574075,37.964814],[-105.5574926,37.9648437],[-105.5576553,37.964836],[-105.5578007,37.9647932],[-105.5578563,37.9647638],[-105.5579289,37.9647505],[-105.5580571,37.9647291],[-105.5582001,37.964733],[-105.5582986,37.9647913],[-105.5583381,37.9648709],[-105.5583438,37.9649027],[-105.5583913,37.9649354],[-105.5584488,37.9649532],[-105.558488,37.9649375],[-105.5585057,37.964904],[-105.5585465,37.964872],[-105.5585796,37.9648541],[-105.5586037,37.9648036],[-105.5586594,37.9647603],[-105.5587833,37.9647527],[-105.5589192,37.9647742],[-105.5590473,37.964862],[-105.5591695,37.9649576],[-105.5593132,37.9650278],[-105.5594261,37.9650735],[-105.5594808,37.9651348],[-105.5595535,37.9651798],[-105.5596797,37.9652724],[-105.5597455,37.9653182],[-105.5598588,37.9653809],[-105.5599224,37.9654015],[-105.5599735,37.9653921],[-105.5600746,37.9654199],[-105.5601455,37.9654143],[-105.5602446,37.9653872],[-105.560321,37.9653466],[-105.5603704,37.9653266],[-105.5604469,37.9653164],[-105.5605363,37.9652708],[-105.5606428,37.9652368],[-105.5606784,37.965218],[-105.5607633,37.9652242],[-105.5608381,37.9652122],[-105.5609091,37.9651828],[-105.5609994,37.9651615],[-105.5610964,37.9651615],[-105.5611674,37.965141],[-105.5612255,37.9651554],[-105.5613489,37.9651692],[-105.561406,37.9652138],[-105.5614839,37.9652919],[-105.5615147,37.9653073],[-105.5615579,37.9653094],[-105.5616574,37.9652715],[-105.5617098,37.9652834],[-105.5617554,37.9653086],[-105.5618281,37.9653925],[-105.5618866,37.9654259],[-105.5619161,37.9652873],[-105.5618587,37.9651905],[-105.5618683,37.9651801],[-105.5618904,37.9651777],[-105.5619306,37.9651998],[-105.5619887,37.9652125],[-105.5620174,37.9652082],[-105.5620734,37.965229],[-105.5621248,37.9652598],[-105.5621449,37.9652587],[-105.562089,37.9651648],[-105.5620302,37.9651083],[-105.5619517,37.9650903],[-105.5618841,37.9650383],[-105.5618357,37.9650207],[-105.5616758,37.9650003],[-105.5616451,37.9649843],[-105.5616307,37.9649317],[-105.5615843,37.9648549],[-105.5614874,37.9647532],[-105.5614272,37.9647024],[-105.5613688,37.964681],[-105.5613112,37.9646782],[-105.5612381,37.9646513],[-105.5611747,37.964637],[-105.5611379,37.9646245],[-105.5611136,37.9645969],[-105.5611225,37.9645757],[-105.5611247,37.9645529],[-105.5610834,37.9645059],[-105.561044,37.9644395],[-105.5609791,37.9643789],[-105.5609756,37.9643067],[-105.5608115,37.9641549],[-105.560745,37.9640782],[-105.5607375,37.9640383],[-105.5607772,37.9639668],[-105.5607103,37.9639297],[-105.5606125,37.9639178],[-105.5605627,37.9638987],[-105.5605212,37.9638846],[-105.5605725,37.9638854],[-105.5606357,37.9638708],[-105.5607336,37.9638689],[-105.5608077,37.9638426],[-105.5608864,37.9638325],[-105.5610109,37.9638044],[-105.5610243,37.9637819],[-105.5610632,37.9637719],[-105.5611429,37.9637511],[-105.5612496,37.9637788],[-105.5613109,37.9637459],[-105.5613782,37.9637451],[-105.5614778,37.9637106],[-105.5615683,37.9636988],[-105.5616709,37.9636739],[-105.5617631,37.9636351],[-105.5618652,37.9636557],[-105.5619027,37.9636976],[-105.5619327,37.9637251],[-105.5619868,37.963742],[-105.5620124,37.9637697],[-105.5621549,37.963819],[-105.5622055,37.9638338],[-105.5622456,37.9638166],[-105.5622792,37.9638225],[-105.5623344,37.9637857],[-105.5623941,37.9637645],[-105.5623982,37.9637333],[-105.5625251,37.9637193],[-105.562568,37.9636817],[-105.5626607,37.9636316],[-105.5627536,37.963583],[-105.5627456,37.9635237],[-105.5627571,37.963446],[-105.5628108,37.9633656],[-105.5628105,37.9633349],[-105.562855,37.9633166],[-105.5629252,37.9632484],[-105.5629369,37.9632122],[-105.5628972,37.9631644],[-105.5628861,37.9631337],[-105.5628349,37.9630619],[-105.5628482,37.963041],[-105.5629532,37.9629895],[-105.5630598,37.9629208],[-105.5631175,37.9628763],[-105.5631482,37.9628378],[-105.563107,37.9628029],[-105.5630912,37.962755],[-105.563084,37.9626952],[-105.563091,37.9626342],[-105.5631914,37.9624556],[-105.5633315,37.9623672],[-105.5634671,37.9622807],[-105.5635269,37.9622836],[-105.563599,37.9622531],[-105.5636635,37.962251],[-105.5638246,37.9622305],[-105.5639257,37.962204],[-105.5639876,37.9621447],[-105.5640615,37.9620939],[-105.5640904,37.9620432],[-105.5641795,37.9619356],[-105.5644056,37.961915],[-105.5644782,37.9618689],[-105.5645297,37.9618373],[-105.5646287,37.96183],[-105.5647111,37.9618531],[-105.5648333,37.9618966],[-105.5649605,37.9618406],[-105.5650291,37.9618245],[-105.5651388,37.9617836],[-105.565204,37.9617794],[-105.5652571,37.9617337],[-105.5652162,37.9616945],[-105.5653592,37.9616252],[-105.5655071,37.9615454],[-105.5655049,37.9614977],[-105.5653559,37.9614545],[-105.565269,37.9613823],[-105.5651889,37.9613165],[-105.565048,37.9612264],[-105.5651053,37.9612199],[-105.5651605,37.9612005],[-105.5653607,37.96119],[-105.5654409,37.9612072],[-105.5656391,37.9611722],[-105.5656737,37.9611395],[-105.565827,37.9611388],[-105.5659907,37.9611135],[-105.5661078,37.9610693],[-105.566215,37.9610572],[-105.5663816,37.9610181],[-105.5664455,37.9609745],[-105.566654,37.9608954],[-105.5667808,37.9608236],[-105.5668907,37.9608339],[-105.5669879,37.9608144],[-105.5670951,37.960733],[-105.5673992,37.9606367],[-105.5675857,37.9606061],[-105.5678415,37.9604671],[-105.5678812,37.9604236],[-105.5680683,37.9603971],[-105.5681541,37.960335],[-105.5682944,37.9602131],[-105.5685577,37.9601045],[-105.568918,37.9599658],[-105.5691889,37.9598563],[-105.5692594,37.9598615],[-105.5695115,37.9597708],[-105.5697075,37.9597798],[-105.5696526,37.9596399],[-105.5698657,37.9596649],[-105.5699045,37.959633],[-105.5698489,37.9595341],[-105.5699062,37.9594847],[-105.5700586,37.9592375],[-105.5702454,37.9590958],[-105.5703225,37.9590571],[-105.5703388,37.9590111],[-105.5704089,37.958897],[-105.5705957,37.9588749],[-105.5708479,37.958897],[-105.570988,37.9588675],[-105.5711495,37.9588557],[-105.5713639,37.9589798],[-105.5715367,37.9591105],[-105.5716908,37.9592375],[-105.5718332,37.9593075],[-105.5720457,37.9593885],[-105.5721298,37.9594585],[-105.5721321,37.9595266],[-105.5722185,37.9596683],[-105.5723376,37.9598248],[-105.5724333,37.9599445],[-105.5725945,37.9600366],[-105.5727252,37.9600678],[-105.5728149,37.96016],[-105.5730161,37.9602273],[-105.5732092,37.9602562],[-105.5733007,37.9602353],[-105.5734816,37.9603411],[-105.5735202,37.9604293],[-105.5735121,37.960487],[-105.5735751,37.9605591],[-105.5735731,37.9606408],[-105.5736137,37.9607065],[-105.5735629,37.9608732],[-105.5735487,37.960971],[-105.5736097,37.9610174],[-105.5737093,37.961144],[-105.5738719,37.9612787],[-105.5739247,37.9613508],[-105.5740203,37.9614502],[-105.5739817,37.961503],[-105.5741289,37.9617445],[-105.5743447,37.9617976],[-105.57455,37.9618701],[-105.5746704,37.9618589],[-105.5747659,37.9618171],[-105.5748524,37.961862],[-105.5749597,37.9618678],[-105.5750866,37.9618745],[-105.5753206,37.9618985],[-105.5754045,37.9624213],[-105.5758904,37.9630943],[-105.5763989,37.9638295],[-105.576675,37.9647221],[-105.576568,37.964729]]}}]}
