{"type":"FeatureCollection","peaks_destination_id":"BsIe0TmBepTXILKSAsW9","peaks_trailhead_id":"9ofuJq1VreK93jZgCjcF","peaks_source":"https://api.openstreetmap.org/api/0.6","peaks_license_name":"Open Data Commons Open Database License (ODbL) 1.0","peaks_license":"https://opendatacommons.org/licenses/odbl/1-0/","peaks_attribution":"© OpenStreetMap contributors","peaks_retrieved_at":"2026-07-28T02:20:01.834Z","features":[{"type":"Feature","properties":{"name":"Fay Peak OSM route candidate","trailhead_name":"Mowich Lake Trailhead","destination_name":"Fay Peak","distance_m":2304.046205931841,"trailhead_snap_m":42.28727441463611,"summit_snap_m":8.291571761769744,"osm_way_ids":[129731620,797716572,437527615,1163131657,712349304,1054595629,1015106122],"osm_way_urls":["https://www.openstreetmap.org/way/129731620","https://www.openstreetmap.org/way/797716572","https://www.openstreetmap.org/way/437527615","https://www.openstreetmap.org/way/1163131657","https://www.openstreetmap.org/way/712349304","https://www.openstreetmap.org/way/1054595629","https://www.openstreetmap.org/way/1015106122"],"osm_way_names":["Lakeshore Access","Wonderland Trail","Knapsack Pass Trail","Fay Peak Trail"],"osm_foot_access_override_way_ids":[]},"geometry":{"type":"LineString","coordinates":[[-121.864281,46.933208],[-121.864831,46.9332678],[-121.8647605,46.9334499],[-121.8647004,46.9335772],[-121.8646034,46.9335592],[-121.8645428,46.9335882],[-121.8645056,46.9336358],[-121.8644589,46.9336659],[-121.8643974,46.9336668],[-121.864361,46.9336461],[-121.8642661,46.9335987],[-121.8641182,46.9335917],[-121.8640275,46.9336168],[-121.8639792,46.9336613],[-121.863942,46.9337634],[-121.8639176,46.9338206],[-121.8637992,46.9338687],[-121.8637316,46.9338783],[-121.8636527,46.9338744],[-121.8635738,46.9338206],[-121.863542,46.933774],[-121.8634755,46.9337528],[-121.8633282,46.9337703],[-121.8632752,46.9337733],[-121.8632996,46.9338877],[-121.8633302,46.9339671],[-121.8633095,46.9340515],[-121.8632623,46.9341124],[-121.8631833,46.9341809],[-121.8631438,46.9342114],[-121.8631041,46.9342438],[-121.8630421,46.9343033],[-121.8629989,46.9343153],[-121.8629285,46.9342966],[-121.8628849,46.9343291],[-121.8628665,46.9343665],[-121.8628366,46.9344456],[-121.8627245,46.934515],[-121.8626732,46.9345562],[-121.8626149,46.9345842],[-121.8625762,46.9346211],[-121.8625241,46.934678],[-121.8623999,46.9347252],[-121.862334,46.9347298],[-121.8622311,46.9347105],[-121.8620667,46.9347984],[-121.8619247,46.9348708],[-121.8617383,46.9349431],[-121.8615733,46.9349523],[-121.8615049,46.9348946],[-121.8613534,46.9348543],[-121.8612139,46.9348451],[-121.8610744,46.9347801],[-121.8610503,46.9347151],[-121.8609846,46.934673],[-121.8608344,46.9346629],[-121.8606667,46.9345796],[-121.8605715,46.9345906],[-121.8604749,46.934662],[-121.8603998,46.9346611],[-121.8603368,46.9346263],[-121.8602858,46.9345164],[-121.8603341,46.934412],[-121.860373,46.9343341],[-121.8603636,46.9342884],[-121.8602845,46.9342581],[-121.8599693,46.9342801],[-121.8596917,46.9343268],[-121.8594356,46.934325],[-121.8593055,46.9343909],[-121.8592197,46.9343928],[-121.8591151,46.9343488],[-121.8590856,46.9342316],[-121.8589863,46.9342078],[-121.8587342,46.9342774],[-121.8586376,46.9342645],[-121.8586162,46.9342334],[-121.8586108,46.9341565],[-121.8585464,46.9341235],[-121.8584445,46.934162],[-121.8583185,46.934173],[-121.8582273,46.9342352],[-121.8581012,46.9344221],[-121.858018,46.934455],[-121.8578491,46.934455],[-121.8576962,46.9344239],[-121.8576318,46.9344422],[-121.8575808,46.9345118],[-121.8575004,46.9345356],[-121.8572831,46.9345136],[-121.8569988,46.9345722],[-121.8568003,46.9346968],[-121.8566662,46.9349074],[-121.8567118,46.9350613],[-121.8566582,46.9351418],[-121.8564838,46.9352004],[-121.8563792,46.9352719],[-121.856178,46.9353232],[-121.8559983,46.9353213],[-121.8557704,46.9354202],[-121.8556282,46.9355722],[-121.8552393,46.9357206],[-121.8550864,46.9357371],[-121.8550113,46.935759],[-121.8548128,46.9358524],[-121.8546116,46.9359092],[-121.8543488,46.9359202],[-121.8542683,46.9359019],[-121.8542308,46.9358195],[-121.8542656,46.9356675],[-121.8542737,46.9355741],[-121.85422,46.9355429],[-121.8542174,46.9354697],[-121.8541226,46.9354058],[-121.8539874,46.9352671],[-121.8539874,46.935095],[-121.8539386,46.9349396],[-121.853841,46.9347786],[-121.8537909,46.9346602],[-121.8537158,46.934499],[-121.8536407,46.9343341],[-121.853587,46.9342169],[-121.8536943,46.9341327],[-121.8538874,46.9339971],[-121.8539465,46.9338909],[-121.8540435,46.9336126],[-121.8541249,46.9334072],[-121.854133,46.9332684],[-121.8542387,46.9331074],[-121.8542793,46.9329797],[-121.8542143,46.9328187],[-121.8544989,46.9325799],[-121.8546615,46.9324466],[-121.8548021,46.9322828],[-121.8548128,46.9322041],[-121.8547645,46.9321454],[-121.8546063,46.9321088],[-121.8545312,46.932052],[-121.8545312,46.9319476],[-121.854617,46.9318432],[-121.8547377,46.9317114],[-121.8548504,46.9315429],[-121.8549281,46.9314476],[-121.8550274,46.9313652],[-121.8550274,46.9312901],[-121.8549389,46.9312461],[-121.8547511,46.9312205],[-121.8546197,46.9311234],[-121.8544319,46.931074],[-121.8542522,46.9310172],[-121.8540967,46.9308835],[-121.8538728,46.9309066],[-121.853702,46.931001],[-121.853328,46.9311342],[-121.8531525,46.9311289],[-121.852836,46.9312242],[-121.8525678,46.9313304],[-121.8523425,46.931356],[-121.852144,46.9313011],[-121.851967,46.9313011],[-121.8516719,46.9314073],[-121.8513554,46.9314586],[-121.8511248,46.9316234],[-121.8508834,46.9317333],[-121.8507493,46.9317663],[-121.8505615,46.9317956],[-121.8504703,46.9319202],[-121.8502826,46.9319458],[-121.8501109,46.9319458],[-121.8498695,46.9320704],[-121.84951,46.9320781],[-121.8490537,46.9321958],[-121.8487647,46.9321812],[-121.848792,46.932109]]}}]}
