{"type":"FeatureCollection","peaks_destination_id":"GKYFnmdM5xpDMShh8DUX","peaks_trailhead_id":"7mdR4I31n8VQQdPVN5Nd","peaks_source":"https://api.openstreetmap.org/api/0.6","peaks_license_name":"Open Data Commons Open Database License (ODbL) 1.0","peaks_license":"https://opendatacommons.org/licenses/odbl/1-0/","peaks_attribution":"© OpenStreetMap contributors","peaks_retrieved_at":"2026-07-28T07:27:42.306Z","features":[{"type":"Feature","properties":{"name":"Guye Peak OSM route candidate","trailhead_name":"Main Lot","destination_name":"Guye Peak","distance_m":1993.1775077138202,"trailhead_snap_m":54.539625070220275,"summit_snap_m":112.79773152245207,"osm_way_ids":[1089371014,824208041,1089371018],"osm_way_urls":["https://www.openstreetmap.org/way/1089371014","https://www.openstreetmap.org/way/824208041","https://www.openstreetmap.org/way/1089371018"],"osm_way_names":["Snoqualmie Mountain Trail","Guye Peak Trail"],"osm_foot_access_override_way_ids":[]},"geometry":{"type":"LineString","coordinates":[[-121.423288,47.444779],[-121.4230892,47.4452507],[-121.4228352,47.4452442],[-121.4227062,47.4452511],[-121.422375,47.4452093],[-121.4222731,47.4452039],[-121.4221282,47.4451885],[-121.4219807,47.4451894],[-121.4219391,47.4452021],[-121.421809,47.4452093],[-121.4217608,47.4452384],[-121.4216937,47.4452347],[-121.4215824,47.4452474],[-121.4214039,47.4453028],[-121.4213274,47.4453074],[-121.4211503,47.4452711],[-121.4210484,47.4452312],[-121.4209186,47.4452248],[-121.4207979,47.4452511],[-121.4207226,47.4452222],[-121.4206215,47.4452737],[-121.4205602,47.4452975],[-121.42041,47.4452358],[-121.4203486,47.445242],[-121.4202882,47.445281],[-121.4202118,47.4452973],[-121.4201514,47.4453408],[-121.4200361,47.4453789],[-121.4198832,47.4453971],[-121.4197706,47.4454733],[-121.4197049,47.445515],[-121.4196847,47.4455377],[-121.4196284,47.4455594],[-121.4196298,47.4456411],[-121.4195989,47.4457354],[-121.4196338,47.4458052],[-121.4195962,47.4458506],[-121.4196311,47.4459376],[-121.4195801,47.4460175],[-121.4195091,47.4460537],[-121.4194675,47.4461337],[-121.4193479,47.4461999],[-121.4192221,47.4461916],[-121.4190853,47.4461272],[-121.418974,47.4461127],[-121.4188506,47.4461635],[-121.4187272,47.4462334],[-121.4186773,47.4463269],[-121.4186092,47.4464474],[-121.4185622,47.4465045],[-121.4185647,47.4465627],[-121.4184842,47.4466642],[-121.4183447,47.4467549],[-121.4181074,47.4467622],[-121.4179961,47.446715],[-121.417937,47.4466316],[-121.4178647,47.4465935],[-121.4177696,47.4465834],[-121.4177064,47.4465482],[-121.4175779,47.4465273],[-121.4174489,47.4465191],[-121.4173523,47.4464756],[-121.4172651,47.4465173],[-121.4172719,47.4465981],[-121.4172238,47.4466632],[-121.4172909,47.4467249],[-121.4172909,47.4467974],[-121.4172211,47.4468455],[-121.4171742,47.4468464],[-121.4171018,47.4468401],[-121.4171071,47.4468963],[-121.4171661,47.4469416],[-121.4171702,47.4469879],[-121.4172077,47.4470378],[-121.4171822,47.4470858],[-121.4172399,47.4471502],[-121.4172439,47.4472565],[-121.4172772,47.4473209],[-121.4172788,47.4473517],[-121.4172318,47.4473726],[-121.4171538,47.447281],[-121.4171058,47.4472437],[-121.4170573,47.4472374],[-121.4170159,47.4472681],[-121.4170184,47.4473154],[-121.4169529,47.4473298],[-121.4168886,47.44731],[-121.4167947,47.4472935],[-121.416718,47.4472157],[-121.4166603,47.4472447],[-121.4166268,47.4473517],[-121.4166536,47.4474116],[-121.4166767,47.4474642],[-121.4166174,47.4475132],[-121.4166241,47.4475857],[-121.4165356,47.4476801],[-121.4165423,47.4477272],[-121.4164675,47.4477716],[-121.41645,47.4478431],[-121.4164151,47.4478713],[-121.4164404,47.4479376],[-121.4164138,47.4480038],[-121.4163588,47.4480463],[-121.4162928,47.4480564],[-121.4162204,47.4481226],[-121.4160944,47.4481771],[-121.4159806,47.4481524],[-121.4159001,47.4481805],[-121.4158358,47.4481778],[-121.4157835,47.4481062],[-121.4156882,47.4481089],[-121.4156212,47.4480907],[-121.4155863,47.4480907],[-121.4155152,47.4480771],[-121.4154267,47.4480898],[-121.4154053,47.4480735],[-121.415353,47.4480663],[-121.4153436,47.4480155],[-121.4152926,47.4479674],[-121.4152296,47.4479629],[-121.4152068,47.447932],[-121.4151558,47.4479275],[-121.4151344,47.4478767],[-121.4150687,47.4478005],[-121.4149077,47.447718],[-121.4147884,47.4477125],[-121.4146529,47.44763],[-121.4145912,47.4475928],[-121.4144973,47.4475765],[-121.4144719,47.4475393],[-121.4143726,47.4475212],[-121.4142989,47.447455],[-121.4141822,47.4474296],[-121.4141379,47.4473951],[-121.4139703,47.4473344],[-121.4137772,47.4472219],[-121.4136364,47.4472155],[-121.4135492,47.4471793],[-121.4134312,47.4471729],[-121.4133467,47.4471312],[-121.4131871,47.4470877],[-121.4130785,47.4470804],[-121.4130409,47.4470378],[-121.4129591,47.4470106],[-121.4128035,47.4469797],[-121.4126708,47.4469888],[-121.4125863,47.4469426],[-121.4125259,47.4469462],[-121.4124709,47.4469144],[-121.4123301,47.446909],[-121.4122859,47.4468664],[-121.4122041,47.4468691],[-121.4120579,47.4468392],[-121.4119881,47.4467975],[-121.4118487,47.4467983],[-121.4118031,47.4467521],[-121.4116448,47.4467149],[-121.4115483,47.4467203],[-121.4114571,47.4466677],[-121.4113484,47.4466777],[-121.4112237,47.4466632],[-121.4111727,47.4466469],[-121.4110467,47.446665],[-121.4109817,47.4466581],[-121.4109716,47.4466215],[-121.410993,47.4465671],[-121.4109906,47.4464955],[-121.4109528,47.446422],[-121.4108884,47.4463693],[-121.4108208,47.446309],[-121.4107871,47.4462495],[-121.4108055,47.4461699],[-121.4107627,47.4461139],[-121.4107952,47.4460247],[-121.4106839,47.4459998],[-121.4105498,47.4459626],[-121.4105069,47.4458837],[-121.4105022,47.4458125],[-121.4104781,47.4457345],[-121.4104378,47.4456692],[-121.4103681,47.4456111],[-121.4103118,47.4455603],[-121.4102246,47.4455404],[-121.4101723,47.4454642],[-121.4101629,47.4454415],[-121.410116,47.445408],[-121.4100717,47.4453871],[-121.4100328,47.4453291],[-121.4100462,47.4452266],[-121.4099443,47.4451685],[-121.4098826,47.4451486],[-121.4098665,47.4451141],[-121.4098263,47.4450951],[-121.4097364,47.445086],[-121.4096211,47.4450533],[-121.4096157,47.4450252],[-121.4095715,47.4449898],[-121.4095768,47.4449572],[-121.4095514,47.4449391],[-121.4095688,47.4449091],[-121.40955,47.4448529],[-121.4095031,47.444823],[-121.4095124,47.4447658],[-121.4095393,47.4447186],[-121.4095071,47.444637],[-121.4094844,47.4446071],[-121.4094649,47.4445814],[-121.4094293,47.444501],[-121.4094105,47.4444357],[-121.4093596,47.4443051],[-121.4093167,47.4442198],[-121.4092616,47.4441518],[-121.4092107,47.4441327],[-121.4091893,47.4441209],[-121.4092107,47.4440956],[-121.4092523,47.4440801],[-121.4092335,47.4440221],[-121.4092657,47.4439622],[-121.4092925,47.4439114],[-121.4092818,47.4438661],[-121.409255,47.4438189],[-121.4092067,47.44375],[-121.4091396,47.4436393],[-121.4091209,47.4435196],[-121.4090887,47.443389],[-121.4091048,47.4433128],[-121.4091772,47.4432384],[-121.4092496,47.4431768],[-121.4092469,47.443135],[-121.4091745,47.4430915],[-121.409171,47.4429863],[-121.408769,47.442009]]}}]}
