{"type":"FeatureCollection","peaks_destination_id":"YYsIpsz0glrihuXLAc9d","peaks_trailhead_id":"EFAB9A40B145B84B5DAF","peaks_source":"https://api.openstreetmap.org/api/0.6","peaks_license_name":"Open Data Commons Open Database License (ODbL) 1.0","peaks_license":"https://opendatacommons.org/licenses/odbl/1-0/","peaks_attribution":"© OpenStreetMap contributors","peaks_retrieved_at":"2026-07-28T02:20:28.147Z","features":[{"type":"Feature","properties":{"name":"Handies Peak OSM route candidate","trailhead_name":"American Basin Trailhead","destination_name":"Handies Peak","distance_m":4303.19015369541,"trailhead_snap_m":8.658806590378436,"summit_snap_m":4.542456148654408,"osm_way_ids":[198193309],"osm_way_urls":["https://www.openstreetmap.org/way/198193309"],"osm_way_names":["American Basin Trail"],"osm_foot_access_override_way_ids":[]},"geometry":{"type":"LineString","coordinates":[[-107.5165038,37.920014],[-107.516508,37.9199362],[-107.5163363,37.9199383],[-107.5162118,37.919919],[-107.5160962,37.9197479],[-107.5159718,37.9194178],[-107.5159176,37.9191145],[-107.5159395,37.9189966],[-107.5159373,37.9186362],[-107.5158978,37.9182984],[-107.5157499,37.9180864],[-107.5156217,37.9178275],[-107.5155995,37.9174552],[-107.5155847,37.9170188],[-107.5155847,37.9168709],[-107.5154787,37.9164567],[-107.5154688,37.9161855],[-107.5155822,37.916003],[-107.5156488,37.9158132],[-107.5156118,37.9155716],[-107.5157943,37.915288],[-107.5159471,37.9149453],[-107.5160162,37.9146568],[-107.5161616,37.9141514],[-107.5162172,37.9139842],[-107.5163152,37.9139292],[-107.5164637,37.913988],[-107.5165743,37.9140002],[-107.5166252,37.9139344],[-107.5167041,37.9138235],[-107.516906,37.9136657],[-107.5170275,37.9134391],[-107.5171669,37.9132895],[-107.5172587,37.9131596],[-107.5174151,37.9130106],[-107.5176197,37.9128794],[-107.5178846,37.9128009],[-107.5180498,37.9127264],[-107.5181343,37.9126383],[-107.5181487,37.9125301],[-107.5181021,37.9124242],[-107.5180796,37.9122691],[-107.5180236,37.9120462],[-107.5179028,37.9117496],[-107.5179082,37.9116356],[-107.517939,37.9115593],[-107.5180799,37.9112769],[-107.5182472,37.9110964],[-107.5183467,37.910992],[-107.5184195,37.9107934],[-107.518402,37.9106833],[-107.518286,37.9106121],[-107.5181559,37.9104154],[-107.5181071,37.9102945],[-107.51799,37.9100577],[-107.5179717,37.9099092],[-107.5179374,37.9097882],[-107.5179321,37.9095486],[-107.5180427,37.9093652],[-107.5182324,37.9092027],[-107.5182869,37.9090527],[-107.5183436,37.9089788],[-107.5183412,37.9088308],[-107.518356,37.9086804],[-107.5182327,37.9085276],[-107.5182277,37.908392],[-107.518208,37.9082909],[-107.51807,37.9082046],[-107.517816,37.9081183],[-107.5175571,37.907995],[-107.5175053,37.9080049],[-107.5174388,37.9079654],[-107.5174166,37.9078964],[-107.5172817,37.9077679],[-107.5171524,37.9076819],[-107.5170862,37.907603],[-107.5170409,37.9075715],[-107.5170065,37.9075819],[-107.516976,37.9075822],[-107.5169054,37.9074455],[-107.516882,37.9073394],[-107.5167883,37.9073568],[-107.5167183,37.9074211],[-107.516636,37.9074308],[-107.5165521,37.9074537],[-107.5164856,37.9076226],[-107.5164282,37.9077035],[-107.5163568,37.9076151],[-107.5163167,37.9076463],[-107.516307,37.9076063],[-107.5162327,37.9074786],[-107.5161823,37.9073767],[-107.5161123,37.9073417],[-107.5158707,37.9073293],[-107.5157837,37.9073281],[-107.515694,37.9073631],[-107.5154614,37.9073515],[-107.5153456,37.9073491],[-107.5152715,37.9073455],[-107.5152492,37.9074192],[-107.5150976,37.9074174],[-107.514979,37.9073713],[-107.5149461,37.9074033],[-107.51492,37.9074249],[-107.5148335,37.9074305],[-107.5147736,37.9073392],[-107.5146749,37.9072036],[-107.5145295,37.9071651],[-107.5143667,37.9070433],[-107.514141,37.906867],[-107.5140805,37.906812],[-107.5140141,37.9067884],[-107.5139821,37.9067605],[-107.5139578,37.9067194],[-107.5139008,37.9066931],[-107.5138687,37.9066984],[-107.5137887,37.9067514],[-107.5136449,37.9067407],[-107.5133093,37.9067337],[-107.5130934,37.9066769],[-107.5129297,37.9065565],[-107.5128209,37.9065182],[-107.5126606,37.9065354],[-107.5124116,37.906565],[-107.5122513,37.9065773],[-107.5121207,37.9066193],[-107.5120122,37.9065773],[-107.5119111,37.9066143],[-107.5117311,37.9065971],[-107.511635,37.9064984],[-107.5115487,37.90639],[-107.5116473,37.9063086],[-107.5117829,37.9062716],[-107.5118815,37.9061853],[-107.5118519,37.906099],[-107.5117804,37.9060349],[-107.511736,37.9059832],[-107.5118347,37.9059486],[-107.5118519,37.9058549],[-107.5117434,37.905818],[-107.5116867,37.9057637],[-107.5117434,37.9057267],[-107.5118667,37.9056898],[-107.5118248,37.9056183],[-107.5116719,37.9055418],[-107.5117484,37.9055073],[-107.511847,37.9054802],[-107.5117952,37.9054284],[-107.5118371,37.9052903],[-107.5117952,37.9051547],[-107.5117952,37.9049772],[-107.5118322,37.9049033],[-107.5117772,37.9048663],[-107.5116168,37.904807],[-107.5115855,37.9047216],[-107.5115497,37.9046893],[-107.5114355,37.9047068],[-107.5112847,37.9047713],[-107.5112272,37.9047547],[-107.511154,37.904739],[-107.5111025,37.9047817],[-107.5110441,37.9048541],[-107.5109474,37.9048898],[-107.5107617,37.9048907],[-107.5106693,37.9049177],[-107.5105438,37.9049395],[-107.5104636,37.9049761],[-107.5103468,37.905045],[-107.5102143,37.9050781],[-107.5101489,37.9051182],[-107.5101341,37.9051792],[-107.5099789,37.9052524],[-107.5099659,37.9052803],[-107.5098874,37.9053222],[-107.5097837,37.9054311],[-107.5095657,37.9055828],[-107.509292,37.905785],[-107.5092162,37.9058129],[-107.509197,37.9059027],[-107.5090488,37.9059437],[-107.5089181,37.905982],[-107.5088675,37.9060971],[-107.5088082,37.9062043],[-107.5087136,37.9063006],[-107.5086791,37.9063746],[-107.508615,37.9066359],[-107.5086446,37.9068479],[-107.5087186,37.9070723],[-107.5087925,37.9071635],[-107.5087999,37.9072769],[-107.5088838,37.9074791],[-107.5088813,37.907632],[-107.5089528,37.9077331],[-107.5090884,37.9078341],[-107.5092018,37.9079722],[-107.5093202,37.9082114],[-107.5093843,37.9083149],[-107.5092708,37.9082927],[-107.5090415,37.9082015],[-107.5088049,37.9080906],[-107.508615,37.9080536],[-107.5083586,37.9080265],[-107.5082082,37.9079821],[-107.5081786,37.9079377],[-107.5081022,37.9078736],[-107.5079493,37.9077651],[-107.5077767,37.9076147],[-107.5075844,37.9074964],[-107.5074513,37.9073805],[-107.5074365,37.9074323],[-107.5074143,37.9076024],[-107.5073699,37.907775],[-107.5073403,37.9079624],[-107.5072984,37.9082484],[-107.507254,37.9083322],[-107.5071357,37.9082607],[-107.5070174,37.9081842],[-107.5068448,37.9081127],[-107.5067363,37.908024],[-107.5066919,37.9079476],[-107.5066525,37.9080684],[-107.50665,37.9081571],[-107.5066032,37.9083223],[-107.5065563,37.9084407],[-107.5065686,37.908527],[-107.5065193,37.9086404],[-107.5064108,37.908559],[-107.5063739,37.9084826],[-107.5063221,37.9084629],[-107.5062777,37.9084012],[-107.5061988,37.9082508],[-107.5061027,37.9081818],[-107.5060484,37.9082927],[-107.506004,37.9083248],[-107.5059794,37.9083963],[-107.5057698,37.9085171],[-107.5056638,37.908633],[-107.5055479,37.9088376],[-107.505612,37.9089461],[-107.5056046,37.9090299],[-107.5056835,37.9090792],[-107.5057279,37.9092814],[-107.505718,37.9094219],[-107.5058561,37.9095526],[-107.5060213,37.9096882],[-107.5061618,37.909777],[-107.5062703,37.9099274],[-107.50629,37.9099939],[-107.5060657,37.9099915],[-107.5058783,37.9100235],[-107.505686,37.9100654],[-107.5055528,37.9101197],[-107.5056022,37.9102356],[-107.505506,37.9103514],[-107.5054345,37.9105068],[-107.5054988,37.9106108],[-107.5055712,37.9107122],[-107.5056749,37.9108159],[-107.505687,37.9108811],[-107.5056049,37.9109559],[-107.5055663,37.911009],[-107.5055326,37.9110138],[-107.5054674,37.9110693],[-107.5054408,37.9112455],[-107.5053178,37.9113299],[-107.505306,37.9114155],[-107.5052478,37.9114627],[-107.5052024,37.9115641],[-107.5052092,37.9116404],[-107.5051392,37.9117088],[-107.5050765,37.9117933],[-107.5049887,37.9118704],[-107.5049474,37.9119264],[-107.5049634,37.9119782],[-107.5049517,37.912027],[-107.5048546,37.9120878],[-107.5048242,37.9121448],[-107.504789,37.9122204],[-107.5047164,37.9123128],[-107.5046409,37.9124342],[-107.5045775,37.9124999],[-107.5045711,37.9125413],[-107.5045497,37.9125589],[-107.5045373,37.9126055],[-107.504539,37.9126576],[-107.5045186,37.912657],[-107.5044885,37.9126474],[-107.5044779,37.9126724],[-107.5045063,37.9127109],[-107.5044865,37.9127392],[-107.5044415,37.9127745],[-107.5043959,37.9128165],[-107.5043694,37.912872],[-107.5044394,37.9129854],[-107.504491,37.912982]]}}]}
