{"type":"FeatureCollection","peaks_destination_id":"11Dj1MXI23in2fnW4EjK","peaks_trailhead_id":"noVB6iJAt5rpP6cIEARA","peaks_source":"https://api.openstreetmap.org/api/0.6","peaks_license_name":"Open Data Commons Open Database License (ODbL) 1.0","peaks_license":"https://opendatacommons.org/licenses/odbl/1-0/","peaks_attribution":"© OpenStreetMap contributors","peaks_retrieved_at":"2026-07-28T02:19:58.807Z","features":[{"type":"Feature","properties":{"name":"Hibox Mountain OSM route candidate","trailhead_name":"Rachel Lake Trailhead","destination_name":"Hibox Mountain","distance_m":5379.115700174741,"trailhead_snap_m":30.78535022532141,"summit_snap_m":64.96705638989674,"osm_way_ids":[125694345,541829638],"osm_way_urls":["https://www.openstreetmap.org/way/125694345","https://www.openstreetmap.org/way/541829638"],"osm_way_names":["Rachel Lake Trail","Hibox Mountain climber's trail"],"osm_foot_access_override_way_ids":[]},"geometry":{"type":"LineString","coordinates":[[-121.283967,47.400659],[-121.2836191,47.4008046],[-121.2835876,47.4008692],[-121.28359,47.4009647],[-121.283618,47.4010542],[-121.2835655,47.4011041],[-121.2832463,47.4013117],[-121.2831692,47.4014125],[-121.2829823,47.4015121],[-121.2826281,47.4014922],[-121.2824198,47.4015054],[-121.2827208,47.4016879],[-121.2828399,47.4018908],[-121.2832101,47.4020638],[-121.2836908,47.4024302],[-121.2838608,47.4026916],[-121.2841266,47.4028627],[-121.2845507,47.4030811],[-121.284835,47.4031904],[-121.2851469,47.4035194],[-121.2855698,47.4037505],[-121.2856905,47.4039337],[-121.2858299,47.4039991],[-121.2858615,47.4041613],[-121.2860331,47.4043792],[-121.2864093,47.4045492],[-121.2865359,47.4046288],[-121.2866125,47.4047304],[-121.2864654,47.4047976],[-121.2864445,47.4048706],[-121.2865106,47.4049444],[-121.2864884,47.4050789],[-121.2865179,47.4053176],[-121.2866152,47.4055313],[-121.2866447,47.4059331],[-121.2865417,47.4066055],[-121.2867305,47.4071167],[-121.2870566,47.4074478],[-121.2872068,47.4078253],[-121.2873571,47.4081158],[-121.2877924,47.4082799],[-121.288225,47.4087664],[-121.2885186,47.4091323],[-121.288758,47.4091898],[-121.2892019,47.4097059],[-121.2895283,47.4100207],[-121.2898241,47.4101996],[-121.2900634,47.4103555],[-121.2902952,47.410413],[-121.2905192,47.4102876],[-121.2907302,47.4101373],[-121.2908414,47.4101009],[-121.2909719,47.4101356],[-121.2911508,47.4103478],[-121.2913798,47.4106571],[-121.2914687,47.4109359],[-121.2915392,47.410978],[-121.2917589,47.4109443],[-121.2918625,47.4110846],[-121.2920698,47.4112416],[-121.2922231,47.4112977],[-121.2923724,47.4113034],[-121.2926829,47.4114535],[-121.2928532,47.4115811],[-121.2929154,47.4117017],[-121.2931452,47.4121427],[-121.293362,47.4123158],[-121.2934076,47.4124141],[-121.2934132,47.4126074],[-121.2934191,47.4127077],[-121.2934696,47.4127447],[-121.2935496,47.4127648],[-121.293828,47.4128438],[-121.2939709,47.4128598],[-121.2941692,47.4129435],[-121.2944222,47.4129708],[-121.2945915,47.4129976],[-121.2949506,47.4129584],[-121.2952159,47.4130565],[-121.2955434,47.4132781],[-121.2957755,47.4133735],[-121.2959123,47.4134969],[-121.296302,47.4136624],[-121.2968156,47.4140288],[-121.2971979,47.4142162],[-121.2975455,47.414403],[-121.2976574,47.4145236],[-121.297989,47.4146975],[-121.2982391,47.4147617],[-121.2982916,47.4148369],[-121.2983132,47.4149421],[-121.2985693,47.415107],[-121.2990377,47.4152052],[-121.299158,47.4153538],[-121.2994523,47.4154857],[-121.2995883,47.4156204],[-121.299817,47.4156624],[-121.3001285,47.415748],[-121.3005963,47.4157858],[-121.30091,47.4159262],[-121.3011145,47.4159207],[-121.301397,47.4158859],[-121.3016199,47.4158754],[-121.3017313,47.4158618],[-121.3021488,47.4160489],[-121.3024798,47.4160832],[-121.302695,47.4160543],[-121.302831,47.4160958],[-121.3031249,47.4163468],[-121.3035021,47.4164898],[-121.3038171,47.4167142],[-121.3041073,47.4167984],[-121.3042137,47.4168252],[-121.3042885,47.41686],[-121.3043103,47.4168621],[-121.304348,47.4168513],[-121.3043935,47.4168566],[-121.3044322,47.4168704],[-121.3044835,47.416863],[-121.3045387,47.4168816],[-121.30456,47.4169039],[-121.3046367,47.4169206],[-121.3046773,47.4169148],[-121.3047143,47.4169351],[-121.3047593,47.416981],[-121.3047658,47.4170095],[-121.3047571,47.4170304],[-121.3047709,47.4170478],[-121.3048106,47.4170935],[-121.304858,47.4171174],[-121.3048735,47.4171512],[-121.3048793,47.4172015],[-121.3049097,47.4172998],[-121.3049748,47.4173391],[-121.3055274,47.4175571],[-121.3059887,47.4175498],[-121.3063957,47.4176008],[-121.3066959,47.4176648],[-121.3070187,47.4178838],[-121.3078172,47.4180998],[-121.3078959,47.4181503],[-121.307954,47.4183438],[-121.3080203,47.4184644],[-121.3081695,47.4185457],[-121.3082109,47.4186243],[-121.3081861,47.4187673],[-121.3083519,47.4188459],[-121.3085012,47.4188097],[-121.3085542,47.418841],[-121.3086054,47.418994],[-121.3086902,47.4190554],[-121.3087661,47.4191341],[-121.3089414,47.4191632],[-121.3090052,47.4192064],[-121.3090311,47.4192475],[-121.3091025,47.4192635],[-121.3091324,47.4192996],[-121.3092091,47.4193197],[-121.3093101,47.4193291],[-121.3094266,47.4193634],[-121.3095138,47.4193594],[-121.3096004,47.4193334],[-121.3096854,47.4193312],[-121.3098273,47.4193813],[-121.310106,47.4195185],[-121.310099,47.419688],[-121.3099996,47.4199163],[-121.309638,47.420324],[-121.3094016,47.4204787],[-121.3092698,47.4205678],[-121.3092445,47.4206981],[-121.3089911,47.4208867],[-121.3089302,47.4210444],[-121.308735,47.421306],[-121.308521,47.421441],[-121.308418,47.42155],[-121.308355,47.421728],[-121.308256,47.421923],[-121.308152,47.422019],[-121.3080281,47.4220663],[-121.3078102,47.422056],[-121.3076683,47.4221314],[-121.307596,47.422222],[-121.30754,47.422312],[-121.3075771,47.4224881],[-121.307523,47.422548],[-121.307287,47.422665],[-121.307001,47.422849],[-121.306865,47.422968],[-121.306739,47.423021],[-121.306295,47.423042],[-121.306113,47.423089],[-121.305853,47.423186],[-121.305475,47.423215],[-121.304931,47.423201],[-121.3048274,47.4232326],[-121.304807,47.4233225],[-121.3045924,47.4233916],[-121.3045975,47.4234919],[-121.3045565,47.4235407],[-121.304635,47.423968],[-121.304553,47.424108],[-121.304408,47.424275],[-121.304377,47.424348],[-121.304352,47.424525],[-121.30432,47.424582],[-121.304168,47.424749],[-121.304091,47.424869],[-121.304101,47.425043],[-121.304181,47.425165],[-121.304191,47.425221],[-121.304152,47.425296],[-121.303992,47.425479],[-121.303962,47.425546],[-121.303981,47.425611],[-121.304059,47.425648],[-121.304292,47.425712],[-121.304368,47.425762],[-121.30439,47.42583],[-121.304381,47.425929],[-121.304542,47.426226],[-121.304491,47.426429],[-121.304511,47.426465],[-121.3046895,47.426531],[-121.304883,47.426754],[-121.304931,47.42685],[-121.304905,47.426934],[-121.304811,47.42705],[-121.304782,47.427127],[-121.304771,47.427277],[-121.304784,47.427345],[-121.30485,47.427451],[-121.3048836,47.427537],[-121.3050165,47.4276027],[-121.304991,47.4277306],[-121.305138,47.427959],[-121.305013,47.42823],[-121.305006,47.428286],[-121.305058,47.428415],[-121.305017,47.428475],[-121.304857,47.428589],[-121.304757,47.428637],[-121.304372,47.428719],[-121.304014,47.428827],[-121.30393,47.428865],[-121.303901,47.428903],[-121.303928,47.428955],[-121.304025,47.429049],[-121.304024,47.429099],[-121.303979,47.42916],[-121.303913,47.429192],[-121.303707,47.4292],[-121.303585,47.429235],[-121.303167,47.429559],[-121.303111,47.429718],[-121.303013,47.429831],[-121.302979,47.430025],[-121.302898,47.430073],[-121.30264,47.430115],[-121.30238,47.430215],[-121.30218,47.430253],[-121.302026,47.430317],[-121.301887,47.430409],[-121.30165,47.430525],[-121.301541,47.430612],[-121.301377,47.4308],[-121.301302,47.430848],[-121.301079,47.430911],[-121.30096,47.430972],[-121.300843,47.431094],[-121.300771,47.431128],[-121.300354,47.431202],[-121.299973,47.431318],[-121.299842,47.431375],[-121.299801,47.431412],[-121.299798,47.431463],[-121.2999569,47.4315503],[-121.300756,47.431772]]}}]}
