{"type":"FeatureCollection","peaks_destination_id":"8gW9WZ6tngvhNn0TIDpc","peaks_trailhead_id":"Vm0gOD6OdjW4lQmHn0Fj","peaks_source":"https://api.openstreetmap.org/api/0.6","peaks_license_name":"Open Data Commons Open Database License (ODbL) 1.0","peaks_license":"https://opendatacommons.org/licenses/odbl/1-0/","peaks_attribution":"© OpenStreetMap contributors","peaks_retrieved_at":"2026-07-28T02:20:03.300Z","features":[{"type":"Feature","properties":{"name":"Ingalls Peak OSM route candidate","trailhead_name":"Esmeralda Trailhead","destination_name":"Ingalls Peak","distance_m":7397.937203745926,"trailhead_snap_m":6.331022136831671,"summit_snap_m":118.69470517347042,"osm_way_ids":[1193241119,236470870,236470875,236470876,694942416,1213228739],"osm_way_urls":["https://www.openstreetmap.org/way/1193241119","https://www.openstreetmap.org/way/236470870","https://www.openstreetmap.org/way/236470875","https://www.openstreetmap.org/way/236470876","https://www.openstreetmap.org/way/694942416","https://www.openstreetmap.org/way/1213228739"],"osm_way_names":["Esmeralda Basin Trail #1394","Ingalls Way Trail","Ingalls Peak Climbers Approach"],"osm_foot_access_override_way_ids":[]},"geometry":{"type":"LineString","coordinates":[[-120.936916,47.436808],[-120.9368872,47.4367545],[-120.9368434,47.4367785],[-120.9368195,47.4368063],[-120.936812,47.4368263],[-120.9368154,47.4368594],[-120.9368225,47.4368958],[-120.9368718,47.4369704],[-120.9368978,47.4370368],[-120.9369223,47.4370839],[-120.9369944,47.4371564],[-120.9370561,47.4372369],[-120.9370789,47.4372953],[-120.9370945,47.437327],[-120.9371232,47.4373416],[-120.9371634,47.4373624],[-120.9371955,47.4374029],[-120.9372684,47.4375161],[-120.9373183,47.4376308],[-120.9373476,47.4377858],[-120.9373645,47.4380564],[-120.937387,47.4381547],[-120.9374893,47.4383294],[-120.937601,47.4384947],[-120.9376864,47.4385898],[-120.9378199,47.4386905],[-120.93807,47.4388601],[-120.9381677,47.4389558],[-120.9382108,47.4390324],[-120.9382349,47.4391503],[-120.9382522,47.4394368],[-120.9382763,47.439625],[-120.938298,47.4396846],[-120.9383671,47.4397552],[-120.938479,47.4399041],[-120.9385141,47.4399909],[-120.9385192,47.4400937],[-120.9385009,47.4401674],[-120.9384582,47.4402443],[-120.9384159,47.440326],[-120.9384073,47.4403781],[-120.9384173,47.4404302],[-120.9384464,47.4405316],[-120.9383717,47.4405461],[-120.938302,47.4405559],[-120.9382389,47.4405559],[-120.9381893,47.4405518],[-120.9381463,47.4405531],[-120.9381115,47.4405667],[-120.9380955,47.4405876],[-120.9380867,47.4406121],[-120.9380857,47.4406497],[-120.938087,47.4407191],[-120.9381165,47.440826],[-120.9381493,47.4409538],[-120.9382041,47.4410473],[-120.9381833,47.441174],[-120.9380666,47.4414086],[-120.9380618,47.4416115],[-120.9380856,47.4417919],[-120.9380951,47.4419481],[-120.9381666,47.4420689],[-120.9382476,47.4421575],[-120.9382928,47.4422719],[-120.9382595,47.4423428],[-120.9380266,47.4423939],[-120.9378748,47.4423431],[-120.9377051,47.4422272],[-120.9375236,47.4420845],[-120.9373416,47.4419122],[-120.9370831,47.4417085],[-120.9369617,47.4416585],[-120.9369117,47.4416811],[-120.936889,47.441725],[-120.9369422,47.4418341],[-120.9369993,47.4419261],[-120.937079,47.4420961],[-120.9371648,47.4422298],[-120.9372037,47.4424217],[-120.9372347,47.4425387],[-120.9373029,47.4426389],[-120.9373005,47.4428161],[-120.9373172,47.4429675],[-120.9373624,47.4430819],[-120.9373315,47.4432172],[-120.9373362,47.4434104],[-120.9374434,47.4435167],[-120.9375911,47.4435441],[-120.9377863,47.4435409],[-120.937953,47.4435683],[-120.9380459,47.4436456],[-120.938034,47.4437213],[-120.9379507,47.4438566],[-120.9378342,47.4439788],[-120.9378229,47.4440603],[-120.9378612,47.4441238],[-120.9380126,47.444169],[-120.9381168,47.4441701],[-120.9382065,47.4441879],[-120.9382716,47.4442374],[-120.938215,47.4443349],[-120.9380634,47.4444301],[-120.9378522,47.4444901],[-120.9376232,47.4445023],[-120.9375625,47.444438],[-120.9374815,47.4443961],[-120.9373791,47.4443027],[-120.9371934,47.4442399],[-120.9369743,47.4442125],[-120.9368885,47.4442093],[-120.9368385,47.4441755],[-120.9368576,47.4441078],[-120.9368469,47.4440649],[-120.9367929,47.4440355],[-120.936596,47.4439987],[-120.9365733,47.4440118],[-120.9366193,47.4440504],[-120.9366279,47.4441115],[-120.9366025,47.4441482],[-120.9365837,47.4442109],[-120.9366027,47.444306],[-120.9367337,47.4444219],[-120.9367658,47.4445729],[-120.9367204,47.4446664],[-120.9366468,47.4447614],[-120.9365139,47.4448645],[-120.9364545,47.4448632],[-120.9364178,47.4448355],[-120.9363967,47.4446809],[-120.9363276,47.4445842],[-120.9362991,47.4445472],[-120.9362538,47.4445166],[-120.9361681,47.4444972],[-120.9361181,47.444523],[-120.9360871,47.4445762],[-120.9360719,47.4446889],[-120.9360061,47.4447952],[-120.9358752,47.4448661],[-120.93574,47.4448998],[-120.9355799,47.4449015],[-120.935502,47.4448992],[-120.9354227,47.4449466],[-120.9353597,47.4449693],[-120.9352851,47.4449444],[-120.9352536,47.4448306],[-120.9353632,47.444618],[-120.9353194,47.4444919],[-120.9353686,47.4443399],[-120.935353,47.4442327],[-120.9353019,47.4441848],[-120.9352287,47.4441666],[-120.9351673,47.4441892],[-120.9351137,47.4442508],[-120.9350575,47.4443085],[-120.9350221,47.4443603],[-120.9349905,47.4444013],[-120.9349362,47.4444233],[-120.9348625,47.444423],[-120.9347823,47.4444213],[-120.9347385,47.4444247],[-120.9346787,47.444431],[-120.9346032,47.444446],[-120.9344916,47.4444531],[-120.9344472,47.444419],[-120.9344489,47.4443473],[-120.9344828,47.444275],[-120.9344828,47.4441848],[-120.9344373,47.444121],[-120.9343699,47.4441085],[-120.9342646,47.4441443],[-120.9341458,47.4441394],[-120.9340898,47.4440771],[-120.9340851,47.4440178],[-120.9341458,47.4439723],[-120.9343901,47.4438525],[-120.9344828,47.4438009],[-120.9345509,47.443713],[-120.9345538,47.4436275],[-120.9344766,47.44355],[-120.9343956,47.4434357],[-120.9343276,47.4433576],[-120.9343038,47.4432964],[-120.9342743,47.4432057],[-120.9342421,47.4431332],[-120.9342045,47.4430733],[-120.9341294,47.4430062],[-120.9340463,47.4429845],[-120.9339471,47.4429464],[-120.9338344,47.4429137],[-120.9337593,47.4428992],[-120.933652,47.4428901],[-120.9336118,47.4428901],[-120.9335984,47.4429101],[-120.9336198,47.4429391],[-120.9336357,47.4429687],[-120.9336406,47.4430058],[-120.933638,47.4430393],[-120.9336406,47.4430803],[-120.933633,47.4431402],[-120.9336254,47.4431899],[-120.9336102,47.4432515],[-120.9335798,47.4432943],[-120.9335596,47.4433353],[-120.9335267,47.4433798],[-120.9334837,47.4434226],[-120.9334154,47.4434534],[-120.9334027,47.4434859],[-120.9333622,47.4435065],[-120.9332888,47.4435527],[-120.9331851,47.4436229],[-120.933099,47.443693],[-120.9330307,47.4437375],[-120.9329953,47.4437615],[-120.9329523,47.443782],[-120.9329194,47.4438111],[-120.932889,47.4438471],[-120.9328738,47.443883],[-120.9328612,47.4439052],[-120.9328308,47.4439292],[-120.9328258,47.4439617],[-120.9328258,47.4439874],[-120.9328182,47.4440216],[-120.9327903,47.4440404],[-120.93276,47.4440507],[-120.9327296,47.444061],[-120.9327068,47.4440747],[-120.9326866,47.4440935],[-120.9326562,47.4441072],[-120.9326208,47.4441175],[-120.9325955,47.4441483],[-120.9325879,47.4441705],[-120.9325904,47.4441945],[-120.9325778,47.4442184],[-120.9325525,47.4442424],[-120.9325398,47.4442715],[-120.9325373,47.4442972],[-120.9325347,47.4443245],[-120.9325322,47.4443588],[-120.9325297,47.4443861],[-120.9325196,47.4444204],[-120.9325018,47.4444529],[-120.9324841,47.4444905],[-120.932469,47.4445248],[-120.9324588,47.4445367],[-120.9324436,47.4445641],[-120.9324254,47.444603],[-120.9324057,47.4446326],[-120.9323804,47.4446463],[-120.9323576,47.4446702],[-120.9323272,47.4447062],[-120.9322994,47.4447438],[-120.9322564,47.4447472],[-120.9322235,47.4447472],[-120.9321982,47.4447336],[-120.9321881,47.4447182],[-120.9321678,47.444701],[-120.9321425,47.4446839],[-120.9321349,47.4446565],[-120.9321526,47.4446223],[-120.9321628,47.4445898],[-120.9321526,47.4445641],[-120.9321147,47.4445436],[-120.9320691,47.4445213],[-120.9320717,47.4444905],[-120.9320514,47.4444529],[-120.9320615,47.4444272],[-120.9320261,47.4443981],[-120.9319907,47.444369],[-120.9319679,47.4443417],[-120.9319477,47.444316],[-120.9319173,47.4442903],[-120.9318692,47.4442715],[-120.9318287,47.444239],[-120.9317958,47.4442167],[-120.9317705,47.4441928],[-120.9317503,47.4441688],[-120.9317022,47.4441602],[-120.9316896,47.4441739],[-120.9316921,47.4441962],[-120.9317047,47.444215],[-120.9317174,47.4442424],[-120.9317123,47.4442612],[-120.9317073,47.4442869],[-120.9317098,47.4443023],[-120.9317098,47.4443211],[-120.9317047,47.4443434],[-120.9316997,47.4443673],[-120.9317047,47.4443947],[-120.9317073,47.4444187],[-120.931687,47.4444358],[-120.9316567,47.4444375],[-120.9316212,47.444446],[-120.9315934,47.4444529],[-120.9315757,47.4444666],[-120.9315504,47.44447],[-120.9315251,47.4444529],[-120.93152,47.4444289],[-120.9315327,47.4444101],[-120.9315428,47.4443896],[-120.93152,47.4443776],[-120.9314719,47.4443588],[-120.931439,47.4443365],[-120.9314036,47.444304],[-120.9313758,47.44428],[-120.9313302,47.4442527],[-120.9312923,47.4442424],[-120.9312821,47.4442561],[-120.9312872,47.44428],[-120.9312746,47.444304],[-120.9312771,47.4443228],[-120.9312695,47.4443417],[-120.9312467,47.4443605],[-120.9312341,47.444381],[-120.9311986,47.4444015],[-120.9311683,47.4444187],[-120.9311328,47.4444324],[-120.9310848,47.4444426],[-120.9310544,47.4444563],[-120.9310392,47.4444803],[-120.9310342,47.4445042],[-120.931019,47.4445179],[-120.9309962,47.4445299],[-120.9309531,47.4445333],[-120.9309009,47.4445299],[-120.9308404,47.4445533],[-120.9307841,47.4445714],[-120.9307358,47.4445932],[-120.9306876,47.444624],[-120.9306473,47.4446512],[-120.9306232,47.4446803],[-120.9306071,47.4447093],[-120.9306071,47.4447347],[-120.9306285,47.4447564],[-120.9306473,47.4447782],[-120.9306554,47.4448218],[-120.9306795,47.4448562],[-120.9306876,47.4448762],[-120.9306688,47.4448889],[-120.9306339,47.4448871],[-120.930532,47.4448852],[-120.930473,47.4449034],[-120.9304408,47.4449197],[-120.9304033,47.4449542],[-120.9303684,47.4449868],[-120.9303765,47.4450086],[-120.9303899,47.4450394],[-120.9303899,47.445072],[-120.9303791,47.4451156],[-120.9303952,47.4451591],[-120.9304006,47.4451991],[-120.9304006,47.4452353],[-120.9304113,47.4452789],[-120.9303952,47.4453151],[-120.9303979,47.4453442],[-120.930414,47.4453986],[-120.9304086,47.4454294],[-120.9303952,47.4454639],[-120.930406,47.4454947],[-120.9304328,47.445531],[-120.9304569,47.4455691],[-120.9305106,47.4456199],[-120.9305669,47.4456616],[-120.9305964,47.4457051],[-120.9306098,47.4457305],[-120.9306447,47.4457559],[-120.9306769,47.4457977],[-120.9306957,47.4458375],[-120.9307305,47.4458829],[-120.9307573,47.4459283],[-120.9307734,47.4459682],[-120.93076,47.4460045],[-120.9307573,47.4460335],[-120.9307466,47.4460589],[-120.9307251,47.4460988],[-120.930693,47.4461078],[-120.9306635,47.446126],[-120.9306205,47.4461604],[-120.930591,47.4461768],[-120.9305589,47.4461949],[-120.9305267,47.446233],[-120.9305213,47.4462638],[-120.9305213,47.4462911],[-120.9305414,47.4463129],[-120.9305709,47.4463291],[-120.9306272,47.4463346],[-120.9306674,47.44634],[-120.9307104,47.4463563],[-120.9307479,47.4463637],[-120.9308069,47.4463827],[-120.9308633,47.4463809],[-120.9309035,47.4463827],[-120.9309357,47.4463954],[-120.9309679,47.4463944],[-120.9310028,47.4464053],[-120.9310055,47.446438],[-120.9310027,47.4464571],[-120.9309893,47.4464915],[-120.9309933,47.4465287],[-120.930996,47.4465613],[-120.9309933,47.4465922],[-120.9310176,47.4466257],[-120.931043,47.4466511],[-120.9310712,47.4466855],[-120.931098,47.4467073],[-120.9311356,47.4467254],[-120.9311758,47.4467273],[-120.931216,47.4467218],[-120.9312508,47.4467128],[-120.9312925,47.4467074],[-120.9313327,47.4467055],[-120.9313649,47.4466947],[-120.9313944,47.4466892],[-120.93144,47.4466874],[-120.931499,47.4467001],[-120.9315312,47.4466965],[-120.9315714,47.4467074],[-120.9316251,47.4467346],[-120.9316814,47.4467436],[-120.9317391,47.4467463],[-120.9318142,47.4467427],[-120.9318705,47.4467463],[-120.9319509,47.4467518],[-120.9320529,47.4467645],[-120.9321977,47.4468098],[-120.9322648,47.4468189],[-120.9324552,47.4468642],[-120.9325679,47.4468932],[-120.9326537,47.4469132],[-120.9327797,47.4469368],[-120.9328629,47.4469658],[-120.9329756,47.4470093],[-120.9330936,47.4470602],[-120.9331741,47.4470964],[-120.9332518,47.4471345],[-120.9333296,47.4471744],[-120.9333859,47.4472361],[-120.9334235,47.4472851],[-120.9334476,47.4473468],[-120.9334879,47.4474139],[-120.9335066,47.4474792],[-120.9335227,47.4475699],[-120.9335495,47.4476552],[-120.9335844,47.4477186],[-120.9336058,47.4477875],[-120.93363,47.4478238],[-120.9336917,47.4478728],[-120.93374,47.4479236],[-120.9337614,47.4479762],[-120.9338151,47.4480378],[-120.9338311,47.4481013],[-120.9338687,47.4481376],[-120.9338821,47.448192],[-120.9338901,47.4482337],[-120.9338713,47.4482663],[-120.9338231,47.448299],[-120.9338124,47.4483281],[-120.9338016,47.4483607],[-120.9337963,47.4483915],[-120.9337909,47.4484333],[-120.9337668,47.4484913],[-120.9337453,47.4485548],[-120.9337426,47.4486219],[-120.9337641,47.4486672],[-120.933799,47.448709],[-120.9338419,47.4487434],[-120.9338982,47.448787],[-120.9339116,47.4488232],[-120.933917,47.4488813],[-120.9339062,47.4489937],[-120.9338794,47.449128],[-120.9338714,47.4492132],[-120.9338526,47.4492749],[-120.9338472,47.4493239],[-120.9338392,47.4494272],[-120.9338365,47.4495179],[-120.9338446,47.4495723],[-120.9338714,47.4496104],[-120.9338875,47.449654],[-120.9338607,47.4496975],[-120.9338151,47.449732],[-120.9337936,47.449761],[-120.9337721,47.4497918],[-120.9337265,47.4498335],[-120.9336729,47.4498662],[-120.9336246,47.4498934],[-120.9335951,47.449917],[-120.9335924,47.4499351],[-120.9335656,47.4499387],[-120.9335549,47.4499587],[-120.9335361,47.4499786],[-120.933512,47.4500095],[-120.9335281,47.4500421],[-120.9335227,47.4500675],[-120.9334905,47.4500965],[-120.9334503,47.4501274],[-120.9334395,47.4501528],[-120.9334637,47.4502054],[-120.9334878,47.4502199],[-120.933579,47.4502489],[-120.9336461,47.4502652],[-120.9336836,47.4502634],[-120.9337534,47.4502815],[-120.9338097,47.4503087],[-120.9338687,47.4503432],[-120.9339009,47.450374],[-120.9339116,47.450423],[-120.9339787,47.4504448],[-120.9340109,47.4504466],[-120.9340296,47.4504683],[-120.9340699,47.4505409],[-120.9341235,47.4505627],[-120.9341423,47.4505717],[-120.9341986,47.4505627],[-120.9342388,47.4505681],[-120.9343032,47.4505844],[-120.9343703,47.4506008],[-120.9344373,47.4506171],[-120.9345339,47.4506552],[-120.93455,47.4506806],[-120.9345956,47.4506933],[-120.9346412,47.4507078],[-120.9346707,47.4507295],[-120.9347458,47.4507676],[-120.934786,47.4508148],[-120.9347994,47.4508565],[-120.9348316,47.450871],[-120.9349174,47.4508856],[-120.9349738,47.4509218],[-120.9350006,47.450978],[-120.9350167,47.4510179],[-120.9350167,47.4510524],[-120.9350435,47.4510705],[-120.935132,47.451085],[-120.9351535,47.4511195],[-120.9351964,47.4511757],[-120.9352366,47.4512537],[-120.9352661,47.4513426],[-120.9352742,47.4514333],[-120.9353037,47.4515095],[-120.9353198,47.4515802],[-120.9353546,47.4516201],[-120.9353493,47.4516745],[-120.9353573,47.4517398],[-120.9354271,47.4517888],[-120.9354753,47.4518214],[-120.9354861,47.4518903],[-120.9355048,47.4519556],[-120.9355156,47.4520191],[-120.9355397,47.4520772],[-120.9356095,47.4521932],[-120.9356658,47.4522803],[-120.9356792,47.4523782],[-120.935698,47.4524762],[-120.9357141,47.4525342],[-120.9357516,47.4526231],[-120.9357462,47.4526811],[-120.9357248,47.452721],[-120.9356899,47.4527664],[-120.9356872,47.4528153],[-120.9356792,47.4528516],[-120.9356309,47.4528861],[-120.9356095,47.4529205],[-120.9356068,47.4529423],[-120.9355934,47.4529876],[-120.935596,47.453033],[-120.9355719,47.4530874],[-120.9355585,47.4531273],[-120.9355317,47.4531654],[-120.9354888,47.4531962],[-120.9354458,47.4532198],[-120.9354968,47.4532452],[-120.9354995,47.4532996],[-120.9354834,47.4533304],[-120.9354566,47.4533903],[-120.9354432,47.453432],[-120.9354217,47.4534846],[-120.9354002,47.4535136],[-120.9353654,47.453539],[-120.9353439,47.4535753],[-120.9353064,47.4536079],[-120.9352581,47.4536605],[-120.9352608,47.4537059],[-120.9352393,47.4537294],[-120.9352313,47.4537603],[-120.9352178,47.4538111],[-120.9352098,47.4538618],[-120.9351749,47.453889],[-120.9351481,47.4539072],[-120.9351347,47.4539362],[-120.9351025,47.4539761],[-120.9350757,47.4540106],[-120.9350596,47.4540577],[-120.9350301,47.4541085],[-120.9350247,47.4541466],[-120.935022,47.4541883],[-120.9350516,47.4542246],[-120.9350918,47.4542826],[-120.9351267,47.4543171],[-120.9351669,47.4543515],[-120.9351964,47.4543824],[-120.9352339,47.4544005],[-120.9352313,47.4544458],[-120.9352715,47.4544803],[-120.935293,47.4545238],[-120.9353278,47.4545347],[-120.9353761,47.4545728],[-120.9354727,47.4546381],[-120.9355665,47.4547034],[-120.9355907,47.4547233],[-120.9356068,47.4547596],[-120.9356658,47.4548013],[-120.9357194,47.4548194],[-120.9357704,47.4548666],[-120.9358455,47.4549228],[-120.935883,47.4549537],[-120.9359474,47.4549845],[-120.9359555,47.4550371],[-120.9359689,47.4550625],[-120.9360198,47.4550987],[-120.9359957,47.4551423],[-120.9359984,47.4551876],[-120.9360011,47.4552221],[-120.9360064,47.4552511],[-120.9360145,47.4552892],[-120.9360091,47.4553236],[-120.9359957,47.4553527],[-120.9359984,47.4553762],[-120.9360547,47.4553926],[-120.9360654,47.455427],[-120.9360654,47.4554433],[-120.936052,47.4554597],[-120.9360627,47.4554832],[-120.9360681,47.4555449],[-120.9360922,47.4555902],[-120.9361164,47.4556301],[-120.9360815,47.4556555],[-120.9360225,47.4556428],[-120.9360011,47.4556156],[-120.9359367,47.4555866],[-120.9359072,47.4555812],[-120.9359099,47.4555612],[-120.9358723,47.455554],[-120.9358696,47.4555286],[-120.9358374,47.4555268],[-120.9357972,47.4555449],[-120.9357865,47.4555794],[-120.9357811,47.4556138],[-120.9357516,47.455641],[-120.9356953,47.4556718],[-120.9356819,47.4557136],[-120.9356577,47.4557571],[-120.9356363,47.4557861],[-120.9355639,47.4558351],[-120.9355478,47.455875],[-120.9355236,47.4559149],[-120.9355209,47.455962],[-120.9355102,47.4559965],[-120.9353788,47.4559638],[-120.9353412,47.4559675],[-120.9352876,47.4559493],[-120.9352339,47.4559276],[-120.9352098,47.4558949],[-120.9351937,47.4558605],[-120.9351615,47.4558351],[-120.9351267,47.455826],[-120.9350864,47.4557934],[-120.9350703,47.4557244],[-120.9350784,47.4556755],[-120.9350784,47.4556156],[-120.9350596,47.4555521],[-120.9350194,47.4555122],[-120.9349738,47.4554887],[-120.9348987,47.4554687],[-120.9348343,47.4554542],[-120.9347699,47.4554324],[-120.9347109,47.4553944],[-120.9346519,47.4553617],[-120.9346009,47.45534],[-120.9345607,47.4553363],[-120.9345071,47.4553472],[-120.9344534,47.4553436],[-120.9343998,47.45534],[-120.9343434,47.4553254],[-120.9342683,47.4553019],[-120.9342067,47.4552892],[-120.9341342,47.4552729],[-120.934102,47.455262],[-120.9340538,47.4552456],[-120.9340135,47.4552221],[-120.9339626,47.4551949],[-120.9339358,47.4552076],[-120.9339545,47.4552438],[-120.9339894,47.4553345],[-120.9340323,47.4553599],[-120.9340565,47.4554234],[-120.9340833,47.4554778],[-120.9341181,47.4555449],[-120.9341637,47.455592],[-120.9341852,47.4556229],[-120.9342254,47.4556737],[-120.9342496,47.4557081],[-120.9343193,47.4557371],[-120.9343864,47.4557734],[-120.9343944,47.4557988],[-120.9343595,47.4558133],[-120.9343193,47.4558042],[-120.9342683,47.4558024],[-120.9341879,47.4558042],[-120.9341423,47.4558115],[-120.9340591,47.4558133],[-120.9340216,47.4558061],[-120.9339706,47.4557897],[-120.9339358,47.4557698],[-120.9339009,47.4557462],[-120.9338633,47.4557371],[-120.9338097,47.4557226],[-120.9337641,47.4557063],[-120.9337185,47.4556882],[-120.9336756,47.4556737],[-120.9336675,47.4556954],[-120.9336917,47.455719],[-120.9337292,47.4557553],[-120.9337668,47.455797],[-120.9338016,47.4558532],[-120.9338311,47.4559221],[-120.933858,47.4559874],[-120.9338741,47.4560491],[-120.933917,47.4561053],[-120.9339223,47.456147],[-120.9339706,47.4561869],[-120.9340404,47.4562359],[-120.9341074,47.4562848],[-120.9341611,47.456312],[-120.9342147,47.4563628],[-120.9342388,47.4564281],[-120.9342576,47.4565043],[-120.9343193,47.4565333],[-120.9344025,47.4566258],[-120.9344561,47.4566838],[-120.9344561,47.45674],[-120.9344937,47.4568053],[-120.9345124,47.4568652],[-120.9344963,47.4569305],[-120.9344722,47.4570193],[-120.93444,47.457061],[-120.9343756,47.4571155],[-120.9343488,47.4571535],[-120.9343166,47.4572043],[-120.9342952,47.4572569],[-120.9342469,47.4573023],[-120.9341798,47.457373],[-120.9341879,47.457451],[-120.9341879,47.4574909],[-120.9341557,47.4575126],[-120.9341637,47.4575362],[-120.9341396,47.4575688],[-120.9341316,47.4576051],[-120.9341181,47.457645],[-120.9341047,47.4577194],[-120.9340886,47.4577411],[-120.9340886,47.4577937],[-120.934086,47.4578318],[-120.9340994,47.4578844],[-120.9341074,47.4579315],[-120.9340886,47.4579606],[-120.9340591,47.4579315],[-120.9340377,47.4579098],[-120.9340001,47.4578771],[-120.9339492,47.4578427],[-120.9339036,47.4578064],[-120.9338848,47.4578264],[-120.9338499,47.4578209],[-120.9338258,47.4578046],[-120.9337695,47.4577629],[-120.9337319,47.4577284],[-120.9336675,47.4576958],[-120.9336246,47.457645],[-120.9335924,47.4576232],[-120.9335629,47.4575942],[-120.9335334,47.4575561],[-120.9335415,47.4575253],[-120.9335146,47.4575108],[-120.9334851,47.4574872],[-120.9334556,47.4574437],[-120.9334235,47.4574129],[-120.9334127,47.4573857],[-120.9333939,47.4573603],[-120.933402,47.457324],[-120.9333832,47.4573077],[-120.9333564,47.4573222],[-120.9333483,47.4573458],[-120.9333564,47.4573802],[-120.9333564,47.4574147],[-120.9333671,47.457451],[-120.9333591,47.457489],[-120.9333644,47.4575344],[-120.9333779,47.4575688],[-120.9333698,47.4575942],[-120.9333564,47.4576414],[-120.9333591,47.4576758],[-120.9333618,47.4577411],[-120.9333564,47.4577683],[-120.9333591,47.4578119],[-120.9333564,47.4578463],[-120.9333725,47.4579025],[-120.9333886,47.457937],[-120.9334395,47.4580023],[-120.9334261,47.4580585],[-120.9334422,47.4580984],[-120.9334476,47.4581274],[-120.9334878,47.4581637],[-120.933512,47.4581999],[-120.9335361,47.4582471],[-120.9335173,47.4582743],[-120.9334932,47.458316],[-120.9334717,47.4583487],[-120.9334583,47.4584031],[-120.933469,47.4584466],[-120.9334959,47.458472],[-120.9335361,47.4584883],[-120.9335817,47.458501],[-120.9336166,47.4585228],[-120.9336648,47.4585427],[-120.9337185,47.458608],[-120.9337748,47.4586533],[-120.9338124,47.458695],[-120.9338794,47.4587513],[-120.9339653,47.4587803],[-120.9340323,47.4587912],[-120.934102,47.4588111],[-120.9341798,47.4588184],[-120.9342641,47.4588428],[-120.9343135,47.4588726],[-120.9343362,47.4588924],[-120.9343736,47.4589177],[-120.9344056,47.4589475],[-120.934431,47.4589656],[-120.9344697,47.4589755],[-120.9345125,47.4589809],[-120.9345566,47.4589909],[-120.9345819,47.4590152],[-120.9346313,47.4590369],[-120.9346941,47.4590559],[-120.9347368,47.4590712],[-120.9347475,47.4590803],[-120.9347609,47.4590965],[-120.9347849,47.4591055],[-120.934813,47.4591182],[-120.9348603,47.4591325],[-120.935033,47.4592182],[-120.935371,47.4593346],[-120.9353768,47.4594304],[-120.9352206,47.4594443],[-120.9351118,47.4595573],[-120.9354146,47.459642],[-120.9353462,47.4597045],[-120.9354562,47.4597426],[-120.9353757,47.4597852],[-120.9356157,47.459846],[-120.9355702,47.4598795],[-120.9357029,47.4601588],[-120.9356603,47.4602962],[-120.9357407,47.4603542],[-120.935726,47.4604775],[-120.9358815,47.4606335],[-120.9360653,47.4607088],[-120.9362691,47.4609001],[-120.9363107,47.4610315],[-120.9368699,47.4614649],[-120.9370791,47.461882],[-120.9372884,47.4620307],[-120.9372293,47.4627688],[-120.9376403,47.4631143],[-120.9377202,47.4633491],[-120.9383505,47.4635757],[-120.9383717,47.4636659],[-120.9383317,47.4638749],[-120.9383771,47.4639542],[-120.9384388,47.464034],[-120.9384522,47.4641084],[-120.9384361,47.4641954],[-120.9384323,47.4642466],[-120.9388223,47.4644928],[-120.9389269,47.4645145],[-120.9391093,47.4645998],[-120.9391737,47.4646705],[-120.9392676,47.4647503],[-120.9392756,47.4648047],[-120.9392397,47.4648341],[-120.939167,47.4650078],[-120.9390747,47.4651932],[-120.9391337,47.4653237],[-120.9392463,47.4654453],[-120.9392434,47.4655844],[-120.9392542,47.4657856],[-120.9392745,47.4658478],[-120.9394368,47.4659919],[-120.9397289,47.4661184],[-120.9397893,47.4662099],[-120.9399368,47.4663332],[-120.9399113,47.4663958],[-120.9399274,47.4664221],[-120.9399502,47.4664584],[-120.9399665,47.4665168],[-120.9400991,47.4665635],[-120.9401111,47.4666061],[-120.9401503,47.4666265],[-120.9401999,47.4665894],[-120.9402938,47.4666093],[-120.9403474,47.4665576],[-120.9403689,47.4665866],[-120.9404909,47.4665586],[-120.9404654,47.4666085],[-120.9406653,47.4665704],[-120.9406036,47.4666229],[-120.9405271,47.4668142],[-120.940503,47.466836],[-120.9404869,47.4668496],[-120.9404614,47.4668686],[-120.94044,47.4668777],[-120.9404141,47.4668785],[-120.9403809,47.4668795],[-120.9403675,47.4668886],[-120.9403541,47.4669103],[-120.940338,47.4669285],[-120.9403112,47.4669457],[-120.9402777,47.4669683],[-120.9402468,47.4669711],[-120.9401905,47.4669747],[-120.9401543,47.4669937],[-120.94011,47.4670028],[-120.9400604,47.4670119],[-120.9400336,47.4670255],[-120.9400135,47.4670472],[-120.9399732,47.4670663],[-120.9399116,47.4670889],[-120.9398794,47.4671098],[-120.9398378,47.4671333],[-120.9398056,47.4671469],[-120.9397902,47.4671565],[-120.9397647,47.4671682],[-120.9397298,47.4671837],[-120.9396762,47.4672045],[-120.9396521,47.4672217],[-120.9396594,47.4672439],[-120.9396688,47.4672702],[-120.9396769,47.4672983],[-120.9396795,47.4673319],[-120.9396728,47.4673473],[-120.9396541,47.4673763],[-120.9396514,47.4673963],[-120.9396487,47.4674352],[-120.9396538,47.4675209],[-120.9396726,47.4675535],[-120.9395948,47.4676786],[-120.9395868,47.4677621],[-120.9396485,47.4678165],[-120.9397316,47.4678672],[-120.9399301,47.4679289],[-120.9401366,47.4679851],[-120.9402224,47.4680522],[-120.9402385,47.4682371],[-120.9403029,47.4683151],[-120.9405872,47.468393],[-120.9406409,47.4684964],[-120.9404853,47.4686632],[-120.9404048,47.4687847],[-120.9402841,47.4688355],[-120.9401581,47.4688355],[-120.9400991,47.4689279],[-120.9410693,47.4691653],[-120.9418828,47.4691915],[-120.9428745,47.4695114],[-120.9431467,47.4694698],[-120.9433184,47.4699189],[-120.9447444,47.4702913],[-120.9452759,47.4709572],[-120.946543,47.4710273],[-120.9470796,47.4714962],[-120.946492,47.472487]]}}]}
