{"type":"FeatureCollection","peaks_destination_id":"1GWhGGVD44kQGei3I96d","peaks_trailhead_id":"stNfYYZBNg6kM8dxK3q6","peaks_source":"https://api.openstreetmap.org/api/0.6","peaks_license_name":"Open Data Commons Open Database License (ODbL) 1.0","peaks_license":"https://opendatacommons.org/licenses/odbl/1-0/","peaks_attribution":"© OpenStreetMap contributors","peaks_retrieved_at":"2026-07-28T02:20:06.381Z","features":[{"type":"Feature","properties":{"name":"Liberty Bell Mountain OSM route candidate","trailhead_name":"Blue Lake Trailhead","destination_name":"Liberty Bell Mountain","distance_m":3790.3929569305515,"trailhead_snap_m":35.88686261911471,"summit_snap_m":79.30343924701593,"osm_way_ids":[301865980,1299856455],"osm_way_urls":["https://www.openstreetmap.org/way/301865980","https://www.openstreetmap.org/way/1299856455"],"osm_way_names":["Blue Lake Trail","Liberty Bell Climbers Path"],"osm_foot_access_override_way_ids":[]},"geometry":{"type":"LineString","coordinates":[[-120.673999,48.519316],[-120.6739291,48.5189966],[-120.6738237,48.5189778],[-120.6736593,48.5189412],[-120.6734674,48.5190323],[-120.6733921,48.5192016],[-120.6731951,48.5192814],[-120.6729477,48.5193868],[-120.672771,48.519615],[-120.6722673,48.5199779],[-120.6717018,48.5201359],[-120.6712335,48.5203056],[-120.6710126,48.5204051],[-120.6708712,48.520569],[-120.6708889,48.5207797],[-120.6706326,48.520926],[-120.6702173,48.5210255],[-120.6698815,48.5210431],[-120.6694486,48.5212655],[-120.6691039,48.5215932],[-120.6688919,48.5216752],[-120.668705,48.5217664],[-120.6685797,48.5218108],[-120.6685387,48.5216334],[-120.6686869,48.521071],[-120.668618,48.5207622],[-120.6690333,48.5202413],[-120.6699802,48.5191389],[-120.6709065,48.5183274],[-120.6718432,48.5178884],[-120.6720287,48.5176251],[-120.6720345,48.5170936],[-120.6722172,48.5166633],[-120.672211,48.5164256],[-120.672293,48.5161735],[-120.672019,48.5159101],[-120.672408,48.5150672],[-120.672382,48.5149033],[-120.6716134,48.5145521],[-120.6715115,48.5147137],[-120.671313,48.514716],[-120.6712335,48.5146165],[-120.6708965,48.5146146],[-120.6706149,48.5146575],[-120.6704622,48.5150137],[-120.6703863,48.5153171],[-120.6702157,48.5154773],[-120.6701643,48.5157755],[-120.6700986,48.5165311],[-120.6699588,48.5167451],[-120.6700108,48.5168765],[-120.6702508,48.5169461],[-120.6703317,48.5170514],[-120.6701265,48.5173162],[-120.6694132,48.517748],[-120.6688022,48.5181112],[-120.668517,48.518238],[-120.6681687,48.5183598],[-120.6682478,48.5182388],[-120.6683536,48.5180529],[-120.6684537,48.5178595],[-120.6685498,48.5176121],[-120.6685397,48.5174405],[-120.6685203,48.5171864],[-120.6684289,48.5168737],[-120.6682781,48.5165746],[-120.6680389,48.5162415],[-120.6677331,48.515928],[-120.6673649,48.5155283],[-120.6671926,48.5152734],[-120.6670703,48.5149952],[-120.6668301,48.5147784],[-120.6666638,48.5146647],[-120.6666817,48.5144891],[-120.6667171,48.5142211],[-120.6666155,48.5140748],[-120.6665803,48.513839],[-120.6664439,48.5134991],[-120.6661918,48.5133748],[-120.6661043,48.5134027],[-120.6658216,48.513094],[-120.6657877,48.5129448],[-120.665768,48.5128026],[-120.665692,48.5126038],[-120.6654501,48.5125205],[-120.6653277,48.5125379],[-120.6651878,48.5125051],[-120.6650571,48.5125413],[-120.6648672,48.5125939],[-120.6647535,48.5125842],[-120.6646223,48.5127677],[-120.6643571,48.5128681],[-120.6642842,48.5128739],[-120.6642288,48.5128893],[-120.6640976,48.5128642],[-120.6640423,48.5129144],[-120.6638353,48.5130129],[-120.6637333,48.5130419],[-120.663573,48.5130419],[-120.663468,48.5131114],[-120.663334,48.513123],[-120.6632494,48.5130805],[-120.663162,48.513094],[-120.6629942,48.5130706],[-120.6629094,48.5129961],[-120.6628588,48.5128082],[-120.6627014,48.5127194],[-120.6626023,48.5126364],[-120.6624916,48.5126248],[-120.6624187,48.5125669],[-120.6622117,48.5125591],[-120.6620543,48.5126132],[-120.6619611,48.512619],[-120.6618882,48.5125862],[-120.6618037,48.5124722],[-120.661585,48.512534],[-120.6614655,48.512507],[-120.6612848,48.5126074],[-120.6610779,48.5126653],[-120.6609467,48.5126885],[-120.6609409,48.5127464],[-120.6608388,48.5127117],[-120.6607281,48.5126596],[-120.6606231,48.5125707],[-120.6605182,48.5125244],[-120.6604253,48.5125845],[-120.6603968,48.5127597],[-120.660461,48.5130493],[-120.6603789,48.5131193],[-120.6602614,48.5131156],[-120.6600203,48.5130191],[-120.6599674,48.5131672],[-120.6599993,48.5132359],[-120.6599988,48.5133195],[-120.6601476,48.5133922],[-120.6601902,48.5134789],[-120.660168,48.5135994],[-120.6602223,48.5136376],[-120.6602839,48.5136587],[-120.6603862,48.5137548],[-120.6603211,48.5138167],[-120.6603495,48.5139116],[-120.6603271,48.5139743],[-120.6603508,48.5140313],[-120.6602877,48.5141226],[-120.6603438,48.514157],[-120.6602626,48.5142489],[-120.6600389,48.5143217],[-120.659979,48.5142974],[-120.6598596,48.5143328],[-120.659794,48.5144107],[-120.6596047,48.5144326],[-120.6595801,48.5144711],[-120.6593655,48.5144887],[-120.6593072,48.5145146],[-120.6592132,48.5144887],[-120.6588636,48.514692],[-120.6587423,48.5147983],[-120.6586603,48.5148005],[-120.658119,48.515417]]}}]}
