{"type":"FeatureCollection","peaks_destination_id":"yRH2UgSgZzPhpe2Ldhql","peaks_trailhead_id":"0F6324C02DFB998487B1","peaks_source":"https://api.openstreetmap.org/api/0.6","peaks_license_name":"Open Data Commons Open Database License (ODbL) 1.0","peaks_license":"https://opendatacommons.org/licenses/odbl/1-0/","peaks_attribution":"© OpenStreetMap contributors","peaks_retrieved_at":"2026-07-28T02:20:32.122Z","features":[{"type":"Feature","properties":{"name":"Little Bear Peak OSM route candidate","trailhead_name":"Lake Como Road Trailhead","destination_name":"Little Bear Peak","distance_m":11148.923820479016,"trailhead_snap_m":51.0737050097618,"summit_snap_m":19.590405859601397,"osm_way_ids":[17004120,17003918,774865387,684417114,885312942],"osm_way_urls":["https://www.openstreetmap.org/way/17004120","https://www.openstreetmap.org/way/17003918","https://www.openstreetmap.org/way/774865387","https://www.openstreetmap.org/way/684417114","https://www.openstreetmap.org/way/885312942"],"osm_way_names":["Mount Blanca Road","Blanca Peak Trail","Little Bear Climber's Route"],"osm_foot_access_override_way_ids":[885312942]},"geometry":{"type":"LineString","coordinates":[[-105.5760617,37.5385298],[-105.576523,37.538252],[-105.5748312,37.5392707],[-105.5745698,37.5394719],[-105.5741791,37.5398151],[-105.5738246,37.5400829],[-105.5735011,37.5402878],[-105.5732359,37.5404517],[-105.5729938,37.5405594],[-105.572748,37.5407219],[-105.5724732,37.5409695],[-105.5722673,37.5412152],[-105.5719376,37.5414298],[-105.5716669,37.5415775],[-105.5713815,37.5416844],[-105.5708904,37.5420592],[-105.5701565,37.5425943],[-105.5695849,37.5430269],[-105.56914,37.5433666],[-105.5685793,37.5437913],[-105.5680981,37.5441549],[-105.5674799,37.5446243],[-105.566493,37.5453854],[-105.5659187,37.5460974],[-105.5652377,37.5468945],[-105.5650838,37.5471863],[-105.5650674,37.547227],[-105.5650624,37.5472905],[-105.5650713,37.5476119],[-105.5650374,37.5477265],[-105.564931,37.5478241],[-105.564788,37.5479171],[-105.5646201,37.5481267],[-105.5644744,37.5483638],[-105.5644753,37.5485028],[-105.5645165,37.5486312],[-105.5645899,37.5487081],[-105.5646445,37.5487956],[-105.5646786,37.5489089],[-105.5646481,37.5490009],[-105.564521,37.5491503],[-105.5642562,37.549379],[-105.5640755,37.5495186],[-105.5638519,37.5496008],[-105.5636995,37.549619],[-105.5635202,37.5496967],[-105.5634231,37.5497523],[-105.5633099,37.549776],[-105.5631975,37.5497638],[-105.563085,37.5497687],[-105.5628763,37.5499195],[-105.5628092,37.5499488],[-105.5627073,37.5499209],[-105.562651,37.5499228],[-105.5624203,37.5499475],[-105.5619952,37.5499053],[-105.5613639,37.5501282],[-105.5611939,37.5502632],[-105.561044,37.5503696],[-105.5608004,37.5504446],[-105.560705,37.5505333],[-105.5606311,37.5506432],[-105.5606346,37.5508189],[-105.5605898,37.5509947],[-105.5605054,37.5510377],[-105.5604103,37.5510637],[-105.5602121,37.5509724],[-105.5600606,37.5509684],[-105.5600166,37.5509673],[-105.5597743,37.5510275],[-105.5596366,37.5510196],[-105.5595682,37.5509703],[-105.5593891,37.5508509],[-105.5592315,37.5507273],[-105.558974,37.5506348],[-105.5586189,37.5506998],[-105.5585462,37.5507018],[-105.5584472,37.5506562],[-105.55839,37.5506295],[-105.5583266,37.5505999],[-105.5581872,37.5506204],[-105.5580109,37.5505836],[-105.557946,37.5505754],[-105.5578936,37.5506036],[-105.5577222,37.5507297],[-105.5575361,37.550924],[-105.5571204,37.5510452],[-105.5569142,37.5513776],[-105.5566762,37.551502],[-105.5566363,37.551532],[-105.5566422,37.5515734],[-105.5566643,37.5516021],[-105.5567147,37.5516182],[-105.5570283,37.5516251],[-105.5571077,37.5516323],[-105.5571816,37.5516911],[-105.5573896,37.5519866],[-105.5577049,37.5523131],[-105.558008,37.5526382],[-105.5580817,37.552786],[-105.5581232,37.5529551],[-105.5580396,37.5531476],[-105.5580324,37.5537998],[-105.5579089,37.5543323],[-105.5578575,37.5549111],[-105.5578572,37.5555276],[-105.5578302,37.5561419],[-105.5577732,37.5562823],[-105.5577566,37.5565467],[-105.5578237,37.5567268],[-105.5578748,37.5569239],[-105.5578309,37.5569618],[-105.5577334,37.5569358],[-105.5572392,37.5565354],[-105.5569867,37.5562282],[-105.5567503,37.5559955],[-105.5566667,37.5559759],[-105.556611,37.5559945],[-105.5566155,37.5560849],[-105.556688,37.5563035],[-105.556696,37.5565647],[-105.5567459,37.5569713],[-105.5567248,37.5574415],[-105.5568508,37.5576601],[-105.5569224,37.557826],[-105.5569443,37.5580841],[-105.5569261,37.5581594],[-105.5568308,37.5581629],[-105.5566198,37.5579427],[-105.5564034,37.557782],[-105.556132,37.5576554],[-105.5559827,37.5576902],[-105.5558891,37.5578177],[-105.5558695,37.5580215],[-105.5559519,37.5583528],[-105.555825,37.558741],[-105.5557546,37.558889],[-105.5556827,37.5590483],[-105.555624,37.5592255],[-105.5554332,37.5595125],[-105.5554482,37.5596211],[-105.5553291,37.5597553],[-105.5551927,37.5600279],[-105.5550949,37.5600303],[-105.554981,37.5599988],[-105.5543445,37.560154],[-105.5540708,37.5602945],[-105.5539633,37.5603032],[-105.5539056,37.5602515],[-105.5538614,37.5602118],[-105.5537013,37.560013],[-105.5534878,37.5599351],[-105.5532057,37.5599409],[-105.5529316,37.5600147],[-105.5528271,37.5600822],[-105.5526742,37.5600944],[-105.5526369,37.56006],[-105.5525893,37.5599453],[-105.5526227,37.5595342],[-105.5526113,37.5590326],[-105.5526851,37.558769],[-105.5526283,37.5587444],[-105.5525875,37.5587646],[-105.5524039,37.5591527],[-105.5523363,37.5594042],[-105.5521828,37.5596132],[-105.5520604,37.5597221],[-105.5519357,37.5597685],[-105.5515301,37.559886],[-105.5509205,37.560187],[-105.550879,37.5604578],[-105.5508611,37.5604839],[-105.5507663,37.5606224],[-105.550702,37.560803],[-105.5507464,37.561008],[-105.550903,37.561192],[-105.551067,37.5612954],[-105.5512931,37.5613865],[-105.5513377,37.5614076],[-105.5513488,37.5614455],[-105.5513304,37.5614854],[-105.5509663,37.56155],[-105.5506021,37.5615891],[-105.5503603,37.5616076],[-105.5501436,37.5614769],[-105.5500679,37.5615736],[-105.5501108,37.5616416],[-105.5500319,37.5617753],[-105.5497326,37.5622227],[-105.5493348,37.5624453],[-105.5488357,37.5632057],[-105.5483314,37.5636016],[-105.5478366,37.5638941],[-105.5470381,37.564442],[-105.5462622,37.5647975],[-105.5456212,37.5655026],[-105.5442728,37.5657906],[-105.5438407,37.5660832],[-105.5434309,37.5662792],[-105.5423944,37.5667362],[-105.5420594,37.5671801],[-105.5410012,37.5676653],[-105.540692,37.567807],[-105.5402089,37.5680755],[-105.5397231,37.5684662],[-105.5386937,37.5686331],[-105.5383466,37.5686516],[-105.536752,37.568562],[-105.5362215,37.5685342],[-105.5354295,37.5686764],[-105.5349953,37.5687378],[-105.534866,37.568766],[-105.5346557,37.5688486],[-105.5344034,37.5688585],[-105.5342917,37.5689568],[-105.5343786,37.5690803],[-105.534374,37.5690936],[-105.5343386,37.5691961],[-105.5341782,37.5692123],[-105.5341125,37.5693032],[-105.5337366,37.5694389],[-105.5335248,37.5695233],[-105.5333511,37.5695211],[-105.5328327,37.5697047],[-105.5323336,37.5697134],[-105.5320317,37.5696753],[-105.5318484,37.56972],[-105.5316085,37.5696282],[-105.5313521,37.5696238],[-105.5311643,37.56948],[-105.5311162,37.5696105],[-105.5311925,37.56979],[-105.5312994,37.5699003],[-105.5315549,37.570091],[-105.5317814,37.5703243],[-105.5317467,37.5703796],[-105.5316475,37.570403],[-105.5312942,37.5703013],[-105.5308398,37.570348],[-105.530478,37.5702948],[-105.5302299,37.570133],[-105.5300121,37.5700194],[-105.5297915,37.5698205],[-105.529359,37.569934],[-105.5290994,37.5699298],[-105.5289395,37.5700128],[-105.5286142,37.5700128],[-105.5285204,37.5701396],[-105.5285389,37.5703865],[-105.5284464,37.5704744],[-105.5283109,37.5705155],[-105.5280674,37.5704223],[-105.527571,37.5701643],[-105.5272807,37.5700236],[-105.5269212,37.5699545],[-105.5266483,37.5698446],[-105.5263587,37.5698205],[-105.5259479,37.569626],[-105.525546,37.5696901],[-105.5254899,37.5697752],[-105.525648,37.569845],[-105.5256584,37.5700063],[-105.5257931,37.5700301],[-105.5258191,37.5701337],[-105.5256438,37.5702352],[-105.5253854,37.5702773],[-105.5249636,37.5703472],[-105.5244504,37.5702749],[-105.523982,37.5700372],[-105.5232958,37.5699425],[-105.5229998,37.5699152],[-105.5227468,37.5699517],[-105.5222395,37.5698533],[-105.5216994,37.5698231],[-105.5212717,37.5697637],[-105.5207977,37.5698204],[-105.5201479,37.5698767],[-105.5195016,37.5699684],[-105.5190687,37.5698708],[-105.5186391,37.569904],[-105.5175902,37.5700163],[-105.517202,37.5699254],[-105.5168601,37.5700369],[-105.5165796,37.5700762],[-105.5160688,37.5701964],[-105.5155831,37.5700146],[-105.5154926,37.5700247],[-105.5154413,37.5700451],[-105.5153994,37.5700838],[-105.5152992,37.5701439],[-105.5151733,37.5701984],[-105.5149823,37.5702713],[-105.5148564,37.5702778],[-105.5145931,37.5702279],[-105.5144322,37.5702155],[-105.5141666,37.5702371],[-105.5138876,37.5702755],[-105.5136697,37.5702376],[-105.5135153,37.5701882],[-105.5130848,37.5701374],[-105.5130283,37.570112],[-105.5129257,37.5700478],[-105.5127818,37.5700026],[-105.5125692,37.5699462],[-105.5124806,37.569907],[-105.5123968,37.569853],[-105.5123303,37.5697962],[-105.512289,37.5697301],[-105.5122872,37.5696729],[-105.5122832,37.5696036],[-105.5122756,37.569478],[-105.5122301,37.5693515],[-105.5121037,37.5691437],[-105.512042,37.5690338],[-105.5120128,37.5689128],[-105.5119773,37.5687461],[-105.5120128,37.568657],[-105.5120804,37.5685642],[-105.5121136,37.568488],[-105.5120839,37.568434],[-105.5120524,37.5683952],[-105.5120035,37.5683513],[-105.5119581,37.5683217],[-105.5119155,37.5683088],[-105.5118602,37.5683319],[-105.5117687,37.568373],[-105.5116446,37.568306],[-105.5115188,37.5683772],[-105.5113347,37.5682945],[-105.5112636,37.568246],[-105.5112298,37.5681726],[-105.5112234,37.5681223],[-105.5111955,37.5680821],[-105.5111436,37.5680438],[-105.5110236,37.5679796],[-105.5109246,37.5679325],[-105.5108745,37.5678914],[-105.510755,37.5678041],[-105.5106315,37.5677431],[-105.5105063,37.5677154],[-105.5103391,37.567679],[-105.5101375,37.567606],[-105.5099359,37.5674961],[-105.5097822,37.567077],[-105.5098684,37.5667268],[-105.5099145,37.5666336],[-105.5099067,37.5663499],[-105.5099681,37.5662344],[-105.5101625,37.565323],[-105.5101431,37.5650954],[-105.5099537,37.5647052],[-105.5096922,37.5642983],[-105.5095392,37.564246],[-105.5088964,37.5642906],[-105.5084657,37.5643529],[-105.5079394,37.5643127],[-105.5074673,37.5642667],[-105.5070093,37.564315],[-105.5068888,37.5643301],[-105.5066822,37.564369],[-105.5057535,37.564458],[-105.5054447,37.5644947],[-105.505136,37.564581],[-105.5048533,37.5647212],[-105.5039256,37.5649482],[-105.503389,37.5649047],[-105.5031418,37.5649216],[-105.5027648,37.5649795],[-105.5019668,37.5648683],[-105.5014754,37.5649164],[-105.500769,37.5649404],[-105.5000964,37.5650127],[-105.4991698,37.5649815],[-105.4988314,37.5650389],[-105.4984268,37.5651847],[-105.4983033,37.5652924],[-105.4981152,37.5654001],[-105.4979557,37.5655343],[-105.4977547,37.565572],[-105.4975203,37.5661847],[-105.4974826,37.5664539],[-105.4973414,37.5667736],[-105.497224,37.566624]]}}]}
