{"type":"FeatureCollection","peaks_destination_id":"TO172EubFDAqKIsiWR5S","peaks_trailhead_id":"0kwic89q2UWPLE6jGyk0","peaks_source":"https://api.openstreetmap.org/api/0.6","peaks_license_name":"Open Data Commons Open Database License (ODbL) 1.0","peaks_license":"https://opendatacommons.org/licenses/odbl/1-0/","peaks_attribution":"© OpenStreetMap contributors","peaks_retrieved_at":"2026-07-28T02:20:04.811Z","features":[{"type":"Feature","properties":{"name":"Little Annapurna OSM route candidate","trailhead_name":"Stuart Lake Trailhead","destination_name":"Little Annapurna","distance_m":11991.571002186553,"trailhead_snap_m":44.108656423033786,"summit_snap_m":4.124017748465569,"osm_way_ids":[1219407739,1219407738,5838047,310632646,854796770,235696406,854796771,340350765,310632679,310632640,844433058,235696395,1084352602,1084352603,1084352604,538405794,632018375,632018377,816936690],"osm_way_urls":["https://www.openstreetmap.org/way/1219407739","https://www.openstreetmap.org/way/1219407738","https://www.openstreetmap.org/way/5838047","https://www.openstreetmap.org/way/310632646","https://www.openstreetmap.org/way/854796770","https://www.openstreetmap.org/way/235696406","https://www.openstreetmap.org/way/854796771","https://www.openstreetmap.org/way/340350765","https://www.openstreetmap.org/way/310632679","https://www.openstreetmap.org/way/310632640","https://www.openstreetmap.org/way/844433058","https://www.openstreetmap.org/way/235696395","https://www.openstreetmap.org/way/1084352602","https://www.openstreetmap.org/way/1084352603","https://www.openstreetmap.org/way/1084352604","https://www.openstreetmap.org/way/538405794","https://www.openstreetmap.org/way/632018375","https://www.openstreetmap.org/way/632018377","https://www.openstreetmap.org/way/816936690"],"osm_way_names":["Stuart Lake Trail","Colchuck Lake Trail","Aasgard Pass Trail","Snow Lakes Trail","Little Annapurna Summit Trail"],"osm_foot_access_override_way_ids":[]},"geometry":{"type":"LineString","coordinates":[[-120.820761,47.528185],[-120.8207727,47.5277884],[-120.8208662,47.5277547],[-120.8209225,47.5277434],[-120.8209687,47.5277474],[-120.8209882,47.5277375],[-120.8209942,47.5277103],[-120.8209051,47.5275621],[-120.8209394,47.5274148],[-120.8210971,47.5271242],[-120.8213371,47.5269345],[-120.821497,47.526663],[-120.821558,47.5265831],[-120.8215843,47.5265245],[-120.821672,47.525997],[-120.821823,47.525693],[-120.8219023,47.5255697],[-120.821945,47.525366],[-120.822041,47.525243],[-120.822241,47.525054],[-120.822293,47.524975],[-120.822375,47.524769],[-120.822512,47.524579],[-120.822552,47.524344],[-120.8226129,47.5241654],[-120.8225593,47.5239589],[-120.8225003,47.5238357],[-120.8224384,47.5237329],[-120.8224275,47.5236835],[-120.8225271,47.5236274],[-120.822633,47.523438],[-120.823025,47.523094],[-120.823254,47.522796],[-120.82327,47.52269],[-120.823242,47.522585],[-120.823102,47.522384],[-120.82307,47.522256],[-120.823068,47.522133],[-120.823217,47.52173],[-120.823277,47.521368],[-120.823376,47.52111],[-120.823378,47.520958],[-120.823198,47.520603],[-120.823221,47.520519],[-120.823343,47.520339],[-120.823624,47.519721],[-120.823674,47.519671],[-120.823984,47.519428],[-120.82444,47.51912],[-120.824702,47.518991],[-120.825169,47.518835],[-120.82522,47.518762],[-120.825209,47.518692],[-120.825151,47.518573],[-120.825138,47.51845],[-120.825195,47.518141],[-120.825193,47.517965],[-120.825239,47.517836],[-120.825433,47.517535],[-120.825679,47.516997],[-120.826197,47.516405],[-120.826237,47.516321],[-120.826309,47.515996],[-120.826333,47.515776],[-120.826451,47.515568],[-120.826494,47.51543],[-120.826543,47.51535],[-120.8266,47.515302],[-120.82694,47.515107],[-120.827006,47.515042],[-120.827101,47.514907],[-120.827157,47.514749],[-120.827295,47.51459],[-120.827468,47.514303],[-120.827632,47.51393],[-120.827726,47.513773],[-120.827812,47.513513],[-120.827824,47.513389],[-120.8278962,47.5130903],[-120.8278862,47.5128919],[-120.827863,47.5127143],[-120.827866,47.5126401],[-120.8279076,47.5126011],[-120.828027,47.5125731],[-120.8280927,47.5125214],[-120.8281437,47.5124055],[-120.8281646,47.5122324],[-120.828318,47.512113],[-120.828424,47.512023],[-120.828698,47.511913],[-120.828764,47.511851],[-120.82893,47.5115708],[-120.8289617,47.5114084],[-120.8289159,47.5113023],[-120.8288031,47.5110587],[-120.8287491,47.510985],[-120.8286345,47.5108311],[-120.8286733,47.5106821],[-120.8289899,47.5104194],[-120.829202,47.510139],[-120.8294565,47.5098705],[-120.8294083,47.5097459],[-120.8295094,47.5096527],[-120.8296181,47.5096121],[-120.8301228,47.5093753],[-120.8302961,47.509226],[-120.8304336,47.5092398],[-120.8305408,47.5092634],[-120.8307961,47.5092686],[-120.831026,47.509148],[-120.83153,47.509044],[-120.83168,47.509027],[-120.831808,47.509037],[-120.831914,47.509069],[-120.8320753,47.5091649],[-120.8321693,47.5091849],[-120.8322623,47.5091729],[-120.8323613,47.5091319],[-120.832422,47.509066],[-120.832459,47.508977],[-120.83242,47.508775],[-120.832448,47.508682],[-120.832509,47.508627],[-120.832605,47.508593],[-120.8327701,47.508616],[-120.8328991,47.508578],[-120.8329701,47.508505],[-120.833167,47.508173],[-120.83345,47.50809],[-120.8336246,47.5079889],[-120.833659,47.507969],[-120.834037,47.507834],[-120.834301,47.50772],[-120.83463,47.507687],[-120.8348894,47.5076497],[-120.835188,47.507507],[-120.835308,47.507535],[-120.835428,47.507628],[-120.8354849,47.5076896],[-120.8357102,47.5076896],[-120.8359462,47.5077548],[-120.836075,47.5078164],[-120.8362252,47.5077584],[-120.8364397,47.5076932],[-120.836561,47.507739],[-120.8366972,47.5078345],[-120.8369601,47.5078635],[-120.8372176,47.507762],[-120.8373731,47.5077657],[-120.837518,47.5076751],[-120.8377433,47.5076823],[-120.8379596,47.5075206],[-120.838336,47.507396],[-120.838534,47.507308],[-120.838572,47.507275],[-120.838628,47.507146],[-120.838931,47.506807],[-120.83901,47.506689],[-120.839009,47.506607],[-120.838895,47.506452],[-120.838875,47.506383],[-120.838918,47.50628],[-120.839188,47.50599],[-120.839377,47.505853],[-120.839582,47.505675],[-120.839757,47.505602],[-120.839835,47.505536],[-120.839904,47.505409],[-120.840013,47.505324],[-120.8403523,47.5051302],[-120.8402777,47.5049173],[-120.8402968,47.5046078],[-120.8403619,47.50446],[-120.8403014,47.5043075],[-120.8402317,47.5042298],[-120.8402459,47.5042058],[-120.8402618,47.5041478],[-120.8402506,47.5041233],[-120.840181,47.5040913],[-120.8401009,47.5040812],[-120.8400802,47.5040599],[-120.8401114,47.5040123],[-120.840202,47.5040044],[-120.840246,47.5039697],[-120.8405523,47.5037973],[-120.8407361,47.5036318],[-120.840872,47.5035106],[-120.8409201,47.5033058],[-120.8410645,47.503114],[-120.8412041,47.5029806],[-120.8414881,47.5028701],[-120.8418153,47.5027205],[-120.8419357,47.5025807],[-120.8419549,47.5024507],[-120.8418394,47.5023434],[-120.8417239,47.5023076],[-120.8413677,47.5023141],[-120.8412619,47.5022816],[-120.8412522,47.5022166],[-120.8413056,47.5020871],[-120.8414159,47.5019305],[-120.8416036,47.5017289],[-120.8417913,47.5016216],[-120.8420415,47.5015663],[-120.8422341,47.5015728],[-120.8424651,47.5015858],[-120.8426432,47.5015695],[-120.8426817,47.5015468],[-120.8426239,47.501498],[-120.842518,47.5014687],[-120.8424603,47.5014167],[-120.8424747,47.5013452],[-120.8425613,47.5012281],[-120.8427731,47.5011013],[-120.8430667,47.5009323],[-120.8432929,47.5007307],[-120.8436539,47.5006136],[-120.8438897,47.5005681],[-120.8439908,47.5004836],[-120.8440052,47.5003763],[-120.8440052,47.5000934],[-120.8439619,47.5000218],[-120.8438704,47.5000056],[-120.8436876,47.5000153],[-120.8434644,47.5000561],[-120.843264,47.5001714],[-120.8429367,47.5002169],[-120.8427827,47.5002494],[-120.842672,47.5002397],[-120.8426095,47.5001909],[-120.8426287,47.5001259],[-120.8425758,47.5000836],[-120.8424651,47.5000869],[-120.8422966,47.5000641],[-120.8422052,47.5000023],[-120.8421571,47.499934],[-120.8422052,47.4998495],[-120.8424555,47.4997227],[-120.8425228,47.4996674],[-120.8425276,47.4995991],[-120.8424458,47.4995406],[-120.8422485,47.4995048],[-120.841902,47.4994723],[-120.8414736,47.4994918],[-120.8411415,47.4995406],[-120.8408865,47.4996382],[-120.840718,47.499778],[-120.8405159,47.4999015],[-120.840256,47.499934],[-120.839972,47.4998983],[-120.8396977,47.499817],[-120.8394859,47.4997227],[-120.8393897,47.4996089],[-120.8393653,47.4994789],[-120.83938,47.4993325],[-120.8392212,47.4991602],[-120.8391731,47.4991212],[-120.8391442,47.4990334],[-120.8391442,47.4989131],[-120.8391201,47.4988903],[-120.8390913,47.4988935],[-120.8390576,47.4989586],[-120.8390142,47.4989683],[-120.8389806,47.4989423],[-120.8389547,47.4988615],[-120.8388747,47.4986041],[-120.8387544,47.4984806],[-120.8386725,47.4984676],[-120.8385907,47.4984968],[-120.8385281,47.4985359],[-120.8384174,47.4985944],[-120.8383453,47.4986594],[-120.8382346,47.4987732],[-120.8380902,47.4988708],[-120.8378886,47.4989242],[-120.8377773,47.4990626],[-120.8375774,47.4991926],[-120.8374164,47.4994008],[-120.8371138,47.4995729],[-120.8368292,47.4997194],[-120.8367233,47.4998463],[-120.8366172,47.4999174],[-120.8364934,47.4999272],[-120.8363821,47.5000008],[-120.8362661,47.5000966],[-120.8361939,47.5000804],[-120.8361506,47.5000381],[-120.8360303,47.5000511],[-120.8359292,47.5000576],[-120.8358522,47.5000088],[-120.8358556,47.4999621],[-120.8360014,47.4998853],[-120.8361891,47.499739],[-120.8363655,47.499546],[-120.8365356,47.4994008],[-120.8367233,47.4992057],[-120.8369062,47.4990626],[-120.8369543,47.4989456],[-120.8370506,47.4988383],[-120.8372046,47.4987537],[-120.8373682,47.4986139],[-120.8375104,47.4983583],[-120.8374965,47.4982456],[-120.8375559,47.4981662],[-120.8375271,47.4981001],[-120.8374212,47.4980286],[-120.8372864,47.4978758],[-120.8371228,47.4975831],[-120.836964,47.4973913],[-120.8368051,47.4972384],[-120.8366559,47.4971637],[-120.8365019,47.4971702],[-120.8364345,47.4972059],[-120.8364009,47.4972515],[-120.8363864,47.497284],[-120.8363383,47.4972905],[-120.8362998,47.4972645],[-120.8362372,47.4972092],[-120.8361462,47.497191],[-120.8361554,47.497271],[-120.8361602,47.4973523],[-120.8362083,47.497414],[-120.8362131,47.4974888],[-120.8361843,47.4975116],[-120.8361361,47.4975051],[-120.8361121,47.4974726],[-120.8360736,47.4974791],[-120.8360784,47.4975148],[-120.8360688,47.4975474],[-120.8360206,47.4975539],[-120.8359773,47.4975344],[-120.8359388,47.4975441],[-120.835934,47.4976124],[-120.8359292,47.4976644],[-120.8358907,47.497702],[-120.8358426,47.4976677],[-120.8357896,47.4976189],[-120.8357436,47.4975914],[-120.8356982,47.4976156],[-120.8356741,47.4976482],[-120.8356356,47.4976547],[-120.8355875,47.4976221],[-120.8355586,47.4975766],[-120.8354768,47.4975604],[-120.8352939,47.4976319],[-120.8351158,47.497762],[-120.8348992,47.4978303],[-120.8346682,47.497853],[-120.8345335,47.4978368],[-120.8344564,47.4977425],[-120.834442,47.4975994],[-120.8345094,47.4975148],[-120.8346056,47.4974531],[-120.8346056,47.4974043],[-120.8345527,47.4973393],[-120.8344276,47.497245],[-120.8344276,47.4971116],[-120.8345046,47.4970401],[-120.8346297,47.4969913],[-120.8346778,47.4968775],[-120.8347404,47.4966271],[-120.83475,47.4964255],[-120.8347982,47.4962564],[-120.8348607,47.4961264],[-120.8351471,47.4959221],[-120.8352956,47.4957787],[-120.8353582,47.4956454],[-120.8354737,47.4954795],[-120.835647,47.4953657],[-120.8357962,47.4953039],[-120.8359117,47.4952617],[-120.8360079,47.4951381],[-120.8360843,47.4950583],[-120.8362225,47.4949782],[-120.8363593,47.494943],[-120.8365934,47.4949402],[-120.8367876,47.4948487],[-120.8368454,47.4947739],[-120.8368406,47.4946698],[-120.8368598,47.4945983],[-120.8369946,47.4945007],[-120.8371293,47.4943284],[-120.8371919,47.4942211],[-120.8371775,47.4941333],[-120.8371245,47.4940487],[-120.8371197,47.4939707],[-120.8370379,47.4938569],[-120.8368117,47.4936618],[-120.8366625,47.4935154],[-120.836624,47.4934048],[-120.8367202,47.493174],[-120.8366962,47.4930829],[-120.8367395,47.4929301],[-120.8368421,47.4928633],[-120.8368839,47.492748],[-120.8368983,47.4926406],[-120.8368309,47.4925268],[-120.8366866,47.4924358],[-120.8365951,47.492361],[-120.8364459,47.4923154],[-120.836417,47.4922504],[-120.8364555,47.4921723],[-120.836648,47.4920878],[-120.8368646,47.491948],[-120.8369176,47.4918179],[-120.8370668,47.491587],[-120.8370147,47.4913827],[-120.837212,47.491251],[-120.8373108,47.4909858],[-120.8376005,47.4907283],[-120.8376369,47.4905153],[-120.8376415,47.4903498],[-120.8377388,47.4902224],[-120.8378272,47.4900083],[-120.8379238,47.4898168],[-120.8379401,47.4896786],[-120.8379523,47.4894354],[-120.8380197,47.4892814],[-120.838005,47.4892477],[-120.8379438,47.4892592],[-120.8379268,47.4892339],[-120.8379744,47.4891902],[-120.8379957,47.4891156],[-120.8379217,47.4890135],[-120.8378224,47.488953],[-120.8377431,47.4888895],[-120.8376924,47.4888489],[-120.8376732,47.4887058],[-120.8374234,47.4887131],[-120.8371588,47.4886126],[-120.8370143,47.488497],[-120.8369753,47.4883936],[-120.8367732,47.4883968],[-120.8365759,47.4883871],[-120.8363208,47.4883448],[-120.8362324,47.4883168],[-120.8361379,47.4882863],[-120.8359406,47.4882147],[-120.8356807,47.4881334],[-120.8355642,47.4880488],[-120.8354357,47.4879418],[-120.8354159,47.4878862],[-120.8352427,47.4877626],[-120.8350502,47.4877269],[-120.8348495,47.487728],[-120.8346971,47.487732],[-120.8346074,47.4877724],[-120.834517,47.4878721],[-120.834386,47.4878732],[-120.8342609,47.487883],[-120.8341983,47.4878179],[-120.8341126,47.4877475],[-120.8340635,47.4877008],[-120.8339131,47.4877015],[-120.8338398,47.4876372],[-120.8336881,47.4875968],[-120.833486,47.4876],[-120.8332357,47.4875285],[-120.8331539,47.4874732],[-120.8331154,47.4874114],[-120.8330191,47.4873789],[-120.8328995,47.4873733],[-120.8328415,47.4873979],[-120.832812,47.4874604],[-120.8327745,47.4874786],[-120.8326914,47.4874469],[-120.8326176,47.4874514],[-120.8325491,47.4874795],[-120.8324701,47.4874976],[-120.8322877,47.4874994],[-120.8320155,47.4875071],[-120.8319032,47.4874809],[-120.8317606,47.4873734],[-120.8316518,47.4873581],[-120.8314604,47.4873512],[-120.8313033,47.4872622],[-120.8311236,47.4872955],[-120.8308795,47.4873028],[-120.8308265,47.4872529],[-120.8305951,47.4871524],[-120.8304819,47.4871943],[-120.8301446,47.4871773],[-120.8300587,47.4870822],[-120.8298567,47.4870918],[-120.8297101,47.4870635],[-120.8296617,47.4869088],[-120.8294466,47.4867805],[-120.8291477,47.4866836],[-120.8290942,47.4865673],[-120.8289369,47.4864495],[-120.8286756,47.4864539],[-120.8284165,47.486262],[-120.8282338,47.4862808],[-120.8280956,47.486208],[-120.8278342,47.4861594],[-120.8275775,47.486215],[-120.8274519,47.4860977],[-120.8272316,47.4861457],[-120.8270731,47.4861427],[-120.8269283,47.4861676],[-120.8268105,47.4862145],[-120.8266222,47.4862562],[-120.8264826,47.4862074],[-120.8263715,47.4861601],[-120.8262703,47.4862862],[-120.8260852,47.4863419],[-120.8259492,47.4863246],[-120.8258158,47.4862764],[-120.825706,47.4862109],[-120.8257268,47.4861585],[-120.8256275,47.4861188],[-120.8256094,47.4859732],[-120.82551,47.4858906],[-120.82549,47.4857873],[-120.8253133,47.4856849],[-120.8252411,47.4856264],[-120.825116,47.4855711],[-120.8249543,47.4855883],[-120.824812,47.4855872],[-120.824705,47.4855322],[-120.824637,47.485452],[-120.8246039,47.4853446],[-120.8244857,47.4852957],[-120.8243762,47.485261],[-120.8243271,47.485216],[-120.8243078,47.4851315],[-120.8241538,47.4850599],[-120.8239805,47.4850274],[-120.8238362,47.4849656],[-120.8237399,47.4848843],[-120.8236051,47.4847867],[-120.8235011,47.4846885],[-120.8235034,47.484573],[-120.8235815,47.4844541],[-120.8235618,47.4843249],[-120.8233995,47.484176],[-120.8232716,47.4841158],[-120.8231894,47.4839874],[-120.823058,47.4839503],[-120.8228886,47.4838686],[-120.8229291,47.4837791],[-120.8228697,47.4837148],[-120.8227902,47.4836708],[-120.8227973,47.483619],[-120.822815,47.4835414],[-120.8228299,47.4834769],[-120.822826,47.4833597],[-120.8230509,47.4831949],[-120.823221,47.4831228],[-120.8232358,47.4829938],[-120.8233256,47.482841],[-120.8232871,47.4827127],[-120.8232085,47.4825787],[-120.8231402,47.4825954],[-120.823077,47.4826457],[-120.8229766,47.4826424],[-120.823046,47.482551],[-120.8230535,47.4824594],[-120.8229825,47.4823419],[-120.8228536,47.482297],[-120.8228249,47.4821165],[-120.8228607,47.4819793],[-120.8228297,47.4817815],[-120.8229213,47.4816657],[-120.8228664,47.4815514],[-120.8228881,47.4814424],[-120.8228628,47.4813632],[-120.8228402,47.4812213],[-120.8228432,47.4811218],[-120.8228812,47.4810528],[-120.8228595,47.4808943],[-120.8227927,47.4808317],[-120.8226793,47.4808095],[-120.8225134,47.4808187],[-120.822454,47.4807846],[-120.8224323,47.4807567],[-120.8224472,47.4807261],[-120.8224979,47.4807093],[-120.8224389,47.4806551],[-120.8223272,47.4806488],[-120.8221486,47.4805496],[-120.8221261,47.4805042],[-120.8219013,47.4804241],[-120.8218743,47.4803882],[-120.821667,47.4803904],[-120.8215333,47.4803759],[-120.8214327,47.4803125],[-120.8212132,47.4802857],[-120.820973,47.4803203],[-120.8208481,47.4803604],[-120.8206854,47.4803775],[-120.820463,47.4803299],[-120.8202555,47.4802492],[-120.8201732,47.4801223],[-120.8201742,47.4800079],[-120.8201259,47.4798864],[-120.8201287,47.4797971],[-120.8201053,47.4797136],[-120.820021,47.4796787],[-120.8199169,47.4796885],[-120.8198497,47.4797052],[-120.8198316,47.4797801],[-120.8197981,47.4798299],[-120.8195598,47.4800135],[-120.8194171,47.4801763],[-120.8193064,47.4801953],[-120.8191685,47.4801707],[-120.8189939,47.4801774],[-120.8188783,47.4801819],[-120.81865,47.480225],[-120.8184099,47.4801555],[-120.818347,47.4801532],[-120.8182616,47.4801453],[-120.8181642,47.4800702],[-120.8180423,47.4799951],[-120.8179636,47.479964],[-120.8178448,47.4800095],[-120.8176945,47.4800203],[-120.8175899,47.4800081],[-120.8172937,47.4799832],[-120.8171425,47.4799197],[-120.8169046,47.4799163],[-120.81674,47.4798649],[-120.8166032,47.4798694],[-120.816493,47.4798364],[-120.8163498,47.4798216],[-120.8162492,47.4797903],[-120.8161162,47.4797734],[-120.8159967,47.4797557],[-120.8158367,47.4797621],[-120.8156393,47.4796898],[-120.8154896,47.4794631],[-120.8153491,47.4793608],[-120.8150987,47.4792777],[-120.8149686,47.4791223],[-120.8148131,47.4790396],[-120.8147473,47.4789389],[-120.8147988,47.4787902],[-120.8147782,47.4786455],[-120.8148748,47.478457],[-120.8147955,47.4783271],[-120.8148314,47.4782069],[-120.8147887,47.4779963],[-120.8148314,47.4778038],[-120.8147782,47.4775794],[-120.8148503,47.4774729],[-120.8148443,47.4773953],[-120.8147487,47.4773257],[-120.8146226,47.4773004],[-120.8144131,47.4773687],[-120.8143304,47.4773525],[-120.8139948,47.4772266],[-120.8136662,47.4771982],[-120.8134705,47.4771905],[-120.8132502,47.4771803],[-120.8129268,47.4772449],[-120.8127701,47.4772134],[-120.8123608,47.4772275],[-120.812106,47.4772835],[-120.8118751,47.4773578],[-120.8116874,47.477337],[-120.8111032,47.477498],[-120.8108963,47.4775236],[-120.8104189,47.4776779],[-120.8101591,47.4777272],[-120.8099771,47.4777226],[-120.8098179,47.477691],[-120.8097487,47.4775738],[-120.8097309,47.4774899],[-120.8097191,47.4774047],[-120.8097111,47.4772869],[-120.8096759,47.4772046],[-120.8097069,47.4771224],[-120.8096765,47.4769832],[-120.8095647,47.4769506],[-120.8094272,47.4769496],[-120.809301,47.4769895],[-120.8092323,47.4770187],[-120.809144,47.4770628],[-120.8090638,47.4770946],[-120.808998,47.4771662],[-120.80896,47.4771769],[-120.8088894,47.4771852],[-120.8087933,47.477182],[-120.8086721,47.4771502],[-120.8085729,47.4771363],[-120.8083532,47.4771733],[-120.8081105,47.4772892],[-120.8079166,47.4774336],[-120.807741,47.4774941],[-120.8075792,47.4775959],[-120.8074435,47.4776346],[-120.807257,47.4776446],[-120.8071189,47.4777716],[-120.8069837,47.4775433],[-120.806973,47.477333],[-120.806914,47.4771916],[-120.8067155,47.477101],[-120.8066779,47.4769632],[-120.8065861,47.4767748],[-120.806855,47.4764846],[-120.8069702,47.4763683],[-120.8069795,47.4762632],[-120.8071949,47.4760351],[-120.8075631,47.4758392],[-120.8076382,47.4757591],[-120.8076646,47.475578],[-120.8076006,47.4754041],[-120.8075761,47.4751198],[-120.8076218,47.4750127],[-120.8076543,47.4748928],[-120.8076732,47.4746354],[-120.8077497,47.4745981],[-120.8077828,47.4744806],[-120.8078931,47.4744742],[-120.8080499,47.4742594],[-120.8082576,47.4741278],[-120.8083034,47.4739428],[-120.8086413,47.4737688],[-120.808695,47.4735948],[-120.8088237,47.4735077],[-120.8087862,47.4733699],[-120.808931,47.4731524],[-120.8088023,47.4729457],[-120.808872,47.472797],[-120.8089739,47.4727318],[-120.8090168,47.4724743],[-120.8090812,47.4722894],[-120.8090866,47.472119],[-120.8090705,47.4720392],[-120.8091724,47.471963],[-120.8095298,47.4718652],[-120.8095452,47.4718162],[-120.8095613,47.4717636],[-120.8095613,47.4717146],[-120.8095961,47.471653],[-120.8096605,47.4715605],[-120.8097464,47.47143],[-120.8097893,47.4713031],[-120.8098268,47.4712161],[-120.809859,47.4711798],[-120.8099743,47.4711598],[-120.8101058,47.4711417],[-120.8101728,47.4711127],[-120.810264,47.4710855],[-120.8102908,47.4710184],[-120.8103338,47.4709604],[-120.8104142,47.4708661],[-120.8105054,47.470799],[-120.8105296,47.470732],[-120.8105483,47.4706522],[-120.8105671,47.4705815],[-120.8105912,47.4705307],[-120.8106556,47.4704781],[-120.8107951,47.4704546],[-120.8108273,47.4704092],[-120.8108246,47.470373],[-120.8109319,47.4703059],[-120.8110097,47.4702569],[-120.8110445,47.4702062],[-120.811176,47.4702025],[-120.8113637,47.4701898],[-120.8114844,47.4702243],[-120.8116024,47.4702442],[-120.8116883,47.4702406],[-120.8118626,47.4702416],[-120.8119776,47.4701594],[-120.8121309,47.4700303],[-120.8121738,47.4699451],[-120.812147,47.4698526],[-120.8122087,47.4697982],[-120.8123031,47.4697645],[-120.8123743,47.4697555],[-120.8124544,47.4695844],[-120.8125939,47.4694201],[-120.8125762,47.46935],[-120.8125734,47.4692579],[-120.8127987,47.4691709],[-120.812847,47.4690258],[-120.8130233,47.4689754],[-120.8132172,47.4689424],[-120.8134935,47.4688628],[-120.8135902,47.4688456],[-120.8136515,47.4688275],[-120.8137149,47.468825],[-120.8137965,47.4687611],[-120.8139464,47.468613],[-120.8139998,47.4685795],[-120.8140399,47.4685334],[-120.8141435,47.4684191],[-120.8142072,47.4683873],[-120.8142716,47.4683268],[-120.8143261,47.4682713],[-120.8143887,47.4682184],[-120.814335,47.468226]]}}]}
