{"type":"FeatureCollection","peaks_destination_id":"7nJmKhZy74iFjKUJqtkx","peaks_trailhead_id":"RsMNxbObuYmBgZq2UHp4","peaks_source":"https://api.openstreetmap.org/api/0.6","peaks_license_name":"Open Data Commons Open Database License (ODbL) 1.0","peaks_license":"https://opendatacommons.org/licenses/odbl/1-0/","peaks_attribution":"© OpenStreetMap contributors","peaks_retrieved_at":"2026-07-28T02:20:00.404Z","features":[{"type":"Feature","properties":{"name":"Mount Angeles OSM route candidate","trailhead_name":"Switchback Trail Trailhead","destination_name":"Mount Angeles","distance_m":2873.5262519992225,"trailhead_snap_m":20.16208804594978,"summit_snap_m":143.13061611470812,"osm_way_ids":[891198893,36743347,36742729],"osm_way_urls":["https://www.openstreetmap.org/way/891198893","https://www.openstreetmap.org/way/36743347","https://www.openstreetmap.org/way/36742729"],"osm_way_names":["Switchback Trail","Hurricane Ridge to Switchback Trail","Mount Angeles Trail"],"osm_foot_access_override_way_ids":[]},"geometry":{"type":"LineString","coordinates":[[-123.460989,47.986331],[-123.4611055,47.9864947],[-123.4611635,47.9866395],[-123.4611985,47.9867971],[-123.4611744,47.9868286],[-123.4611127,47.9868268],[-123.461046,47.9867592],[-123.4609705,47.9866994],[-123.4609169,47.9866976],[-123.4608954,47.9867478],[-123.4609344,47.9868157],[-123.4609222,47.9868735],[-123.4608445,47.9868825],[-123.4607559,47.9868376],[-123.4606674,47.9867227],[-123.4605306,47.9865863],[-123.4604207,47.9863996],[-123.4603268,47.9862218],[-123.460241,47.9860782],[-123.4601337,47.9859256],[-123.4600773,47.9858789],[-123.4600049,47.9858772],[-123.4600157,47.9859705],[-123.4600371,47.9861195],[-123.4600559,47.9862398],[-123.4600371,47.9865163],[-123.460013,47.9866455],[-123.459962,47.9867909],[-123.4599245,47.9869794],[-123.4599352,47.9871464],[-123.4602168,47.9875234],[-123.4602249,47.9875898],[-123.4601685,47.9876275],[-123.460072,47.9876454],[-123.4599352,47.9876185],[-123.459903,47.9876203],[-123.4598896,47.987658],[-123.4600425,47.9878752],[-123.4600291,47.9879147],[-123.4599593,47.9879255],[-123.459785,47.9878878],[-123.4596911,47.9878465],[-123.4595731,47.9877478],[-123.4595409,47.9877478],[-123.4595838,47.9879416],[-123.4596401,47.9880386],[-123.4597474,47.9881032],[-123.4596267,47.9881517],[-123.4596965,47.9882145],[-123.4598118,47.9882432],[-123.4596616,47.9882773],[-123.4597528,47.9883509],[-123.4598735,47.9884209],[-123.4598735,47.9885089],[-123.4600076,47.9885771],[-123.4600958,47.9886335],[-123.4601872,47.9887376],[-123.4602861,47.9888351],[-123.460157,47.9888145],[-123.460071,47.9887854],[-123.4598815,47.9887566],[-123.4598467,47.9887638],[-123.4599027,47.9888372],[-123.45996,47.9888785],[-123.460029,47.9889296],[-123.4600655,47.9889644],[-123.4601593,47.9890374],[-123.4602305,47.9891249],[-123.4603311,47.9892291],[-123.4604405,47.9893287],[-123.4605004,47.9894846],[-123.460584,47.9895294],[-123.4606557,47.989611],[-123.4607282,47.9896549],[-123.4607988,47.989708],[-123.460916,47.9898299],[-123.4610826,47.989905],[-123.4611696,47.9901021],[-123.4612258,47.9902362],[-123.4613121,47.9902922],[-123.4614051,47.990355],[-123.4617028,47.9902968],[-123.4618691,47.9903633],[-123.4620622,47.9904099],[-123.4621561,47.9904979],[-123.4622768,47.990532],[-123.4624457,47.9905356],[-123.4626281,47.9905356],[-123.4628239,47.9905841],[-123.4630787,47.9906002],[-123.4632129,47.9906487],[-123.4632531,47.9906415],[-123.4632719,47.9906002],[-123.4631807,47.9904458],[-123.4631952,47.9903932],[-123.4632558,47.9903848],[-123.4634033,47.9904171],[-123.4635454,47.9903974],[-123.4636366,47.9902915],[-123.4637144,47.9902089],[-123.4637412,47.9901299],[-123.4639215,47.9900268],[-123.4641148,47.9898828],[-123.4642162,47.9898475],[-123.4643716,47.9898337],[-123.4645996,47.9897781],[-123.464798,47.9896847],[-123.4649656,47.9896279],[-123.4651314,47.9896198],[-123.4653371,47.9896215],[-123.4655356,47.9896596],[-123.4657583,47.9896883],[-123.4659433,47.9896883],[-123.4662786,47.9897081],[-123.4666622,47.9897098],[-123.4668821,47.989717],[-123.4671056,47.9897342],[-123.467322,47.9897691],[-123.4675017,47.9897601],[-123.4677015,47.989698],[-123.468006,47.9896129],[-123.4683868,47.9895321],[-123.4686095,47.9894208],[-123.4687489,47.9893365],[-123.4689224,47.9892928],[-123.4691739,47.9892696],[-123.4694248,47.9892445],[-123.4697203,47.9891683],[-123.4702796,47.9889445],[-123.4705197,47.9887989],[-123.4705226,47.9888788],[-123.4705989,47.9890192],[-123.4704436,47.9892199],[-123.4704743,47.9892806],[-123.4704379,47.9893649],[-123.4699887,47.9895178],[-123.4695804,47.9896632],[-123.4694195,47.9897637],[-123.4693176,47.9897888],[-123.469162,47.9898032],[-123.4689662,47.9899199],[-123.468942,47.9899719],[-123.4689528,47.9900366],[-123.4688991,47.990094],[-123.4687007,47.9901622],[-123.4686685,47.9902089],[-123.4687167,47.9903453],[-123.4686846,47.9903956],[-123.4685075,47.9905212],[-123.4685075,47.9907079],[-123.46847,47.9908479],[-123.4683949,47.9909485],[-123.4684056,47.9910131],[-123.4686086,47.9911004],[-123.4686148,47.9912105],[-123.4686792,47.9912285],[-123.4687522,47.991166],[-123.4689045,47.9911316],[-123.4689742,47.9911495],[-123.4689805,47.9911948],[-123.4688186,47.9913295],[-123.4687892,47.9914421],[-123.4688857,47.9915731],[-123.4688884,47.9916198],[-123.4688187,47.9917598],[-123.468875,47.9917939],[-123.4690359,47.9917742],[-123.4692425,47.991758],[-123.469272,47.9917688],[-123.4692451,47.9918226],[-123.4691037,47.9919153],[-123.469029,47.992012],[-123.4690386,47.9920847],[-123.4691459,47.9921601],[-123.4693883,47.9921997],[-123.4694635,47.9922493],[-123.4694748,47.9922968],[-123.4695655,47.9923945],[-123.4696635,47.9924881],[-123.4698323,47.992642],[-123.4699801,47.9927094],[-123.4700176,47.9928063],[-123.4699988,47.9929212],[-123.4700498,47.9929661],[-123.4702282,47.9930253],[-123.4702738,47.9930729],[-123.4702764,47.9931842],[-123.4703489,47.9932847],[-123.4703462,47.9934067],[-123.4703194,47.9936141],[-123.4702697,47.993685],[-123.4702416,47.9937711],[-123.4702349,47.9938277],[-123.4701868,47.9938684],[-123.4701688,47.9940135],[-123.4702,47.9940628],[-123.4702791,47.9941238],[-123.4702992,47.9941759],[-123.4702362,47.9942333],[-123.4701329,47.9942477],[-123.4700994,47.9942934],[-123.4701404,47.9943267],[-123.470086,47.9944299],[-123.4699935,47.9944981],[-123.4698983,47.9946085],[-123.4697507,47.9946704],[-123.4696099,47.9947359],[-123.4693846,47.9947996],[-123.469217,47.9948391],[-123.4691513,47.9948714],[-123.469103,47.9949567],[-123.4690896,47.9950267],[-123.467237,47.995373]]}}]}
