{"type":"FeatureCollection","peaks_destination_id":"JasFS6IMlSoKE9LWIO6q","peaks_trailhead_id":"Vm0gOD6OdjW4lQmHn0Fj","peaks_source":"https://api.openstreetmap.org/api/0.6","peaks_license_name":"Open Data Commons Open Database License (ODbL) 1.0","peaks_license":"https://opendatacommons.org/licenses/odbl/1-0/","peaks_attribution":"© OpenStreetMap contributors","peaks_retrieved_at":"2026-07-28T02:20:12.101Z","features":[{"type":"Feature","properties":{"name":"Mount Stuart OSM route candidate","trailhead_name":"Esmeralda Trailhead","destination_name":"Mount Stuart","distance_m":8927.119880993825,"trailhead_snap_m":6.331022136831671,"summit_snap_m":36.69795208168024,"osm_way_ids":[1193241119,236470870,236364511,295213928,5844815,295213943,1328419258,1328419257,1328419259,295213929,295213954,295213941],"osm_way_urls":["https://www.openstreetmap.org/way/1193241119","https://www.openstreetmap.org/way/236470870","https://www.openstreetmap.org/way/236364511","https://www.openstreetmap.org/way/295213928","https://www.openstreetmap.org/way/5844815","https://www.openstreetmap.org/way/295213943","https://www.openstreetmap.org/way/1328419258","https://www.openstreetmap.org/way/1328419257","https://www.openstreetmap.org/way/1328419259","https://www.openstreetmap.org/way/295213929","https://www.openstreetmap.org/way/295213954","https://www.openstreetmap.org/way/295213941"],"osm_way_names":["Esmeralda Basin Trail #1394","Ingalls Way Trail","Longs Pass Trail","Ingalls Creek Trail"],"osm_foot_access_override_way_ids":[]},"geometry":{"type":"LineString","coordinates":[[-120.936916,47.436808],[-120.9368872,47.4367545],[-120.9368434,47.4367785],[-120.9368195,47.4368063],[-120.936812,47.4368263],[-120.9368154,47.4368594],[-120.9368225,47.4368958],[-120.9368718,47.4369704],[-120.9368978,47.4370368],[-120.9369223,47.4370839],[-120.9369944,47.4371564],[-120.9370561,47.4372369],[-120.9370789,47.4372953],[-120.9370945,47.437327],[-120.9371232,47.4373416],[-120.9371634,47.4373624],[-120.9371955,47.4374029],[-120.9372684,47.4375161],[-120.9373183,47.4376308],[-120.9373476,47.4377858],[-120.9373645,47.4380564],[-120.937387,47.4381547],[-120.9374893,47.4383294],[-120.937601,47.4384947],[-120.9376864,47.4385898],[-120.9378199,47.4386905],[-120.93807,47.4388601],[-120.9381677,47.4389558],[-120.9382108,47.4390324],[-120.9382349,47.4391503],[-120.9382522,47.4394368],[-120.9382763,47.439625],[-120.938298,47.4396846],[-120.9383671,47.4397552],[-120.938479,47.4399041],[-120.9385141,47.4399909],[-120.9385192,47.4400937],[-120.9385009,47.4401674],[-120.9384582,47.4402443],[-120.9384159,47.440326],[-120.9384073,47.4403781],[-120.9384173,47.4404302],[-120.9384464,47.4405316],[-120.9383717,47.4405461],[-120.938302,47.4405559],[-120.9382389,47.4405559],[-120.9381893,47.4405518],[-120.9381463,47.4405531],[-120.9381115,47.4405667],[-120.9380955,47.4405876],[-120.9380867,47.4406121],[-120.9380857,47.4406497],[-120.938087,47.4407191],[-120.9381165,47.440826],[-120.9381493,47.4409538],[-120.9382041,47.4410473],[-120.9381833,47.441174],[-120.9380666,47.4414086],[-120.9380618,47.4416115],[-120.9380856,47.4417919],[-120.9380951,47.4419481],[-120.9381666,47.4420689],[-120.9382476,47.4421575],[-120.9382928,47.4422719],[-120.9382595,47.4423428],[-120.9380266,47.4423939],[-120.9378748,47.4423431],[-120.9377051,47.4422272],[-120.9375236,47.4420845],[-120.9373416,47.4419122],[-120.9370831,47.4417085],[-120.9369617,47.4416585],[-120.9369117,47.4416811],[-120.936889,47.441725],[-120.9369422,47.4418341],[-120.9369993,47.4419261],[-120.937079,47.4420961],[-120.9371648,47.4422298],[-120.9372037,47.4424217],[-120.9372347,47.4425387],[-120.9373029,47.4426389],[-120.9373005,47.4428161],[-120.9373172,47.4429675],[-120.9373624,47.4430819],[-120.9373315,47.4432172],[-120.9373362,47.4434104],[-120.9374434,47.4435167],[-120.9375911,47.4435441],[-120.9377863,47.4435409],[-120.937953,47.4435683],[-120.9380459,47.4436456],[-120.938034,47.4437213],[-120.9379507,47.4438566],[-120.9378342,47.4439788],[-120.9378229,47.4440603],[-120.9378612,47.4441238],[-120.9380126,47.444169],[-120.9381168,47.4441701],[-120.9382065,47.4441879],[-120.9382716,47.4442374],[-120.938215,47.4443349],[-120.9380634,47.4444301],[-120.9378522,47.4444901],[-120.9376232,47.4445023],[-120.9375625,47.444438],[-120.9374815,47.4443961],[-120.9373791,47.4443027],[-120.9371934,47.4442399],[-120.9369743,47.4442125],[-120.9368885,47.4442093],[-120.9368385,47.4441755],[-120.9368576,47.4441078],[-120.9368469,47.4440649],[-120.9367929,47.4440355],[-120.936596,47.4439987],[-120.9365733,47.4440118],[-120.9366193,47.4440504],[-120.9366279,47.4441115],[-120.9366025,47.4441482],[-120.9365837,47.4442109],[-120.9366027,47.444306],[-120.9367337,47.4444219],[-120.9367658,47.4445729],[-120.9367204,47.4446664],[-120.9366468,47.4447614],[-120.9365139,47.4448645],[-120.9364545,47.4448632],[-120.9364178,47.4448355],[-120.9363967,47.4446809],[-120.9363276,47.4445842],[-120.9362991,47.4445472],[-120.9362538,47.4445166],[-120.9361681,47.4444972],[-120.9361181,47.444523],[-120.9360871,47.4445762],[-120.9360719,47.4446889],[-120.9360061,47.4447952],[-120.9358752,47.4448661],[-120.93574,47.4448998],[-120.9355799,47.4449015],[-120.935502,47.4448992],[-120.9354227,47.4449466],[-120.9353597,47.4449693],[-120.9352851,47.4449444],[-120.9352536,47.4448306],[-120.9353632,47.444618],[-120.9353194,47.4444919],[-120.9353686,47.4443399],[-120.935353,47.4442327],[-120.9353019,47.4441848],[-120.9352287,47.4441666],[-120.9351673,47.4441892],[-120.9351137,47.4442508],[-120.9350575,47.4443085],[-120.9350221,47.4443603],[-120.9349905,47.4444013],[-120.9349362,47.4444233],[-120.9348625,47.444423],[-120.9347823,47.4444213],[-120.9347385,47.4444247],[-120.9346787,47.444431],[-120.9346032,47.444446],[-120.9344916,47.4444531],[-120.9344472,47.444419],[-120.9344489,47.4443473],[-120.9344828,47.444275],[-120.9344828,47.4441848],[-120.9344373,47.444121],[-120.9343699,47.4441085],[-120.9342646,47.4441443],[-120.9341458,47.4441394],[-120.9340898,47.4440771],[-120.9340851,47.4440178],[-120.9341458,47.4439723],[-120.9343901,47.4438525],[-120.9344828,47.4438009],[-120.9345509,47.443713],[-120.9345538,47.4436275],[-120.9344766,47.44355],[-120.9343956,47.4434357],[-120.9343276,47.4433576],[-120.9343038,47.4432964],[-120.9342743,47.4432057],[-120.9342421,47.4431332],[-120.9342045,47.4430733],[-120.9341294,47.4430062],[-120.9340463,47.4429845],[-120.9339471,47.4429464],[-120.9338344,47.4429137],[-120.9337593,47.4428992],[-120.933652,47.4428901],[-120.9336118,47.4428901],[-120.9335984,47.4429101],[-120.9336198,47.4429391],[-120.9336357,47.4429687],[-120.9336406,47.4430058],[-120.933638,47.4430393],[-120.9336406,47.4430803],[-120.933633,47.4431402],[-120.9336254,47.4431899],[-120.9336102,47.4432515],[-120.9335798,47.4432943],[-120.9335596,47.4433353],[-120.9335267,47.4433798],[-120.9334837,47.4434226],[-120.9334154,47.4434534],[-120.9334027,47.4434859],[-120.9333622,47.4435065],[-120.9332888,47.4435527],[-120.9331851,47.4436229],[-120.933099,47.443693],[-120.9330307,47.4437375],[-120.9329953,47.4437615],[-120.9329523,47.443782],[-120.9329194,47.4438111],[-120.932889,47.4438471],[-120.9328738,47.443883],[-120.9328612,47.4439052],[-120.9328308,47.4439292],[-120.9328258,47.4439617],[-120.9328258,47.4439874],[-120.9328182,47.4440216],[-120.9327903,47.4440404],[-120.93276,47.4440507],[-120.9327296,47.444061],[-120.9327068,47.4440747],[-120.9326866,47.4440935],[-120.9326562,47.4441072],[-120.9326208,47.4441175],[-120.9325955,47.4441483],[-120.9325879,47.4441705],[-120.9325904,47.4441945],[-120.9325778,47.4442184],[-120.9325525,47.4442424],[-120.9325398,47.4442715],[-120.9325373,47.4442972],[-120.9325347,47.4443245],[-120.9325322,47.4443588],[-120.9325297,47.4443861],[-120.9325196,47.4444204],[-120.9325018,47.4444529],[-120.9324841,47.4444905],[-120.932469,47.4445248],[-120.9324588,47.4445367],[-120.9324436,47.4445641],[-120.9324254,47.444603],[-120.9324057,47.4446326],[-120.9323804,47.4446463],[-120.9323576,47.4446702],[-120.9323272,47.4447062],[-120.9322994,47.4447438],[-120.9322564,47.4447472],[-120.9322235,47.4447472],[-120.9321982,47.4447336],[-120.9321881,47.4447182],[-120.9321678,47.444701],[-120.9321425,47.4446839],[-120.9321349,47.4446565],[-120.9321526,47.4446223],[-120.9321628,47.4445898],[-120.9321526,47.4445641],[-120.9321147,47.4445436],[-120.9320691,47.4445213],[-120.9320717,47.4444905],[-120.9320514,47.4444529],[-120.9320615,47.4444272],[-120.9320261,47.4443981],[-120.9319907,47.444369],[-120.9319679,47.4443417],[-120.9319477,47.444316],[-120.9319173,47.4442903],[-120.9318692,47.4442715],[-120.9318287,47.444239],[-120.9317958,47.4442167],[-120.9317705,47.4441928],[-120.9317503,47.4441688],[-120.9317022,47.4441602],[-120.9316896,47.4441739],[-120.9316921,47.4441962],[-120.9317047,47.444215],[-120.9317174,47.4442424],[-120.9317123,47.4442612],[-120.9317073,47.4442869],[-120.9317098,47.4443023],[-120.9317098,47.4443211],[-120.9317047,47.4443434],[-120.9316997,47.4443673],[-120.9317047,47.4443947],[-120.9317073,47.4444187],[-120.931687,47.4444358],[-120.9316567,47.4444375],[-120.9316212,47.444446],[-120.9315934,47.4444529],[-120.9315757,47.4444666],[-120.9315504,47.44447],[-120.9315251,47.4444529],[-120.93152,47.4444289],[-120.9315327,47.4444101],[-120.9315428,47.4443896],[-120.93152,47.4443776],[-120.9314719,47.4443588],[-120.931439,47.4443365],[-120.9314036,47.444304],[-120.9313758,47.44428],[-120.9313302,47.4442527],[-120.9312923,47.4442424],[-120.9312821,47.4442561],[-120.9312872,47.44428],[-120.9312746,47.444304],[-120.9312771,47.4443228],[-120.9312695,47.4443417],[-120.9312467,47.4443605],[-120.9312341,47.444381],[-120.9311986,47.4444015],[-120.9311683,47.4444187],[-120.9311328,47.4444324],[-120.9310848,47.4444426],[-120.9310544,47.4444563],[-120.9310392,47.4444803],[-120.9310342,47.4445042],[-120.931019,47.4445179],[-120.9309962,47.4445299],[-120.9309531,47.4445333],[-120.9309009,47.4445299],[-120.9309026,47.4444662],[-120.9308847,47.4444439],[-120.9308631,47.4444212],[-120.9308786,47.4443967],[-120.9309,47.4443946],[-120.9309284,47.4443858],[-120.9309413,47.4443596],[-120.9309413,47.4443352],[-120.930931,47.4442985],[-120.9309208,47.4442682],[-120.9309342,47.4442337],[-120.9309718,47.4441993],[-120.9310147,47.4441521],[-120.9310657,47.4441031],[-120.9310925,47.4440705],[-120.9311247,47.4440251],[-120.9311274,47.4439925],[-120.9311354,47.4439489],[-120.9311274,47.4439145],[-120.931114,47.4438546],[-120.931114,47.4438038],[-120.931114,47.4437421],[-120.931114,47.4436968],[-120.931114,47.443646],[-120.931114,47.4435843],[-120.9310791,47.4435625],[-120.9311059,47.4435444],[-120.9311166,47.4435081],[-120.9311247,47.4434791],[-120.9311354,47.4434446],[-120.9310979,47.4434102],[-120.931071,47.4433793],[-120.9310281,47.4433612],[-120.9310281,47.4433376],[-120.9309906,47.4433158],[-120.9309611,47.4432941],[-120.9309262,47.4432687],[-120.9309047,47.4432469],[-120.9308672,47.4432197],[-120.9308618,47.4431979],[-120.9308887,47.4431762],[-120.9308967,47.4431489],[-120.930886,47.4431163],[-120.9308672,47.4430782],[-120.9308511,47.443051],[-120.9308377,47.4430074],[-120.9308243,47.4429675],[-120.9308189,47.4429222],[-120.9308296,47.4428913],[-120.9308377,47.4428605],[-120.9308431,47.4428333],[-120.9308591,47.4427988],[-120.9308726,47.4427789],[-120.930886,47.4427571],[-120.930894,47.4427226],[-120.930894,47.4426936],[-120.9308779,47.4426646],[-120.9308538,47.4426519],[-120.9308484,47.4426791],[-120.9308377,47.4427045],[-120.9308001,47.4427372],[-120.930776,47.4427589],[-120.9307438,47.4427879],[-120.9307143,47.442817],[-120.9306928,47.4428424],[-120.9306633,47.442866],[-120.9306258,47.4428932],[-120.930599,47.4429276],[-120.9305829,47.4429494],[-120.9305749,47.4429783],[-120.9305561,47.4430001],[-120.9305212,47.4430218],[-120.9305051,47.4430491],[-120.930481,47.4430763],[-120.9304461,47.443098],[-120.9303978,47.4431144],[-120.9303737,47.4431271],[-120.9303442,47.4431398],[-120.9303335,47.4431615],[-120.9303335,47.4431851],[-120.9303388,47.4432069],[-120.9303281,47.4432359],[-120.9303201,47.4432649],[-120.930304,47.4433048],[-120.9302798,47.4433266],[-120.9302637,47.4433484],[-120.9302637,47.4433756],[-120.9302718,47.4433992],[-120.9302798,47.4434282],[-120.9302691,47.4434518],[-120.9302503,47.4434754],[-120.9302423,47.4434953],[-120.9301564,47.4435588],[-120.9301484,47.4436042],[-120.9301162,47.4436441],[-120.9300143,47.443742],[-120.9299875,47.4437547],[-120.929966,47.4437384],[-120.9299955,47.4436549],[-120.9300009,47.4436078],[-120.9299955,47.4435098],[-120.9300438,47.4433955],[-120.9299741,47.4433701],[-120.9299767,47.4432667],[-120.929966,47.4432123],[-120.9299419,47.4431615],[-120.9298319,47.4433683],[-120.9298104,47.4434246],[-120.929789,47.4434481],[-120.9297997,47.4434971],[-120.9297192,47.4435189],[-120.9296656,47.4435806],[-120.9296012,47.443635],[-120.9295798,47.4436767],[-120.9295476,47.4436967],[-120.9295395,47.4437311],[-120.9295047,47.4437547],[-120.9294483,47.4438345],[-120.9294001,47.4439162],[-120.9293357,47.4439506],[-120.9293142,47.4440014],[-120.9292606,47.4440558],[-120.9292069,47.4441103],[-120.9292069,47.4441665],[-120.9291345,47.4442137],[-120.929105,47.4442808],[-120.9289843,47.4443606],[-120.9289119,47.4445601],[-120.9287885,47.4446617],[-120.9287323,47.4446846],[-120.9287116,47.4447109],[-120.9286754,47.4447441],[-120.9286212,47.4447703],[-120.9285695,47.4447947],[-120.9285178,47.4448209],[-120.9284894,47.4448419],[-120.9284326,47.4448594],[-120.9283938,47.4448978],[-120.9283835,47.444938],[-120.9283576,47.4449502],[-120.9283447,47.4449834],[-120.9283163,47.4450149],[-120.9282956,47.4450533],[-120.9282672,47.4450935],[-120.9282414,47.4451267],[-120.9281923,47.4451774],[-120.9281535,47.4452263],[-120.9281639,47.4452525],[-120.928169,47.4452927],[-120.9281845,47.4453521],[-120.928231,47.4454133],[-120.9282595,47.4454395],[-120.9282724,47.4455234],[-120.9282646,47.4455496],[-120.9282052,47.4455828],[-120.928169,47.445609],[-120.9281484,47.4456317],[-120.9280993,47.4456492],[-120.9280889,47.4456806],[-120.9280915,47.4457278],[-120.9281044,47.445782],[-120.928107,47.4458222],[-120.9281174,47.4458606],[-120.9281251,47.4458903],[-120.9281096,47.44592],[-120.9280812,47.4459515],[-120.928076,47.4459916],[-120.9280838,47.4460371],[-120.9280744,47.4460853],[-120.9280476,47.4460947],[-120.928034,47.446086],[-120.9280399,47.4460533],[-120.9280269,47.4460231],[-120.9279908,47.4459951],[-120.9279675,47.4459707],[-120.9279546,47.4459392],[-120.9278797,47.4458868],[-120.9278228,47.4458414],[-120.927766,47.4458012],[-120.9277143,47.445733],[-120.9276626,47.4456789],[-120.9276368,47.4456474],[-120.9276135,47.4456334],[-120.9276032,47.4456544],[-120.927611,47.4456963],[-120.9276135,47.4457313],[-120.9276213,47.4458064],[-120.9276135,47.4458623],[-120.9276213,47.4459217],[-120.9276161,47.4460004],[-120.9276187,47.446058],[-120.9276213,47.4461122],[-120.9276006,47.4461349],[-120.92758,47.4461035],[-120.9275128,47.4460563],[-120.9274482,47.4459777],[-120.9272751,47.4457802],[-120.9272105,47.4456963],[-120.9271717,47.4456352],[-120.9271459,47.4456055],[-120.9271175,47.4455635],[-120.9270839,47.4455356],[-120.9270451,47.4455076],[-120.9270141,47.4455076],[-120.9270348,47.4455705],[-120.9271201,47.4458763],[-120.9271149,47.4459567],[-120.9271123,47.4460703],[-120.9271123,47.4461699],[-120.9271071,47.4461978],[-120.9270865,47.4462031],[-120.9270787,47.4461838],[-120.9270374,47.4461105],[-120.9269883,47.4460266],[-120.9269625,47.4459812],[-120.9269366,47.4459672],[-120.9269289,47.445941],[-120.926903,47.4459235],[-120.9268694,47.4459078],[-120.9268591,47.4458606],[-120.9268229,47.4458361],[-120.9267997,47.4458099],[-120.9267764,47.4457645],[-120.9267325,47.4457243],[-120.9266498,47.4456597],[-120.9265956,47.4456247],[-120.9265665,47.4456008],[-120.926531,47.445581],[-120.9265201,47.4455892],[-120.9265387,47.4456247],[-120.9265413,47.4456597],[-120.9265491,47.4456859],[-120.9265387,47.4457086],[-120.9265413,47.4457313],[-120.9265336,47.4457645],[-120.9265202,47.445806],[-120.9265059,47.4458576],[-120.9264916,47.4459256],[-120.9264922,47.4459707],[-120.9264751,47.4460234],[-120.9264716,47.4460808],[-120.9264741,47.4461699],[-120.9264638,47.4462135],[-120.9264147,47.4463341],[-120.9264173,47.4463743],[-120.9263966,47.4464023],[-120.9263837,47.4464459],[-120.926332,47.4465578],[-120.9262876,47.4466026],[-120.926269,47.4466148],[-120.926249,47.4466104],[-120.9262349,47.4465906],[-120.9262303,47.4465581],[-120.9262035,47.4464892],[-120.9261498,47.4464348],[-120.9261016,47.4463559],[-120.9260707,47.4463097],[-120.9260399,47.4463568],[-120.9259943,47.4464275],[-120.9259299,47.4465599],[-120.9259218,47.4466398],[-120.9259111,47.446725],[-120.9258306,47.4468157],[-120.9258092,47.4468556],[-120.9257561,47.4469862],[-120.9257426,47.4470099],[-120.9257231,47.4470334],[-120.9256921,47.4470587],[-120.9256761,47.4470854],[-120.9256768,47.447112],[-120.9257144,47.4471521],[-120.925764,47.4471856],[-120.9256151,47.4471947],[-120.925532,47.4471901],[-120.9254542,47.447162],[-120.9254394,47.4472038],[-120.9254609,47.4472681],[-120.925498,47.4473272],[-120.925549,47.4473671],[-120.9255798,47.4473807],[-120.9256241,47.4473862],[-120.9256738,47.447388],[-120.9257123,47.4473951],[-120.9257275,47.4474015],[-120.9257339,47.4474079],[-120.9257342,47.4474174],[-120.9257199,47.4474218],[-120.9256888,47.4474222],[-120.925647,47.4474279],[-120.9256241,47.4474442],[-120.9256174,47.4474633],[-120.9256291,47.4474766],[-120.9256488,47.4474844],[-120.9256881,47.4474952],[-120.9257244,47.4475112],[-120.9257568,47.4475206],[-120.9257946,47.4475321],[-120.9258196,47.4475471],[-120.9258685,47.4475647],[-120.9258936,47.4475846],[-120.9259344,47.447609],[-120.9259587,47.4476147],[-120.9259902,47.4476202],[-120.9260111,47.4476342],[-120.9260266,47.4476498],[-120.9260215,47.4476617],[-120.9260086,47.4476649],[-120.9259864,47.4476594],[-120.9259594,47.4476682],[-120.9259256,47.4476795],[-120.9259022,47.4476798],[-120.9258813,47.4476701],[-120.9258552,47.4476572],[-120.9258187,47.4476512],[-120.9257616,47.447653],[-120.9257288,47.4476566],[-120.9257009,47.4476581],[-120.9256791,47.4476703],[-120.9256386,47.4476717],[-120.9256126,47.4476732],[-120.9255115,47.4476936],[-120.9254471,47.4476954],[-120.9253827,47.4476882],[-120.9253532,47.4476773],[-120.9252406,47.4477027],[-120.9251732,47.4477123],[-120.9250959,47.4477175],[-120.9250414,47.4477128],[-120.9249441,47.4477048],[-120.9248785,47.4477009],[-120.9248504,47.4476929],[-120.9248155,47.4476841],[-120.9247792,47.4476846],[-120.9247438,47.4476832],[-120.9247041,47.4476755],[-120.9246837,47.4476652],[-120.9246537,47.4476626],[-120.9246244,47.4476656],[-120.9245971,47.447665],[-120.9245863,47.4476729],[-120.9245858,47.4476853],[-120.9245944,47.4477081],[-120.9246129,47.4477371],[-120.9246344,47.447768],[-120.9246586,47.4477952],[-120.92468,47.4478423],[-120.9246884,47.4478977],[-120.9246885,47.4479271],[-120.92468,47.4479421],[-120.9246761,47.4479793],[-120.9246829,47.4480251],[-120.9246907,47.44806],[-120.9246829,47.4481697],[-120.9246841,47.4481818],[-120.9246921,47.4481954],[-120.9247144,47.4482138],[-120.9247686,47.4482508],[-120.9247939,47.4482707],[-120.9248168,47.4482883],[-120.9248319,47.4483164],[-120.9248724,47.4484097],[-120.9248905,47.448456],[-120.9249082,47.4485078],[-120.9249254,47.4485473],[-120.9249406,47.4485619],[-120.9249723,47.4485824],[-120.9250171,47.4486112],[-120.9250886,47.448653],[-120.9251293,47.4486777],[-120.9251628,47.4487058],[-120.9252084,47.4487493],[-120.9252378,47.4487777],[-120.9252888,47.4488255],[-120.9253248,47.4488657],[-120.9253666,47.448918],[-120.9253812,47.4489436],[-120.9254087,47.4489673],[-120.9254229,47.4489869],[-120.9254392,47.4490133],[-120.9254579,47.4490516],[-120.9254544,47.4490681],[-120.9254455,47.4490798],[-120.9254254,47.4490917],[-120.9254207,47.4491136],[-120.9254237,47.4491309],[-120.925417,47.4491584],[-120.9254042,47.4491862],[-120.925414,47.4492393],[-120.9254902,47.4492397],[-120.9257728,47.4493354],[-120.9259242,47.449474],[-120.9255051,47.4494731],[-120.9256017,47.4496307],[-120.9256021,47.4496629],[-120.9255736,47.4496624],[-120.9255186,47.4496461],[-120.9254264,47.4496442],[-120.9254421,47.4496806],[-120.9254073,47.4497023],[-120.9254368,47.449715],[-120.9254113,47.4497486],[-120.9254247,47.4497776],[-120.9253952,47.4498901],[-120.9253094,47.4499753],[-120.9252034,47.4499844],[-120.9251672,47.4500361],[-120.9251364,47.450037],[-120.9251149,47.4500451],[-120.9250894,47.4500324],[-120.9250706,47.4500533],[-120.9250398,47.4500515],[-120.925017,47.4500778],[-120.9249794,47.4500705],[-120.9249781,47.4500987],[-120.9249473,47.4501014],[-120.9249271,47.4501476],[-120.92484,47.4501413],[-120.9247702,47.4501558],[-120.9247501,47.4501866],[-120.9247139,47.4501884],[-120.9247059,47.4502165],[-120.9246683,47.4502175],[-120.9246562,47.4502365],[-120.924616,47.4502456],[-120.9246066,47.4502764],[-120.924561,47.4502764],[-120.9245503,47.4503118],[-120.9245248,47.4503208],[-120.9245181,47.4503462],[-120.9244953,47.4503562],[-120.924443,47.4503453],[-120.9244242,47.4503571],[-120.9244283,47.4503961],[-120.9243733,47.4503979],[-120.9243706,47.4504251],[-120.9243451,47.4504197],[-120.924329,47.4504424],[-120.9242848,47.450446],[-120.9242633,47.4504732],[-120.9241962,47.4504805],[-120.9241694,47.4504995],[-120.924097,47.4505004],[-120.9240849,47.4505457],[-120.9240407,47.4505476],[-120.9238395,47.4507698],[-120.9237684,47.4507698],[-120.9237456,47.4508169],[-120.9236606,47.4508692],[-120.9235954,47.4509149],[-120.9235109,47.4509248],[-120.9234681,47.4509459],[-120.9233889,47.4509466],[-120.9233326,47.4509684],[-120.923291,47.4509538],[-120.923157,47.4510342],[-120.9230625,47.451182],[-120.9228331,47.4513386],[-120.9225961,47.4516132],[-120.9222972,47.4518258],[-120.9222067,47.4521349],[-120.9220786,47.4521609],[-120.9219942,47.4522162],[-120.921915,47.4522404],[-120.9217836,47.452228],[-120.9216435,47.4522807],[-120.9214959,47.4523701],[-120.9214228,47.452452],[-120.9213031,47.4524523],[-120.9210568,47.4525555],[-120.9210178,47.4526343],[-120.921016,47.4526881],[-120.9209159,47.4527939],[-120.9207764,47.4528356],[-120.9206016,47.4529917],[-120.9201206,47.4530206],[-120.9199176,47.4530088],[-120.9196177,47.4530768],[-120.9195633,47.4531624],[-120.9193561,47.4534353],[-120.9191215,47.4535792],[-120.919006,47.4537533],[-120.9188048,47.4538492],[-120.9185608,47.4539627],[-120.918349,47.4539637],[-120.9179628,47.454029],[-120.9176999,47.4541124],[-120.9173807,47.4541165],[-120.9169321,47.4541157],[-120.9166378,47.4543119],[-120.9161923,47.4544087],[-120.915935,47.454584],[-120.9154683,47.4547871],[-120.9152253,47.4548425],[-120.9150177,47.4549648],[-120.9149748,47.4550664],[-120.9148879,47.4551204],[-120.914701,47.4551295],[-120.9145618,47.4552405],[-120.9142648,47.4552957],[-120.9139381,47.4552547],[-120.9138382,47.4553982],[-120.9138994,47.4556008],[-120.9138826,47.4556828],[-120.9137142,47.4558776],[-120.9135427,47.4560475],[-120.9134784,47.4560723],[-120.913305,47.4560723],[-120.9130704,47.4561763],[-120.9129648,47.4561645],[-120.9128612,47.4561364],[-120.9127647,47.4561437],[-120.9125926,47.4561417],[-120.9123855,47.4562374],[-120.9121692,47.4562307],[-120.9119477,47.456169],[-120.9114324,47.4562134],[-120.9112738,47.456308],[-120.9111425,47.4563213],[-120.910981,47.4563432],[-120.9108925,47.4563686],[-120.9107709,47.4567702],[-120.910517,47.4570178],[-120.910274,47.4571649],[-120.9100583,47.4572151],[-120.9098212,47.45713],[-120.909577,47.4570412],[-120.9095718,47.4570399],[-120.9093306,47.4569788],[-120.9091388,47.4569719],[-120.9089464,47.4569902],[-120.9088398,47.4570231],[-120.9087987,47.457172],[-120.9084305,47.457475],[-120.9084649,47.4576075],[-120.9082741,47.4577382],[-120.9077467,47.457987],[-120.9074768,47.4580744],[-120.907261,47.4581517],[-120.9074087,47.458208],[-120.9075373,47.4582563],[-120.907637,47.4583392],[-120.9076623,47.4584211],[-120.9076168,47.4585042],[-120.9075107,47.4585561],[-120.9074117,47.4585776],[-120.9073191,47.4585902],[-120.9072534,47.4586289],[-120.9071891,47.4586705],[-120.9070914,47.4587456],[-120.9070197,47.4588016],[-120.9069642,47.4588725],[-120.906931,47.4589481],[-120.9068854,47.459031],[-120.9067911,47.459154],[-120.906754,47.4592496],[-120.9067777,47.4593056],[-120.9068093,47.459367],[-120.9068049,47.4595019],[-120.9067389,47.4596151],[-120.9067203,47.4597256],[-120.9066732,47.4598337],[-120.9066058,47.4599157],[-120.9064677,47.4600113],[-120.9063785,47.460074],[-120.9062931,47.4601194],[-120.9062624,47.4602075],[-120.9061749,47.4602696],[-120.9062195,47.4603174],[-120.9061766,47.4603341],[-120.9060947,47.460367],[-120.9060124,47.4603789],[-120.905947,47.4603884],[-120.9058451,47.4604174],[-120.9057539,47.4604695],[-120.9057034,47.4605105],[-120.9055838,47.4605527],[-120.905503,47.4605686],[-120.9054508,47.4606119],[-120.9053918,47.4606301],[-120.9053127,47.4606392],[-120.9052554,47.4606437],[-120.9051796,47.4606927],[-120.9051072,47.460728],[-120.9050146,47.4607439],[-120.9050634,47.4608018],[-120.9052034,47.4608924],[-120.9054511,47.4610119],[-120.9052815,47.4610877],[-120.905024,47.4612944],[-120.9048738,47.4613416],[-120.9044393,47.4614141],[-120.904352,47.4614268],[-120.9042653,47.4614327],[-120.904208,47.4614441],[-120.9041575,47.4614703],[-120.9041356,47.4614942],[-120.9041187,47.4615261],[-120.90408,47.4615318],[-120.904043,47.4615272],[-120.9039992,47.4615352],[-120.9039975,47.461575],[-120.903947,47.4616103],[-120.9039184,47.4616388],[-120.9038611,47.4616604],[-120.9038291,47.4616866],[-120.9038038,47.4617219],[-120.9037281,47.4617754],[-120.9036472,47.4618323],[-120.9035917,47.4618813],[-120.903555,47.4619659],[-120.9035348,47.462082],[-120.9035112,47.4622232],[-120.9034506,47.462378],[-120.9033664,47.4624896],[-120.9032148,47.4626239],[-120.9031306,47.4626899],[-120.9030902,47.46274],[-120.902948,47.4628512],[-120.902911,47.4629388],[-120.9028504,47.4630305],[-120.9027662,47.4630977],[-120.9026096,47.4631876],[-120.9024883,47.4633049],[-120.9023839,47.4634244],[-120.902293,47.4635621],[-120.9021313,47.4637762],[-120.9020421,47.4639526],[-120.9019511,47.46412],[-120.90184,47.4642703],[-120.9016952,47.4645002],[-120.9014628,47.4647564],[-120.9013213,47.4649169],[-120.9011007,47.4650774],[-120.9008098,47.4652573],[-120.9006193,47.4653684],[-120.9004335,47.4654247],[-120.9003478,47.4655229],[-120.9002049,47.4656726],[-120.9000787,47.4658369],[-120.8999263,47.4660461],[-120.8997095,47.4662699],[-120.8994857,47.4665034],[-120.8992523,47.4667239],[-120.8991094,47.46693],[-120.8988232,47.4673185],[-120.8986852,47.467856],[-120.8982771,47.4681175],[-120.8979875,47.4683423],[-120.8978202,47.4686075],[-120.8976314,47.4689004],[-120.8975313,47.4691761],[-120.8975265,47.4695152],[-120.8974359,47.4698252],[-120.8976758,47.4699824],[-120.8975515,47.4702556],[-120.8975705,47.4704005],[-120.8977039,47.4706034],[-120.897742,47.470935],[-120.8977611,47.4710831],[-120.8978754,47.4712087],[-120.8976235,47.471493],[-120.8973815,47.4716621],[-120.897229,47.471861],[-120.8973566,47.4720132],[-120.8974102,47.4721291],[-120.8976307,47.4724595],[-120.8980118,47.4724739],[-120.8983298,47.4726832],[-120.8987565,47.4727733],[-120.8989994,47.4728538],[-120.8992185,47.4728892],[-120.8993185,47.4729892],[-120.8993233,47.4730857],[-120.899359,47.4731759],[-120.8997076,47.4731778],[-120.8997791,47.4733904],[-120.8997194,47.4734894],[-120.8997176,47.473665],[-120.8999813,47.473903],[-120.9002059,47.4740895],[-120.9002929,47.4742761],[-120.9004613,47.4743979],[-120.9007139,47.4744662],[-120.9009833,47.4745549],[-120.9011871,47.4746562],[-120.9013976,47.4747837],[-120.9015373,47.4748907],[-120.9016535,47.4750205],[-120.901763,47.4751047],[-120.901993,47.4751496],[-120.902476,47.475198]]}}]}
