{"type":"FeatureCollection","peaks_destination_id":"vxamAbvlzsEXDd9tUIPt","peaks_trailhead_id":"691DE568C2AE21EC3F25","peaks_source":"https://api.openstreetmap.org/api/0.6","peaks_license_name":"Open Data Commons Open Database License (ODbL) 1.0","peaks_license":"https://opendatacommons.org/licenses/odbl/1-0/","peaks_attribution":"© OpenStreetMap contributors","peaks_retrieved_at":"2026-07-28T02:20:43.850Z","features":[{"type":"Feature","properties":{"name":"Mount Lindsey OSM route candidate","trailhead_name":"Huerfano/Lily Lake Trailhead","destination_name":"Mount Lindsey","distance_m":6297.165420470598,"trailhead_snap_m":11.505826464224459,"summit_snap_m":17.35641015186689,"osm_way_ids":[629713627,1303355330,1303356765,1303356764,258730748],"osm_way_urls":["https://www.openstreetmap.org/way/629713627","https://www.openstreetmap.org/way/1303355330","https://www.openstreetmap.org/way/1303356765","https://www.openstreetmap.org/way/1303356764","https://www.openstreetmap.org/way/258730748"],"osm_way_names":["Huerfano Road","Lily Lake Trail"],"osm_foot_access_override_way_ids":[]},"geometry":{"type":"LineString","coordinates":[[-105.4727987,37.62365],[-105.4726942,37.6235879],[-105.4727425,37.6235274],[-105.4728176,37.6234753],[-105.4728536,37.6234774],[-105.4729302,37.6233861],[-105.4729638,37.6233383],[-105.4729503,37.6232501],[-105.4729101,37.623197],[-105.4729074,37.6231471],[-105.4729436,37.6230823],[-105.4730161,37.6230111],[-105.473071,37.6229676],[-105.4731797,37.6228221],[-105.4731877,37.6227392],[-105.4731596,37.6226447],[-105.4731019,37.6225554],[-105.473008,37.6224312],[-105.4729544,37.6222888],[-105.4728672,37.6219542],[-105.472839,37.6218066],[-105.4728256,37.6215686],[-105.4728377,37.6214985],[-105.472831,37.6214093],[-105.47278,37.6213179],[-105.4727063,37.6212457],[-105.4727089,37.6212011],[-105.4727505,37.6211501],[-105.4728001,37.6211161],[-105.4728766,37.6210885],[-105.4729262,37.6210832],[-105.4730791,37.621114],[-105.4731676,37.6211044],[-105.4732481,37.6210556],[-105.473287,37.6210009],[-105.4733218,37.6208861],[-105.4734492,37.6207369],[-105.4734955,37.6206562],[-105.4735538,37.6204719],[-105.4735914,37.6204065],[-105.4736182,37.6203189],[-105.4736464,37.6202621],[-105.4738194,37.6200794],[-105.4738918,37.6199816],[-105.473928,37.6198505],[-105.4739381,37.6197602],[-105.4739387,37.6196954],[-105.4739656,37.6196369],[-105.473983,37.6195838],[-105.4740266,37.6194176],[-105.4740836,37.6192774],[-105.4741278,37.6191186],[-105.4741124,37.619024],[-105.4740809,37.6189597],[-105.4739796,37.6187781],[-105.473922,37.6186979],[-105.4738321,37.6186363],[-105.4737342,37.6185784],[-105.4735176,37.6184684],[-105.4734747,37.6184323],[-105.4734338,37.6183633],[-105.4733138,37.6178088],[-105.4732575,37.6176218],[-105.4732233,37.6174895],[-105.4732165,37.6174136],[-105.473232,37.6173493],[-105.4732561,37.6172866],[-105.4732923,37.6172351],[-105.4733701,37.6171825],[-105.4734217,37.6171215],[-105.4734345,37.6170699],[-105.4734271,37.6169733],[-105.4734372,37.616883],[-105.4733828,37.6167412],[-105.473356,37.6165096],[-105.4733225,37.6163263],[-105.4733151,37.6162424],[-105.4733741,37.6160921],[-105.4733761,37.6160342],[-105.4733688,37.6159864],[-105.4733332,37.6159423],[-105.4732675,37.6158982],[-105.4732085,37.6158313],[-105.4730576,37.6157006],[-105.4729946,37.6156241],[-105.4729664,37.6155742],[-105.472949,37.6155264],[-105.4728672,37.6154781],[-105.4728249,37.6154074],[-105.4727713,37.6152316],[-105.4726747,37.6150712],[-105.4725809,37.6149002],[-105.4724991,37.6147626],[-105.4724628,37.6146824],[-105.4724736,37.6146335],[-105.4724977,37.614565],[-105.4724776,37.6143669],[-105.4724481,37.614276],[-105.4724615,37.6141841],[-105.4724662,37.614096],[-105.4724856,37.6139425],[-105.4725178,37.6138904],[-105.4725091,37.6138059],[-105.4724749,37.6137178],[-105.472497,37.6134623],[-105.4725125,37.613339],[-105.4725386,37.6132636],[-105.4725587,37.6131691],[-105.4725487,37.6131101],[-105.4725192,37.6130549],[-105.472493,37.6129731],[-105.4724682,37.6128578],[-105.4724421,37.6126289],[-105.4724079,37.6124504],[-105.4723643,37.6123569],[-105.4723287,37.6122937],[-105.472312,37.6121747],[-105.4722791,37.6120568],[-105.4722422,37.6119744],[-105.4722188,37.6117737],[-105.4722208,37.6117211],[-105.4722597,37.6116626],[-105.4722831,37.6116047],[-105.4722751,37.6114985],[-105.4722295,37.6114204],[-105.4721899,37.6113094],[-105.4721256,37.6111591],[-105.4721685,37.6110762],[-105.4722033,37.6109503],[-105.4722362,37.610919],[-105.4723147,37.6108924],[-105.4723354,37.6108467],[-105.4723368,37.6107819],[-105.4722811,37.610749],[-105.472312,37.6106948],[-105.4724032,37.6105785],[-105.4724186,37.6105333],[-105.4723998,37.610434],[-105.472369,37.6103782],[-105.4723603,37.6103283],[-105.4723603,37.6102858],[-105.4723965,37.6102263],[-105.4724333,37.6101243],[-105.4724635,37.6100733],[-105.4725312,37.6099947],[-105.4725795,37.6099825],[-105.472654,37.6099936],[-105.4727042,37.6100117],[-105.4727653,37.6100032],[-105.4729182,37.609898],[-105.4729262,37.6098635],[-105.4729161,37.6098284],[-105.4728605,37.6097216],[-105.4728169,37.6096175],[-105.4728008,37.6095628],[-105.4727666,37.6095108],[-105.4727143,37.609456],[-105.4726975,37.609421],[-105.4727116,37.6093944],[-105.4727317,37.6093711],[-105.472886,37.609285],[-105.472955,37.6092122],[-105.4729638,37.6090954],[-105.4729363,37.6090173],[-105.4729316,37.608945],[-105.4729121,37.6088887],[-105.4728853,37.6088425],[-105.4728712,37.6087687],[-105.4728431,37.6087017],[-105.4728055,37.6086422],[-105.4727948,37.6085753],[-105.4727854,37.6085296],[-105.4727267,37.6084561],[-105.4727485,37.6084298],[-105.4727901,37.6083867],[-105.4728149,37.6083166],[-105.4728062,37.6082566],[-105.4727995,37.6081562],[-105.4728028,37.6081036],[-105.4728162,37.6080675],[-105.4729926,37.6078863],[-105.4730469,37.6078204],[-105.4730751,37.6077625],[-105.4730771,37.6077185],[-105.4730462,37.6076627],[-105.4729825,37.6076027],[-105.4729349,37.6075384],[-105.4729389,37.6074959],[-105.4729329,37.6074534],[-105.472896,37.6073896],[-105.47289,37.6073562],[-105.4729262,37.6073238],[-105.4729839,37.6072574],[-105.4730885,37.6071501],[-105.4730999,37.607115],[-105.4730945,37.6070645],[-105.4730663,37.6070279],[-105.4730489,37.6069742],[-105.473061,37.606885],[-105.4730543,37.6068483],[-105.473057,37.6068],[-105.4730704,37.6067856],[-105.4730958,37.6067437],[-105.4732313,37.6066534],[-105.4732675,37.6066066],[-105.4732293,37.6065179],[-105.4732709,37.6064239],[-105.4732186,37.6063777],[-105.4730824,37.6063081],[-105.4730348,37.6062512],[-105.4730268,37.6062108],[-105.4730221,37.6061498],[-105.4729872,37.606094],[-105.4729979,37.606052],[-105.4730301,37.60601],[-105.4730898,37.606001],[-105.4731408,37.6059851],[-105.4731602,37.6059346],[-105.4731482,37.6058751],[-105.473122,37.6058013],[-105.473126,37.6057689],[-105.4731716,37.6057147],[-105.4732112,37.6056833],[-105.4732172,37.6056446],[-105.4731079,37.6054873],[-105.4730932,37.6054246],[-105.4730704,37.6053678],[-105.4730288,37.6053253],[-105.4728417,37.6051856],[-105.4726922,37.6050581],[-105.4726325,37.6050119],[-105.4725487,37.604988],[-105.4724823,37.604921],[-105.4724407,37.6049035],[-105.4723247,37.6048966],[-105.4722751,37.6048711],[-105.4722422,37.6048222],[-105.4722282,37.6047409],[-105.4721846,37.6046007],[-105.4721323,37.6045337],[-105.4720987,37.6044461],[-105.4720813,37.6044217],[-105.4720142,37.6044004],[-105.4719465,37.6043972],[-105.4719029,37.6043627],[-105.4718547,37.6042984],[-105.4718111,37.6042193],[-105.4717997,37.6041789],[-105.4718111,37.6041146],[-105.4718345,37.6040599],[-105.4718372,37.6039005],[-105.4718077,37.6038097],[-105.4717762,37.6037709],[-105.4717615,37.6036997],[-105.4717273,37.6036614],[-105.4715469,37.6035403],[-105.4715013,37.6034962],[-105.4714926,37.6034574],[-105.4714061,37.6034187],[-105.4713122,37.603399],[-105.4712196,37.6033735],[-105.4711097,37.6033108],[-105.4710413,37.6032816],[-105.4709065,37.6032625],[-105.4708274,37.6032152],[-105.4707556,37.6031552],[-105.4706872,37.6031344],[-105.4706497,37.6030755],[-105.4705773,37.6029342],[-105.4705491,37.6028555],[-105.470527,37.6028152],[-105.4704579,37.6027711],[-105.4704237,37.6027286],[-105.4703982,37.6026871],[-105.4702956,37.6025942],[-105.4702661,37.6025522],[-105.4702346,37.6024842],[-105.4701971,37.602422],[-105.4701494,37.6023684],[-105.470126,37.6023153],[-105.4701148,37.6022578],[-105.4700971,37.6021692],[-105.4699421,37.6019893],[-105.4699268,37.601937],[-105.4699616,37.6018953],[-105.4698766,37.6017257],[-105.469797,37.6015995],[-105.469735,37.6015476],[-105.4696841,37.6014828],[-105.4696479,37.6013903],[-105.4696271,37.6012771],[-105.4695811,37.6011747],[-105.4695426,37.601053],[-105.4693634,37.6008242],[-105.4692851,37.6007422],[-105.4692187,37.6005833],[-105.469204,37.6005175],[-105.469149,37.6003942],[-105.4690485,37.600255],[-105.469037,37.6001302],[-105.4689934,37.6000712],[-105.4689673,37.6000175],[-105.4689582,37.5999423],[-105.4689901,37.5998975],[-105.4689793,37.5998433],[-105.4689559,37.5997955],[-105.468866,37.5996542],[-105.4687701,37.5995261],[-105.4686957,37.5993906],[-105.4686186,37.599099],[-105.4685294,37.5989741],[-105.4684603,37.5988179],[-105.4684248,37.5986771],[-105.4683349,37.598463],[-105.4682551,37.5982064],[-105.4682357,37.5979785],[-105.4681894,37.5978473],[-105.4681686,37.5977155],[-105.4681948,37.5975636],[-105.4682089,37.5973649],[-105.4682028,37.597164],[-105.468215,37.5970106],[-105.4681968,37.5969648],[-105.4682183,37.5968766],[-105.4682263,37.5967884],[-105.4682504,37.5966481],[-105.4682486,37.596576],[-105.4682551,37.5964075],[-105.4682632,37.5963607],[-105.4682397,37.5962409],[-105.468235,37.5961795],[-105.4681884,37.5960964],[-105.4680815,37.5959325],[-105.4680858,37.5958847],[-105.4681143,37.5958262],[-105.4680922,37.5957779],[-105.468062,37.5957375],[-105.4680748,37.5956791],[-105.4680385,37.5955298],[-105.4680687,37.5953778],[-105.4680352,37.5953045],[-105.4680989,37.5951674],[-105.468125,37.5950564],[-105.4681519,37.5949049],[-105.4680305,37.5947248],[-105.4680077,37.5946117],[-105.4679273,37.5945163],[-105.4678897,37.5944618],[-105.4678488,37.5943285],[-105.4677662,37.5942259],[-105.4676349,37.5941106],[-105.4675457,37.5941069],[-105.4674994,37.5940538],[-105.4674357,37.5940208],[-105.4673439,37.5940352],[-105.4672822,37.5939852],[-105.4672654,37.5939316],[-105.4672004,37.5938662],[-105.466975,37.5937892],[-105.4669073,37.5937398],[-105.4668,37.5937212],[-105.4667088,37.5936935],[-105.4665667,37.5936335],[-105.4664936,37.5935839],[-105.4663745,37.5935154],[-105.4663099,37.5934959],[-105.4662133,37.5934284],[-105.466148,37.5934025],[-105.4660128,37.5933105],[-105.4659518,37.5932929],[-105.4658532,37.5932302],[-105.4657466,37.5930081],[-105.4656983,37.5929439],[-105.4655501,37.5928317],[-105.4654395,37.5927908],[-105.4653805,37.5927606],[-105.4653401,37.5927087],[-105.4652383,37.5926091],[-105.4651404,37.5925289],[-105.4650063,37.5924423],[-105.4648574,37.5923615],[-105.4646891,37.5922616],[-105.4645624,37.5922037],[-105.4644484,37.592166],[-105.4640347,37.5920093],[-105.46391,37.5919768],[-105.4637939,37.5919083],[-105.4636826,37.5918987],[-105.4636163,37.5918748],[-105.4635702,37.5918354],[-105.463519,37.5917654],[-105.463458,37.5917106],[-105.46334,37.5916798],[-105.4632233,37.5917064],[-105.4631616,37.5916814],[-105.4630698,37.5915991],[-105.4629958,37.5916486],[-105.4629517,37.5915991],[-105.4629048,37.5916432],[-105.462831,37.5916533],[-105.4627392,37.5916389],[-105.4626808,37.5915938],[-105.4625749,37.5915773],[-105.4624528,37.5916028],[-105.4624073,37.5915857],[-105.462365,37.5915576],[-105.4623466,37.5915283],[-105.4623543,37.591462],[-105.4623389,37.5913929],[-105.4622079,37.5913562],[-105.4621189,37.5913313],[-105.4620089,37.5912845],[-105.4617387,37.5912117],[-105.4615295,37.5911639],[-105.4613793,37.5912192],[-105.4613099,37.5911971],[-105.4609267,37.5909811],[-105.4608207,37.5909572],[-105.4606745,37.5909678],[-105.4605076,37.590953],[-105.4602514,37.5909227],[-105.4600529,37.5908828],[-105.4599813,37.5909085],[-105.4599872,37.5910157],[-105.4598705,37.591056],[-105.4596774,37.5910964],[-105.4595856,37.5910826],[-105.4594689,37.5910858],[-105.4593904,37.5911214],[-105.4592362,37.5911081],[-105.4589673,37.5910938],[-105.4587568,37.5910013],[-105.458681,37.5910274],[-105.4586092,37.5910194],[-105.4584939,37.5909955],[-105.4582619,37.5909259],[-105.458103,37.5909126],[-105.4578938,37.5908123],[-105.4578144,37.5907549],[-105.4577006,37.590725],[-105.4575652,37.5907213],[-105.4575169,37.5906969],[-105.457354,37.5906002],[-105.457297,37.5905428],[-105.457219,37.5905403],[-105.4571186,37.5905141],[-105.4570952,37.5904718],[-105.4570482,37.5904408],[-105.4569463,37.5904153],[-105.456902,37.5903802],[-105.4567692,37.5903393],[-105.4566955,37.5902011],[-105.4566143,37.5901262],[-105.4564916,37.5900433],[-105.4563877,37.5899503],[-105.456259,37.5899099],[-105.4562126,37.5898502],[-105.4561285,37.5898354],[-105.4560699,37.5897213],[-105.4559988,37.5896278],[-105.4559277,37.5895745],[-105.455839,37.5894394],[-105.4556919,37.5893154],[-105.4554871,37.5895189],[-105.4554369,37.5895449],[-105.4552598,37.589512],[-105.4550976,37.5895088],[-105.4549152,37.5895279],[-105.4548039,37.5895226],[-105.4547532,37.5894968],[-105.4546329,37.58953],[-105.4545262,37.589555],[-105.4543995,37.5895683],[-105.4542426,37.5895534],[-105.4541367,37.5895694],[-105.4538892,37.5895008],[-105.4538,37.5894668],[-105.4537142,37.5894843],[-105.4536558,37.589482],[-105.4535506,37.5893706],[-105.4534104,37.5892888],[-105.4532844,37.5892681],[-105.4532167,37.5892335],[-105.4531241,37.5891565],[-105.4531194,37.5891145],[-105.4531087,37.5890821],[-105.4530745,37.5890364],[-105.4529873,37.5889827],[-105.4528579,37.5888584],[-105.452811,37.5888265],[-105.4526983,37.5887723],[-105.452642,37.5887022],[-105.4526111,37.5886437],[-105.4524529,37.588563],[-105.4522611,37.5884174],[-105.4521525,37.5883717],[-105.4520653,37.5882931],[-105.4520858,37.5881901],[-105.45184,37.5880369],[-105.4517389,37.5879601],[-105.4515959,37.5879126],[-105.451317,37.5876979],[-105.4511118,37.587614],[-105.4509978,37.5875481],[-105.4508637,37.5875088],[-105.4505539,37.5874779],[-105.4504931,37.5874384],[-105.450394,37.5873599],[-105.4502428,37.5873249],[-105.4500631,37.5871581],[-105.4499236,37.5870614],[-105.4496508,37.5869392],[-105.4495143,37.5868652],[-105.4494127,37.5867992],[-105.4492866,37.5867734],[-105.449187,37.586688],[-105.4490976,37.5866784],[-105.4489716,37.5865914],[-105.4489289,37.5865318],[-105.4488476,37.5865076],[-105.4487845,37.5864432],[-105.4485914,37.586382],[-105.4485244,37.5862902],[-105.4483231,37.5862547],[-105.4482337,37.5861822],[-105.4480467,37.5860985],[-105.4479471,37.5860115],[-105.4478678,37.5859712],[-105.4478495,37.5859181],[-105.4477316,37.5858504],[-105.4476381,37.5858504],[-105.4475425,37.5857763],[-105.4474613,37.5856734],[-105.4473634,37.585564],[-105.4472883,37.5855098],[-105.4471828,37.5854719],[-105.4471073,37.5854184],[-105.4470027,37.5853557],[-105.4469571,37.585277],[-105.4468752,37.5851803],[-105.4466915,37.5850655],[-105.4462329,37.5848264],[-105.446084,37.5847244],[-105.4460411,37.5846691],[-105.4459367,37.5846761],[-105.4458269,37.5846487],[-105.4457233,37.584565],[-105.4454997,37.5844168],[-105.4453574,37.5842911],[-105.4452029,37.5841229],[-105.4451533,37.5840548],[-105.4450661,37.5840049],[-105.444904,37.5839008],[-105.444892,37.583745]]}}]}
