{"type":"FeatureCollection","peaks_destination_id":"0RqwWZAuSxCZD7Wvvoux","peaks_trailhead_id":"20662104C7EE6E9A1136","peaks_source":"https://api.openstreetmap.org/api/0.6","peaks_license_name":"Open Data Commons Open Database License (ODbL) 1.0","peaks_license":"https://opendatacommons.org/licenses/odbl/1-0/","peaks_attribution":"© OpenStreetMap contributors","peaks_retrieved_at":"2026-07-28T02:20:35.048Z","features":[{"type":"Feature","properties":{"name":"Mount Wilson OSM route candidate","trailhead_name":"Kilpacker Trailhead","destination_name":"Mount Wilson","distance_m":9593.294526130889,"trailhead_snap_m":0,"summit_snap_m":10.65234556578804,"osm_way_ids":[703240675,250865043,1134187180,882585565],"osm_way_urls":["https://www.openstreetmap.org/way/703240675","https://www.openstreetmap.org/way/250865043","https://www.openstreetmap.org/way/1134187180","https://www.openstreetmap.org/way/882585565"],"osm_way_names":["Kilpacker Trail","Kilpacker Basin Trail","Mount Wilson Southwest Slopes"],"osm_foot_access_override_way_ids":[882585565]},"geometry":{"type":"LineString","coordinates":[[-108.038682,37.7968704],[-108.038682,37.7968704],[-108.0388611,37.7969434],[-108.0389258,37.7970164],[-108.0390736,37.7970943],[-108.0393047,37.7972282],[-108.0395943,37.7973646],[-108.0398943,37.797517],[-108.0399826,37.7976275],[-108.040115,37.7977541],[-108.0402722,37.7978223],[-108.0404293,37.797832],[-108.040682,37.7978418],[-108.0410609,37.7979757],[-108.0414152,37.7980974],[-108.0415223,37.7980952],[-108.0416402,37.7981582],[-108.0418589,37.7982362],[-108.0421793,37.7983238],[-108.0423791,37.7983471],[-108.0424905,37.7983895],[-108.0427771,37.7984163],[-108.0430143,37.7984626],[-108.0432392,37.7985307],[-108.0434302,37.7985965],[-108.0436798,37.7986963],[-108.0437846,37.7987888],[-108.0439756,37.7988862],[-108.0441789,37.7989592],[-108.0442899,37.7989738],[-108.0445179,37.7990176],[-108.0446996,37.7990663],[-108.0448691,37.7990712],[-108.0450324,37.7991248],[-108.0451587,37.7992368],[-108.0453066,37.7993317],[-108.0453651,37.7994096],[-108.0453847,37.799507],[-108.0454734,37.7995683],[-108.0456102,37.7995367],[-108.0457676,37.7996013],[-108.0458529,37.7996607],[-108.0460498,37.7996998],[-108.046258,37.7996331],[-108.0466561,37.799692],[-108.0468872,37.7998503],[-108.0470289,37.8001254],[-108.0472415,37.800342],[-108.0473956,37.8006123],[-108.047411,37.8006755],[-108.047357,37.8010116],[-108.0474051,37.8011504],[-108.0475219,37.8012282],[-108.0476698,37.8013134],[-108.0480148,37.8014473],[-108.0483661,37.8015933],[-108.0484041,37.8017491],[-108.0483241,37.8019551],[-108.0482527,37.8020522],[-108.0482844,37.8021697],[-108.0484077,37.8022725],[-108.0485884,37.8024497],[-108.0486683,37.8026564],[-108.0487551,37.8027908],[-108.0489638,37.8029639],[-108.0493212,37.8031319],[-108.0496447,37.8033583],[-108.0497926,37.8035482],[-108.0500822,37.8037502],[-108.0502332,37.804057],[-108.050348,37.8042289],[-108.0504027,37.8044075],[-108.0503547,37.8045454],[-108.0501294,37.8047828],[-108.050167,37.804982],[-108.0501455,37.8052066],[-108.0502152,37.8052829],[-108.050344,37.8053507],[-108.0505586,37.8057618],[-108.0509609,37.8061941],[-108.0511594,37.8063679],[-108.0512613,37.8065629],[-108.0513471,37.8066434],[-108.051374,37.806779],[-108.0512881,37.8069359],[-108.0510038,37.8070545],[-108.0509716,37.8072241],[-108.0507892,37.8073894],[-108.0506659,37.807703],[-108.0507678,37.8079319],[-108.0507731,37.8080548],[-108.0506176,37.808326],[-108.0506176,37.8086015],[-108.0508429,37.8090635],[-108.0509716,37.8093262],[-108.0510682,37.8096611],[-108.0510467,37.8097501],[-108.0511012,37.80988],[-108.0511172,37.810147],[-108.0511548,37.8105051],[-108.0512835,37.8106958],[-108.0514632,37.8110751],[-108.0514513,37.8112689],[-108.0513747,37.8114015],[-108.0512994,37.8118126],[-108.0513096,37.8120629],[-108.0514689,37.8123486],[-108.0514792,37.8125953],[-108.0514257,37.8128636],[-108.0514129,37.8136751],[-108.0513612,37.8139266],[-108.0514077,37.8140585],[-108.0513855,37.8141837],[-108.0512326,37.8143935],[-108.0510582,37.8146329],[-108.0507863,37.8148072],[-108.0506532,37.8149374],[-108.0505014,37.814976],[-108.050189,37.814987],[-108.0497861,37.8151052],[-108.0489473,37.8158203],[-108.0488196,37.8160189],[-108.0487031,37.8161998],[-108.0483913,37.8164545],[-108.0477423,37.8167808],[-108.0474794,37.8170817],[-108.047321,37.8174826],[-108.0469211,37.8176343],[-108.0465996,37.8177386],[-108.046326,37.8177004],[-108.0461401,37.817719],[-108.0458083,37.8176572],[-108.0455544,37.8177581],[-108.0453447,37.8180908],[-108.0451727,37.818192],[-108.0447459,37.8182702],[-108.0441996,37.8185145],[-108.0436921,37.8187895],[-108.0431396,37.8188997],[-108.042782,37.8190374],[-108.0421954,37.8192344],[-108.0419305,37.8192378],[-108.0414153,37.8195218],[-108.0406559,37.8194506],[-108.0403501,37.8192387],[-108.0402553,37.8192173],[-108.0401355,37.8192429],[-108.0399076,37.8194713],[-108.0396903,37.819565],[-108.0394757,37.8195777],[-108.0391806,37.8195014],[-108.0389178,37.8195353],[-108.038435,37.8194633],[-108.0383009,37.8194845],[-108.0377269,37.8192938],[-108.0376357,37.8192133],[-108.0370671,37.8190438],[-108.0368686,37.8188954],[-108.0365199,37.8188785],[-108.0362946,37.8189336],[-108.0360639,37.8190988],[-108.0358547,37.8191412],[-108.0356079,37.81912],[-108.0352539,37.8193023],[-108.035109,37.8196285],[-108.0350649,37.8197194],[-108.0349789,37.8198204],[-108.034887,37.8197937],[-108.0348372,37.8198968],[-108.0348001,37.8200068],[-108.0346877,37.8201319],[-108.034378,37.8202673],[-108.0341808,37.8203354],[-108.0340021,37.820423],[-108.033885,37.8205569],[-108.0335769,37.820664],[-108.0334783,37.8207759],[-108.0332842,37.8207832],[-108.0329761,37.8208514],[-108.0325694,37.8210144],[-108.0323827,37.8211408],[-108.031947,37.8213138],[-108.031716,37.8214866],[-108.0315633,37.8216374],[-108.0313622,37.8218107],[-108.0311613,37.8218765],[-108.0310437,37.8220429],[-108.030838,37.8222248],[-108.0305097,37.8225189],[-108.0303039,37.8226583],[-108.0300099,37.8228324],[-108.0296768,37.8230337],[-108.0295298,37.8232543],[-108.0294269,37.8233897],[-108.0292701,37.8235174],[-108.0291182,37.8237264],[-108.0289125,37.8239083],[-108.0287949,37.8241405],[-108.0286038,37.8244192],[-108.0284813,37.8246282],[-108.0283588,37.8247249],[-108.0283343,37.8248642],[-108.0281971,37.8249687],[-108.0281432,37.8251158],[-108.0281579,37.8253673],[-108.0280893,37.8255763],[-108.0279718,37.8258124],[-108.0277856,37.8260136],[-108.0276239,37.8262071],[-108.0275357,37.8263194],[-108.0275161,37.8265322],[-108.0275602,37.8267954],[-108.0276435,37.826985],[-108.0275847,37.8271359],[-108.0274034,37.827283],[-108.0272907,37.8274649],[-108.027284,37.8276621],[-108.0273752,37.8278361],[-108.0274368,37.8280642],[-108.0274027,37.8285564],[-108.0272121,37.8289082],[-108.027041,37.829082],[-108.0266886,37.8292307],[-108.0264729,37.8293108],[-108.0263161,37.8294721],[-108.0259262,37.8295834],[-108.0257355,37.8296886],[-108.0256674,37.8298015],[-108.0256033,37.8299642],[-108.0257428,37.8299871],[-108.0258179,37.8300142],[-108.025712,37.8301009],[-108.0254525,37.8301813],[-108.0252707,37.8303023],[-108.0249393,37.8306537],[-108.024823,37.8310015],[-108.0246135,37.8315245],[-108.0241013,37.8317683],[-108.0235636,37.8321526],[-108.0232919,37.8324209],[-108.0231725,37.8324721],[-108.0229404,37.8324902],[-108.0224598,37.8325902],[-108.0221348,37.8327573],[-108.0218984,37.8327743],[-108.0213878,37.8330076],[-108.0210972,37.8330478],[-108.0207968,37.8331918],[-108.020447,37.8331819],[-108.0202063,37.8332681],[-108.0198634,37.8332681],[-108.0194771,37.8333867],[-108.0189514,37.8333444],[-108.0187798,37.8333952],[-108.0184043,37.8334291],[-108.0177605,37.8335986],[-108.0174884,37.8336078],[-108.0167904,37.8338174],[-108.0162478,37.8339206],[-108.0160654,37.8340985],[-108.0156684,37.8340646],[-108.0150998,37.8342087],[-108.0147788,37.8343233],[-108.01458,37.834389],[-108.014303,37.8344002],[-108.0139858,37.8344593],[-108.0137136,37.8344527],[-108.0136051,37.8346035],[-108.0133939,37.8346747],[-108.0125002,37.8346615],[-108.0123204,37.8346196],[-108.0113876,37.8345391],[-108.0110749,37.8343163],[-108.0109938,37.8342732],[-108.0108726,37.8342765],[-108.0108202,37.8341805],[-108.0107796,37.8340981],[-108.0106362,37.8341577],[-108.0104542,37.8343019],[-108.0102863,37.8343509],[-108.0100894,37.8344375],[-108.0098453,37.8343961],[-108.009647,37.83438],[-108.009449,37.8344489],[-108.0093813,37.8345222],[-108.0092693,37.8345794],[-108.0090381,37.8345859],[-108.0087322,37.8347722],[-108.0081675,37.8348453],[-108.0076379,37.8348908],[-108.0072355,37.8347933],[-108.0064845,37.8344798],[-108.0063343,37.8343527],[-108.0061626,37.8343104],[-108.0060017,37.8343612],[-108.0053687,37.8340646],[-108.0050254,37.8337977],[-108.004666,37.8337299],[-108.0039793,37.8337765],[-108.003636,37.8338994],[-108.0034161,37.8339799],[-108.0033678,37.8340985],[-108.0030942,37.8343061],[-108.0029997,37.8342928],[-108.002868,37.8342896],[-108.0027802,37.8343274],[-108.0027203,37.8343968],[-108.0025846,37.8344756],[-108.002405,37.8345512],[-108.0022694,37.8346237],[-108.0021855,37.8346804],[-108.0020499,37.834734],[-108.0018743,37.8347592],[-108.0017186,37.8348128],[-108.001547,37.8348727],[-108.0014073,37.8349232],[-108.0012876,37.8349578],[-108.0011758,37.8350114],[-108.0010282,37.835024],[-108.0009045,37.8350146],[-108.0007169,37.8350114],[-108.0005692,37.835065],[-108.0003896,37.8350934],[-108.000226,37.8350934],[-108.0001302,37.835106],[-108.0000584,37.8351532],[-108.0000344,37.8352257],[-107.9999626,37.8352541],[-107.9998668,37.8352478],[-107.999791,37.8352163],[-107.9996713,37.8351816],[-107.9995116,37.8351816],[-107.9993639,37.8352383],[-107.9991325,37.8353802],[-107.9990726,37.8354779],[-107.9990088,37.8355315],[-107.9988771,37.8355441],[-107.9987653,37.8355788],[-107.9986576,37.8355788],[-107.9985698,37.8356197],[-107.99847,37.8356544],[-107.9983463,37.8356702],[-107.9981786,37.8356859],[-107.9980829,37.8357521],[-107.9979591,37.8358057],[-107.9977955,37.8358215],[-107.9976319,37.8358561],[-107.9974962,37.8359349],[-107.997137,37.8360673],[-107.9966661,37.8362281],[-107.9961712,37.836414],[-107.9959158,37.8364676],[-107.9957122,37.8365622],[-107.9954289,37.8367576],[-107.9951615,37.8369498],[-107.9947744,37.8371011],[-107.9944431,37.8372083],[-107.9943114,37.8373029],[-107.9942396,37.8374951],[-107.9941797,37.8377347],[-107.9941598,37.8380309],[-107.9940799,37.838239],[-107.9938567,37.8384538],[-107.9929682,37.8389488],[-107.99256,37.8390254],[-107.9922427,37.8391624],[-107.9920869,37.8392574],[-107.9920345,37.839346],[-107.9920451,37.8394174],[-107.9919069,37.8394474],[-107.9917673,37.8394565],[-107.9917079,37.8394287],[-107.9916312,37.8392109],[-107.991586,37.839122]]}}]}
