{"type":"FeatureCollection","peaks_destination_id":"kiiPgtpXG1WwLvHfncOP","peaks_trailhead_id":"C410CF1FB652D72E13DF","peaks_source":"https://api.openstreetmap.org/api/0.6","peaks_license_name":"Open Data Commons Open Database License (ODbL) 1.0","peaks_license":"https://opendatacommons.org/licenses/odbl/1-0/","peaks_attribution":"© OpenStreetMap contributors","peaks_retrieved_at":"2026-07-28T07:27:43.629Z","features":[{"type":"Feature","properties":{"name":"Mount Sneffels OSM route candidate","trailhead_name":"Yankee Boy Basin Trailhead","destination_name":"Mount Sneffels","distance_m":1594.5713045389612,"trailhead_snap_m":4.133911717819754,"summit_snap_m":3.5135108694867605,"osm_way_ids":[361348828,247939573,361348817,361348822],"osm_way_urls":["https://www.openstreetmap.org/way/361348828","https://www.openstreetmap.org/way/247939573","https://www.openstreetmap.org/way/361348817","https://www.openstreetmap.org/way/361348822"],"osm_way_names":["Yankee Boy Basin Road","Blue Lakes Trail","Mount Sneffels Trail"],"osm_foot_access_override_way_ids":[]},"geometry":{"type":"LineString","coordinates":[[-107.784717,37.9950004],[-107.7847216,37.9950374],[-107.7846934,37.9948123],[-107.7849783,37.9949846],[-107.7853094,37.9950448],[-107.7855859,37.9951824],[-107.7858588,37.9953172],[-107.7863282,37.9954979],[-107.786754,37.9954462],[-107.7869323,37.9954979],[-107.7873143,37.9955609],[-107.7873398,37.9958334],[-107.7875654,37.9959481],[-107.7876454,37.9959194],[-107.7878601,37.9961975],[-107.7879984,37.996252],[-107.7881439,37.9962147],[-107.788395,37.9962721],[-107.7884605,37.996318],[-107.7886788,37.9964871],[-107.788919,37.9965932],[-107.7890864,37.9966391],[-107.7893192,37.9968284],[-107.7896031,37.9970176],[-107.789785,37.9971209],[-107.7899342,37.9972241],[-107.7902544,37.9973503],[-107.7904024,37.9974365],[-107.7905948,37.9976035],[-107.7908002,37.9977062],[-107.7910952,37.9977615],[-107.7914994,37.9977872],[-107.7916477,37.9978617],[-107.7916934,37.9979143],[-107.7917681,37.997961],[-107.7914988,37.9981445],[-107.7913933,37.9981933],[-107.7915789,37.9982219],[-107.7916917,37.998308],[-107.7918372,37.9984886],[-107.7919609,37.9986721],[-107.7920774,37.9989015],[-107.7921174,37.999042],[-107.7920919,37.9991911],[-107.7920119,37.9993861],[-107.7919355,37.9994607],[-107.79187,37.9995868],[-107.7918154,37.9995954],[-107.7918117,37.9997617],[-107.7916953,37.9997933],[-107.7915607,37.9999968],[-107.7915061,38.0001804],[-107.7914697,38.0003553],[-107.7912817,38.000764],[-107.7912089,38.0010319],[-107.7909455,38.0015604],[-107.7907866,38.0017258],[-107.7907891,38.0019669],[-107.7907491,38.0020904],[-107.7905808,38.0023129],[-107.7906702,38.0025596],[-107.7907515,38.0027314],[-107.7910159,38.0029901],[-107.7911955,38.0033093],[-107.7915587,38.0035837],[-107.7919596,38.0037278],[-107.7923101,38.0037759],[-107.79227,38.003776]]}}]}
