{"type":"FeatureCollection","peaks_destination_id":"9wEfGDwlapeWhVRbdCHC","peaks_trailhead_id":"D64EE25F1294DADD64C9","peaks_source":"https://api.openstreetmap.org/api/0.6","peaks_license_name":"Open Data Commons Open Database License (ODbL) 1.0","peaks_license":"https://opendatacommons.org/licenses/odbl/1-0/","peaks_attribution":"© OpenStreetMap contributors","peaks_retrieved_at":"2026-07-28T02:20:23.274Z","features":[{"type":"Feature","properties":{"name":"Mount Eolus OSM route candidate","trailhead_name":"Purgatory Trailhead","destination_name":"Mount Eolus","distance_m":28110.542602059824,"trailhead_snap_m":53.82665998476045,"summit_snap_m":7.977197665300194,"osm_way_ids":[558865452,558865453,558865454,1026543878,1026543879,1279127772,1279127773,559103591,246412280,248318474,258848046,258848045,258848043,248314626,258848159],"osm_way_urls":["https://www.openstreetmap.org/way/558865452","https://www.openstreetmap.org/way/558865453","https://www.openstreetmap.org/way/558865454","https://www.openstreetmap.org/way/1026543878","https://www.openstreetmap.org/way/1026543879","https://www.openstreetmap.org/way/1279127772","https://www.openstreetmap.org/way/1279127773","https://www.openstreetmap.org/way/559103591","https://www.openstreetmap.org/way/246412280","https://www.openstreetmap.org/way/248318474","https://www.openstreetmap.org/way/258848046","https://www.openstreetmap.org/way/258848045","https://www.openstreetmap.org/way/258848043","https://www.openstreetmap.org/way/248314626","https://www.openstreetmap.org/way/258848159"],"osm_way_names":["Purgatory Trail","Animas River Trail","Needle/Johnson Creek Trail","Chicago Basin Trail","The Catwalk","Mount Eolus Climber's Route"],"osm_foot_access_override_way_ids":[]},"geometry":{"type":"LineString","coordinates":[[-107.806188,37.6300665],[-107.8065644,37.6296851],[-107.8061208,37.6295298],[-107.8059545,37.6295],[-107.8056487,37.6295102],[-107.8056058,37.6294002],[-107.8054985,37.6293216],[-107.8050131,37.6293339],[-107.8042245,37.6288946],[-107.8041092,37.6287056],[-107.8036425,37.6286907],[-107.8035566,37.6287374],[-107.8035566,37.6287901],[-107.8036961,37.6288925],[-107.8037524,37.6290131],[-107.8030765,37.628839],[-107.8034252,37.6291453],[-107.8031918,37.6291325],[-107.8028324,37.6289329],[-107.8020573,37.6289303],[-107.8015691,37.6291325],[-107.8013009,37.6294002],[-107.8014028,37.6296313],[-107.8006893,37.630029],[-107.8003514,37.630407],[-107.7999866,37.6304749],[-107.7997559,37.6301478],[-107.7995145,37.6300035],[-107.7988762,37.6301946],[-107.7981949,37.6301692],[-107.7978891,37.6302091],[-107.797755,37.6303281],[-107.797637,37.6303094],[-107.7975619,37.6300392],[-107.7974814,37.6300545],[-107.7974761,37.6302499],[-107.7968591,37.6302159],[-107.7968323,37.6300332],[-107.7965963,37.629882],[-107.796253,37.6298182],[-107.7960223,37.6297485],[-107.7957648,37.6298802],[-107.795502,37.6297272],[-107.7955234,37.6294808],[-107.7953035,37.629328],[-107.7950031,37.6294639],[-107.7949709,37.6296593],[-107.7950943,37.6297995],[-107.7950299,37.6301649],[-107.7948314,37.630379],[-107.794767,37.6306065],[-107.7946115,37.6308317],[-107.794531,37.6308147],[-107.7945417,37.6305915],[-107.7944773,37.6303773],[-107.7943808,37.6303561],[-107.7942842,37.6301963],[-107.7943003,37.6300392],[-107.7942091,37.6300799],[-107.7940214,37.6304852],[-107.7939302,37.6303179],[-107.7938175,37.6302796],[-107.793662,37.6301581],[-107.7935386,37.6298437],[-107.7935815,37.6284672],[-107.7933079,37.6274416],[-107.7933455,37.6260608],[-107.7932221,37.625387],[-107.7933508,37.624374],[-107.7933079,37.6238277],[-107.7937156,37.6226932],[-107.793839,37.6222428],[-107.7940428,37.6214592],[-107.7935761,37.6204328],[-107.7936459,37.6202611],[-107.793501,37.6195872],[-107.7929592,37.6187484],[-107.7927017,37.618032],[-107.7913553,37.6165389],[-107.7909797,37.6155233],[-107.7909583,37.6148052],[-107.7908081,37.6140828],[-107.7904862,37.6131395],[-107.790041,37.6123618],[-107.7896816,37.6121833],[-107.7894294,37.6117261],[-107.7891881,37.6111634],[-107.7891129,37.6105515],[-107.7890432,37.610186],[-107.7888071,37.6094805],[-107.7884745,37.6090046],[-107.7882493,37.6087157],[-107.7884853,37.6083587],[-107.7888501,37.6074619],[-107.7883941,37.6068033],[-107.78826,37.6063911],[-107.7879757,37.6060001],[-107.7872729,37.6055173],[-107.7865112,37.6052453],[-107.7856905,37.6051458],[-107.7851969,37.6053643],[-107.784462,37.6047463],[-107.7837217,37.6045228],[-107.7833354,37.6042593],[-107.7825576,37.6040409],[-107.7819353,37.6037833],[-107.7810717,37.6029784],[-107.7801919,37.6015163],[-107.7799344,37.6004963],[-107.7796233,37.5996293],[-107.7793604,37.5991575],[-107.7793979,37.5989366],[-107.7791995,37.5985709],[-107.7793039,37.5984425],[-107.779572,37.5982241],[-107.7796501,37.5980481],[-107.7798071,37.5975711],[-107.779752,37.5974743],[-107.7795679,37.5975095],[-107.7789741,37.5980057],[-107.7788529,37.5980619],[-107.7786796,37.5980459],[-107.7786209,37.5979716],[-107.7786255,37.5976953],[-107.778578,37.5974895],[-107.7784412,37.5973426],[-107.7781266,37.5972788],[-107.7779255,37.597328],[-107.7776983,37.5974111],[-107.7771339,37.5975642],[-107.7770142,37.5975552],[-107.7769518,37.5974957],[-107.776705,37.5972831],[-107.7765924,37.5971743],[-107.7758306,37.5969916],[-107.7754068,37.5970638],[-107.7746397,37.5969559],[-107.7742776,37.5970769],[-107.7738458,37.597757],[-107.7736064,37.5979809],[-107.7734582,37.5980177],[-107.7728641,37.5981179],[-107.7725288,37.5982879],[-107.7718529,37.5983606],[-107.7707532,37.5994844],[-107.7700076,37.5997653],[-107.7691627,37.5993377],[-107.7685645,37.5994886],[-107.7673173,37.6002243],[-107.7663265,37.6004788],[-107.7646485,37.6005473],[-107.7641228,37.6007577],[-107.7630311,37.601359],[-107.761851,37.6026213],[-107.7606279,37.603042],[-107.7590078,37.6042958],[-107.7570391,37.6044208],[-107.7553171,37.6049461],[-107.7546519,37.6050523],[-107.751683,37.6062368],[-107.7511007,37.6066374],[-107.7507412,37.607088],[-107.7505428,37.6077466],[-107.7500814,37.6083306],[-107.7493572,37.6086306],[-107.7488852,37.6089408],[-107.7484936,37.6096377],[-107.748,37.6099649],[-107.7474046,37.609971],[-107.7467877,37.6103645],[-107.7455056,37.6115289],[-107.7442503,37.6118986],[-107.7433062,37.6121578],[-107.7421635,37.6123236],[-107.7410585,37.612355],[-107.7397656,37.6124638],[-107.7391005,37.6125488],[-107.738387,37.6126805],[-107.7377057,37.6128862],[-107.7370834,37.6130714],[-107.7362197,37.6133222],[-107.7357316,37.6135005],[-107.7344334,37.6136553],[-107.7334571,37.6137641],[-107.7324057,37.6137726],[-107.7313328,37.6136026],[-107.7303243,37.6132457],[-107.7296162,37.6131777],[-107.7287417,37.6128887],[-107.7276957,37.612723],[-107.7265209,37.6129652],[-107.7250403,37.6137276],[-107.7236456,37.6140717],[-107.7224332,37.6151196],[-107.721194,37.6154681],[-107.7202392,37.6156057],[-107.7192735,37.6154086],[-107.7181095,37.6155742],[-107.7173638,37.6153109],[-107.7165163,37.6156252],[-107.7157974,37.6156933],[-107.7149928,37.6157672],[-107.7139735,37.6155403],[-107.7125412,37.6153661],[-107.7094889,37.6163222],[-107.7086842,37.617178],[-107.707724,37.6181085],[-107.7069033,37.6182896],[-107.7061629,37.6185232],[-107.7045589,37.6193816],[-107.703588,37.6197171],[-107.7036095,37.6194027],[-107.7033145,37.6193578],[-107.7020699,37.6203419],[-107.7017963,37.6207158],[-107.7015066,37.6214847],[-107.7009434,37.6218969],[-107.7003318,37.621897],[-107.6990873,37.6228377],[-107.6986366,37.6232651],[-107.6973116,37.6233416],[-107.6967269,37.623407],[-107.6960349,37.6233246],[-107.6958284,37.623384],[-107.6956621,37.6234158],[-107.6953214,37.623221],[-107.6953273,37.6231332],[-107.6952543,37.6229528],[-107.6950394,37.622752],[-107.6947257,37.6225478],[-107.6945452,37.6224729],[-107.6942745,37.6223946],[-107.6940123,37.6224253],[-107.6935396,37.6224014],[-107.6933592,37.6223742],[-107.6931658,37.6224593],[-107.692938,37.6225716],[-107.6928478,37.622381],[-107.6925642,37.622415],[-107.6924653,37.6225172],[-107.692388,37.6227214],[-107.692504,37.6228405],[-107.6925556,37.6230243],[-107.6924696,37.6230141],[-107.6922805,37.6231128],[-107.6919411,37.6229903],[-107.6917563,37.62314],[-107.6915758,37.6230311],[-107.691348,37.6229698],[-107.6912836,37.6228745],[-107.69103,37.6228745],[-107.6907249,37.6227656],[-107.690523,37.622735],[-107.6899729,37.6226975],[-107.6897366,37.6225478],[-107.6894635,37.6224048],[-107.6892367,37.6219629],[-107.6889753,37.6218884],[-107.68875,37.6220073],[-107.6887181,37.6222789],[-107.688455,37.6222693],[-107.6881671,37.6222234],[-107.687934,37.6221928],[-107.6877297,37.6221223],[-107.6873086,37.6218807],[-107.6862601,37.6213871],[-107.6858733,37.6214041],[-107.6856713,37.6213327],[-107.685319,37.6213599],[-107.6851643,37.6211965],[-107.6848592,37.6211114],[-107.6844939,37.6210536],[-107.6842575,37.6209719],[-107.6840985,37.6208766],[-107.6839395,37.6207132],[-107.683686,37.6206213],[-107.6833594,37.6206145],[-107.6832047,37.6205362],[-107.6829082,37.6204273],[-107.6826074,37.6203524],[-107.6821347,37.6201788],[-107.6818983,37.6201175],[-107.6814815,37.6199576],[-107.681142,37.619784],[-107.6808412,37.6195729],[-107.6804673,37.6193959],[-107.6801966,37.6193687],[-107.6799259,37.6192257],[-107.6798013,37.619093],[-107.6797884,37.6189024],[-107.679436,37.6186097],[-107.6789805,37.6184054],[-107.6786152,37.6182591],[-107.6782972,37.6180038],[-107.6781769,37.6177723],[-107.6779019,37.6176259],[-107.6776397,37.6174115],[-107.6771971,37.6171596],[-107.6769221,37.6170643],[-107.6767201,37.6169247],[-107.6764451,37.6166762],[-107.6761013,37.6164482],[-107.6757618,37.6163495],[-107.6755298,37.6161282],[-107.6753966,37.6159887],[-107.6751559,37.6157912],[-107.6748895,37.6156959],[-107.6745973,37.6155223],[-107.6743222,37.6153759],[-107.67403,37.6152942],[-107.6737808,37.6151785],[-107.6735659,37.6150219],[-107.6733854,37.6148415],[-107.6732007,37.614542],[-107.6729987,37.6143275],[-107.6727494,37.6141165],[-107.6726033,37.6140041],[-107.6723369,37.6140245],[-107.6718281,37.6138289],[-107.671615,37.6135752],[-107.6713236,37.6133091],[-107.6710231,37.6132682],[-107.6709532,37.6132145],[-107.6709019,37.6131503],[-107.6707727,37.6129693],[-107.6706352,37.612908],[-107.6705406,37.6126323],[-107.6703,37.6122817],[-107.6701023,37.612108],[-107.6699648,37.6120774],[-107.669823,37.6119787],[-107.6696812,37.6118425],[-107.6694577,37.6116621],[-107.6692901,37.6116178],[-107.6691784,37.6115259],[-107.6690194,37.611274],[-107.6688776,37.611114],[-107.6688647,37.6108962],[-107.6686326,37.6106987],[-107.668349,37.6105251],[-107.6678806,37.6103413],[-107.6676056,37.6101643],[-107.6673607,37.6100213],[-107.6671501,37.609977],[-107.6670126,37.6099702],[-107.666918,37.6099532],[-107.6667247,37.6099498],[-107.6665786,37.6098443],[-107.6664367,37.6098511],[-107.6662863,37.6098272],[-107.6660887,37.6096979],[-107.665891,37.6095004],[-107.6655515,37.6093881],[-107.6654269,37.6092792],[-107.6653323,37.6090851],[-107.6651647,37.6090511],[-107.6650702,37.6089728],[-107.6649198,37.6088706],[-107.6648811,37.6086732],[-107.6646405,37.608377],[-107.6642709,37.6081728],[-107.6639486,37.6081728],[-107.6637595,37.6081081],[-107.6635662,37.6079855],[-107.6634287,37.60772],[-107.6632396,37.6074579],[-107.663029,37.6073591],[-107.6628141,37.6072672],[-107.6625821,37.6070493],[-107.6623243,37.6067736],[-107.6620406,37.6066578],[-107.6617828,37.6066817],[-107.6615808,37.6066987],[-107.6614906,37.6066],[-107.6612886,37.6063719],[-107.6612284,37.6062187],[-107.6610136,37.6060553],[-107.6608976,37.605691],[-107.6605925,37.6054186],[-107.660283,37.6050578],[-107.6599522,37.6049726],[-107.6596513,37.6049148],[-107.659467,37.6050344],[-107.65917,37.6050278],[-107.6588836,37.6050076],[-107.6584035,37.6049184],[-107.6581916,37.6051691],[-107.6580141,37.6052382],[-107.6579238,37.6051361],[-107.6576359,37.6049965],[-107.657507,37.6048909],[-107.6573313,37.6046561],[-107.6573528,37.604472],[-107.656798,37.6041351],[-107.6564542,37.6040705],[-107.6560416,37.6039343],[-107.6554443,37.6037709],[-107.6551908,37.6036892],[-107.6548255,37.6035836],[-107.6545161,37.6035462],[-107.6543012,37.6034508],[-107.653936,37.6033215],[-107.6534547,37.6032806],[-107.6532226,37.6032227],[-107.6529433,37.6030695],[-107.6525523,37.6029844],[-107.6521053,37.6027733],[-107.6517315,37.6026406],[-107.6513576,37.6025214],[-107.6510783,37.6025078],[-107.6508119,37.6025997],[-107.650481,37.6026269],[-107.6502403,37.6026746],[-107.649918,37.6026508],[-107.6497203,37.6025657],[-107.6490199,37.6023171],[-107.6487535,37.602341],[-107.6485085,37.6022626],[-107.6478467,37.6021537],[-107.6472365,37.6020277],[-107.6466392,37.601963],[-107.6462353,37.6018779],[-107.6459599,37.6018498],[-107.6457757,37.601631],[-107.6454994,37.601563],[-107.6451953,37.6016634],[-107.644916,37.6015919],[-107.6446324,37.6014013],[-107.6443015,37.6012889],[-107.6438331,37.6012413],[-107.6434334,37.601214],[-107.6431793,37.601393],[-107.6429587,37.6014139],[-107.6427201,37.6013025],[-107.6424064,37.6013366],[-107.6422517,37.6012889],[-107.6419337,37.6013877],[-107.6414481,37.6014251],[-107.6410313,37.6015068],[-107.6406488,37.6014966],[-107.640464,37.6015885],[-107.6400859,37.6015034],[-107.6398839,37.601517],[-107.6395917,37.6014149],[-107.6390631,37.6013468],[-107.6383627,37.6012617],[-107.6377653,37.6011834],[-107.6372969,37.6010063],[-107.6366781,37.6007714],[-107.6362527,37.6005671],[-107.6358917,37.6003663],[-107.6355866,37.6002131],[-107.6351999,37.6001313],[-107.6345596,37.6000054],[-107.6343533,37.5999679],[-107.6341384,37.6000088],[-107.6338376,37.5999884],[-107.6334981,37.5999577],[-107.633236,37.5999339],[-107.6329782,37.5998862],[-107.6328407,37.5999645],[-107.6325484,37.600019],[-107.6322691,37.6001143],[-107.6321316,37.6001484],[-107.6317105,37.6002335],[-107.6312979,37.6003084],[-107.6309155,37.6003663],[-107.6305115,37.6004922],[-107.6301377,37.6005603],[-107.6298712,37.6006352],[-107.6295532,37.6006489],[-107.6293599,37.6006761],[-107.6292052,37.600751],[-107.6290419,37.6008123],[-107.6288055,37.6008736],[-107.6285992,37.60102],[-107.6284016,37.6011119],[-107.6280836,37.6011664],[-107.6277656,37.6012106],[-107.6276023,37.601197],[-107.6275421,37.6011766],[-107.6274261,37.601197],[-107.6273616,37.6012651],[-107.6272284,37.6013264],[-107.6271081,37.6013843],[-107.626876,37.6014217],[-107.6266397,37.6014626],[-107.6264205,37.6014319],[-107.626124,37.6013945],[-107.6258189,37.6013775],[-107.6257373,37.6013911],[-107.6254279,37.601466],[-107.6251872,37.6015102],[-107.6248305,37.60166],[-107.624577,37.6018473],[-107.6245039,37.6020584],[-107.6244911,37.6022184],[-107.6245297,37.6024465],[-107.6244524,37.6026848],[-107.6243364,37.602804],[-107.6242633,37.602838],[-107.6241344,37.6030219],[-107.6240613,37.6031546],[-107.6239883,37.6033113],[-107.6239367,37.6034304],[-107.6238207,37.6035359],[-107.6236531,37.603713],[-107.6235585,37.603907],[-107.6234769,37.6039887],[-107.6232964,37.6040534],[-107.6231417,37.6041454],[-107.6229655,37.6042237],[-107.6226604,37.6043939],[-107.6223897,37.6045164],[-107.6222608,37.6045709],[-107.6219814,37.604622],[-107.6216634,37.6047343],[-107.6215002,37.6048331],[-107.6213454,37.6050135],[-107.621195,37.6051871],[-107.621165,37.6053063],[-107.6209931,37.605371],[-107.6208341,37.6054867],[-107.6206063,37.6056331],[-107.6204,37.6057012],[-107.6201981,37.6058476],[-107.6200133,37.6059701],[-107.6198672,37.6060348],[-107.6198672,37.6061199],[-107.6197726,37.606188],[-107.6196179,37.6063072],[-107.6192871,37.6063957],[-107.6191882,37.6065217],[-107.6190421,37.6067191],[-107.6190636,37.6069302],[-107.6191409,37.6070153],[-107.6191367,37.6071378],[-107.6190851,37.6072434],[-107.6189905,37.6074102],[-107.6189819,37.6075225],[-107.618853,37.6076621],[-107.6187499,37.6077166],[-107.618664,37.6078119],[-107.6185092,37.6079923],[-107.6184104,37.6079923],[-107.6182643,37.6080706],[-107.6181053,37.6082034],[-107.6180451,37.6084009],[-107.6179893,37.6084281],[-107.6178217,37.6085677],[-107.6176713,37.6087379],[-107.6175596,37.6087719],[-107.6172759,37.6087549],[-107.6170783,37.6088366],[-107.616829,37.6088741],[-107.616511,37.6088945],[-107.6161715,37.6089523],[-107.6158793,37.6089592],[-107.615557,37.609017],[-107.6152132,37.6091123],[-107.6151144,37.6091566],[-107.6149296,37.609337],[-107.6146202,37.6094868],[-107.6144182,37.6095753],[-107.6141217,37.6097319],[-107.6139284,37.6097898],[-107.6137221,37.6099123],[-107.6135717,37.6099464],[-107.613417,37.6100587],[-107.6132881,37.610086],[-107.6131849,37.6102085],[-107.6130904,37.6102936],[-107.6130001,37.6103277],[-107.6129228,37.6103685],[-107.612824,37.6103583],[-107.6126864,37.6103447],[-107.6125403,37.6103753],[-107.6124114,37.6104366],[-107.6122997,37.6105387],[-107.6121364,37.6106987],[-107.6118528,37.6108996],[-107.6116809,37.61108],[-107.6117453,37.6111719],[-107.6116465,37.6113319],[-107.6114875,37.6115259],[-107.6113371,37.6116927],[-107.6111824,37.6118698],[-107.6110105,37.6120059],[-107.6107355,37.6122306],[-107.6105421,37.6124757],[-107.6104433,37.612588],[-107.6102929,37.6126902],[-107.6101897,37.6127753],[-107.6099921,37.612925],[-107.6098416,37.6131293],[-107.6097772,37.6133267],[-107.6097084,37.6134254],[-107.6096576,37.6135124],[-107.609581,37.6135938],[-107.6094655,37.6136314],[-107.6092566,37.6136953],[-107.6091151,37.6136679],[-107.6091609,37.613843],[-107.6091627,37.6139054],[-107.6090767,37.6140075],[-107.6091369,37.6140416],[-107.6092551,37.6142757],[-107.6093042,37.6142681],[-107.6093502,37.6143359],[-107.609347,37.6143836],[-107.6093913,37.6144212],[-107.6093882,37.6144977],[-107.6093502,37.6145554],[-107.609366,37.6146106],[-107.6093137,37.614706],[-107.6093533,37.6147788],[-107.6093565,37.6148239],[-107.6093581,37.6148842],[-107.6094024,37.6149632],[-107.6093929,37.6150046],[-107.6093739,37.6150523],[-107.6094119,37.6150912],[-107.6093929,37.6151677],[-107.6094784,37.6152191],[-107.6094959,37.615258],[-107.6094864,37.615317],[-107.609499,37.6153734],[-107.6095244,37.6154261],[-107.6095671,37.61546],[-107.6095465,37.6155215],[-107.609564,37.6155391],[-107.6096067,37.6155591],[-107.6096463,37.6156018],[-107.6096796,37.6156607],[-107.6097113,37.615731],[-107.6097477,37.6157636],[-107.6097382,37.6157875],[-107.6097334,37.6158251],[-107.6097224,37.6158928],[-107.6097556,37.6159192],[-107.6097952,37.6159782],[-107.6098015,37.6160283],[-107.6098095,37.616066],[-107.6098411,37.6161124],[-107.6098206,37.6161337],[-107.6098316,37.6161613],[-107.6098712,37.6161676],[-107.6099172,37.6162165],[-107.609914,37.6162579],[-107.609933,37.6162767],[-107.6099235,37.6163031],[-107.6099378,37.6163194],[-107.6099932,37.6163219],[-107.610036,37.6163583],[-107.6100882,37.6164361],[-107.6100486,37.616495],[-107.6100074,37.6165277],[-107.6100581,37.6165753],[-107.6100803,37.6166268],[-107.6100724,37.6166632],[-107.6101199,37.6167021],[-107.6101167,37.616756],[-107.6101278,37.6167974],[-107.6100787,37.6168576],[-107.6100344,37.6169153],[-107.6099678,37.616973],[-107.6099425,37.6170195],[-107.6098823,37.6170696],[-107.6098807,37.6171248],[-107.6099267,37.6171449],[-107.610009,37.6171324],[-107.6101041,37.6171223],[-107.6101848,37.6171023],[-107.6102355,37.6170922],[-107.6102925,37.6170659],[-107.6103511,37.6170257],[-107.610424,37.6169693],[-107.6105206,37.6169203],[-107.6105855,37.6168639],[-107.6106537,37.6168187],[-107.6107218,37.6168651],[-107.6107899,37.61683],[-107.61085,37.6168313],[-107.6108184,37.6168714],[-107.6107978,37.6169053],[-107.6107693,37.616958],[-107.6107249,37.6170383],[-107.610641,37.617101],[-107.6106014,37.6171575],[-107.6106093,37.6172102],[-107.6106489,37.6172465],[-107.6106109,37.6172741],[-107.6106394,37.6173017],[-107.6106426,37.6173306],[-107.6106125,37.617367],[-107.6106046,37.6174096],[-107.6105555,37.6174372],[-107.6105444,37.617451],[-107.6105713,37.6174648],[-107.6105966,37.6174862],[-107.6105966,37.6175276],[-107.610576,37.6175464],[-107.6105697,37.6175715],[-107.6105444,37.6176279],[-107.6105127,37.617643],[-107.6104794,37.6176467],[-107.6104541,37.6176656],[-107.6104493,37.6176869],[-107.6104319,37.6177421],[-107.6104002,37.6178174],[-107.6104066,37.6178864],[-107.6103828,37.6179365],[-107.6103559,37.6179855],[-107.6103274,37.6180344],[-107.610291,37.6180658],[-107.6102624,37.6181398],[-107.6102324,37.6182038],[-107.6101785,37.6182527],[-107.6101532,37.6183505],[-107.610169,37.6183731],[-107.6101579,37.6184371],[-107.6101278,37.6185136],[-107.6101611,37.618545],[-107.6101674,37.6185726],[-107.6101262,37.6186015],[-107.6100629,37.6186541],[-107.6100154,37.6187194],[-107.6099615,37.618752],[-107.6098966,37.6188085],[-107.6098237,37.6188636],[-107.6097081,37.6189352],[-107.6096558,37.6189452],[-107.6096226,37.6189678],[-107.609621,37.6190042],[-107.6096622,37.6190292],[-107.609716,37.6190368],[-107.609773,37.6190531],[-107.6098443,37.6190343],[-107.6099346,37.6190757],[-107.6099172,37.6190945],[-107.6098712,37.6191045],[-107.6098506,37.6191384],[-107.6097952,37.6191923],[-107.6098221,37.6192149],[-107.6098792,37.6192162],[-107.6099219,37.6192099],[-107.6100169,37.6192137],[-107.610112,37.6192312],[-107.6102355,37.6192388],[-107.6102925,37.6192726],[-107.610283,37.6193266],[-107.6102434,37.6193579],[-107.6102292,37.6194144],[-107.610188,37.6194721],[-107.6101484,37.6194759],[-107.6101183,37.6195085],[-107.6101215,37.6195386],[-107.6100581,37.6195963],[-107.6100043,37.6196327],[-107.6099631,37.6196816],[-107.6099378,37.6197381],[-107.6098871,37.6197995],[-107.6098459,37.619866],[-107.6097968,37.6199137],[-107.6097192,37.6199501],[-107.6096907,37.6199902],[-107.609621,37.6199752],[-107.6095877,37.6200128],[-107.6095275,37.6200053],[-107.6094373,37.6199814],[-107.6093597,37.6199425],[-107.6092931,37.6199563],[-107.6091553,37.6199388],[-107.6090096,37.6199237],[-107.6089732,37.6199087],[-107.6089098,37.6198836],[-107.6089003,37.6198999],[-107.6089558,37.6199413],[-107.609035,37.6199877],[-107.6090936,37.6200517],[-107.6091648,37.6201244],[-107.6092472,37.6202085],[-107.6092979,37.6202486],[-107.6093597,37.6202737],[-107.6093454,37.620354],[-107.6093137,37.620428],[-107.6093644,37.6204732],[-107.609366,37.6205347],[-107.6092852,37.620546],[-107.6091965,37.6205598],[-107.6090983,37.6205685],[-107.6090302,37.6205184],[-107.6089748,37.6205033],[-107.6089146,37.6204569],[-107.6088924,37.6205447],[-107.6088671,37.6205911],[-107.6088623,37.6206526],[-107.6088101,37.6206664],[-107.6088037,37.6207191],[-107.6087895,37.6207655],[-107.6087673,37.6208383],[-107.608742,37.6209198],[-107.6087388,37.6209938],[-107.6087103,37.6210766],[-107.6087309,37.6211494],[-107.6086992,37.6211895],[-107.6086675,37.6212397],[-107.608639,37.6213012],[-107.6086263,37.6213501],[-107.6085947,37.6213777],[-107.608525,37.6214003],[-107.6084616,37.6214291],[-107.6084236,37.6214919],[-107.6083785,37.6215171],[-107.6083245,37.6215544],[-107.608267,37.6215818],[-107.6082154,37.6217129],[-107.6081935,37.6218259],[-107.6082429,37.621952],[-107.6083039,37.6220464],[-107.6083663,37.6221351],[-107.6085373,37.6222189],[-107.6086615,37.6222211],[-107.608775,37.6221942],[-107.6088506,37.6222127],[-107.6089026,37.6222441],[-107.6089734,37.6222609],[-107.6090336,37.6222469],[-107.6090885,37.6222076],[-107.6091522,37.6221502],[-107.6092389,37.6221305],[-107.6092978,37.6220837],[-107.6093828,37.6221019],[-107.6095049,37.6221313],[-107.6096093,37.6221243],[-107.609696,37.6221285],[-107.6097933,37.6221117],[-107.6099101,37.6220851],[-107.6099915,37.6220444],[-107.6100658,37.62205],[-107.6100906,37.6220262],[-107.6101897,37.6219898],[-107.6102162,37.6219631],[-107.6102729,37.6219533],[-107.6103667,37.6219211],[-107.6104127,37.621879],[-107.6104693,37.621816],[-107.6105454,37.6217809],[-107.6106162,37.6217431],[-107.6106976,37.6217207],[-107.6107719,37.6216982],[-107.6108356,37.6216562],[-107.6109687,37.6216026],[-107.6110416,37.621568],[-107.6111757,37.6215126],[-107.6112719,37.6214387],[-107.6113448,37.6213786],[-107.6114293,37.6213302],[-107.611508,37.6212794],[-107.6115896,37.621247],[-107.6116654,37.6212009],[-107.6117907,37.6211339],[-107.6119948,37.6210416],[-107.6121447,37.6209671],[-107.6121712,37.6209362],[-107.6122367,37.6209236],[-107.6123199,37.6208942],[-107.6123606,37.6208956],[-107.6124331,37.6209194],[-107.6125482,37.6209334],[-107.6126508,37.6209503],[-107.6126933,37.6209489],[-107.6127694,37.6209292],[-107.6128295,37.6209334],[-107.6129092,37.6209475],[-107.6130207,37.6209615],[-107.6130879,37.6209559],[-107.6131799,37.6209503],[-107.6132879,37.6209937],[-107.6133551,37.6210007],[-107.6134577,37.6209993],[-107.6135108,37.6209797],[-107.6136029,37.6209699],[-107.6136453,37.6209783],[-107.6136843,37.6210119],[-107.6137161,37.6209881],[-107.6137568,37.6210232],[-107.6137975,37.6210414],[-107.6138524,37.6210666],[-107.6139178,37.6210736],[-107.6139532,37.6210904],[-107.6140152,37.6211087],[-107.6140806,37.6211058],[-107.6141107,37.6211283],[-107.6141691,37.6211213],[-107.6142806,37.6211367],[-107.6144682,37.6211745],[-107.6146186,37.6212152],[-107.6147301,37.6212558],[-107.6148274,37.6212432],[-107.6148699,37.6212516],[-107.6149867,37.6212614],[-107.6150398,37.6212768],[-107.6151035,37.6213007],[-107.6151743,37.6213021],[-107.6151849,37.6213105],[-107.6152096,37.6213203],[-107.6152946,37.6213385],[-107.6153813,37.6213581],[-107.6154432,37.6213652],[-107.6155512,37.621382],[-107.6156043,37.6213848],[-107.6156609,37.6214016],[-107.6157051,37.6214002],[-107.6157335,37.6213862],[-107.6157742,37.621382],[-107.6158042,37.621389],[-107.6158237,37.6214114],[-107.6158732,37.6214268],[-107.6159688,37.6214142],[-107.6160343,37.6214282],[-107.6160608,37.6214254],[-107.6160803,37.6214422],[-107.6161351,37.6214675],[-107.6162042,37.6214815],[-107.6163192,37.6215165],[-107.6163829,37.6215418],[-107.6164466,37.6215516],[-107.6165032,37.6215754],[-107.6165705,37.621588],[-107.6166607,37.6216202],[-107.6167032,37.6216357],[-107.616735,37.6216357],[-107.6167722,37.6216637],[-107.6167987,37.6216651],[-107.6168589,37.6216469],[-107.6168872,37.6216469],[-107.6169014,37.6216693],[-107.6169562,37.6216875],[-107.6170058,37.6216945],[-107.617089,37.621724],[-107.6171668,37.6217282],[-107.6171863,37.6217156],[-107.6172128,37.6217254],[-107.6172642,37.6217212],[-107.6173261,37.62171],[-107.6173562,37.621717],[-107.6174128,37.62171],[-107.6174924,37.6217085],[-107.6175276,37.6217213],[-107.617588,37.6217282],[-107.6176269,37.621724],[-107.6176375,37.6217352],[-107.6177377,37.6216285],[-107.6177927,37.6215145],[-107.61788,37.6214427],[-107.6180262,37.6213582],[-107.6180684,37.6214517],[-107.6181848,37.6215196],[-107.6183035,37.6214239],[-107.6184561,37.6214203],[-107.6185845,37.6214426],[-107.618761,37.6213529],[-107.6188999,37.6212315],[-107.6190416,37.6212894],[-107.6191948,37.6213282],[-107.6192583,37.6214533],[-107.6193788,37.6215093],[-107.6193971,37.6216044],[-107.6194234,37.6216885],[-107.6194963,37.6217332],[-107.6196399,37.6217317],[-107.6198127,37.6218027],[-107.6198855,37.6219689],[-107.6199403,37.6220413],[-107.6200832,37.6221165],[-107.6201711,37.622195],[-107.6203278,37.6222936],[-107.6204195,37.6223585],[-107.6204405,37.6225247],[-107.6204618,37.6225652],[-107.6205117,37.6225784],[-107.6205867,37.6225599],[-107.6206547,37.6225689],[-107.6207029,37.6225849],[-107.6207672,37.6226431],[-107.6207759,37.6227315],[-107.6207688,37.6228241],[-107.6207339,37.6228569],[-107.6206784,37.6229072],[-107.6206156,37.6229855],[-107.6205613,37.6230455],[-107.6205105,37.623094],[-107.6204572,37.6231404],[-107.6203863,37.6232138],[-107.6203174,37.6232639],[-107.620264,37.623318],[-107.6202153,37.6233457],[-107.6201701,37.6233968],[-107.6201476,37.6234478],[-107.620139,37.6234708],[-107.6201003,37.6235269],[-107.6200541,37.6235669],[-107.620009,37.6236018],[-107.6199907,37.6235993],[-107.6199725,37.623612],[-107.6199252,37.6236605],[-107.6198962,37.6236903],[-107.6198693,37.6237192],[-107.6198768,37.6237635],[-107.6198779,37.6238043],[-107.6198801,37.6238528],[-107.6198564,37.6238835],[-107.61985,37.6239098],[-107.6198683,37.623949],[-107.6199102,37.6239524],[-107.6199467,37.623989],[-107.6199467,37.624023],[-107.619922,37.6240579],[-107.6199026,37.6241073],[-107.6199069,37.6241328],[-107.6198779,37.6241719],[-107.6198629,37.6242051],[-107.6198693,37.6242332],[-107.6198683,37.6242672],[-107.6198564,37.6242808],[-107.6198629,37.6243047],[-107.6198779,37.6243157],[-107.6199102,37.6243157],[-107.6199402,37.6243413],[-107.6199789,37.6243651],[-107.6200144,37.6243625],[-107.6200337,37.6243872],[-107.6200358,37.6244068],[-107.620053,37.6244297],[-107.6200885,37.6244578],[-107.6201562,37.6245055],[-107.6201809,37.6244927],[-107.6202096,37.6244834],[-107.620232,37.6244866],[-107.6202574,37.6244689],[-107.6203001,37.6244793],[-107.6203204,37.6244302],[-107.6203418,37.6244479],[-107.6203733,37.6244182],[-107.620417,37.6244286],[-107.6204363,37.6244069],[-107.6204902,37.6244093],[-107.6205186,37.6244351],[-107.6205816,37.6244343],[-107.6206243,37.6244125],[-107.6206691,37.6243848],[-107.6207944,37.6243109],[-107.6208005,37.6242257],[-107.6208187,37.6241378],[-107.62081,37.6240675],[-107.620829,37.6239718],[-107.6208588,37.6238779],[-107.6209387,37.6237645],[-107.6210208,37.623653],[-107.6211192,37.6236331],[-107.62117,37.6236091],[-107.6212526,37.623563],[-107.6213401,37.6235059],[-107.6213621,37.6234577],[-107.6213937,37.6233991],[-107.6214659,37.6233368],[-107.6215372,37.6232816],[-107.6216499,37.6232081],[-107.6217238,37.623143],[-107.6217379,37.6230039],[-107.6218209,37.6229021],[-107.6218844,37.6228406],[-107.6219495,37.6227776],[-107.6221295,37.62263],[-107.6221866,37.6225584],[-107.6223099,37.6224276],[-107.622655,37.6217842],[-107.622701,37.621846]]}}]}
