{"type":"FeatureCollection","peaks_destination_id":"LcO62PyIyGt8UV2Fwp0T","peaks_trailhead_id":"219D35913C5D0397ED95","peaks_source":"https://api.openstreetmap.org/api/0.6","peaks_license_name":"Open Data Commons Open Database License (ODbL) 1.0","peaks_license":"https://opendatacommons.org/licenses/odbl/1-0/","peaks_attribution":"© OpenStreetMap contributors","peaks_retrieved_at":"2026-07-28T02:20:15.122Z","features":[{"type":"Feature","properties":{"name":"Mount Antero OSM route candidate","trailhead_name":"Baldwin Gulch Trailhead","destination_name":"Mount Antero","distance_m":11678.011235342114,"trailhead_snap_m":14.876246426093331,"summit_snap_m":5.830440422011076,"osm_way_ids":[186517456,17016852,186369419,136372797,181820741,1208154495],"osm_way_urls":["https://www.openstreetmap.org/way/186517456","https://www.openstreetmap.org/way/17016852","https://www.openstreetmap.org/way/186369419","https://www.openstreetmap.org/way/136372797","https://www.openstreetmap.org/way/181820741","https://www.openstreetmap.org/way/1208154495"],"osm_way_names":["Baldwin Creek 4Wd Road","Upper Browns Creek 4Wd Road","Antero 4Wd Road","Mount Antero Trail"],"osm_foot_access_override_way_ids":[]},"geometry":{"type":"LineString","coordinates":[[-106.2916335,38.7100421],[-106.2918015,38.7100154],[-106.2911131,38.7098545],[-106.2903247,38.7090451],[-106.2902068,38.7089525],[-106.2898608,38.7089148],[-106.2893515,38.7086732],[-106.2884016,38.7082948],[-106.2876018,38.7079549],[-106.2870863,38.7079077],[-106.2868294,38.7077536],[-106.2860278,38.7077981],[-106.2856336,38.7076593],[-106.2852811,38.7075207],[-106.2852285,38.7071896],[-106.2851818,38.7069589],[-106.2850105,38.7069315],[-106.2847604,38.7071404],[-106.2845686,38.707161],[-106.283746,38.7068612],[-106.2836705,38.7066704],[-106.282969,38.7066061],[-106.2819585,38.7064485],[-106.2815509,38.7063389],[-106.280978,38.705933],[-106.2806501,38.7053399],[-106.2804659,38.7051976],[-106.2801328,38.7052565],[-106.2799067,38.7055339],[-106.2797765,38.7055956],[-106.2793792,38.7055613],[-106.2792325,38.7054931],[-106.2789137,38.7054422],[-106.2786736,38.7052805],[-106.2782214,38.7052462],[-106.2780912,38.7053729],[-106.2778305,38.7053243],[-106.2775603,38.7053627],[-106.2774473,38.7052907],[-106.2774576,38.7051023],[-106.2774473,38.7050167],[-106.2771933,38.7049279],[-106.2766551,38.7049832],[-106.276269,38.7050407],[-106.2759504,38.7049585],[-106.2752722,38.7044344],[-106.2751112,38.7040987],[-106.2749039,38.7038064],[-106.2748886,38.7037406],[-106.2748611,38.7036226],[-106.2746899,38.7033897],[-106.2745186,38.7027354],[-106.2743495,38.7025039],[-106.2738481,38.7013951],[-106.2735967,38.7004869],[-106.2735629,38.6997622],[-106.273467,38.6993751],[-106.2732341,38.6993169],[-106.2731724,38.6987688],[-106.2730765,38.6983852],[-106.2730337,38.6977615],[-106.2728127,38.6970835],[-106.2727283,38.6964027],[-106.27271,38.6961142],[-106.2726072,38.6958025],[-106.2725695,38.6954462],[-106.2726034,38.6950468],[-106.2728539,38.6942782],[-106.2728607,38.6938157],[-106.2729159,38.6933087],[-106.2729121,38.6925963],[-106.2728573,38.6922606],[-106.2728676,38.6919215],[-106.2730344,38.6914048],[-106.2732272,38.6909213],[-106.27333,38.6907158],[-106.2735701,38.6904624],[-106.2736366,38.6899913],[-106.2737753,38.6898286],[-106.2738207,38.6896176],[-106.2737965,38.6895511],[-106.2736149,38.6893867],[-106.2735139,38.6891264],[-106.2733668,38.6889926],[-106.2732364,38.6888729],[-106.2731166,38.6886777],[-106.2730969,38.6886145],[-106.2730378,38.6884156],[-106.2728485,38.6879726],[-106.2727316,38.687626],[-106.272605,38.686975],[-106.2725972,38.6866274],[-106.2722821,38.6858049],[-106.2720303,38.6855183],[-106.2719479,38.6853447],[-106.2719988,38.6849911],[-106.2719431,38.6846617],[-106.2719416,38.6841747],[-106.2719552,38.6840174],[-106.272111,38.6838305],[-106.2724565,38.6835669],[-106.272842,38.682654],[-106.2729185,38.6825204],[-106.2728776,38.6824393],[-106.272832,38.6823848],[-106.2727636,38.6823215],[-106.2726114,38.6822487],[-106.2724049,38.6820765],[-106.2722989,38.6819629],[-106.2722151,38.6818918],[-106.2721286,38.6818373],[-106.2720119,38.6818043],[-106.2719073,38.6817865],[-106.2716813,38.6817562],[-106.2715298,38.6817017],[-106.2712227,38.6815913],[-106.2708693,38.6814662],[-106.2706916,38.6813856],[-106.2705655,38.6812929],[-106.2704066,38.6812029],[-106.2702993,38.6811751],[-106.270182,38.681161],[-106.2700499,38.6811327],[-106.2699386,38.6810867],[-106.269846,38.6810296],[-106.2697696,38.6809684],[-106.2695691,38.6808276],[-106.2695114,38.6807674],[-106.2693451,38.6805726],[-106.2692519,38.6804449],[-106.2691252,38.6803151],[-106.2690072,38.6801816],[-106.2687872,38.6801089],[-106.2686719,38.6799199],[-106.2686243,38.6798654],[-106.2685364,38.6797681],[-106.2684139,38.6796512],[-106.2683728,38.6795911],[-106.2683467,38.6794969],[-106.2683279,38.6794357],[-106.2682448,38.679332],[-106.2681516,38.679231],[-106.2681113,38.679154],[-106.2680295,38.6789379],[-106.2679772,38.6788452],[-106.2679088,38.6787635],[-106.2678055,38.6786829],[-106.2677599,38.6786175],[-106.2677412,38.6785348],[-106.2677244,38.6784055],[-106.2677092,38.6782935],[-106.2676993,38.6782087],[-106.2676916,38.6781212],[-106.2676788,38.6779108],[-106.2676889,38.6777553],[-106.267652,38.67748],[-106.2676473,38.6773397],[-106.2676299,38.6771905],[-106.2676486,38.6770135],[-106.2676567,38.6768089],[-106.267656,38.6766843],[-106.2676017,38.6765403],[-106.2674542,38.6763084],[-106.2674072,38.6762205],[-106.2673838,38.6761294],[-106.2672872,38.6759922],[-106.2672684,38.6759011],[-106.2672179,38.6756711],[-106.2671725,38.6755404],[-106.2670284,38.6753258],[-106.2669399,38.6751578],[-106.2668876,38.6750829],[-106.2668332,38.6749494],[-106.2667923,38.674851],[-106.2667682,38.6747191],[-106.2667803,38.6745348],[-106.2668265,38.6743249],[-106.2669081,38.6740857],[-106.2669372,38.6740081],[-106.2669479,38.6739265],[-106.2669821,38.6738636],[-106.267025,38.6738207],[-106.2671008,38.6737924],[-106.2672671,38.6737631],[-106.267365,38.6737045],[-106.2674052,38.6736354],[-106.2674166,38.6735946],[-106.2674066,38.6735626],[-106.2673757,38.6734909],[-106.2672389,38.673326],[-106.2671558,38.6732072],[-106.2670203,38.6730245],[-106.266899,38.6728993],[-106.2668601,38.6728308],[-106.26684,38.6727794],[-106.2668373,38.6726952],[-106.2668681,38.672569],[-106.2668353,38.672468],[-106.2668607,38.6723428],[-106.2669399,38.6722664],[-106.2669774,38.6721538],[-106.2669244,38.6720031],[-106.2668936,38.6719203],[-106.2668158,38.6718486],[-106.2667125,38.6717978],[-106.26661,38.6717167],[-106.2665684,38.6716198],[-106.2665583,38.6715643],[-106.2665416,38.6715209],[-106.2665074,38.6714759],[-106.2664644,38.6714403],[-106.2663055,38.6713947],[-106.2661345,38.6713356],[-106.2659681,38.671251],[-106.2659166,38.6712026],[-106.2658891,38.6711581],[-106.2658482,38.6711057],[-106.2658234,38.6710597],[-106.2657832,38.6710256],[-106.2657195,38.6709953],[-106.265643,38.6709868],[-106.2655599,38.6709717],[-106.2655116,38.6709482],[-106.2653882,38.6708686],[-106.2652662,38.6708162],[-106.2650878,38.6707984],[-106.2649678,38.6707602],[-106.264778,38.6706518],[-106.2646828,38.6706005],[-106.2646312,38.6705482],[-106.2645943,38.6705058],[-106.2644843,38.6704424],[-106.2643522,38.6703916],[-106.2642872,38.6703555],[-106.2642536,38.6703199],[-106.2642013,38.6702482],[-106.2641544,38.6701644],[-106.2640987,38.6700152],[-106.2640605,38.6699639],[-106.2639914,38.6698477],[-106.2639163,38.6697644],[-106.2638707,38.6696938],[-106.2638386,38.6695838],[-106.2638386,38.6693597],[-106.2638171,38.669298],[-106.2637836,38.669243],[-106.263685,38.6691472],[-106.2635449,38.6690357],[-106.2634805,38.6689278],[-106.2633115,38.6686886],[-106.2632786,38.6686336],[-106.2632659,38.6685875],[-106.2632679,38.6685519],[-106.2633759,38.6683331],[-106.2633779,38.6682378],[-106.2633813,38.6682051],[-106.2633685,38.668164],[-106.2633343,38.6680975],[-106.2632694,38.6680125],[-106.2631177,38.667898],[-106.2630614,38.6678357],[-106.2630319,38.6677357],[-106.2630587,38.6676341],[-106.2630889,38.6675572],[-106.2631007,38.6674527],[-106.2630779,38.6673664],[-106.2630433,38.6672786],[-106.2628718,38.666804],[-106.2628383,38.6667525],[-106.2627805,38.6666961],[-106.262729,38.6666563],[-106.2626497,38.6666264],[-106.2624915,38.6665728],[-106.2622136,38.6664317],[-106.2621475,38.6664201],[-106.2620723,38.666423],[-106.2619916,38.6664304],[-106.2619194,38.666434],[-106.2618764,38.6664313],[-106.2618452,38.6664015],[-106.2618372,38.6663672],[-106.2618557,38.6663418],[-106.2619041,38.6663094],[-106.2619962,38.6662572],[-106.2621292,38.6661729],[-106.2621765,38.6661089],[-106.2621869,38.6660679],[-106.2621907,38.6660118],[-106.2621373,38.6657855],[-106.2621132,38.6657365],[-106.262085,38.6657283],[-106.2620511,38.6657344],[-106.2620179,38.6657571],[-106.2620016,38.6658484],[-106.2619315,38.6659333],[-106.2616335,38.6660253],[-106.2612686,38.6660813],[-106.2609892,38.6661585],[-106.2607563,38.6661855],[-106.2606065,38.6662142],[-106.2605733,38.6662376],[-106.2605579,38.6662782],[-106.2605678,38.66633],[-106.2607305,38.6665423],[-106.2609707,38.6667416],[-106.2611867,38.6669127],[-106.2612321,38.6669658],[-106.2612482,38.6670571],[-106.2612325,38.6671358],[-106.2611552,38.6672315],[-106.2610563,38.6672989],[-106.2608016,38.6673815],[-106.2602772,38.6675239],[-106.2598176,38.6676227],[-106.2593996,38.6677123],[-106.2593526,38.6677361],[-106.2593186,38.6677688],[-106.259342,38.6678285],[-106.2594092,38.6678952],[-106.2599543,38.6683032],[-106.2602854,38.6686408],[-106.2603667,38.6688349],[-106.2604049,38.6690828],[-106.2604006,38.6691998],[-106.2603503,38.6692442],[-106.2603039,38.669251],[-106.2602646,38.6692267],[-106.2602504,38.6690626],[-106.2601899,38.668973],[-106.2597321,38.6686145],[-106.2592659,38.668333],[-106.2589937,38.668212],[-106.2586081,38.6680921],[-106.258197,38.6679729],[-106.2580779,38.6679364],[-106.25799,38.6678818],[-106.2579759,38.6678257],[-106.257984,38.6677891],[-106.2580202,38.6677278],[-106.2580604,38.6676875],[-106.2583313,38.6673896],[-106.2584171,38.6673205],[-106.2586775,38.6671698],[-106.2588456,38.6670619],[-106.2588926,38.6670027],[-106.2589187,38.6669556],[-106.2589274,38.6669001],[-106.2589147,38.6668676],[-106.2588617,38.6668346],[-106.2588201,38.6668367],[-106.258798,38.6668624],[-106.258756,38.6669287],[-106.2587243,38.6669781],[-106.2586858,38.6669965],[-106.2585063,38.6670603],[-106.2580986,38.6671833],[-106.2579665,38.6672572],[-106.257813,38.667397],[-106.2576494,38.6675059],[-106.2574857,38.6676174],[-106.2573241,38.6677205],[-106.2572698,38.6677713],[-106.2572497,38.6678179],[-106.2572238,38.6678449],[-106.2572037,38.6678993],[-106.2572148,38.6679577],[-106.2572584,38.6680111],[-106.2573785,38.6681132],[-106.2574106,38.668165],[-106.2574127,38.6682001],[-106.2574375,38.6682472],[-106.2575629,38.6683079],[-106.2576299,38.6683503],[-106.2579565,38.668576],[-106.2582408,38.6687797],[-106.2584037,38.668888],[-106.2585063,38.6689655],[-106.2585332,38.6690016],[-106.2585329,38.6690236],[-106.2585197,38.669043],[-106.2584956,38.6690514],[-106.2584493,38.669044],[-106.2584057,38.6690048],[-106.2583192,38.6689566],[-106.258041,38.6688687],[-106.2576641,38.6687708],[-106.2571833,38.6686702],[-106.2570834,38.6686278],[-106.257015,38.6685776],[-106.2568353,38.668343],[-106.2567562,38.6682681],[-106.2566948,38.6682221],[-106.2565738,38.6681666],[-106.2566362,38.668265],[-106.256671,38.6683315],[-106.2567495,38.6684226],[-106.2567762,38.668503],[-106.256782,38.668692],[-106.2567931,38.6687681],[-106.2568367,38.6688592],[-106.2568749,38.6689268],[-106.2569426,38.668977],[-106.2571042,38.6690723],[-106.2573195,38.6692262],[-106.2573443,38.6692671],[-106.2573429,38.669299],[-106.2573188,38.669333],[-106.2572587,38.6693414],[-106.2571753,38.6693063],[-106.2571076,38.6692514],[-106.2570298,38.6692048],[-106.2569144,38.6691728],[-106.2567562,38.6691461],[-106.2566885,38.6691367],[-106.2566274,38.6691074],[-106.2565383,38.669043],[-106.2564632,38.6689786],[-106.2563,38.6687501],[-106.256089,38.6684446],[-106.2560239,38.6683352],[-106.2559609,38.6682624],[-106.2558194,38.6681394],[-106.2557819,38.6680901],[-106.2557577,38.6680074],[-106.2557557,38.6679357],[-106.2557671,38.6678564],[-106.255827,38.6676475],[-106.2558281,38.6673624],[-106.2558409,38.6672833],[-106.2558576,38.6672357],[-106.2558965,38.6671582],[-106.2559173,38.6670928],[-106.255922,38.6670059],[-106.2559125,38.6669166],[-106.2558416,38.6667043],[-106.255747,38.6665608],[-106.255633,38.6664221],[-106.2554929,38.6662608],[-106.2553567,38.666153],[-106.2550832,38.6660037],[-106.2548585,38.6657943],[-106.2546218,38.6655692],[-106.2544549,38.66541],[-106.25442,38.6653718],[-106.2544079,38.6653362],[-106.2544083,38.6653059],[-106.2544762,38.6650927],[-106.2544857,38.6650095],[-106.2544964,38.66482],[-106.2545948,38.6645308],[-106.2547065,38.6641865],[-106.2546907,38.6641114],[-106.2547418,38.6639533],[-106.254848,38.6638208],[-106.2550248,38.6636642],[-106.2552047,38.6635005],[-106.2553218,38.6633334],[-106.2554449,38.6632345],[-106.2555964,38.6630816],[-106.2556079,38.662998],[-106.2555338,38.6628244],[-106.2555157,38.6627087],[-106.2554053,38.6625776],[-106.2553771,38.6624574],[-106.2551667,38.6623221],[-106.2546778,38.6622751],[-106.2541429,38.6622932],[-106.2535783,38.6623674],[-106.2530641,38.662426],[-106.2527024,38.6624247],[-106.2524649,38.6623631],[-106.2521967,38.6622628],[-106.2517688,38.6621699],[-106.2510336,38.6619252],[-106.2507889,38.6618377],[-106.2505366,38.6618185],[-106.2503941,38.6618395],[-106.2501892,38.6619145],[-106.2498086,38.6621011],[-106.249576,38.6624919],[-106.2492733,38.6630238],[-106.2490708,38.6634877],[-106.2488983,38.6638224],[-106.2486642,38.664573],[-106.2485847,38.6648774],[-106.2484207,38.6650977],[-106.2482046,38.665354],[-106.2481357,38.6655875],[-106.2479845,38.6657272],[-106.2478481,38.6657687],[-106.2477585,38.6657895],[-106.2477112,38.6658161],[-106.2477167,38.6658615],[-106.2478517,38.6658936],[-106.2479773,38.6659198],[-106.2482216,38.6659931],[-106.2483942,38.6659406],[-106.2485782,38.6658492],[-106.2486914,38.6657858],[-106.2486946,38.6658622],[-106.2485904,38.6659977],[-106.2484645,38.6661891],[-106.2482998,38.6663562],[-106.2481187,38.6664795],[-106.2479164,38.6665437],[-106.247842,38.6665708],[-106.2478445,38.666613],[-106.2479964,38.6667046],[-106.248159,38.6667699],[-106.2482781,38.6667902],[-106.2483942,38.6667914],[-106.2485691,38.6667559],[-106.2485837,38.6668143],[-106.2484711,38.6669196],[-106.248224,38.6671536],[-106.2480849,38.6672753],[-106.2479922,38.6673686],[-106.2479026,38.6675212],[-106.2478382,38.6678254],[-106.2478293,38.6679129],[-106.2478558,38.6680245],[-106.2479627,38.6681868],[-106.2480551,38.6683687],[-106.2481215,38.6684702],[-106.2481503,38.6685226],[-106.2481704,38.6685838],[-106.2481932,38.6687676],[-106.2481751,38.6689016],[-106.2482303,38.6690225],[-106.2482368,38.669121],[-106.2482234,38.6691901],[-106.2482057,38.6693936],[-106.248216,38.6695613],[-106.248214,38.6696833],[-106.2482167,38.6698147],[-106.2482328,38.6699027],[-106.2482496,38.669977],[-106.2482492,38.6700809],[-106.248271,38.6701592],[-106.2482556,38.670256],[-106.2482288,38.6703236],[-106.2482073,38.6704461],[-106.2481617,38.6705063],[-106.2481121,38.6705775],[-106.248102,38.6706351],[-106.2481081,38.6706806],[-106.2480881,38.6707903],[-106.2480652,38.670978],[-106.2480558,38.6711005],[-106.2480243,38.6711529],[-106.2480131,38.6712035],[-106.2479766,38.6713597],[-106.2479331,38.6717512],[-106.2479237,38.6719266],[-106.2477882,38.6720884],[-106.2476575,38.6722129],[-106.2475663,38.6722999],[-106.2474556,38.6724219],[-106.247351,38.6725821],[-106.2473014,38.6726559],[-106.2472464,38.6727124],[-106.2471324,38.6728344],[-106.2470499,38.6728726],[-106.2470204,38.6729245],[-106.246938,38.6730124],[-106.2468759,38.6730334],[-106.2468388,38.673046],[-106.2468226,38.6731297],[-106.2467596,38.6731925],[-106.2467073,38.6732239],[-106.2466925,38.6732658],[-106.2466818,38.6733202],[-106.2466456,38.6733715],[-106.2465544,38.6734469],[-106.2464592,38.6735474],[-106.2463814,38.6736459],[-106.246317,38.6737568],[-106.2462969,38.6738385],[-106.2462446,38.6738909],[-106.2461708,38.673938],[-106.2461494,38.6739746],[-106.2461507,38.6740333],[-106.2461605,38.6740806],[-106.2460877,38.6740474],[-106.246032,38.6740228],[-106.2459818,38.6739788],[-106.245973,38.6739479],[-106.2459985,38.6739228],[-106.2460448,38.6738736],[-106.246109,38.673889]]}}]}
