{"type":"FeatureCollection","peaks_destination_id":"D7VUhCziozgDuI7ODYon","peaks_trailhead_id":"1i9yRPweEOaK23BUqqO1","peaks_source":"https://api.openstreetmap.org/api/0.6","peaks_license_name":"Open Data Commons Open Database License (ODbL) 1.0","peaks_license":"https://opendatacommons.org/licenses/odbl/1-0/","peaks_attribution":"© OpenStreetMap contributors","peaks_retrieved_at":"2026-07-28T02:20:10.552Z","features":[{"type":"Feature","properties":{"name":"Mount Hinman OSM route candidate","trailhead_name":"Necklace Valley Trailhead","destination_name":"Mount Hinman","distance_m":18128.621233761212,"trailhead_snap_m":8.03502597257012,"summit_snap_m":108.1708135302109,"osm_way_ids":[1274550692,1274550693,1274550694,1274550695,1274550697,1274550698,235408630,1173214337,1173214338,1173214331,1316820344,661915400,1173214328,723868824],"osm_way_urls":["https://www.openstreetmap.org/way/1274550692","https://www.openstreetmap.org/way/1274550693","https://www.openstreetmap.org/way/1274550694","https://www.openstreetmap.org/way/1274550695","https://www.openstreetmap.org/way/1274550697","https://www.openstreetmap.org/way/1274550698","https://www.openstreetmap.org/way/235408630","https://www.openstreetmap.org/way/1173214337","https://www.openstreetmap.org/way/1173214338","https://www.openstreetmap.org/way/1173214331","https://www.openstreetmap.org/way/1316820344","https://www.openstreetmap.org/way/661915400","https://www.openstreetmap.org/way/1173214328","https://www.openstreetmap.org/way/723868824"],"osm_way_names":["Necklace Valley Trail","La Bohn Lakes Route","Mount Hinman West Ridge Trail"],"osm_foot_access_override_way_ids":[]},"geometry":{"type":"LineString","coordinates":[[-121.288054,47.664815],[-121.2881568,47.6647943],[-121.2879798,47.6647089],[-121.2876372,47.6644096],[-121.2864895,47.6636632],[-121.2861773,47.6630837],[-121.2858159,47.6619388],[-121.2857628,47.66163],[-121.2857974,47.6609805],[-121.2853034,47.6600078],[-121.2849347,47.6592824],[-121.2842969,47.6582513],[-121.2837854,47.657465],[-121.2833064,47.6568089],[-121.2830768,47.6563663],[-121.2826935,47.6560969],[-121.282458,47.6557361],[-121.2819542,47.6553295],[-121.2813155,47.6548912],[-121.2809589,47.6546973],[-121.2805955,47.6546352],[-121.2802656,47.6546753],[-121.2800413,47.6545868],[-121.2800008,47.6544973],[-121.27997,47.6544344],[-121.2797507,47.6539853],[-121.27913,47.6535596],[-121.2778678,47.6531245],[-121.2766597,47.6526212],[-121.2756073,47.6521016],[-121.2752088,47.6518663],[-121.2749697,47.6519034],[-121.2745769,47.6516869],[-121.2740224,47.651576],[-121.2731035,47.651229],[-121.2727063,47.6512483],[-121.2725115,47.6511223],[-121.2723867,47.6507803],[-121.2722282,47.6505338],[-121.2719778,47.6504229],[-121.2714467,47.6503967],[-121.2713264,47.6502501],[-121.2710132,47.6502123],[-121.2703908,47.6496536],[-121.2697216,47.649552],[-121.2690878,47.6493701],[-121.2688793,47.6491711],[-121.2683899,47.649038],[-121.2679352,47.6487701],[-121.2674798,47.6485185],[-121.2668799,47.6480246],[-121.266361,47.6478578],[-121.265977,47.6475047],[-121.265458,47.6472425],[-121.2653111,47.6469257],[-121.26515,47.6467583],[-121.2650563,47.6464727],[-121.26485,47.6463568],[-121.2647385,47.6461955],[-121.2644604,47.6461207],[-121.2641288,47.6459188],[-121.2640152,47.6456765],[-121.2638477,47.6455478],[-121.2633635,47.6453756],[-121.262998,47.6451583],[-121.2625926,47.6447093],[-121.262544,47.6443414],[-121.2622647,47.6439814],[-121.2618373,47.6434295],[-121.2614377,47.6432774],[-121.2609194,47.6432442],[-121.2605146,47.6430019],[-121.2603391,47.6428505],[-121.2601363,47.6422529],[-121.2593357,47.6414424],[-121.2593316,47.6411498],[-121.2592627,47.6409891],[-121.2590734,47.6408496],[-121.2588237,47.6404233],[-121.2588707,47.6402604],[-121.258902,47.6400379],[-121.2587716,47.6399154],[-121.2589202,47.6398148],[-121.2589138,47.6396187],[-121.2587303,47.6393922],[-121.2586723,47.6392198],[-121.2584457,47.6390748],[-121.258288,47.6387678],[-121.258218,47.6384654],[-121.2584125,47.6381671],[-121.2583239,47.6378515],[-121.2578525,47.6375445],[-121.2578663,47.6373229],[-121.2577518,47.6371215],[-121.2577557,47.6369294],[-121.2576746,47.6368002],[-121.2575178,47.6367396],[-121.2573313,47.6366389],[-121.2569087,47.6364657],[-121.2567326,47.6363842],[-121.2565086,47.6364984],[-121.2564503,47.6364323],[-121.256412,47.6363345],[-121.2560702,47.6361484],[-121.2560002,47.6358993],[-121.256159,47.6356974],[-121.2561639,47.6355437],[-121.256102,47.6353843],[-121.2562002,47.6350962],[-121.256154,47.6349196],[-121.2558291,47.6347182],[-121.25581,47.6345253],[-121.2558581,47.6343156],[-121.2557687,47.634111],[-121.2557311,47.6338547],[-121.2555338,47.6338001],[-121.2556406,47.6335633],[-121.2556762,47.633349],[-121.25585,47.633152],[-121.2558786,47.633098],[-121.2558169,47.6328527],[-121.2560082,47.6325767],[-121.2560405,47.6324027],[-121.2561376,47.6322717],[-121.256139,47.6320224],[-121.2562512,47.6318249],[-121.2564482,47.631536],[-121.2564791,47.6310918],[-121.2564286,47.6307748],[-121.2563394,47.6305523],[-121.2561186,47.6303927],[-121.2558898,47.6303309],[-121.25565,47.6300945],[-121.2549138,47.6297689],[-121.2543816,47.6297095],[-121.2541725,47.6296462],[-121.2539,47.6294197],[-121.2537801,47.629334],[-121.253819,47.6291657],[-121.2537724,47.6289904],[-121.2535394,47.628752],[-121.2532895,47.6286276],[-121.2529545,47.6283864],[-121.2526783,47.6282095],[-121.2525764,47.6280755],[-121.2520495,47.627709],[-121.2518096,47.6273815],[-121.2517482,47.6272028],[-121.2515298,47.6270609],[-121.2510298,47.6267981],[-121.2509328,47.6266353],[-121.2509419,47.6264552],[-121.2510012,47.6263562],[-121.2510139,47.6260634],[-121.2509756,47.6259853],[-121.251063,47.62583],[-121.2510495,47.6255309],[-121.2510876,47.6252662],[-121.251045,47.6250627],[-121.2510115,47.6247618],[-121.2510208,47.6245899],[-121.2509981,47.6244829],[-121.2509301,47.6244218],[-121.2510192,47.6240857],[-121.2511892,47.6240187],[-121.2511943,47.6239418],[-121.2511017,47.6237906],[-121.2510572,47.6236151],[-121.2510689,47.6235378],[-121.2509559,47.6233989],[-121.2508112,47.6233368],[-121.2505101,47.6229296],[-121.250089,47.6225466],[-121.2498315,47.6224663],[-121.249486,47.6224164],[-121.2492665,47.6223199],[-121.2489111,47.6222119],[-121.2488421,47.6221124],[-121.248858,47.6219357],[-121.2487765,47.6217404],[-121.2486397,47.6216395],[-121.2484101,47.6215562],[-121.2482739,47.6214213],[-121.248052,47.6213522],[-121.2478986,47.6212086],[-121.247735,47.6211273],[-121.2477109,47.6208543],[-121.2475823,47.6206702],[-121.2475565,47.6205089],[-121.2474833,47.6203343],[-121.2474355,47.6201998],[-121.2474551,47.620127],[-121.2473817,47.6200443],[-121.2471241,47.6199501],[-121.2468079,47.6197758],[-121.2463818,47.6194856],[-121.2461673,47.6192798],[-121.2459705,47.6192085],[-121.2458787,47.6190431],[-121.2456858,47.6189921],[-121.2454058,47.6188633],[-121.245305,47.6187774],[-121.2453162,47.6186808],[-121.2451774,47.6185466],[-121.2451915,47.6184038],[-121.245141,47.6182374],[-121.2451275,47.6181798],[-121.2450905,47.6180223],[-121.2451482,47.6179111],[-121.2453425,47.6177952],[-121.2453255,47.6176953],[-121.2452245,47.6176126],[-121.2449643,47.6174065],[-121.24468,47.6167357],[-121.2445423,47.6163873],[-121.2445108,47.6160848],[-121.2443869,47.6159402],[-121.2442163,47.615893],[-121.2441307,47.6157433],[-121.244198,47.6155764],[-121.2443924,47.6154009],[-121.244383,47.6152569],[-121.2444573,47.6151221],[-121.2444686,47.6151176],[-121.2446673,47.6150383],[-121.244857,47.6148282],[-121.2447988,47.6146295],[-121.2448415,47.6144912],[-121.2446592,47.6143682],[-121.2443581,47.6140905],[-121.2443463,47.6139599],[-121.244275,47.6138207],[-121.2441723,47.6137582],[-121.2441545,47.6135955],[-121.244188,47.6134372],[-121.244124,47.6132635],[-121.2442172,47.6129409],[-121.244106,47.6128212],[-121.2440848,47.6125665],[-121.2439509,47.6124993],[-121.2438893,47.6123691],[-121.2439161,47.6122587],[-121.2439324,47.6121763],[-121.2439311,47.6120956],[-121.2438757,47.6120538],[-121.243753,47.6119826],[-121.2436868,47.6118987],[-121.2436825,47.6118199],[-121.2439008,47.6118161],[-121.2440802,47.6117494],[-121.2441671,47.6116358],[-121.2440597,47.6114272],[-121.2441355,47.6112788],[-121.2442515,47.611235],[-121.2444265,47.611232],[-121.2447211,47.6114094],[-121.2448919,47.6114343],[-121.2450126,47.6113023],[-121.2450662,47.6111052],[-121.245372,47.6106586],[-121.2455487,47.6102877],[-121.2459189,47.6098807],[-121.2462293,47.6095536],[-121.2463866,47.6092811],[-121.2467028,47.6090217],[-121.2468928,47.6087436],[-121.2469304,47.6085031],[-121.2469798,47.6083641],[-121.2471727,47.608074],[-121.24757,47.6079315],[-121.2478933,47.6078611],[-121.248475,47.6079234],[-121.2491894,47.6079911],[-121.2496699,47.6079303],[-121.2501859,47.6079734],[-121.2507749,47.6078799],[-121.2513483,47.6078554],[-121.2522038,47.6079572],[-121.2525737,47.6080239],[-121.2528114,47.6079857],[-121.2532875,47.6078973],[-121.2536573,47.6078882],[-121.253947,47.6077834],[-121.2543769,47.6076158],[-121.2550209,47.6074338],[-121.2555992,47.6074596],[-121.2562365,47.6071797],[-121.2565173,47.606987],[-121.2568425,47.6068543],[-121.2569913,47.6066604],[-121.2571494,47.6062246],[-121.2572561,47.6060819],[-121.257481,47.6059536],[-121.257745,47.6058068],[-121.2580288,47.6054744],[-121.2582895,47.6052426],[-121.2584692,47.6052136],[-121.2585919,47.605134],[-121.258598,47.604785],[-121.2587137,47.6046722],[-121.2591176,47.6045022],[-121.2595341,47.6042298],[-121.2597683,47.6038852],[-121.2600135,47.6032391],[-121.2599886,47.6028244],[-121.2600826,47.6024747],[-121.2601788,47.6023486],[-121.2604796,47.6021504],[-121.2605329,47.6019971],[-121.2603307,47.6017212],[-121.260329,47.6015341],[-121.2604353,47.6013615],[-121.2604504,47.6008565],[-121.2605341,47.600714],[-121.2608563,47.6005616],[-121.2609685,47.6004662],[-121.2611318,47.6004064],[-121.2611319,47.6001596],[-121.2612051,47.6000304],[-121.2611032,47.5998857],[-121.2610036,47.5996697],[-121.2611568,47.5996271],[-121.2613258,47.5996252],[-121.2613827,47.5995734],[-121.2612668,47.5993015],[-121.2611863,47.5991243],[-121.2612981,47.5990647],[-121.261602,47.5990664],[-121.2618186,47.5989326],[-121.2621048,47.5987147],[-121.2621935,47.5984751],[-121.2624038,47.5983854],[-121.262522,47.5981964],[-121.2625356,47.5979793],[-121.262617,47.5978999],[-121.2628596,47.5978926],[-121.2631816,47.5979529],[-121.263482,47.5977065],[-121.2637074,47.5976284],[-121.2637081,47.5975431],[-121.2636558,47.5974367],[-121.2636729,47.59719],[-121.263755,47.5968819],[-121.2637897,47.5967707],[-121.2638887,47.5967354],[-121.2639647,47.5965685],[-121.2639368,47.5964116],[-121.2641691,47.5962069],[-121.2643318,47.5958938],[-121.2642789,47.5957599],[-121.264395,47.5955006],[-121.2645514,47.5953559],[-121.2645921,47.5950958],[-121.2647409,47.5949225],[-121.2648095,47.5948358],[-121.2647434,47.5947697],[-121.2645412,47.5947332],[-121.2643524,47.594627],[-121.2642514,47.5943206],[-121.2640938,47.5940598],[-121.2640724,47.5938029],[-121.2641072,47.5936438],[-121.2641441,47.5935015],[-121.2640459,47.5933305],[-121.2638768,47.5930057],[-121.2637501,47.5929696],[-121.263649,47.5928416],[-121.2633734,47.5927599],[-121.2633263,47.5926802],[-121.2632135,47.5926797],[-121.2630579,47.5926398],[-121.2628767,47.5923095],[-121.2626001,47.591972],[-121.2623849,47.5917496],[-121.262223,47.5916317],[-121.2621087,47.5913788],[-121.2619445,47.5912277],[-121.2616958,47.5910516],[-121.261645,47.5909431],[-121.2615591,47.5907785],[-121.2614941,47.590578],[-121.261362,47.5904505],[-121.2612128,47.590389],[-121.2609234,47.590243],[-121.2605989,47.5900748],[-121.2604675,47.5900404],[-121.2603387,47.5899681],[-121.2603465,47.5898831],[-121.2600402,47.5896969],[-121.2599512,47.5896067],[-121.2597947,47.5895567],[-121.2594832,47.5894868],[-121.2590459,47.5893259],[-121.258953,47.5892738],[-121.2588286,47.5891721],[-121.2588018,47.5890799],[-121.2588323,47.5889947],[-121.2589901,47.588944],[-121.259071,47.5888799],[-121.2588279,47.5887095],[-121.2588415,47.5885599],[-121.2589041,47.5884593],[-121.2588903,47.5883816],[-121.2588161,47.5880921],[-121.2588248,47.5879908],[-121.258979,47.5877524],[-121.2589627,47.5876584],[-121.2588709,47.5875868],[-121.2587818,47.5872598],[-121.2587482,47.5869904],[-121.2586355,47.5869126],[-121.2584853,47.5868276],[-121.2583225,47.5865893],[-121.2581769,47.5862596],[-121.2581172,47.586079],[-121.2579,47.5857672],[-121.2578252,47.5856332],[-121.2576914,47.5855013],[-121.2576022,47.5853371],[-121.2574922,47.5851867],[-121.2573959,47.5850058],[-121.2573525,47.584906],[-121.2573253,47.5847904],[-121.2572052,47.5846597],[-121.2571057,47.5845911],[-121.2570477,47.5844916],[-121.2570019,47.5843182],[-121.2570316,47.5841085],[-121.2568975,47.5837402],[-121.2568599,47.5835709],[-121.2569074,47.5834523],[-121.257008,47.5833724],[-121.2569088,47.5832309],[-121.2567854,47.5831447],[-121.256748,47.5830353],[-121.2567598,47.5828547],[-121.2565597,47.5826163],[-121.2565086,47.5824986],[-121.2564831,47.5822803],[-121.2563851,47.5820505],[-121.2562021,47.5818437],[-121.2561467,47.5816829],[-121.2561469,47.581578],[-121.2561978,47.5814618],[-121.256151,47.5812234],[-121.256226,47.5809697],[-121.2563956,47.5808053],[-121.2564631,47.5806208],[-121.2565354,47.580535],[-121.2565417,47.5804336],[-121.2566013,47.5803302],[-121.2566132,47.58017],[-121.2563367,47.5799105],[-121.2560816,47.5797563],[-121.2559473,47.5794846],[-121.2557776,47.5793158],[-121.255715,47.5791804],[-121.2557649,47.5790921],[-121.255823,47.5790065],[-121.255814,47.5788835],[-121.2556565,47.5787828],[-121.2556909,47.578707],[-121.2556817,47.5786321],[-121.2555242,47.5785016],[-121.2554453,47.5783092],[-121.2553648,47.5780429],[-121.2551725,47.5778965],[-121.2550056,47.5776303],[-121.2548804,47.5773363],[-121.2548783,47.5772297],[-121.2549113,47.5771517],[-121.2548275,47.5768928],[-121.2546964,47.576716],[-121.2546843,47.5765903],[-121.2544158,47.5764263],[-121.2540114,47.5762796],[-121.2536252,47.5762217],[-121.2534832,47.5761777],[-121.253432,47.5761059],[-121.2533891,47.5759757],[-121.2531638,47.5754039],[-121.2531933,47.5750173],[-121.2531691,47.5748641],[-121.2530136,47.5745787],[-121.2530065,47.5744376],[-121.2529798,47.5742965],[-121.252889,47.5740113],[-121.2527306,47.5737101],[-121.2527457,47.5735689],[-121.252681,47.5733519],[-121.2525183,47.573118],[-121.2523384,47.5730392],[-121.2522666,47.572917],[-121.2521231,47.572846],[-121.2520446,47.572674],[-121.2517512,47.5726147],[-121.2514687,47.5726534],[-121.2513983,47.5725068],[-121.2512,47.5725165],[-121.251109,47.5724869],[-121.2510415,47.572394],[-121.2509365,47.5722938],[-121.2508204,47.572265],[-121.2506424,47.5723139],[-121.2504602,47.5722625],[-121.2503207,47.5720671],[-121.2500525,47.5720454],[-121.2499287,47.5719259],[-121.2496662,47.571792],[-121.2495911,47.5715242],[-121.2494463,47.5713577],[-121.2494355,47.5711876],[-121.2493658,47.5710501],[-121.2493256,47.5709886],[-121.2492769,47.5709213],[-121.2493706,47.5708635],[-121.2494044,47.5706519],[-121.2493604,47.5705561],[-121.2493124,47.5705056],[-121.2493832,47.5704698],[-121.2493279,47.5704235],[-121.2493279,47.5703742],[-121.2492704,47.5703071],[-121.2491424,47.5703029],[-121.2491309,47.570286],[-121.2490904,47.5702698],[-121.2490458,47.5702592],[-121.2489997,47.5702357],[-121.2490226,47.5702201],[-121.2489951,47.5701904],[-121.2488905,47.5701556],[-121.2486203,47.569949],[-121.2484092,47.5697213],[-121.2483462,47.5696307],[-121.2484235,47.5695051],[-121.2484343,47.5694207],[-121.2483207,47.5693189],[-121.2481914,47.5692696],[-121.2480937,47.5693047],[-121.2480032,47.5692404],[-121.2479882,47.5691535],[-121.2477771,47.5690379],[-121.247463,47.5689685],[-121.2472492,47.5687794],[-121.2469989,47.5686872],[-121.2467175,47.5683974],[-121.2463812,47.5682655],[-121.2462501,47.5681737],[-121.246165,47.5681513],[-121.2460378,47.5681961],[-121.245885,47.5682287],[-121.2457223,47.5682751],[-121.2455631,47.5682972],[-121.2454832,47.5682763],[-121.2453229,47.5682912],[-121.2451841,47.5682615],[-121.2449753,47.5682955],[-121.2447414,47.5684105],[-121.2445915,47.568396],[-121.2444941,47.5683345],[-121.2443577,47.5683693],[-121.2444121,47.5685896],[-121.2444014,47.568834],[-121.2443689,47.568898],[-121.2440872,47.56894],[-121.2436647,47.5690367],[-121.2435508,47.5690848],[-121.2435164,47.5691689],[-121.2432995,47.5693303],[-121.243216,47.5694698],[-121.2432121,47.5695793],[-121.2430905,47.5695666],[-121.2430358,47.5696494],[-121.2429064,47.5696382],[-121.2428088,47.5697142],[-121.242772,47.5698856],[-121.2427178,47.5698841],[-121.2426761,47.5699778],[-121.2426234,47.5699537],[-121.2426005,47.5698941],[-121.2425776,47.569808],[-121.2425973,47.5696601],[-121.2424631,47.5694658],[-121.2423829,47.5692306],[-121.2424533,47.5691302],[-121.2423551,47.5689867],[-121.2422684,47.5689403],[-121.2422147,47.5688716],[-121.2422728,47.5685885],[-121.2424566,47.5682773],[-121.2426156,47.5677937],[-121.2428388,47.5674246],[-121.2431109,47.5671593],[-121.2431431,47.5670072],[-121.2432846,47.5668925],[-121.2433191,47.5665331],[-121.2431755,47.5664063],[-121.2432257,47.5662963],[-121.2430806,47.5661423],[-121.2427994,47.565955],[-121.242435,47.5657983],[-121.2422665,47.5655894],[-121.2421405,47.5651242],[-121.2419491,47.564893],[-121.2417431,47.5647777],[-121.2416732,47.5646617],[-121.2415874,47.5641984],[-121.2413621,47.5639306],[-121.2412176,47.5638603],[-121.2409165,47.5635591],[-121.2407878,47.563668],[-121.2406765,47.5637784],[-121.2403885,47.563743],[-121.2401399,47.5637695],[-121.239937,47.5639815],[-121.2395836,47.5639815],[-121.2391386,47.5639197],[-121.2388899,47.5638137],[-121.2386936,47.5636326],[-121.2383253,47.5635486],[-121.2381078,47.5636307],[-121.2378106,47.5635738],[-121.2375724,47.5636935],[-121.2371826,47.5636785],[-121.2370165,47.5638482],[-121.2367934,47.5638789],[-121.236747,47.5637859],[-121.2366074,47.5637143],[-121.2361603,47.5638194],[-121.2357463,47.5639732],[-121.2356215,47.563966],[-121.2353939,47.5636602],[-121.2352252,47.5637959],[-121.235004,47.563861],[-121.2348089,47.5640761],[-121.2345204,47.5641449],[-121.2343563,47.5642623],[-121.2341845,47.5642693],[-121.2337118,47.5641616],[-121.2327329,47.5638419],[-121.2325591,47.5636945],[-121.2323294,47.5637206],[-121.2321193,47.5638571],[-121.2319179,47.5640688],[-121.2315921,47.5643336],[-121.2315675,47.5645525],[-121.231039,47.5647493],[-121.2307382,47.5650691],[-121.2304113,47.5656318],[-121.2303291,47.5659904],[-121.2295507,47.566001],[-121.2287522,47.5661717],[-121.2278858,47.5660635],[-121.2265658,47.5663917],[-121.2254877,47.5673817],[-121.2247221,47.5675327],[-121.2242619,47.5678427],[-121.2235714,47.5679568],[-121.2222494,47.5679443],[-121.2215298,47.5680878],[-121.220988,47.5683755],[-121.2201872,47.5689199],[-121.2195597,47.5693966],[-121.2186385,47.5699161],[-121.2178285,47.5702366],[-121.2172025,47.5703316],[-121.2167362,47.5703142],[-121.2158369,47.5699501],[-121.2138774,47.5694093],[-121.21509,47.568883]]}}]}
