{"type":"FeatureCollection","peaks_destination_id":"2EyMjHMkNqZWAnUVoos5","peaks_trailhead_id":"AD30E99774193FD02457","peaks_source":"https://api.openstreetmap.org/api/0.6","peaks_license_name":"Open Data Commons Open Database License (ODbL) 1.0","peaks_license":"https://opendatacommons.org/licenses/odbl/1-0/","peaks_attribution":"© OpenStreetMap contributors","peaks_retrieved_at":"2026-07-28T02:20:36.359Z","features":[{"type":"Feature","properties":{"name":"Mount of the Holy Cross OSM route candidate","trailhead_name":"Half Moon Pass Trailhead","destination_name":"Mount of the Holy Cross","distance_m":8448.287267187538,"trailhead_snap_m":15.573675438434659,"summit_snap_m":14.016077074015218,"osm_way_ids":[1449861448,250492034,1449861449],"osm_way_urls":["https://www.openstreetmap.org/way/1449861448","https://www.openstreetmap.org/way/250492034","https://www.openstreetmap.org/way/1449861449"],"osm_way_names":["Mount of the Holy Cross #2009"],"osm_foot_access_override_way_ids":[]},"geometry":{"type":"LineString","coordinates":[[-106.4331971,39.5005357],[-106.4331018,39.5004165],[-106.4331973,39.5001499],[-106.4332885,39.5000381],[-106.4333797,39.500005],[-106.4334923,39.5000298],[-106.4335513,39.5000091],[-106.4336747,39.499976],[-106.4337927,39.4999677],[-106.433959,39.4999098],[-106.4341146,39.4997856],[-106.4342165,39.499649],[-106.4344525,39.4993758],[-106.4347744,39.4990447],[-106.4350802,39.4986763],[-106.4354342,39.4981919],[-106.4358258,39.4977656],[-106.4360619,39.4976248],[-106.4364642,39.497451],[-106.4367163,39.4973144],[-106.4369094,39.4973061],[-106.4372367,39.4972523],[-106.4375854,39.4971116],[-106.4376765,39.4970237],[-106.437757,39.496946],[-106.437816,39.4968797],[-106.4379555,39.4968756],[-106.4380467,39.4969667],[-106.4381218,39.4970495],[-106.4382237,39.4970577],[-106.438567,39.4969625],[-106.4388084,39.496859],[-106.4389372,39.496739],[-106.4392376,39.4965693],[-106.4394575,39.4963996],[-106.4395917,39.4962464],[-106.4395541,39.4960518],[-106.4395541,39.4959525],[-106.4396936,39.4959235],[-106.439935,39.4958573],[-106.439994,39.4957745],[-106.4401174,39.4956172],[-106.4402837,39.4954806],[-106.4405251,39.4951908],[-106.4407772,39.4949507],[-106.4409864,39.4947561],[-106.4411473,39.494516],[-106.4412922,39.4944539],[-106.4415228,39.494603],[-106.4417481,39.4947727],[-106.4418876,39.4949341],[-106.4419359,39.4950749],[-106.4420968,39.4950625],[-106.4422739,39.4948969],[-106.4425153,39.4946527],[-106.4427567,39.4944995],[-106.4430463,39.4943256],[-106.4431322,39.494218],[-106.4432609,39.4941642],[-106.4434487,39.494218],[-106.4436632,39.4943132],[-106.4438027,39.4944208],[-106.4439368,39.4946361],[-106.4441192,39.4948431],[-106.4442855,39.4950211],[-106.4445806,39.4950956],[-106.4449453,39.4951328],[-106.4452028,39.4951287],[-106.4453906,39.4951825],[-106.445632,39.4953522],[-106.4457446,39.4955344],[-106.4458627,39.4956544],[-106.4460129,39.4956462],[-106.4462006,39.495522],[-106.4464742,39.4953398],[-106.4467156,39.4952363],[-106.447252,39.4950666],[-106.4475992,39.4949327],[-106.4481518,39.4947589],[-106.4485917,39.4947878],[-106.4490262,39.4947671],[-106.4493588,39.4946926],[-106.4499435,39.4944442],[-106.4501903,39.4942911],[-106.4501849,39.4940634],[-106.4506087,39.493608],[-106.4507803,39.4933431],[-106.4511044,39.4935915],[-106.4516777,39.4940121],[-106.451883,39.49446],[-106.451968,39.494531],[-106.4524776,39.4941323],[-106.4531784,39.4942415],[-106.4533624,39.494176],[-106.4536385,39.4936734],[-106.4537942,39.4936516],[-106.4539092,39.4935592],[-106.4541339,39.4933785],[-106.4545587,39.4931927],[-106.455269,39.4929454],[-106.4558635,39.492752],[-106.4564539,39.4926067],[-106.4571362,39.4925401],[-106.4577662,39.4924745],[-106.458566,39.4923981],[-106.4595712,39.4923707],[-106.4605338,39.4924035],[-106.4612417,39.4925182],[-106.4620981,39.4926493],[-106.462353,39.4927149],[-106.4627494,39.4927804],[-106.4632802,39.4928897],[-106.463797,39.4929334],[-106.4646393,39.4926603],[-106.4650144,39.4922779],[-106.4650923,39.4921468],[-106.4652309,39.4916969],[-106.4654964,39.4912249],[-106.465703,39.4909724],[-106.4657459,39.4908606],[-106.4657673,39.4907654],[-106.465888,39.4906578],[-106.4659765,39.4905812],[-106.465998,39.4904756],[-106.4659256,39.4903307],[-106.4658907,39.4902107],[-106.4659283,39.4899478],[-106.4660087,39.4896373],[-106.466057,39.4894344],[-106.466116,39.4892606],[-106.4662018,39.4891571],[-106.4662206,39.4889832],[-106.466344,39.4891136],[-106.4663923,39.488919],[-106.4664781,39.4887369],[-106.4665613,39.4887513],[-106.4666685,39.4888611],[-106.4666927,39.4889604],[-106.4666498,39.4890681],[-106.4665988,39.4891612],[-106.4666525,39.4892647],[-106.4667276,39.4893723],[-106.4667732,39.4893372],[-106.4667892,39.4892316],[-106.4669555,39.4893289],[-106.4669877,39.4891529],[-106.4670092,39.4890888],[-106.4671084,39.4890908],[-106.4672613,39.4892047],[-106.4675215,39.4893351],[-106.4677253,39.4896145],[-106.4678139,39.4896746],[-106.467897,39.4896125],[-106.4680311,39.4895918],[-106.4681491,39.4895835],[-106.4681974,39.4895235],[-106.4682189,39.4894096],[-106.4682618,39.4892751],[-106.4684066,39.4891695],[-106.4685515,39.489095],[-106.4686105,39.4890349],[-106.4686051,39.4889314],[-106.4686266,39.488859],[-106.4687017,39.4888176],[-106.4689243,39.4887783],[-106.4693078,39.4887513],[-106.4695063,39.4886996],[-106.4696994,39.4886458],[-106.4699087,39.4885857],[-106.470134,39.488565],[-106.4703834,39.4885961],[-106.470547,39.4886748],[-106.4706945,39.488772],[-106.4707938,39.4888176],[-106.4708573,39.4888166],[-106.4709333,39.4888155],[-106.4710164,39.4887306],[-106.4710754,39.4886271],[-106.4711586,39.4885423],[-106.4713624,39.4884636],[-106.4714402,39.4884388],[-106.471636,39.4883932],[-106.4717862,39.4883808],[-106.4719579,39.4884574],[-106.4720705,39.488565],[-106.47221,39.4887286],[-106.4722985,39.4888031],[-106.4723951,39.4888072],[-106.4725158,39.4887741],[-106.4726338,39.4887617],[-106.4727974,39.4887927],[-106.4729342,39.488888],[-106.4730442,39.4889087],[-106.4732426,39.4888838],[-106.4733124,39.4888797],[-106.4734331,39.4889232],[-106.4735323,39.4890246],[-106.4736101,39.4890867],[-106.4737013,39.4891012],[-106.4738086,39.4890515],[-106.4738837,39.4890267],[-106.4740688,39.489008],[-106.4743397,39.4889749],[-106.474624,39.4890825],[-106.4752382,39.4892316],[-106.4755359,39.4893061],[-106.4758471,39.4893682],[-106.4760536,39.4893723],[-106.4762735,39.4895566],[-106.4763674,39.489509],[-106.4764988,39.4893558],[-106.4765659,39.4892419],[-106.4765847,39.4891529],[-106.4766276,39.4890908],[-106.4767805,39.4889894],[-106.4768314,39.4888962],[-106.476987,39.4887451],[-106.4770728,39.4886478],[-106.4771506,39.4884926],[-106.4771989,39.4884408],[-106.4772767,39.4883953],[-106.4773545,39.4883477],[-106.4775208,39.4883518],[-106.477679,39.488416],[-106.4778695,39.4884822],[-106.4779446,39.4884698],[-106.4779848,39.4884264],[-106.4780223,39.4883518],[-106.4780465,39.4882711],[-106.4781323,39.4881862],[-106.4781484,39.4880765],[-106.4781994,39.4879337],[-106.4782959,39.487795],[-106.4783871,39.4876687],[-106.4786553,39.48741],[-106.4787412,39.4872941],[-106.4787573,39.4872071],[-106.4786848,39.4871409],[-106.4785454,39.4870726],[-106.4784408,39.4869794],[-106.4783657,39.4869152],[-106.4783308,39.4868676],[-106.4783496,39.4868159],[-106.4784783,39.4867931],[-106.4785937,39.4867558],[-106.4786768,39.4866586],[-106.4787841,39.4864785],[-106.4791033,39.4862425],[-106.4792991,39.4860437],[-106.4795136,39.4859382],[-106.479629,39.4858429],[-106.4797229,39.4857394],[-106.479696,39.4856691],[-106.4796773,39.4855718],[-106.4796987,39.485489],[-106.4798114,39.4853834],[-106.4799026,39.4852799],[-106.4798972,39.4852157],[-106.4798462,39.4851743],[-106.4797926,39.485166],[-106.4796263,39.4851515],[-106.4796531,39.4850501],[-106.4796075,39.4849093],[-106.4796504,39.4847499],[-106.479629,39.484663],[-106.4795646,39.4845823],[-106.4795834,39.4845015],[-106.4796719,39.4843235],[-106.4797282,39.4842759],[-106.4799804,39.4841703],[-106.4800581,39.4841144],[-106.4800474,39.4839571],[-106.4801225,39.4837521],[-106.4802566,39.4835348],[-106.4802942,39.4834064],[-106.4803022,39.4831994],[-106.4802754,39.483098],[-106.4802942,39.4830007],[-106.4802083,39.4829179],[-106.4801306,39.482864],[-106.4801252,39.4827792],[-106.4801493,39.4827026],[-106.4802271,39.4825866],[-106.4804068,39.4824583],[-106.4805007,39.4823217],[-106.4805436,39.4822326],[-106.4805168,39.482125],[-106.4804658,39.4820525],[-106.4804739,39.4819242],[-106.4804229,39.4818165],[-106.4803129,39.4817254],[-106.4802378,39.4816902],[-106.4801654,39.4816758],[-106.4799401,39.4815019],[-106.4798704,39.4814832],[-106.4798436,39.4814335],[-106.4798328,39.4813673],[-106.4798918,39.4812721],[-106.4798382,39.4812348],[-106.4797792,39.4812431],[-106.4797068,39.4811955],[-106.4796263,39.4811603],[-106.4795002,39.4811561],[-106.4794251,39.4811251],[-106.4794064,39.4810754],[-106.4794305,39.4809884],[-106.4794359,39.480827],[-106.4793795,39.4805744],[-106.4793608,39.4803487],[-106.4793742,39.4800982],[-106.4793795,39.479827],[-106.4794117,39.4797111],[-106.4794385,39.4796552],[-106.4793929,39.4795558],[-106.4793929,39.4794668],[-106.4794359,39.4794026],[-106.4795512,39.4793964],[-106.4796773,39.479326],[-106.4797738,39.4791873],[-106.4798221,39.4790755],[-106.4798597,39.4789492],[-106.4799187,39.4788581],[-106.4799616,39.4787733],[-106.4799911,39.4785952],[-106.4800259,39.4784586],[-106.4801037,39.4783157],[-106.4801735,39.4782184],[-106.4802808,39.4781335],[-106.4803022,39.4780694],[-106.4803156,39.4780031],[-106.4804417,39.4779762],[-106.480549,39.4779389],[-106.4806536,39.4778644],[-106.4807099,39.4778209],[-106.4808387,39.4777961],[-106.4809486,39.4777485],[-106.4810586,39.4776636],[-106.4811122,39.4775663],[-106.4811632,39.4774835],[-106.4811873,39.4774338],[-106.4812705,39.4773986],[-106.4813375,39.4773717],[-106.4813778,39.477324],[-106.4813697,39.4772764],[-106.4812893,39.477206],[-106.4812544,39.4771439],[-106.4813134,39.4769969],[-106.4813536,39.4769038],[-106.4814234,39.4768313],[-106.4815226,39.4767133],[-106.4816326,39.4766533],[-106.4816782,39.4766077],[-106.4817318,39.4764856],[-106.4817774,39.4764172],[-106.4818767,39.4763717],[-106.4820698,39.4762868],[-106.4821583,39.4762495],[-106.4821556,39.4761895],[-106.4821449,39.476117],[-106.4821664,39.4760798],[-106.4822441,39.4760549],[-106.4822602,39.4759887],[-106.4822629,39.4758334],[-106.4822844,39.4757423],[-106.4823729,39.475676],[-106.4824641,39.4756098],[-106.4824641,39.4755311],[-106.4824587,39.4754587],[-106.4825124,39.4753696],[-106.4825928,39.4753137],[-106.482676,39.4752682],[-106.4827618,39.4751999],[-106.4827752,39.4751046],[-106.4829066,39.4750218],[-106.4830354,39.4749203],[-106.4831373,39.4748437],[-106.4831775,39.4747651],[-106.4832741,39.4746864],[-106.4833492,39.4746119],[-106.4833921,39.474529],[-106.4834458,39.4744442],[-106.4835477,39.4743386],[-106.4836174,39.4742764],[-106.4836255,39.4741729],[-106.4835879,39.4740694],[-106.4836121,39.4740218],[-106.4836952,39.4739845],[-106.4837596,39.4739058],[-106.4837757,39.4738437],[-106.4838025,39.4737506],[-106.4839232,39.4735953],[-106.4839822,39.4735125],[-106.4840171,39.4734048],[-106.484111,39.4732516],[-106.4841887,39.4731522],[-106.4843175,39.4727919],[-106.4843792,39.4726739],[-106.4844489,39.4725994],[-106.4844623,39.4724648],[-106.4845052,39.4723302],[-106.4846501,39.4720756],[-106.484701,39.471941],[-106.4847279,39.4718292],[-106.4847949,39.4717319],[-106.4848191,39.4716387],[-106.4848271,39.4715579],[-106.4848968,39.4714047],[-106.48498,39.4713157],[-106.4849988,39.4711914],[-106.4850175,39.4711024],[-106.4850202,39.4709637],[-106.4851007,39.4707256],[-106.4851275,39.4704854],[-106.4851597,39.470355],[-106.4851892,39.4702639],[-106.4852053,39.4700423],[-106.4852831,39.4695806],[-106.4852858,39.4691975],[-106.485267,39.469123],[-106.4852402,39.469065],[-106.4852348,39.4689159],[-106.4852482,39.4686405],[-106.4852482,39.4684604],[-106.485275,39.4683962],[-106.4852884,39.4683382],[-106.4852563,39.4682885],[-106.4851624,39.4682533],[-106.4848834,39.4680835],[-106.4847574,39.4680131],[-106.4846206,39.4679966],[-106.4844301,39.4678972],[-106.4843202,39.4678123],[-106.4843282,39.4676984],[-106.484296,39.4675721],[-106.4841753,39.4675307],[-106.4840734,39.4674934],[-106.4840359,39.4674748],[-106.4839795,39.467365],[-106.4839554,39.4672408],[-106.4838508,39.4670089],[-106.4837569,39.4668639],[-106.4837033,39.4668287],[-106.4836013,39.4667915],[-106.4834216,39.466748],[-106.4832419,39.4666755],[-106.4830944,39.4665989],[-106.4829415,39.4665595],[-106.4827698,39.4665575],[-106.4826787,39.4665885],[-106.4825982,39.4666714],[-106.4824802,39.4666776],[-106.4823487,39.4666134],[-106.4820108,39.4666403],[-106.4817801,39.4668142],[-106.48172,39.466697]]}}]}
