{"type":"FeatureCollection","peaks_destination_id":"FnWeJhXQdetfKbONaTed","peaks_trailhead_id":"B0n6dvoXcE9VYY5updyd","peaks_source":"https://api.openstreetmap.org/api/0.6","peaks_license_name":"Open Data Commons Open Database License (ODbL) 1.0","peaks_license":"https://opendatacommons.org/licenses/odbl/1-0/","peaks_attribution":"© OpenStreetMap contributors","peaks_retrieved_at":"2026-07-28T02:20:13.627Z","features":[{"type":"Feature","properties":{"name":"Old Snowy Mountain OSM route candidate","trailhead_name":"Snowgrass Trailhead (hikers only)","destination_name":"Old Snowy Mountain","distance_m":11612.600410792451,"trailhead_snap_m":57.538944543693326,"summit_snap_m":24.87664657814,"osm_way_ids":[147614862,442980345,442980344,147614857,1095570987,147614841,548939292,1352978194,548940147,1352978238,1352978219,1352978216,1352978214,1352978211,337321382,442980341],"osm_way_urls":["https://www.openstreetmap.org/way/147614862","https://www.openstreetmap.org/way/442980345","https://www.openstreetmap.org/way/442980344","https://www.openstreetmap.org/way/147614857","https://www.openstreetmap.org/way/1095570987","https://www.openstreetmap.org/way/147614841","https://www.openstreetmap.org/way/548939292","https://www.openstreetmap.org/way/1352978194","https://www.openstreetmap.org/way/548940147","https://www.openstreetmap.org/way/1352978238","https://www.openstreetmap.org/way/1352978219","https://www.openstreetmap.org/way/1352978216","https://www.openstreetmap.org/way/1352978214","https://www.openstreetmap.org/way/1352978211","https://www.openstreetmap.org/way/337321382","https://www.openstreetmap.org/way/442980341"],"osm_way_names":["Snowgrass Hiker Trail #96A","Snowgrass Trail #96","Bypass Trail #97","Lily Basin Trail #86","Pacific Crest Trail","Pacific Crest Trail (Old Snowy Alternate)","Old Snowy Mountain Scramble"],"osm_foot_access_override_way_ids":[]},"geometry":{"type":"LineString","coordinates":[[-121.519642,46.463903],[-121.518893,46.4639429],[-121.5186256,46.4639498],[-121.5184132,46.4640875],[-121.5182378,46.4642637],[-121.5182049,46.4644021],[-121.5182744,46.4645557],[-121.5181976,46.4647318],[-121.5179784,46.4649583],[-121.5176715,46.4652075],[-121.516825,46.4654394],[-121.516663,46.465497],[-121.516275,46.465659],[-121.515928,46.465833],[-121.514766,46.466271],[-121.514561,46.466365],[-121.513799,46.46688],[-121.5134516,46.4671387],[-121.512971,46.467634],[-121.512776,46.467802],[-121.512669,46.467924],[-121.512473,46.468207],[-121.512343,46.468352],[-121.511677,46.468948],[-121.511275,46.469365],[-121.510693,46.470167],[-121.510607,46.470325],[-121.510457,46.470798],[-121.510435,46.471039],[-121.510397,46.471141],[-121.510337,46.471198],[-121.510222,46.471255],[-121.5097789,46.4713109],[-121.509334,46.471605],[-121.5090305,46.4718609],[-121.50852,46.47228],[-121.508238,46.472538],[-121.507598,46.472944],[-121.507448,46.4730727],[-121.507038,46.473403],[-121.506785,46.47357],[-121.5066305,46.473744],[-121.506589,46.4739639],[-121.506497,46.473988],[-121.505771,46.474284],[-121.505473,46.474482],[-121.505023,46.474707],[-121.5048462,46.474846],[-121.504751,46.474912],[-121.504514,46.475065],[-121.5041649,46.4752561],[-121.503605,46.475497],[-121.502667,46.476035],[-121.502274,46.476293],[-121.5020406,46.4765195],[-121.501583,46.476898],[-121.5012,46.477203],[-121.500748,46.477501],[-121.500177,46.477943],[-121.499696,46.478216],[-121.499485,46.478362],[-121.498957,46.478794],[-121.498651,46.479001],[-121.498521,46.479113],[-121.498223,46.479407],[-121.49812,46.479532],[-121.497699,46.480136],[-121.4974326,46.4803454],[-121.4973521,46.4804574],[-121.497271,46.4806499],[-121.4970094,46.4807317],[-121.496843,46.4808921],[-121.496572,46.4809576],[-121.4963295,46.4809445],[-121.4961583,46.4809937],[-121.496092,46.481064],[-121.4959413,46.481187],[-121.495831,46.481264],[-121.495725,46.481314],[-121.4953232,46.4814447],[-121.495181,46.4813962],[-121.4950473,46.4814258],[-121.494845,46.481636],[-121.494714,46.481854],[-121.494677,46.481972],[-121.494705,46.482134],[-121.494674,46.482213],[-121.494261,46.48277],[-121.493994,46.482929],[-121.493546,46.483086],[-121.493324,46.483128],[-121.492857,46.483138],[-121.492278,46.483094],[-121.491985,46.483128],[-121.491571,46.483229],[-121.491117,46.483405],[-121.4908797,46.4835267],[-121.490564,46.483657],[-121.490253,46.48383],[-121.489957,46.48406],[-121.489804,46.484155],[-121.4894312,46.4843135],[-121.489015,46.484661],[-121.48874,46.484927],[-121.488501,46.485193],[-121.48836,46.485392],[-121.488311,46.48553],[-121.488292,46.485671],[-121.488321,46.485839],[-121.488307,46.48597],[-121.488201,46.486274],[-121.488093,46.486777],[-121.488002,46.486982],[-121.487876,46.487196],[-121.487789,46.487281],[-121.4876876,46.4873298],[-121.487573,46.4873],[-121.487286,46.486974],[-121.487218,46.48687],[-121.48716,46.486706],[-121.486913,46.486184],[-121.486738,46.485936],[-121.48667,46.485885],[-121.486387,46.485785],[-121.486014,46.485787],[-121.485545,46.485697],[-121.484757,46.485447],[-121.48463,46.485433],[-121.4840818,46.485539],[-121.4838574,46.4854808],[-121.483435,46.485206],[-121.483265,46.485054],[-121.483081,46.484945],[-121.4828797,46.4847181],[-121.482577,46.484445],[-121.482264,46.484208],[-121.48215,46.484081],[-121.481936,46.483777],[-121.481841,46.483705],[-121.481578,46.483563],[-121.481302,46.483352],[-121.480571,46.483058],[-121.480385,46.483021],[-121.480107,46.482992],[-121.479822,46.482918],[-121.4795,46.482872],[-121.4785275,46.4824854],[-121.4784051,46.4824739],[-121.4781993,46.4825352],[-121.4780103,46.4825352],[-121.477671,46.482419],[-121.477477,46.482372],[-121.477377,46.482372],[-121.477281,46.482395],[-121.477109,46.482477],[-121.476892,46.482551],[-121.4765254,46.4826079],[-121.4767513,46.4826639],[-121.477024,46.482765],[-121.4771985,46.482891],[-121.476753,46.482994],[-121.476362,46.483122],[-121.47609,46.483161],[-121.4758252,46.4831678],[-121.476052,46.483284],[-121.476372,46.483486],[-121.476437,46.48355],[-121.476492,46.483678],[-121.476506,46.483937],[-121.476531,46.484033],[-121.476595,46.484128],[-121.476714,46.484208],[-121.476961,46.484304],[-121.477077,46.484382],[-121.477303,46.484715],[-121.47732,46.484793],[-121.477307,46.485006],[-121.4774343,46.4853726],[-121.4774343,46.4854769],[-121.4772358,46.4858115],[-121.4770529,46.4860454],[-121.4770633,46.4860957],[-121.4768279,46.4862086],[-121.476683,46.4865521],[-121.4765865,46.4868106],[-121.4763933,46.487095],[-121.4763612,46.487372],[-121.4762271,46.4875235],[-121.4761949,46.4876638],[-121.4761734,46.487867],[-121.4761734,46.488096],[-121.4761895,46.4883286],[-121.4762002,46.4885576],[-121.4761949,46.4887718],[-121.4760715,46.4890082],[-121.4759515,46.4892083],[-121.476194,46.489147],[-121.4765418,46.4890881],[-121.476978,46.48898],[-121.476932,46.489124],[-121.476892,46.489175],[-121.476814,46.489211],[-121.476617,46.48925],[-121.476572,46.489276],[-121.476549,46.489331],[-121.476587,46.489394],[-121.476721,46.489483],[-121.476952,46.489576],[-121.477078,46.489662],[-121.477158,46.489794],[-121.477189,46.48989],[-121.477179,46.490237],[-121.477231,46.490502],[-121.477217,46.490588],[-121.477178,46.49064],[-121.477101,46.490683],[-121.476965,46.490702],[-121.476877,46.49069],[-121.476567,46.490578],[-121.476481,46.490562],[-121.476387,46.490568],[-121.476304,46.490615],[-121.476183,46.490896],[-121.476187,46.490984],[-121.47635,46.491276],[-121.476415,46.491448],[-121.476416,46.491582],[-121.4763475,46.4918798],[-121.4764333,46.4920872],[-121.476384,46.492141],[-121.476336,46.492202],[-121.476,46.492507],[-121.47593,46.492546],[-121.475789,46.492588],[-121.475158,46.492588],[-121.474653,46.492656],[-121.474325,46.492614],[-121.474172,46.492621],[-121.474062,46.492646],[-121.47374,46.492762],[-121.4733486,46.4929762],[-121.473096,46.493263],[-121.4728023,46.4934767],[-121.472387,46.493951],[-121.472286,46.494075],[-121.472072,46.4946861],[-121.4720447,46.4947798],[-121.471927,46.494945],[-121.4718676,46.4951959],[-121.4718703,46.4953382],[-121.4719253,46.4955215],[-121.4720086,46.495511],[-121.4722359,46.4956097],[-121.4724129,46.495678],[-121.4725149,46.4957482],[-121.4726302,46.4958017],[-121.4727402,46.4958719],[-121.4727536,46.4958848],[-121.4728421,46.4959568],[-121.4729306,46.4960159],[-121.4730004,46.4960861],[-121.4730406,46.496136],[-121.473095,46.496163],[-121.473149,46.496225],[-121.47316,46.496267],[-121.473148,46.496395],[-121.473114,46.49649],[-121.472844,46.496992],[-121.472361,46.497606],[-121.471889,46.497881],[-121.4715669,46.4980214],[-121.4712965,46.4981764],[-121.4710112,46.4983129],[-121.4708766,46.4983461],[-121.470983,46.498223],[-121.471102,46.497825],[-121.4711,46.497754],[-121.471065,46.497696],[-121.471004,46.497673],[-121.470954,46.497682],[-121.470885,46.497731],[-121.470831,46.497795],[-121.470718,46.49788],[-121.470115,46.498141],[-121.4696452,46.4983837],[-121.4694738,46.4984912],[-121.469479,46.498218],[-121.469422,46.498166],[-121.469293,46.498167],[-121.468919,46.498262],[-121.468827,46.49824],[-121.468699,46.498079],[-121.468601,46.498043],[-121.468453,46.498044],[-121.46827,46.498093],[-121.468032,46.498132],[-121.467896,46.498178],[-121.467503,46.498395],[-121.467228,46.498513],[-121.466974,46.49865],[-121.4663505,46.498913],[-121.4662049,46.4990146],[-121.4661222,46.4990417],[-121.4660356,46.4990363],[-121.4659904,46.4990078],[-121.4659176,46.4988642],[-121.4657837,46.4987382],[-121.465667,46.498592],[-121.465543,46.498491],[-121.465265,46.498331],[-121.465031,46.498223],[-121.464943,46.498202],[-121.464872,46.498207],[-121.46477,46.498243],[-121.4641982,46.4985466],[-121.4640755,46.4986504],[-121.4640178,46.4987571],[-121.4639157,46.4990283],[-121.4638487,46.4990893],[-121.4638272,46.4992711],[-121.4637777,46.4994097],[-121.4637489,46.4995512],[-121.4637367,46.4996847],[-121.4637686,46.4997914],[-121.4637671,46.4999378],[-121.4637777,46.5000518],[-121.4637474,46.5001825],[-121.463661,46.5002977],[-121.4636502,46.5003512],[-121.4635697,46.5004325],[-121.4635242,46.5005062],[-121.4634946,46.5005857],[-121.4634558,46.5007371],[-121.4634141,46.5007833],[-121.4633125,46.5008492],[-121.46326,46.50099],[-121.4632666,46.501134],[-121.4632612,46.5012208],[-121.4632827,46.5012688],[-121.46328,46.5013536],[-121.463192,46.5015083],[-121.4631888,46.5017392],[-121.4632773,46.5018836],[-121.4632773,46.5019298],[-121.4632304,46.501975],[-121.4629315,46.5020889],[-121.4627198,46.5021405],[-121.4626221,46.502192],[-121.4625016,46.5023108],[-121.4623551,46.5024117],[-121.4622313,46.5025215],[-121.4620945,46.5026112],[-121.462065,46.5027255],[-121.4618079,46.502878],[-121.461707,46.5029744],[-121.4616814,46.5030283],[-121.4616922,46.5030486],[-121.4617395,46.5030506],[-121.4619148,46.503032],[-121.4620435,46.503032],[-121.4623779,46.5030147],[-121.4624593,46.5030412],[-121.4625102,46.5030818],[-121.4626363,46.5031372],[-121.4627221,46.5031575],[-121.4627838,46.5032],[-121.4629716,46.5033606],[-121.463052,46.5034141],[-121.4630896,46.5034289],[-121.4631164,46.5034308],[-121.463162,46.5034178],[-121.4633095,46.5033994],[-121.4633777,46.5034653],[-121.4636187,46.5035953],[-121.4637392,46.503741],[-121.4637783,46.5038576],[-121.463846,46.5039495],[-121.4639251,46.5040077],[-121.4639452,46.5040843],[-121.4639118,46.5041266],[-121.4636806,46.5043866],[-121.4636663,46.5044092],[-121.4636394,46.5044655],[-121.4635643,46.5045532],[-121.4635482,46.5046095],[-121.4635275,46.5046354],[-121.463433,46.5046959],[-121.4634168,46.5047498],[-121.463394,46.5047721],[-121.463327,46.5047858],[-121.4632773,46.5048246],[-121.4632572,46.5048837],[-121.4631741,46.5049732],[-121.4631392,46.5050434],[-121.463095,46.5051006],[-121.4630708,46.5051735],[-121.4630547,46.5053572],[-121.4630561,46.505372],[-121.4630198,46.5053997],[-121.4630129,46.5054401],[-121.4630455,46.5055477],[-121.4630909,46.5056055],[-121.4631164,46.5056286],[-121.4631164,46.5056443],[-121.4631017,46.5056563],[-121.4630708,46.5056471],[-121.4630225,46.5056452],[-121.4628616,46.5056803],[-121.4628026,46.5057855],[-121.4628174,46.5058169],[-121.4628696,46.5058511],[-121.4629179,46.5058621],[-121.4630346,46.5058704],[-121.4630869,46.5058824],[-121.4632519,46.5059554],[-121.4633565,46.5059858],[-121.4634544,46.5059914],[-121.4635014,46.5059893],[-121.4636187,46.505949],[-121.4637373,46.5058926],[-121.4638728,46.5058501],[-121.4639444,46.5058526],[-121.4640807,46.5058649],[-121.4642027,46.5059046],[-121.4642952,46.5059286],[-121.4643824,46.5059581],[-121.4644307,46.5059858],[-121.4644481,46.5060551],[-121.464443,46.506088],[-121.4644491,46.5061776],[-121.4644068,46.5063166],[-121.4643623,46.506356],[-121.4643073,46.506428],[-121.4642928,46.5064757],[-121.4642791,46.5066578],[-121.4642472,46.5067918],[-121.464251,46.5068415],[-121.4642684,46.5068876],[-121.4643422,46.5069984],[-121.4643998,46.5070999],[-121.4644066,46.5071443],[-121.464369,46.5071849],[-121.4642179,46.5073925],[-121.4641267,46.5075853],[-121.4639372,46.5077507],[-121.4638728,46.5078411],[-121.4637555,46.507917],[-121.4636448,46.5081365],[-121.4636582,46.5081882],[-121.4637034,46.5082151],[-121.4637575,46.5082583],[-121.4638206,46.5082823],[-121.4639574,46.5082779],[-121.4640193,46.5083249],[-121.4640284,46.5083949],[-121.463915,46.5086006],[-121.4638138,46.5087568],[-121.4637424,46.5088494],[-121.4637001,46.5090646],[-121.4636904,46.5091481],[-121.4637815,46.5092013],[-121.4638513,46.5092257],[-121.4638728,46.509281],[-121.4638597,46.5093515],[-121.4638567,46.5094195],[-121.4638943,46.5094619],[-121.4639479,46.5094693],[-121.4639574,46.5094972],[-121.463908,46.509598],[-121.4639264,46.5096576],[-121.464028,46.509855],[-121.4641437,46.5099216],[-121.4642537,46.5099522],[-121.464358,46.5099432],[-121.4645013,46.5099231],[-121.4646022,46.5099387],[-121.4648595,46.5100598],[-121.4649457,46.5101173],[-121.4650223,46.5101808],[-121.4651949,46.5102525],[-121.4651949,46.5104363],[-121.4652438,46.5105887],[-121.4652684,46.5107442],[-121.465271,46.5108064],[-121.4652196,46.510853],[-121.4651169,46.5109189],[-121.4650772,46.5110057],[-121.4650982,46.5110603],[-121.4650842,46.5111519],[-121.4650398,46.5111873],[-121.4650095,46.5112307],[-121.4650071,46.5112693],[-121.4650538,46.5113126],[-121.4650375,46.511356],[-121.4649698,46.5113769],[-121.464941,46.5114417],[-121.4650489,46.5115257],[-121.4651026,46.5115488],[-121.4651375,46.5115829],[-121.4651468,46.5116051],[-121.4651187,46.5116992],[-121.4651294,46.5117278],[-121.4652045,46.5117832],[-121.4652463,46.5118271],[-121.4652986,46.5119403],[-121.4652388,46.5120021],[-121.4650825,46.5121256],[-121.4649913,46.5121755],[-121.4649189,46.5122733],[-121.4648277,46.5123619],[-121.4647231,46.5124154],[-121.4646319,46.5125317],[-121.4645648,46.5125557],[-121.4644307,46.5125853],[-121.4643529,46.5126406],[-121.464251,46.5127754],[-121.4641222,46.5128492],[-121.4638406,46.5129341],[-121.4635536,46.5130043],[-121.463142,46.513122],[-121.4629394,46.513211],[-121.4626608,46.5133782],[-121.4624968,46.5134639],[-121.4624137,46.5136226],[-121.4622983,46.5137869],[-121.4620113,46.5140047],[-121.4619519,46.5140861],[-121.4617971,46.5142008],[-121.4617971,46.514278],[-121.4618853,46.5144367],[-121.4615951,46.514484],[-121.4613257,46.5143861],[-121.4611087,46.5143501],[-121.4607854,46.5143653],[-121.4607681,46.5142007],[-121.4608392,46.514037],[-121.4608419,46.5139669],[-121.4608553,46.5139014],[-121.4608432,46.5138506],[-121.4607748,46.5138485],[-121.4606515,46.5139032],[-121.4605549,46.5138801],[-121.4603569,46.513911],[-121.4603122,46.5139291],[-121.4602934,46.513978],[-121.4603189,46.5140093],[-121.4603251,46.5140673],[-121.460257,46.5141611],[-121.4601979,46.5141861],[-121.4600889,46.5141517],[-121.4600043,46.5141816],[-121.4598448,46.5141854],[-121.4597017,46.514121],[-121.4596644,46.514038],[-121.4596081,46.514001],[-121.4594431,46.5138598],[-121.4593,46.5137935],[-121.4591958,46.5137002],[-121.4590396,46.513661],[-121.4589442,46.5135828],[-121.4587989,46.5135203],[-121.4587004,46.5134585],[-121.4586172,46.5134672],[-121.4586124,46.5135418],[-121.4585024,46.5135077],[-121.4584364,46.5134395],[-121.4584364,46.513379],[-121.458381,46.513314],[-121.4582765,46.5132734],[-121.4581584,46.5132765],[-121.4581118,46.5133146],[-121.4579676,46.5132483],[-121.4578642,46.5131783],[-121.4578147,46.5132767],[-121.4578037,46.5133752],[-121.4577872,46.5134661],[-121.4577157,46.5135683],[-121.4576652,46.5138068],[-121.4576772,46.513909],[-121.4577597,46.5140112],[-121.4577587,46.514083],[-121.4576088,46.5140548],[-121.4574725,46.5139923],[-121.4574998,46.5141236],[-121.4573953,46.5140673],[-121.4573363,46.5141299],[-121.4572454,46.5141267],[-121.4571727,46.5140767],[-121.4569712,46.5140374],[-121.456932,46.5142111],[-121.456823,46.5142518],[-121.456672,46.5141958],[-121.4564324,46.5141678],[-121.4563006,46.5141361],[-121.4562389,46.5139507],[-121.4561117,46.5137756],[-121.4556666,46.5135537],[-121.4556166,46.5134318],[-121.4554985,46.5133849],[-121.4553441,46.5130442],[-121.4549989,46.5128691],[-121.4549353,46.5127034],[-121.4546764,46.5125784],[-121.454499,46.512247],[-121.454242,46.51211]]}}]}
