{"type":"FeatureCollection","peaks_destination_id":"C3WOpAnEHIawrZAYd2rM","peaks_trailhead_id":"BE26C53F8339934849AD","peaks_source":"https://api.openstreetmap.org/api/0.6","peaks_license_name":"Open Data Commons Open Database License (ODbL) 1.0","peaks_license":"https://opendatacommons.org/licenses/odbl/1-0/","peaks_attribution":"© OpenStreetMap contributors","peaks_retrieved_at":"2026-07-28T02:20:37.943Z","features":[{"type":"Feature","properties":{"name":"Redcloud Peak OSM route candidate","trailhead_name":"Silver Creek Trailhead","destination_name":"Redcloud Peak","distance_m":7469.459077270564,"trailhead_snap_m":23.35930893642263,"summit_snap_m":10.23896781988762,"osm_way_ids":[971798961,198193292,251077010,198193289,251076947,198193295,251076165],"osm_way_urls":["https://www.openstreetmap.org/way/971798961","https://www.openstreetmap.org/way/198193292","https://www.openstreetmap.org/way/251077010","https://www.openstreetmap.org/way/198193289","https://www.openstreetmap.org/way/251076947","https://www.openstreetmap.org/way/198193295","https://www.openstreetmap.org/way/251076165"],"osm_way_names":["Silver Creek Trail"],"osm_foot_access_override_way_ids":[]},"geometry":{"type":"LineString","coordinates":[[-107.4606919,37.9367867],[-107.4608066,37.9369763],[-107.4604658,37.9371013],[-107.4603347,37.937123],[-107.4602359,37.9371087],[-107.4599359,37.9370486],[-107.4596058,37.9369946],[-107.4593748,37.9369856],[-107.4591197,37.9370696],[-107.4589307,37.9370787],[-107.4587837,37.9370696],[-107.4586367,37.9372407],[-107.4584687,37.9374867],[-107.4584627,37.9376997],[-107.4583396,37.9379128],[-107.4581866,37.9380508],[-107.4580906,37.9381708],[-107.4578206,37.9382668],[-107.4569954,37.9391309],[-107.4566868,37.939456],[-107.4563568,37.9396871],[-107.4559469,37.9398329],[-107.4556246,37.9400649],[-107.4551483,37.9401754],[-107.4547,37.9403633],[-107.454205,37.9403964],[-107.4541256,37.94054],[-107.4546253,37.9406432],[-107.4545412,37.9407684],[-107.4543591,37.9408089],[-107.454191,37.940982],[-107.4542517,37.9412582],[-107.4543451,37.9413282],[-107.4542797,37.941424],[-107.4539615,37.9414132],[-107.4536306,37.9414019],[-107.4534344,37.9414203],[-107.4530935,37.9415529],[-107.4526545,37.9416118],[-107.4522576,37.9416155],[-107.4521502,37.9414829],[-107.4518419,37.9415087],[-107.4517073,37.9414643],[-107.4515801,37.9413508],[-107.4514697,37.9412987],[-107.4512076,37.9412604],[-107.4510007,37.9412573],[-107.4506788,37.941337],[-107.4503937,37.9414489],[-107.4501454,37.9415011],[-107.4497224,37.9415271],[-107.4494613,37.9415848],[-107.449179,37.9417293],[-107.4489548,37.9419024],[-107.4488054,37.9419135],[-107.4487306,37.9420718],[-107.4486279,37.9421234],[-107.4483897,37.9422891],[-107.4483851,37.9424107],[-107.4485018,37.942488],[-107.4483243,37.9426979],[-107.4481095,37.9427605],[-107.4481375,37.9430846],[-107.4478013,37.9432209],[-107.4477593,37.9433903],[-107.447311,37.9435155],[-107.4470214,37.9436186],[-107.4469047,37.9437696],[-107.4468626,37.9440643],[-107.4466525,37.9442631],[-107.4462649,37.9443184],[-107.4460594,37.9444841],[-107.4458072,37.9448156],[-107.4456064,37.9450218],[-107.4455177,37.9451838],[-107.4451954,37.9452649],[-107.444996,37.9453587],[-107.4449244,37.9453739],[-107.4448551,37.9453565],[-107.4447792,37.9454194],[-107.4444476,37.9456015],[-107.444415,37.9456557],[-107.4443934,37.9457142],[-107.4442698,37.9457315],[-107.4442225,37.9458109],[-107.4441918,37.9458291],[-107.4440032,37.9458984],[-107.4439078,37.9459418],[-107.4436694,37.9459873],[-107.4434656,37.9461022],[-107.4431231,37.94628],[-107.442876,37.9463992],[-107.4426983,37.9465943],[-107.4425249,37.9467308],[-107.4423926,37.946811],[-107.4422669,37.9469259],[-107.4421542,37.9471058],[-107.4421347,37.9472359],[-107.4420436,37.9473356],[-107.4418594,37.9475047],[-107.4415733,37.9477973],[-107.4413088,37.9480206],[-107.4412806,37.9481203],[-107.4411744,37.9482308],[-107.4409533,37.9483869],[-107.4408666,37.9484584],[-107.4408276,37.9485126],[-107.4407523,37.9485287],[-107.440691,37.948543],[-107.4405653,37.948621],[-107.4403811,37.9486774],[-107.4400364,37.9487316],[-107.4396354,37.9488096],[-107.439384,37.9488313],[-107.4392496,37.9488746],[-107.4391284,37.9489326],[-107.4390198,37.9489852],[-107.4387337,37.9491066],[-107.438376,37.949358],[-107.4382134,37.9494685],[-107.4380378,37.9495401],[-107.4377712,37.9496853],[-107.4375393,37.9498175],[-107.4372315,37.9499194],[-107.4370061,37.9499606],[-107.436824,37.9500581],[-107.4366939,37.9501058],[-107.4365834,37.9502554],[-107.4364902,37.9503508],[-107.4361954,37.9504722],[-107.4358659,37.9505697],[-107.4355494,37.9507214],[-107.4351766,37.9508775],[-107.4348319,37.9509902],[-107.4347127,37.9510401],[-107.4346204,37.9510497],[-107.434477,37.9510535],[-107.4343203,37.9510726],[-107.4340472,37.9510379],[-107.43399,37.9510143],[-107.4339237,37.9510184],[-107.4333319,37.9509404],[-107.4328702,37.9509144],[-107.4327552,37.9508721],[-107.4326578,37.9508363],[-107.432532,37.9508038],[-107.4324735,37.9508212],[-107.4324475,37.9508407],[-107.4323435,37.950832],[-107.4321917,37.950871],[-107.4319576,37.9509339],[-107.4317669,37.9510097],[-107.4315956,37.9510683],[-107.43142,37.9510509],[-107.4312726,37.9510596],[-107.4311057,37.9510986],[-107.4309345,37.9511203],[-107.4308109,37.9511658],[-107.4305682,37.9512753],[-107.4304457,37.9513674],[-107.4302896,37.951466],[-107.4301888,37.9515202],[-107.4300763,37.9515662],[-107.4300441,37.9516183],[-107.4299675,37.9516168],[-107.4299092,37.9516704],[-107.429782,37.9517317],[-107.4295015,37.9518007],[-107.4292639,37.9519218],[-107.4290034,37.952026],[-107.4288854,37.9520919],[-107.428798,37.9521563],[-107.4286524,37.952213],[-107.4285236,37.9522529],[-107.428496,37.9523035],[-107.4284991,37.9523617],[-107.4284347,37.9524859],[-107.4284133,37.9525824],[-107.4283044,37.9526591],[-107.4282217,37.952748],[-107.4280546,37.9527924],[-107.4279525,37.952845],[-107.4278898,37.9529311],[-107.4278209,37.9530126],[-107.4277471,37.9531018],[-107.4276862,37.9531363],[-107.4276205,37.9531457],[-107.4275312,37.9531144],[-107.427431,37.9530502],[-107.4273621,37.9530549],[-107.4272008,37.9532412],[-107.4270912,37.9534323],[-107.42672,37.9535231],[-107.426435,37.9535889],[-107.4263066,37.9536531],[-107.4259589,37.9537455],[-107.4256598,37.9537862],[-107.4253451,37.9539287],[-107.4250867,37.9539992],[-107.4248862,37.9540837],[-107.424703,37.9541746],[-107.4246059,37.95422],[-107.4244759,37.95422],[-107.4243961,37.9542716],[-107.4242865,37.9542575],[-107.4241643,37.9542701],[-107.4240876,37.9542669],[-107.4239012,37.9543249],[-107.4236961,37.9543312],[-107.4235912,37.9543249],[-107.4233437,37.9543343],[-107.4231965,37.9543531],[-107.4229334,37.9543327],[-107.4226907,37.9544016],[-107.4224041,37.9544924],[-107.4221113,37.9545614],[-107.4219829,37.9545989],[-107.421831,37.954566],[-107.4217198,37.9545551],[-107.4216446,37.954566],[-107.4216096,37.9545602],[-107.4215726,37.9545363],[-107.4215491,37.9544768],[-107.4214927,37.9544141],[-107.4214739,37.9543343],[-107.4213878,37.9542278],[-107.4213158,37.9541464],[-107.4212766,37.9541182],[-107.421261,37.9540273],[-107.4211686,37.95396],[-107.4210605,37.9539193],[-107.4210088,37.9538864],[-107.420824,37.9538347],[-107.4206377,37.9537251],[-107.4205077,37.9536171],[-107.4204654,37.9535482],[-107.4202728,37.9534495],[-107.4201334,37.9533728],[-107.4200708,37.9532804],[-107.4200129,37.9532146],[-107.4198641,37.9531629],[-107.4197184,37.9531488],[-107.4195665,37.9531833],[-107.419388,37.9531504],[-107.4192267,37.9530909],[-107.4190967,37.9530079],[-107.4189746,37.9529625],[-107.4188853,37.9528779],[-107.4187898,37.9528043],[-107.4187005,37.952737],[-107.4183416,37.9524736],[-107.4181356,37.9523665],[-107.4179999,37.9522474],[-107.4175406,37.9519826],[-107.4172555,37.9518265],[-107.4170269,37.9516749],[-107.4168414,37.9516229],[-107.416769,37.9515504],[-107.4167373,37.9514418],[-107.4167531,37.9513785],[-107.4167554,37.9512857],[-107.4167503,37.9512484],[-107.4167695,37.9512241],[-107.4167701,37.9511968],[-107.4167339,37.9511285],[-107.4166841,37.9510634],[-107.4165789,37.9509638],[-107.4165178,37.9509124],[-107.4164279,37.9509242],[-107.4162808,37.9509429],[-107.4161744,37.9509689],[-107.4161333,37.9509734],[-107.4160783,37.9509927],[-107.4159807,37.9510375],[-107.4159423,37.9510663],[-107.4157919,37.9510183],[-107.4156767,37.9509479],[-107.4155855,37.9509239],[-107.4154287,37.9508279],[-107.4152623,37.9507639],[-107.4150719,37.9506583],[-107.4149535,37.9505479],[-107.4148614,37.9504686],[-107.4148303,37.9504167],[-107.4147615,37.9503831],[-107.4146655,37.9502951],[-107.4144511,37.9500887],[-107.4143279,37.9499703],[-107.4143135,37.9498231],[-107.4143551,37.9496727],[-107.4144159,37.9495191],[-107.4144591,37.9494503],[-107.4145615,37.9494023],[-107.4146335,37.9493383],[-107.4147311,37.9492919],[-107.4147999,37.9491831],[-107.4148751,37.9491031],[-107.4149487,37.9490151],[-107.4151407,37.9489575],[-107.4153359,37.9489223],[-107.4154783,37.9488711],[-107.4156111,37.9488359],[-107.4157007,37.9487831],[-107.4156991,37.9486935],[-107.4156239,37.9486055],[-107.4155711,37.9485527],[-107.4154527,37.9484871],[-107.4152575,37.9484327],[-107.4150223,37.9483415],[-107.4149055,37.9483207],[-107.4147503,37.9482759],[-107.4145967,37.9482535],[-107.4145071,37.9482247],[-107.4144351,37.9482247],[-107.4144175,37.9482071],[-107.4144543,37.9481863],[-107.4144495,37.9481591],[-107.4143359,37.9481239],[-107.4142527,37.9480695],[-107.4142735,37.9480183],[-107.4143295,37.9479783],[-107.4143679,37.9479303],[-107.4144207,37.9479015],[-107.4144751,37.9478359],[-107.4145039,37.9477719],[-107.4146527,37.9477335],[-107.4147951,37.9477031],[-107.4148687,37.9476711],[-107.4149023,37.9476407],[-107.4148927,37.9475751],[-107.4148271,37.9474855],[-107.4147567,37.9474135],[-107.4147567,37.9473623],[-107.4147999,37.9472759],[-107.4148079,37.9471559],[-107.4148351,37.9470407],[-107.4148895,37.9469287],[-107.4148991,37.9468903],[-107.4148895,37.9468567],[-107.4149455,37.9468023],[-107.4149807,37.9467271],[-107.4150031,37.9466471],[-107.4149727,37.9466055],[-107.4150127,37.9465607],[-107.4150175,37.9465063],[-107.4150559,37.9464727],[-107.4150687,37.9464215],[-107.4150863,37.9463847],[-107.4152095,37.9462775],[-107.4152607,37.9462103],[-107.4152639,37.9461607],[-107.4151503,37.9461543],[-107.4150031,37.9461431],[-107.4149423,37.9461255],[-107.4148751,37.9461047],[-107.4148127,37.9461063],[-107.4147599,37.9460887],[-107.4148047,37.9460439],[-107.4149951,37.9459623],[-107.4151951,37.9458871],[-107.4154925,37.9457092],[-107.4158207,37.9455682],[-107.4158947,37.9455011],[-107.4159433,37.9454711],[-107.4159895,37.9454595],[-107.416001,37.9454318],[-107.4160542,37.9454341],[-107.4160588,37.9454017],[-107.4161952,37.9453809],[-107.416253,37.9453948],[-107.416431,37.9452884],[-107.4165281,37.9452006],[-107.4166044,37.9451983],[-107.4166322,37.9451451],[-107.4166853,37.9451659],[-107.4167061,37.9451151],[-107.4167986,37.9451405],[-107.4168425,37.9451012],[-107.4169142,37.9450966],[-107.4171292,37.9451151],[-107.4173719,37.9451613],[-107.4175661,37.9451659],[-107.4177395,37.9451428],[-107.4177858,37.9451335],[-107.4179499,37.9451844],[-107.4182296,37.9452075],[-107.4184284,37.9452607],[-107.4186342,37.9452514],[-107.4188099,37.9452723],[-107.4189232,37.9452931],[-107.4190411,37.9453023],[-107.4190226,37.9452584],[-107.4189578,37.9451867],[-107.4188769,37.9451405],[-107.4187983,37.9450804],[-107.4186897,37.9449856],[-107.4185695,37.9449209],[-107.4185302,37.9448631],[-107.4186481,37.9448631],[-107.4187613,37.9448376],[-107.4188977,37.9448376],[-107.4189833,37.944833],[-107.4189,37.9447683],[-107.4187868,37.9446943],[-107.418655,37.9446111],[-107.4185671,37.9445487],[-107.4185255,37.9444862],[-107.4184076,37.9444261],[-107.4184053,37.9443522],[-107.4183868,37.944299],[-107.4184562,37.9442782],[-107.4185486,37.9443082],[-107.4185972,37.9442204],[-107.4186203,37.9441973],[-107.4186874,37.9442574],[-107.4187359,37.9442666],[-107.4187706,37.9442158],[-107.4188053,37.9442343],[-107.4188307,37.9442065],[-107.4190526,37.9442851],[-107.4190665,37.9442273],[-107.4191243,37.944114],[-107.4191682,37.9440539],[-107.4192029,37.9440678],[-107.4192168,37.9440424],[-107.4192422,37.9440632],[-107.4192653,37.9440308],[-107.4193046,37.9440378],[-107.4193439,37.9440077],[-107.4194502,37.9440794],[-107.4194942,37.9441164],[-107.4195127,37.9440678],[-107.4195127,37.9439753],[-107.4195705,37.9439985],[-107.4196768,37.94401],[-107.4197462,37.9439245],[-107.4198224,37.9439684],[-107.4198872,37.9440308],[-107.4200444,37.9441048],[-107.4200629,37.9439869],[-107.4200837,37.9438944],[-107.4201253,37.9438528],[-107.42019,37.9439152],[-107.4202478,37.9439615],[-107.4203056,37.9439707],[-107.4203241,37.9438852],[-107.4203657,37.9438204],[-107.4203958,37.9438158],[-107.4204489,37.9438736],[-107.4205668,37.9439129],[-107.42062,37.9439245],[-107.4206547,37.9438806],[-107.4206293,37.9438297],[-107.420657,37.9438135],[-107.4207472,37.9438667],[-107.4208743,37.9439222],[-107.4209159,37.943906],[-107.4209113,37.9438274],[-107.42102,37.9438413],[-107.4211795,37.9437904],[-107.4213159,37.9437835],[-107.4214014,37.9437627],[-107.421413,37.943721],[-107.4213621,37.9436147],[-107.4214338,37.9435569],[-107.4214361,37.9434968],[-107.4214985,37.9434344],[-107.4215563,37.9433696],[-107.4215702,37.943298],[-107.4216465,37.9432517],[-107.4217135,37.9432055],[-107.4217759,37.943083],[-107.4218522,37.9430414],[-107.4219262,37.9429651],[-107.4220533,37.9428148],[-107.4221412,37.9427616],[-107.4221527,37.9426599],[-107.4222059,37.942542],[-107.4222336,37.9423987],[-107.422192,37.9420935],[-107.4220903,37.9417722],[-107.4220556,37.9417398],[-107.4220649,37.9416913],[-107.422021,37.941645],[-107.4220533,37.9415896],[-107.4220002,37.9415572],[-107.422014,37.9415017],[-107.421977,37.9414809],[-107.4219701,37.9414462],[-107.4219354,37.9414092],[-107.421984,37.9413653],[-107.4219192,37.941259],[-107.4218869,37.9411156],[-107.421844,37.9409189],[-107.421861,37.94101]]}}]}
