{"type":"FeatureCollection","peaks_destination_id":"6iQbHB14bTe1gWzD8Rxo","peaks_trailhead_id":"UoS0tSqrlbNex2XgIWNJ","peaks_source":"https://api.openstreetmap.org/api/0.6","peaks_license_name":"Open Data Commons Open Database License (ODbL) 1.0","peaks_license":"https://opendatacommons.org/licenses/odbl/1-0/","peaks_attribution":"© OpenStreetMap contributors","peaks_retrieved_at":"2026-07-28T02:20:09.184Z","features":[{"type":"Feature","properties":{"name":"Ruth Mountain OSM route candidate","trailhead_name":"Hannegan Trailhead","destination_name":"Ruth Mountain","distance_m":10162.242955435433,"trailhead_snap_m":35.61288596696091,"summit_snap_m":18.07965573021126,"osm_way_ids":[180356571,182469994,1214666652],"osm_way_urls":["https://www.openstreetmap.org/way/180356571","https://www.openstreetmap.org/way/182469994","https://www.openstreetmap.org/way/1214666652"],"osm_way_names":["Hannegan Pass Trail","Ruth Arm Trail","Ruth Summer Cross Country Trail"],"osm_foot_access_override_way_ids":[]},"geometry":{"type":"LineString","coordinates":[[-121.592158,48.910077],[-121.5917136,48.9102084],[-121.5916398,48.910256],[-121.5916049,48.9102815],[-121.5915325,48.9103044],[-121.5912616,48.9103609],[-121.5911118,48.910403],[-121.5909224,48.9104484],[-121.5907158,48.9104552],[-121.5906139,48.9104525],[-121.590514,48.9104414],[-121.5903604,48.9104252],[-121.5897113,48.9103873],[-121.5885658,48.9104007],[-121.5877962,48.9104182],[-121.5876769,48.9103989],[-121.5873992,48.9102912],[-121.5869111,48.9099175],[-121.5840143,48.9082145],[-121.5835744,48.9078796],[-121.583156,48.9076892],[-121.582523,48.9073401],[-121.5816593,48.9069946],[-121.5811765,48.9069664],[-121.5804313,48.9068052],[-121.5799842,48.9067084],[-121.5782236,48.9063853],[-121.5767327,48.9055408],[-121.5757017,48.9043106],[-121.575194,48.9028268],[-121.5749675,48.9026088],[-121.5748027,48.9024502],[-121.5738936,48.9020898],[-121.5728865,48.9011015],[-121.5726193,48.9009095],[-121.5726878,48.9006907],[-121.5724589,48.9003599],[-121.5724222,48.9002658],[-121.5723768,48.9002474],[-121.5722737,48.8999855],[-121.572051,48.8999396],[-121.5721647,48.8997856],[-121.5716216,48.8994923],[-121.5714291,48.8993599],[-121.5713151,48.8993492],[-121.5712223,48.8993191],[-121.5708857,48.899246],[-121.57044,48.8992051],[-121.5702905,48.8992324],[-121.5702061,48.8992684],[-121.5700299,48.8992772],[-121.5698961,48.8992731],[-121.5696953,48.8990757],[-121.5695072,48.8989443],[-121.5694098,48.8988941],[-121.5690171,48.8985617],[-121.5688409,48.898407],[-121.5687977,48.8982681],[-121.5686248,48.8981938],[-121.5684056,48.898159],[-121.5678213,48.8977033],[-121.5675157,48.8975796],[-121.5674521,48.8975387],[-121.5674047,48.8974735],[-121.5673588,48.8974708],[-121.5674565,48.8976156],[-121.567649,48.897786],[-121.567916,48.8980849],[-121.5675631,48.8978736],[-121.5673958,48.8978268],[-121.5672877,48.8977373],[-121.5670567,48.8976117],[-121.5669231,48.8975876],[-121.5669324,48.897455],[-121.5668534,48.8973865],[-121.5665903,48.8973216],[-121.5663572,48.8972354],[-121.5662128,48.8971455],[-121.5661654,48.8970452],[-121.5660795,48.8969966],[-121.5659996,48.8969868],[-121.5657656,48.8967678],[-121.5656042,48.8967026],[-121.5653496,48.8966578],[-121.5651896,48.8966422],[-121.5650801,48.8965536],[-121.565012,48.8965215],[-121.5648698,48.8965235],[-121.5648728,48.8964407],[-121.5648476,48.8964086],[-121.5647787,48.8963832],[-121.5644153,48.8963726],[-121.5640536,48.8964328],[-121.5639385,48.8963979],[-121.56382,48.8963804],[-121.5636187,48.8963054],[-121.5633981,48.8962801],[-121.5632248,48.8962285],[-121.5630412,48.8961964],[-121.5627599,48.8961652],[-121.5624638,48.8960883],[-121.5624164,48.8960611],[-121.561913,48.8960309],[-121.5617592,48.8959865],[-121.5617116,48.8959083],[-121.5615872,48.8958353],[-121.5613737,48.895687],[-121.5611504,48.8956766],[-121.5609979,48.8956873],[-121.5608795,48.8957525],[-121.5607965,48.8957369],[-121.5607122,48.8956756],[-121.5603987,48.8957294],[-121.5602754,48.8957116],[-121.5601628,48.8957068],[-121.5599541,48.8956133],[-121.559843,48.8955909],[-121.559615,48.895441],[-121.5592152,48.8953057],[-121.5590627,48.8952259],[-121.5588732,48.8951587],[-121.5586259,48.8950964],[-121.5584038,48.8949582],[-121.5583002,48.8949231],[-121.5582409,48.8948453],[-121.5579937,48.8946993],[-121.557729,48.8945947],[-121.5576487,48.8944987],[-121.5576191,48.8944491],[-121.5575406,48.8944024],[-121.5573274,48.8943371],[-121.5572901,48.8942919],[-121.5565352,48.8939215],[-121.55633,48.8938498],[-121.5559946,48.8937906],[-121.5558408,48.8936946],[-121.5558245,48.8936479],[-121.5557774,48.8935612],[-121.555722,48.8934863],[-121.5555077,48.8934114],[-121.5552397,48.8933822],[-121.5550501,48.8933977],[-121.5549376,48.8933043],[-121.554834,48.8933062],[-121.5547058,48.8933602],[-121.5545592,48.8932638],[-121.5545068,48.8932098],[-121.5542535,48.8930524],[-121.554119,48.8930318],[-121.5540805,48.8929663],[-121.5533397,48.8925895],[-121.5532052,48.8924609],[-121.5530375,48.8923885],[-121.5529379,48.8923793],[-121.5529169,48.8922725],[-121.5528156,48.8921748],[-121.552702,48.8921197],[-121.5526059,48.8920519],[-121.5524493,48.892017],[-121.5524976,48.8919462],[-121.5524592,48.8918865],[-121.5523683,48.8918405],[-121.5523138,48.8917806],[-121.5521866,48.8917544],[-121.551799,48.891652],[-121.5516729,48.8915223],[-121.5513818,48.8914066],[-121.551341,48.8912823],[-121.5509304,48.8910445],[-121.5507982,48.8909769],[-121.5502682,48.8907573],[-121.5499317,48.8905437],[-121.5497982,48.8902015],[-121.5494799,48.8901462],[-121.5492667,48.8899126],[-121.5491705,48.889859],[-121.5490698,48.889822],[-121.5488273,48.8896043],[-121.5487426,48.8894297],[-121.5487914,48.8893849],[-121.5487737,48.8892603],[-121.548601,48.8890727],[-121.5481696,48.8887395],[-121.5477046,48.8884269],[-121.5475373,48.8883296],[-121.5474455,48.8882439],[-121.5473567,48.8882264],[-121.5470546,48.8880463],[-121.546948,48.8880326],[-121.5468399,48.8879801],[-121.5466645,48.8879501],[-121.5466445,48.8878817],[-121.5461973,48.8873424],[-121.5460863,48.8872879],[-121.5460048,48.8872752],[-121.5459808,48.8872116],[-121.5458301,48.8871662],[-121.5456359,48.8871283],[-121.5450854,48.8867222],[-121.5449921,48.8866852],[-121.544961,48.8865966],[-121.5448677,48.8865411],[-121.5447463,48.8864252],[-121.5444339,48.8862763],[-121.54439,48.8861877],[-121.5444087,48.8861117],[-121.5443051,48.8860407],[-121.5442532,48.8859754],[-121.5440578,48.8858771],[-121.5438526,48.8856866],[-121.5434833,48.8851868],[-121.5433708,48.8850855],[-121.5431042,48.884774],[-121.5428999,48.8846124],[-121.5428259,48.8845354],[-121.5427918,48.8844313],[-121.5426423,48.8843378],[-121.5422736,48.8838948],[-121.5420604,48.8837341],[-121.541896,48.8834323],[-121.5418176,48.8833904],[-121.541748,48.8832931],[-121.541252,48.8827634],[-121.541212,48.882668],[-121.5410535,48.882519],[-121.5410239,48.8824606],[-121.540827,48.8823038],[-121.540639,48.8820536],[-121.5401,48.8815112],[-121.5400719,48.8814382],[-121.5398956,48.8812937],[-121.5395841,48.8811378],[-121.5396662,48.8812989],[-121.5397802,48.8814489],[-121.5397906,48.8816748],[-121.5399238,48.8818131],[-121.5399413,48.8818885],[-121.5397891,48.8818033],[-121.5396647,48.8817868],[-121.5395522,48.8817332],[-121.5392694,48.8815248],[-121.5390932,48.8815151],[-121.5390369,48.8814878],[-121.5390117,48.8814333],[-121.5389015,48.8813747],[-121.5386875,48.8813875],[-121.5385379,48.8814557],[-121.5383558,48.8814362],[-121.5383291,48.8813905],[-121.538264,48.8813554],[-121.537577,48.8813379],[-121.5374852,48.8813087],[-121.5373431,48.8813104],[-121.5371787,48.8812911],[-121.5370839,48.8812649],[-121.5368559,48.8812658],[-121.5366797,48.8812834],[-121.5364739,48.8813418],[-121.5364132,48.8812902],[-121.5363214,48.8812843],[-121.5361896,48.8813106],[-121.5360824,48.8813527],[-121.5358905,48.8814752],[-121.5357602,48.8816475],[-121.5357087,48.8817589],[-121.5357321,48.8818364],[-121.5357809,48.8819056],[-121.5360381,48.8820452],[-121.5368855,48.8824489],[-121.5371402,48.8825219],[-121.5377138,48.8827435],[-121.5373726,48.882779],[-121.5371639,48.8828198],[-121.5368677,48.8828257],[-121.5368473,48.8828429],[-121.5369181,48.8828646],[-121.5370884,48.8829873],[-121.5371742,48.8830097],[-121.5373908,48.8831192],[-121.5369966,48.8831168],[-121.5368278,48.8831032],[-121.5366708,48.8831304],[-121.5365701,48.8831684],[-121.5364369,48.8831811],[-121.5363068,48.8831824],[-121.536123,48.8831451],[-121.5360267,48.8830818],[-121.5357069,48.8830438],[-121.535627,48.882998],[-121.5354937,48.8829503],[-121.5352629,48.8829193],[-121.535014,48.8829357],[-121.5347652,48.8828734],[-121.5344513,48.8828461],[-121.5342754,48.8829219],[-121.5339224,48.8827953],[-121.5335584,48.8828067],[-121.5334054,48.8827323],[-121.5333715,48.8826455],[-121.533175,48.8826433],[-121.5331234,48.8824847],[-121.5329128,48.8824674],[-121.5328149,48.8824795],[-121.5327539,48.8824871],[-121.5327081,48.8824759],[-121.5325686,48.882159],[-121.5325669,48.8819249],[-121.5326505,48.8818249],[-121.5325029,48.881538],[-121.5325714,48.8810817],[-121.5325051,48.8809646],[-121.5323066,48.8808676],[-121.5321457,48.8809046],[-121.5318321,48.880837],[-121.5317776,48.8806615],[-121.5316763,48.8805606],[-121.5312847,48.8804919],[-121.530681,48.8805169],[-121.5302252,48.8802573],[-121.5299007,48.8800491],[-121.5298845,48.8799063],[-121.5298336,48.879848],[-121.5296378,48.8798092],[-121.5296164,48.8797228],[-121.5294903,48.8796769],[-121.5292918,48.8794723],[-121.5290681,48.8793216],[-121.5287152,48.8793929],[-121.5285194,48.8793224],[-121.5283745,48.8792448],[-121.5280875,48.8792077],[-121.5271642,48.8790255],[-121.5266284,48.8788426],[-121.5262663,48.8786556],[-121.5255448,48.8784227],[-121.5253409,48.878428],[-121.5251693,48.8783928],[-121.5249359,48.8783734],[-121.5248555,48.8782181],[-121.5249923,48.8781687],[-121.5252202,48.8781546],[-121.5253731,48.8780929],[-121.5255555,48.8780752],[-121.5258616,48.877955],[-121.5273197,48.8770255],[-121.5278919,48.8766834],[-121.5283829,48.8762215],[-121.5288013,48.8756834],[-121.5291994,48.8752814],[-121.529564,48.8747166],[-121.5297157,48.8742771],[-121.5297321,48.8740462],[-121.5296828,48.8738839],[-121.5298089,48.8736314],[-121.5299131,48.8734546],[-121.5299735,48.8730398],[-121.529979,48.8727259],[-121.5300612,48.8724265],[-121.5300283,48.8722028],[-121.5301764,48.8718998],[-121.5302751,48.8716761],[-121.5302971,48.8714849],[-121.5302477,48.8713118],[-121.5303629,48.8709582],[-121.5304232,48.8705758],[-121.5302532,48.8704135],[-121.530138,48.8701645],[-121.5299515,48.86993],[-121.529798,48.8698254],[-121.5296937,48.8696053],[-121.529499,48.86936],[-121.5296232,48.8690836],[-121.5297075,48.8690577],[-121.5297975,48.8687988],[-121.5298425,48.8687803],[-121.5298088,48.8686582],[-121.5298481,48.8683882],[-121.5299718,48.8682032],[-121.5299662,48.8680738],[-121.5298425,48.867911],[-121.5298369,48.8675411],[-121.5300225,48.8672859],[-121.5299325,48.8668938],[-121.5298481,48.8665461],[-121.5295586,48.8661973],[-121.5293814,48.8657077],[-121.5284776,48.8651715],[-121.5283713,48.864402],[-121.5286548,48.8631896],[-121.5289206,48.8628632],[-121.528832,48.8620238],[-121.5294168,48.8620821],[-121.5299839,48.8616973],[-121.5307991,48.8618139],[-121.5314016,48.8610211],[-121.5322345,48.8603916],[-121.5328548,48.8599602],[-121.532872,48.859798]]}}]}
