{"type":"FeatureCollection","peaks_destination_id":"fPuj4ypVsbHYuTyj5PII","peaks_trailhead_id":"D64EE25F1294DADD64C9","peaks_source":"https://api.openstreetmap.org/api/0.6","peaks_license_name":"Open Data Commons Open Database License (ODbL) 1.0","peaks_license":"https://opendatacommons.org/licenses/odbl/1-0/","peaks_attribution":"© OpenStreetMap contributors","peaks_retrieved_at":"2026-07-28T02:20:21.823Z","features":[{"type":"Feature","properties":{"name":"Sunlight Peak OSM route candidate","trailhead_name":"Purgatory Trailhead","destination_name":"Sunlight Peak","distance_m":27861.728114614692,"trailhead_snap_m":53.82665998476045,"summit_snap_m":4.4684947809032165,"osm_way_ids":[558865452,558865453,558865454,1026543878,1026543879,1279127772,1279127773,559103591,246412280,885309590],"osm_way_urls":["https://www.openstreetmap.org/way/558865452","https://www.openstreetmap.org/way/558865453","https://www.openstreetmap.org/way/558865454","https://www.openstreetmap.org/way/1026543878","https://www.openstreetmap.org/way/1026543879","https://www.openstreetmap.org/way/1279127772","https://www.openstreetmap.org/way/1279127773","https://www.openstreetmap.org/way/559103591","https://www.openstreetmap.org/way/246412280","https://www.openstreetmap.org/way/885309590"],"osm_way_names":["Purgatory Trail","Animas River Trail","Needle/Johnson Creek Trail","Chicago Basin Trail","Sunlight Peak Climber's Route"],"osm_foot_access_override_way_ids":[]},"geometry":{"type":"LineString","coordinates":[[-107.806188,37.6300665],[-107.8065644,37.6296851],[-107.8061208,37.6295298],[-107.8059545,37.6295],[-107.8056487,37.6295102],[-107.8056058,37.6294002],[-107.8054985,37.6293216],[-107.8050131,37.6293339],[-107.8042245,37.6288946],[-107.8041092,37.6287056],[-107.8036425,37.6286907],[-107.8035566,37.6287374],[-107.8035566,37.6287901],[-107.8036961,37.6288925],[-107.8037524,37.6290131],[-107.8030765,37.628839],[-107.8034252,37.6291453],[-107.8031918,37.6291325],[-107.8028324,37.6289329],[-107.8020573,37.6289303],[-107.8015691,37.6291325],[-107.8013009,37.6294002],[-107.8014028,37.6296313],[-107.8006893,37.630029],[-107.8003514,37.630407],[-107.7999866,37.6304749],[-107.7997559,37.6301478],[-107.7995145,37.6300035],[-107.7988762,37.6301946],[-107.7981949,37.6301692],[-107.7978891,37.6302091],[-107.797755,37.6303281],[-107.797637,37.6303094],[-107.7975619,37.6300392],[-107.7974814,37.6300545],[-107.7974761,37.6302499],[-107.7968591,37.6302159],[-107.7968323,37.6300332],[-107.7965963,37.629882],[-107.796253,37.6298182],[-107.7960223,37.6297485],[-107.7957648,37.6298802],[-107.795502,37.6297272],[-107.7955234,37.6294808],[-107.7953035,37.629328],[-107.7950031,37.6294639],[-107.7949709,37.6296593],[-107.7950943,37.6297995],[-107.7950299,37.6301649],[-107.7948314,37.630379],[-107.794767,37.6306065],[-107.7946115,37.6308317],[-107.794531,37.6308147],[-107.7945417,37.6305915],[-107.7944773,37.6303773],[-107.7943808,37.6303561],[-107.7942842,37.6301963],[-107.7943003,37.6300392],[-107.7942091,37.6300799],[-107.7940214,37.6304852],[-107.7939302,37.6303179],[-107.7938175,37.6302796],[-107.793662,37.6301581],[-107.7935386,37.6298437],[-107.7935815,37.6284672],[-107.7933079,37.6274416],[-107.7933455,37.6260608],[-107.7932221,37.625387],[-107.7933508,37.624374],[-107.7933079,37.6238277],[-107.7937156,37.6226932],[-107.793839,37.6222428],[-107.7940428,37.6214592],[-107.7935761,37.6204328],[-107.7936459,37.6202611],[-107.793501,37.6195872],[-107.7929592,37.6187484],[-107.7927017,37.618032],[-107.7913553,37.6165389],[-107.7909797,37.6155233],[-107.7909583,37.6148052],[-107.7908081,37.6140828],[-107.7904862,37.6131395],[-107.790041,37.6123618],[-107.7896816,37.6121833],[-107.7894294,37.6117261],[-107.7891881,37.6111634],[-107.7891129,37.6105515],[-107.7890432,37.610186],[-107.7888071,37.6094805],[-107.7884745,37.6090046],[-107.7882493,37.6087157],[-107.7884853,37.6083587],[-107.7888501,37.6074619],[-107.7883941,37.6068033],[-107.78826,37.6063911],[-107.7879757,37.6060001],[-107.7872729,37.6055173],[-107.7865112,37.6052453],[-107.7856905,37.6051458],[-107.7851969,37.6053643],[-107.784462,37.6047463],[-107.7837217,37.6045228],[-107.7833354,37.6042593],[-107.7825576,37.6040409],[-107.7819353,37.6037833],[-107.7810717,37.6029784],[-107.7801919,37.6015163],[-107.7799344,37.6004963],[-107.7796233,37.5996293],[-107.7793604,37.5991575],[-107.7793979,37.5989366],[-107.7791995,37.5985709],[-107.7793039,37.5984425],[-107.779572,37.5982241],[-107.7796501,37.5980481],[-107.7798071,37.5975711],[-107.779752,37.5974743],[-107.7795679,37.5975095],[-107.7789741,37.5980057],[-107.7788529,37.5980619],[-107.7786796,37.5980459],[-107.7786209,37.5979716],[-107.7786255,37.5976953],[-107.778578,37.5974895],[-107.7784412,37.5973426],[-107.7781266,37.5972788],[-107.7779255,37.597328],[-107.7776983,37.5974111],[-107.7771339,37.5975642],[-107.7770142,37.5975552],[-107.7769518,37.5974957],[-107.776705,37.5972831],[-107.7765924,37.5971743],[-107.7758306,37.5969916],[-107.7754068,37.5970638],[-107.7746397,37.5969559],[-107.7742776,37.5970769],[-107.7738458,37.597757],[-107.7736064,37.5979809],[-107.7734582,37.5980177],[-107.7728641,37.5981179],[-107.7725288,37.5982879],[-107.7718529,37.5983606],[-107.7707532,37.5994844],[-107.7700076,37.5997653],[-107.7691627,37.5993377],[-107.7685645,37.5994886],[-107.7673173,37.6002243],[-107.7663265,37.6004788],[-107.7646485,37.6005473],[-107.7641228,37.6007577],[-107.7630311,37.601359],[-107.761851,37.6026213],[-107.7606279,37.603042],[-107.7590078,37.6042958],[-107.7570391,37.6044208],[-107.7553171,37.6049461],[-107.7546519,37.6050523],[-107.751683,37.6062368],[-107.7511007,37.6066374],[-107.7507412,37.607088],[-107.7505428,37.6077466],[-107.7500814,37.6083306],[-107.7493572,37.6086306],[-107.7488852,37.6089408],[-107.7484936,37.6096377],[-107.748,37.6099649],[-107.7474046,37.609971],[-107.7467877,37.6103645],[-107.7455056,37.6115289],[-107.7442503,37.6118986],[-107.7433062,37.6121578],[-107.7421635,37.6123236],[-107.7410585,37.612355],[-107.7397656,37.6124638],[-107.7391005,37.6125488],[-107.738387,37.6126805],[-107.7377057,37.6128862],[-107.7370834,37.6130714],[-107.7362197,37.6133222],[-107.7357316,37.6135005],[-107.7344334,37.6136553],[-107.7334571,37.6137641],[-107.7324057,37.6137726],[-107.7313328,37.6136026],[-107.7303243,37.6132457],[-107.7296162,37.6131777],[-107.7287417,37.6128887],[-107.7276957,37.612723],[-107.7265209,37.6129652],[-107.7250403,37.6137276],[-107.7236456,37.6140717],[-107.7224332,37.6151196],[-107.721194,37.6154681],[-107.7202392,37.6156057],[-107.7192735,37.6154086],[-107.7181095,37.6155742],[-107.7173638,37.6153109],[-107.7165163,37.6156252],[-107.7157974,37.6156933],[-107.7149928,37.6157672],[-107.7139735,37.6155403],[-107.7125412,37.6153661],[-107.7094889,37.6163222],[-107.7086842,37.617178],[-107.707724,37.6181085],[-107.7069033,37.6182896],[-107.7061629,37.6185232],[-107.7045589,37.6193816],[-107.703588,37.6197171],[-107.7036095,37.6194027],[-107.7033145,37.6193578],[-107.7020699,37.6203419],[-107.7017963,37.6207158],[-107.7015066,37.6214847],[-107.7009434,37.6218969],[-107.7003318,37.621897],[-107.6990873,37.6228377],[-107.6986366,37.6232651],[-107.6973116,37.6233416],[-107.6967269,37.623407],[-107.6960349,37.6233246],[-107.6958284,37.623384],[-107.6956621,37.6234158],[-107.6953214,37.623221],[-107.6953273,37.6231332],[-107.6952543,37.6229528],[-107.6950394,37.622752],[-107.6947257,37.6225478],[-107.6945452,37.6224729],[-107.6942745,37.6223946],[-107.6940123,37.6224253],[-107.6935396,37.6224014],[-107.6933592,37.6223742],[-107.6931658,37.6224593],[-107.692938,37.6225716],[-107.6928478,37.622381],[-107.6925642,37.622415],[-107.6924653,37.6225172],[-107.692388,37.6227214],[-107.692504,37.6228405],[-107.6925556,37.6230243],[-107.6924696,37.6230141],[-107.6922805,37.6231128],[-107.6919411,37.6229903],[-107.6917563,37.62314],[-107.6915758,37.6230311],[-107.691348,37.6229698],[-107.6912836,37.6228745],[-107.69103,37.6228745],[-107.6907249,37.6227656],[-107.690523,37.622735],[-107.6899729,37.6226975],[-107.6897366,37.6225478],[-107.6894635,37.6224048],[-107.6892367,37.6219629],[-107.6889753,37.6218884],[-107.68875,37.6220073],[-107.6887181,37.6222789],[-107.688455,37.6222693],[-107.6881671,37.6222234],[-107.687934,37.6221928],[-107.6877297,37.6221223],[-107.6873086,37.6218807],[-107.6862601,37.6213871],[-107.6858733,37.6214041],[-107.6856713,37.6213327],[-107.685319,37.6213599],[-107.6851643,37.6211965],[-107.6848592,37.6211114],[-107.6844939,37.6210536],[-107.6842575,37.6209719],[-107.6840985,37.6208766],[-107.6839395,37.6207132],[-107.683686,37.6206213],[-107.6833594,37.6206145],[-107.6832047,37.6205362],[-107.6829082,37.6204273],[-107.6826074,37.6203524],[-107.6821347,37.6201788],[-107.6818983,37.6201175],[-107.6814815,37.6199576],[-107.681142,37.619784],[-107.6808412,37.6195729],[-107.6804673,37.6193959],[-107.6801966,37.6193687],[-107.6799259,37.6192257],[-107.6798013,37.619093],[-107.6797884,37.6189024],[-107.679436,37.6186097],[-107.6789805,37.6184054],[-107.6786152,37.6182591],[-107.6782972,37.6180038],[-107.6781769,37.6177723],[-107.6779019,37.6176259],[-107.6776397,37.6174115],[-107.6771971,37.6171596],[-107.6769221,37.6170643],[-107.6767201,37.6169247],[-107.6764451,37.6166762],[-107.6761013,37.6164482],[-107.6757618,37.6163495],[-107.6755298,37.6161282],[-107.6753966,37.6159887],[-107.6751559,37.6157912],[-107.6748895,37.6156959],[-107.6745973,37.6155223],[-107.6743222,37.6153759],[-107.67403,37.6152942],[-107.6737808,37.6151785],[-107.6735659,37.6150219],[-107.6733854,37.6148415],[-107.6732007,37.614542],[-107.6729987,37.6143275],[-107.6727494,37.6141165],[-107.6726033,37.6140041],[-107.6723369,37.6140245],[-107.6718281,37.6138289],[-107.671615,37.6135752],[-107.6713236,37.6133091],[-107.6710231,37.6132682],[-107.6709532,37.6132145],[-107.6709019,37.6131503],[-107.6707727,37.6129693],[-107.6706352,37.612908],[-107.6705406,37.6126323],[-107.6703,37.6122817],[-107.6701023,37.612108],[-107.6699648,37.6120774],[-107.669823,37.6119787],[-107.6696812,37.6118425],[-107.6694577,37.6116621],[-107.6692901,37.6116178],[-107.6691784,37.6115259],[-107.6690194,37.611274],[-107.6688776,37.611114],[-107.6688647,37.6108962],[-107.6686326,37.6106987],[-107.668349,37.6105251],[-107.6678806,37.6103413],[-107.6676056,37.6101643],[-107.6673607,37.6100213],[-107.6671501,37.609977],[-107.6670126,37.6099702],[-107.666918,37.6099532],[-107.6667247,37.6099498],[-107.6665786,37.6098443],[-107.6664367,37.6098511],[-107.6662863,37.6098272],[-107.6660887,37.6096979],[-107.665891,37.6095004],[-107.6655515,37.6093881],[-107.6654269,37.6092792],[-107.6653323,37.6090851],[-107.6651647,37.6090511],[-107.6650702,37.6089728],[-107.6649198,37.6088706],[-107.6648811,37.6086732],[-107.6646405,37.608377],[-107.6642709,37.6081728],[-107.6639486,37.6081728],[-107.6637595,37.6081081],[-107.6635662,37.6079855],[-107.6634287,37.60772],[-107.6632396,37.6074579],[-107.663029,37.6073591],[-107.6628141,37.6072672],[-107.6625821,37.6070493],[-107.6623243,37.6067736],[-107.6620406,37.6066578],[-107.6617828,37.6066817],[-107.6615808,37.6066987],[-107.6614906,37.6066],[-107.6612886,37.6063719],[-107.6612284,37.6062187],[-107.6610136,37.6060553],[-107.6608976,37.605691],[-107.6605925,37.6054186],[-107.660283,37.6050578],[-107.6599522,37.6049726],[-107.6596513,37.6049148],[-107.659467,37.6050344],[-107.65917,37.6050278],[-107.6588836,37.6050076],[-107.6584035,37.6049184],[-107.6581916,37.6051691],[-107.6580141,37.6052382],[-107.6579238,37.6051361],[-107.6576359,37.6049965],[-107.657507,37.6048909],[-107.6573313,37.6046561],[-107.6573528,37.604472],[-107.656798,37.6041351],[-107.6564542,37.6040705],[-107.6560416,37.6039343],[-107.6554443,37.6037709],[-107.6551908,37.6036892],[-107.6548255,37.6035836],[-107.6545161,37.6035462],[-107.6543012,37.6034508],[-107.653936,37.6033215],[-107.6534547,37.6032806],[-107.6532226,37.6032227],[-107.6529433,37.6030695],[-107.6525523,37.6029844],[-107.6521053,37.6027733],[-107.6517315,37.6026406],[-107.6513576,37.6025214],[-107.6510783,37.6025078],[-107.6508119,37.6025997],[-107.650481,37.6026269],[-107.6502403,37.6026746],[-107.649918,37.6026508],[-107.6497203,37.6025657],[-107.6490199,37.6023171],[-107.6487535,37.602341],[-107.6485085,37.6022626],[-107.6478467,37.6021537],[-107.6472365,37.6020277],[-107.6466392,37.601963],[-107.6462353,37.6018779],[-107.6459599,37.6018498],[-107.6457757,37.601631],[-107.6454994,37.601563],[-107.6451953,37.6016634],[-107.644916,37.6015919],[-107.6446324,37.6014013],[-107.6443015,37.6012889],[-107.6438331,37.6012413],[-107.6434334,37.601214],[-107.6431793,37.601393],[-107.6429587,37.6014139],[-107.6427201,37.6013025],[-107.6424064,37.6013366],[-107.6422517,37.6012889],[-107.6419337,37.6013877],[-107.6414481,37.6014251],[-107.6410313,37.6015068],[-107.6406488,37.6014966],[-107.640464,37.6015885],[-107.6400859,37.6015034],[-107.6398839,37.601517],[-107.6395917,37.6014149],[-107.6390631,37.6013468],[-107.6383627,37.6012617],[-107.6377653,37.6011834],[-107.6372969,37.6010063],[-107.6366781,37.6007714],[-107.6362527,37.6005671],[-107.6358917,37.6003663],[-107.6355866,37.6002131],[-107.6351999,37.6001313],[-107.6345596,37.6000054],[-107.6343533,37.5999679],[-107.6341384,37.6000088],[-107.6338376,37.5999884],[-107.6334981,37.5999577],[-107.633236,37.5999339],[-107.6329782,37.5998862],[-107.6328407,37.5999645],[-107.6325484,37.600019],[-107.6322691,37.6001143],[-107.6321316,37.6001484],[-107.6317105,37.6002335],[-107.6312979,37.6003084],[-107.6309155,37.6003663],[-107.6305115,37.6004922],[-107.6301377,37.6005603],[-107.6298712,37.6006352],[-107.6295532,37.6006489],[-107.6293599,37.6006761],[-107.6292052,37.600751],[-107.6290419,37.6008123],[-107.6288055,37.6008736],[-107.6285992,37.60102],[-107.6284016,37.6011119],[-107.6280836,37.6011664],[-107.6277656,37.6012106],[-107.6276023,37.601197],[-107.6275421,37.6011766],[-107.6274261,37.601197],[-107.6273616,37.6012651],[-107.6272284,37.6013264],[-107.6271081,37.6013843],[-107.626876,37.6014217],[-107.6266397,37.6014626],[-107.6264205,37.6014319],[-107.626124,37.6013945],[-107.6258189,37.6013775],[-107.6257373,37.6013911],[-107.6254279,37.601466],[-107.6251872,37.6015102],[-107.6248305,37.60166],[-107.624577,37.6018473],[-107.6245039,37.6020584],[-107.6244911,37.6022184],[-107.6245297,37.6024465],[-107.6244524,37.6026848],[-107.6243364,37.602804],[-107.6242633,37.602838],[-107.6241344,37.6030219],[-107.6240613,37.6031546],[-107.6239883,37.6033113],[-107.6239367,37.6034304],[-107.6238207,37.6035359],[-107.6236531,37.603713],[-107.6235585,37.603907],[-107.6234769,37.6039887],[-107.6232964,37.6040534],[-107.6231417,37.6041454],[-107.6229655,37.6042237],[-107.6226604,37.6043939],[-107.6223897,37.6045164],[-107.6222608,37.6045709],[-107.6219814,37.604622],[-107.6216634,37.6047343],[-107.6215002,37.6048331],[-107.6213454,37.6050135],[-107.621195,37.6051871],[-107.621165,37.6053063],[-107.6209931,37.605371],[-107.6208341,37.6054867],[-107.6206063,37.6056331],[-107.6204,37.6057012],[-107.6201981,37.6058476],[-107.6200133,37.6059701],[-107.6198672,37.6060348],[-107.6198672,37.6061199],[-107.6197726,37.606188],[-107.6196179,37.6063072],[-107.6192871,37.6063957],[-107.6191882,37.6065217],[-107.6190421,37.6067191],[-107.6190636,37.6069302],[-107.6191409,37.6070153],[-107.6191367,37.6071378],[-107.6190851,37.6072434],[-107.6189905,37.6074102],[-107.6189819,37.6075225],[-107.618853,37.6076621],[-107.6187499,37.6077166],[-107.618664,37.6078119],[-107.6185092,37.6079923],[-107.6184104,37.6079923],[-107.6182643,37.6080706],[-107.6181053,37.6082034],[-107.6180451,37.6084009],[-107.6179893,37.6084281],[-107.6178217,37.6085677],[-107.6176713,37.6087379],[-107.6175596,37.6087719],[-107.6172759,37.6087549],[-107.6170783,37.6088366],[-107.616829,37.6088741],[-107.616511,37.6088945],[-107.6161715,37.6089523],[-107.6158793,37.6089592],[-107.615557,37.609017],[-107.6152132,37.6091123],[-107.6151144,37.6091566],[-107.6149296,37.609337],[-107.6146202,37.6094868],[-107.6144182,37.6095753],[-107.6141217,37.6097319],[-107.6139284,37.6097898],[-107.6137221,37.6099123],[-107.6135717,37.6099464],[-107.613417,37.6100587],[-107.6132881,37.610086],[-107.6131849,37.6102085],[-107.6130904,37.6102936],[-107.6130001,37.6103277],[-107.6129228,37.6103685],[-107.612824,37.6103583],[-107.6126864,37.6103447],[-107.6125403,37.6103753],[-107.6124114,37.6104366],[-107.6122997,37.6105387],[-107.6121364,37.6106987],[-107.6118528,37.6108996],[-107.6116809,37.61108],[-107.6117453,37.6111719],[-107.6116465,37.6113319],[-107.6114875,37.6115259],[-107.6113371,37.6116927],[-107.6111824,37.6118698],[-107.6110105,37.6120059],[-107.6107355,37.6122306],[-107.6105421,37.6124757],[-107.6104433,37.612588],[-107.6102929,37.6126902],[-107.6101897,37.6127753],[-107.6099921,37.612925],[-107.6098416,37.6131293],[-107.6097772,37.6133267],[-107.6097084,37.6134254],[-107.6096576,37.6135124],[-107.609581,37.6135938],[-107.6094655,37.6136314],[-107.6092566,37.6136953],[-107.6091151,37.6136679],[-107.6091609,37.613843],[-107.6091627,37.6139054],[-107.6090767,37.6140075],[-107.6091369,37.6140416],[-107.6092551,37.6142757],[-107.6093042,37.6142681],[-107.6093502,37.6143359],[-107.609347,37.6143836],[-107.6093913,37.6144212],[-107.6093882,37.6144977],[-107.6093502,37.6145554],[-107.609366,37.6146106],[-107.6093137,37.614706],[-107.6093533,37.6147788],[-107.6093565,37.6148239],[-107.6093581,37.6148842],[-107.6094024,37.6149632],[-107.6093929,37.6150046],[-107.6093739,37.6150523],[-107.6094119,37.6150912],[-107.6093929,37.6151677],[-107.6094784,37.6152191],[-107.6094959,37.615258],[-107.6094864,37.615317],[-107.609499,37.6153734],[-107.6095244,37.6154261],[-107.6095671,37.61546],[-107.6095465,37.6155215],[-107.609564,37.6155391],[-107.6096067,37.6155591],[-107.6096463,37.6156018],[-107.6096796,37.6156607],[-107.6097113,37.615731],[-107.6097477,37.6157636],[-107.6097382,37.6157875],[-107.6097334,37.6158251],[-107.6097224,37.6158928],[-107.6097556,37.6159192],[-107.6097952,37.6159782],[-107.6098015,37.6160283],[-107.6098095,37.616066],[-107.6098411,37.6161124],[-107.6098206,37.6161337],[-107.6098316,37.6161613],[-107.6098712,37.6161676],[-107.6099172,37.6162165],[-107.609914,37.6162579],[-107.609933,37.6162767],[-107.6099235,37.6163031],[-107.6099378,37.6163194],[-107.6099932,37.6163219],[-107.610036,37.6163583],[-107.6100882,37.6164361],[-107.6100486,37.616495],[-107.6100074,37.6165277],[-107.6100581,37.6165753],[-107.6100803,37.6166268],[-107.6100724,37.6166632],[-107.6101199,37.6167021],[-107.6101167,37.616756],[-107.6101278,37.6167974],[-107.6100787,37.6168576],[-107.6100344,37.6169153],[-107.6099678,37.616973],[-107.6099425,37.6170195],[-107.6098823,37.6170696],[-107.6098807,37.6171248],[-107.6099267,37.6171449],[-107.610009,37.6171324],[-107.6101041,37.6171223],[-107.6101848,37.6171023],[-107.6102355,37.6170922],[-107.6102925,37.6170659],[-107.6103511,37.6170257],[-107.610424,37.6169693],[-107.6105206,37.6169203],[-107.6105855,37.6168639],[-107.6106537,37.6168187],[-107.6107218,37.6168651],[-107.6107899,37.61683],[-107.61085,37.6168313],[-107.6108184,37.6168714],[-107.6107978,37.6169053],[-107.6107693,37.616958],[-107.6107249,37.6170383],[-107.610641,37.617101],[-107.6106014,37.6171575],[-107.6106093,37.6172102],[-107.6106489,37.6172465],[-107.6106109,37.6172741],[-107.6106394,37.6173017],[-107.6106426,37.6173306],[-107.6106125,37.617367],[-107.6106046,37.6174096],[-107.6105555,37.6174372],[-107.6105444,37.617451],[-107.6105713,37.6174648],[-107.6105966,37.6174862],[-107.6105966,37.6175276],[-107.610576,37.6175464],[-107.6105697,37.6175715],[-107.6105444,37.6176279],[-107.6105127,37.617643],[-107.6104794,37.6176467],[-107.6104541,37.6176656],[-107.6104493,37.6176869],[-107.6104319,37.6177421],[-107.6104002,37.6178174],[-107.6104066,37.6178864],[-107.6103828,37.6179365],[-107.6103559,37.6179855],[-107.6103274,37.6180344],[-107.610291,37.6180658],[-107.6102624,37.6181398],[-107.6102324,37.6182038],[-107.6101785,37.6182527],[-107.6101532,37.6183505],[-107.610169,37.6183731],[-107.6101579,37.6184371],[-107.6101278,37.6185136],[-107.6101611,37.618545],[-107.6101674,37.6185726],[-107.6101262,37.6186015],[-107.6100629,37.6186541],[-107.6100154,37.6187194],[-107.6099615,37.618752],[-107.6098966,37.6188085],[-107.6098237,37.6188636],[-107.6097081,37.6189352],[-107.6096558,37.6189452],[-107.6096226,37.6189678],[-107.609621,37.6190042],[-107.6096622,37.6190292],[-107.609716,37.6190368],[-107.609773,37.6190531],[-107.6098443,37.6190343],[-107.6099346,37.6190757],[-107.6099172,37.6190945],[-107.6098712,37.6191045],[-107.6098506,37.6191384],[-107.6097952,37.6191923],[-107.6098221,37.6192149],[-107.6098792,37.6192162],[-107.6099219,37.6192099],[-107.6100169,37.6192137],[-107.610112,37.6192312],[-107.6102355,37.6192388],[-107.6102925,37.6192726],[-107.610283,37.6193266],[-107.6102434,37.6193579],[-107.6102292,37.6194144],[-107.610188,37.6194721],[-107.6101484,37.6194759],[-107.6101183,37.6195085],[-107.6101215,37.6195386],[-107.6100581,37.6195963],[-107.6100043,37.6196327],[-107.6099631,37.6196816],[-107.6099378,37.6197381],[-107.6098871,37.6197995],[-107.6098459,37.619866],[-107.6097968,37.6199137],[-107.6097192,37.6199501],[-107.6096907,37.6199902],[-107.609621,37.6199752],[-107.6095877,37.6200128],[-107.6095275,37.6200053],[-107.6094373,37.6199814],[-107.6093597,37.6199425],[-107.6092931,37.6199563],[-107.6091553,37.6199388],[-107.6090096,37.6199237],[-107.6089732,37.6199087],[-107.6089098,37.6198836],[-107.6089003,37.6198999],[-107.6089558,37.6199413],[-107.609035,37.6199877],[-107.6090936,37.6200517],[-107.6091648,37.6201244],[-107.6092472,37.6202085],[-107.6092979,37.6202486],[-107.6093597,37.6202737],[-107.6093454,37.620354],[-107.6093137,37.620428],[-107.6093644,37.6204732],[-107.609366,37.6205347],[-107.6092852,37.620546],[-107.6091965,37.6205598],[-107.6090983,37.6205685],[-107.6090302,37.6205184],[-107.6089748,37.6205033],[-107.6089146,37.6204569],[-107.6088924,37.6205447],[-107.6088671,37.6205911],[-107.6088623,37.6206526],[-107.6088101,37.6206664],[-107.6088037,37.6207191],[-107.6087895,37.6207655],[-107.6087673,37.6208383],[-107.608742,37.6209198],[-107.6087388,37.6209938],[-107.6087103,37.6210766],[-107.6087309,37.6211494],[-107.6086992,37.6211895],[-107.6086675,37.6212397],[-107.608639,37.6213012],[-107.6086263,37.6213501],[-107.6085947,37.6213777],[-107.608525,37.6214003],[-107.6084616,37.6214291],[-107.6084236,37.6214919],[-107.6083785,37.6215171],[-107.6083245,37.6215544],[-107.608267,37.6215818],[-107.6082367,37.6215962],[-107.6081754,37.6215995],[-107.6081087,37.6216068],[-107.6080514,37.6216286],[-107.6080213,37.6216888],[-107.6079675,37.6217177],[-107.6078822,37.6217924],[-107.6077702,37.6218096],[-107.6076606,37.6218121],[-107.6076146,37.6218322],[-107.6075323,37.6218352],[-107.6074737,37.6218137],[-107.6073894,37.621814],[-107.6073111,37.6218356],[-107.6072073,37.6218611],[-107.6071235,37.621887],[-107.6070283,37.621922],[-107.60697,37.621936],[-107.6068839,37.6219509],[-107.6068097,37.6220175],[-107.6068064,37.6220679],[-107.6067711,37.6221236],[-107.6067076,37.6221827],[-107.6066433,37.6222688],[-107.6065315,37.6223657],[-107.6062969,37.6225162],[-107.6060251,37.6225931],[-107.6057982,37.6225225],[-107.6054169,37.6221253],[-107.6051721,37.6217235],[-107.6050542,37.6216755],[-107.6046947,37.6217335],[-107.6047264,37.6218706],[-107.6048379,37.6220904],[-107.6047698,37.62235],[-107.604773,37.6225331],[-107.6047012,37.6226054],[-107.604591,37.6227547],[-107.6044447,37.6228606],[-107.6044133,37.6229333],[-107.6043801,37.6229834],[-107.6043199,37.6229935],[-107.6042518,37.6229872],[-107.6042296,37.6229646],[-107.6041647,37.6229684],[-107.6040396,37.6229947],[-107.603916,37.6229583],[-107.6038257,37.6229834],[-107.6037481,37.6229609],[-107.6036515,37.6229822],[-107.6035993,37.6229747],[-107.6035533,37.6229747],[-107.6034583,37.6229358],[-107.6034013,37.6229471],[-107.6033712,37.6229333],[-107.6032207,37.6229445],[-107.603094,37.6229295],[-107.6030544,37.6229019],[-107.6029277,37.6228567],[-107.6028786,37.6228668],[-107.6028469,37.6228467],[-107.6028073,37.6228028],[-107.6027028,37.6228153],[-107.6025967,37.622789],[-107.6024937,37.6227953],[-107.6024478,37.6228254],[-107.6023227,37.6228542],[-107.6022704,37.6228392],[-107.6021991,37.6228718],[-107.6021231,37.6228291],[-107.602036,37.6228229],[-107.6019331,37.6228316],[-107.6018364,37.6228517],[-107.6017493,37.6228304],[-107.6016781,37.6228454],[-107.6015957,37.6228379],[-107.6015007,37.622863],[-107.6013977,37.6228367],[-107.601328,37.6228517],[-107.6012583,37.6228505],[-107.6012061,37.6228768],[-107.6010683,37.622848],[-107.6009337,37.6228316],[-107.6008671,37.6228141],[-107.6008434,37.6228241],[-107.6007626,37.6228153],[-107.6007183,37.6227752],[-107.6006406,37.6227777],[-107.6002423,37.6228066],[-107.5998217,37.6229385],[-107.5994124,37.6229801],[-107.5991769,37.6229887],[-107.5989996,37.6230661],[-107.5989735,37.6230775],[-107.5988718,37.6231214],[-107.5987439,37.6232533],[-107.5985471,37.6234641],[-107.5984678,37.6236502],[-107.5983759,37.6237727],[-107.598237,37.6238698],[-107.5981749,37.6238948],[-107.5981257,37.6239572],[-107.5980646,37.6240256],[-107.5979356,37.6240394],[-107.597759,37.6240536],[-107.5975975,37.6240598],[-107.5975273,37.6240577],[-107.5974719,37.6240791],[-107.5973617,37.6241516],[-107.5972281,37.6241939],[-107.5971218,37.6242794],[-107.5970258,37.6243387],[-107.5969407,37.624367],[-107.5967982,37.6243577],[-107.5967388,37.6243881],[-107.5966589,37.6244809],[-107.5965665,37.6246363],[-107.5964802,37.6247109],[-107.5964721,37.6247834],[-107.5964237,37.6248285],[-107.5963596,37.624867],[-107.5962713,37.6248858],[-107.5961435,37.6248846],[-107.5960322,37.6249082],[-107.5958503,37.6249572],[-107.5956422,37.6249809],[-107.5954673,37.6249989],[-107.5953827,37.6250884],[-107.5952576,37.6251882],[-107.5951241,37.6252278],[-107.5950358,37.6254393],[-107.5948045,37.625787],[-107.5949177,37.6261373],[-107.5955982,37.6268677],[-107.5957362,37.6269919],[-107.5958406,37.6271557],[-107.5958515,37.6274221],[-107.595871,37.627385]]}}]}
