{"type":"FeatureCollection","peaks_destination_id":"F5FrhzuMe1fJLFKFb4Z6","peaks_trailhead_id":"BSzX7IHoGjMMu7JerCaW","peaks_source":"https://api.openstreetmap.org/api/0.6","peaks_license_name":"Open Data Commons Open Database License (ODbL) 1.0","peaks_license":"https://opendatacommons.org/licenses/odbl/1-0/","peaks_attribution":"© OpenStreetMap contributors","peaks_retrieved_at":"2026-07-28T02:20:07.826Z","features":[{"type":"Feature","properties":{"name":"Tomyhoi Peak OSM route candidate","trailhead_name":"Tomyhoi/Yellow Aster Butte Trailhead","destination_name":"Tomyhoi Peak","distance_m":9833.472756946032,"trailhead_snap_m":6.2835875249925115,"summit_snap_m":150.10295530195617,"osm_way_ids":[182284808,369614789,970007168,1430428161,970007166,970007165,973172429],"osm_way_urls":["https://www.openstreetmap.org/way/182284808","https://www.openstreetmap.org/way/369614789","https://www.openstreetmap.org/way/970007168","https://www.openstreetmap.org/way/1430428161","https://www.openstreetmap.org/way/970007166","https://www.openstreetmap.org/way/970007165","https://www.openstreetmap.org/way/973172429"],"osm_way_names":["Tomyhoi Lake Trail","Yellow Aster Butte Trail","Tomyhoi Peak Trail"],"osm_foot_access_override_way_ids":[]},"geometry":{"type":"LineString","coordinates":[[-121.662569,48.943404],[-121.6626129,48.9434526],[-121.662718,48.9434068],[-121.6628337,48.9433338],[-121.6629437,48.9432252],[-121.6629952,48.9433691],[-121.6631663,48.9433479],[-121.6631985,48.9434131],[-121.6630792,48.943699],[-121.6630552,48.9437889],[-121.6629834,48.9438551],[-121.6628927,48.9438956],[-121.6628859,48.9439203],[-121.6629132,48.9439248],[-121.6631308,48.9439066],[-121.6632409,48.9438507],[-121.6633495,48.9437709],[-121.6634613,48.9437055],[-121.6636276,48.9437355],[-121.6636947,48.9437584],[-121.6637296,48.9438112],[-121.6635686,48.9439134],[-121.6634966,48.9441091],[-121.6632297,48.9442574],[-121.6630313,48.9443338],[-121.662891,48.9444259],[-121.6624154,48.9446911],[-121.6620835,48.9448686],[-121.6620219,48.9448933],[-121.661998,48.9449787],[-121.6616319,48.9451315],[-121.66156,48.9451945],[-121.66143,48.9452282],[-121.6614403,48.9452574],[-121.661584,48.9452394],[-121.6616558,48.9452012],[-121.6618235,48.9452124],[-121.6621177,48.945136],[-121.6622854,48.9451271],[-121.6623949,48.9450529],[-121.6625591,48.9450327],[-121.6626789,48.9450012],[-121.6628876,48.9449338],[-121.6631647,48.9449293],[-121.6633016,48.9448776],[-121.663524,48.9448349],[-121.6637019,48.9447945],[-121.6638011,48.9447945],[-121.6639551,48.944745],[-121.6640885,48.9447136],[-121.664384,48.9446445],[-121.664604,48.9446269],[-121.6648293,48.9445353],[-121.6650599,48.9445141],[-121.6653013,48.9443979],[-121.6656726,48.9443113],[-121.6659236,48.9441935],[-121.6664761,48.944042],[-121.6667444,48.9440455],[-121.6669697,48.9439046],[-121.6672969,48.9438236],[-121.6674793,48.9436897],[-121.6679138,48.943584],[-121.6683322,48.9434607],[-121.6687936,48.943281],[-121.6691262,48.9432986],[-121.6693229,48.9432329],[-121.6695714,48.9430379],[-121.6698611,48.9430167],[-121.6702581,48.9428723],[-121.6705048,48.9427419],[-121.6705853,48.9427489],[-121.6705531,48.9428405],[-121.6700703,48.9434853],[-121.6697584,48.9437183],[-121.669625,48.9439539],[-121.6694105,48.9441019],[-121.6691576,48.9443736],[-121.6690564,48.9445635],[-121.6690832,48.9446621],[-121.6692174,48.9446057],[-121.6693997,48.9445423],[-121.6695714,48.9445071],[-121.6699308,48.9443098],[-121.6704083,48.9441618],[-121.670606,48.9440283],[-121.6708213,48.943968],[-121.6711271,48.9438553],[-121.6712451,48.9438518],[-121.671347,48.943887],[-121.671347,48.9439927],[-121.6714114,48.9440561],[-121.6714114,48.9441301],[-121.6710681,48.9444084],[-121.6708642,48.9444895],[-121.6707194,48.9446022],[-121.6705692,48.9449334],[-121.6702741,48.9452329],[-121.6701829,48.9455429],[-121.6701983,48.9456702],[-121.6702581,48.9458072],[-121.6704512,48.9459728],[-121.6704512,48.946156],[-121.6704994,48.9463251],[-121.6703915,48.9464805],[-121.670162,48.9466312],[-121.67014,48.9467021],[-121.6702741,48.9469592],[-121.6702205,48.947227],[-121.6702205,48.947456],[-121.6699737,48.9476357],[-121.6698182,48.9478471],[-121.6696512,48.9480095],[-121.6693944,48.948224],[-121.6691423,48.9485235],[-121.6689652,48.9486538],[-121.6686434,48.948756],[-121.6684073,48.9487208],[-121.6683005,48.9487293],[-121.6680855,48.948911],[-121.6680005,48.9489327],[-121.6679406,48.9488899],[-121.6678923,48.9488053],[-121.6677958,48.948756],[-121.66749,48.9487313],[-121.6672325,48.9486644],[-121.6668785,48.9487419],[-121.6665924,48.9491649],[-121.6664062,48.9496256],[-121.6663058,48.9499427],[-121.6662005,48.9502673],[-121.666065,48.9505914],[-121.6658037,48.9510363],[-121.6656392,48.9514684],[-121.6656392,48.9518777],[-121.6658619,48.9520781],[-121.6659316,48.9521961],[-121.6660255,48.9522947],[-121.6661945,48.9524356],[-121.6664627,48.9527509],[-121.6666424,48.9528989],[-121.6667444,48.9530222],[-121.6669053,48.9531331],[-121.666975,48.953237],[-121.6671145,48.9533586],[-121.6673552,48.9535122],[-121.6676402,48.9535717],[-121.667954,48.9535488],[-121.6681606,48.9535964],[-121.6684744,48.9535911],[-121.668748,48.9535382],[-121.6692435,48.9535052],[-121.6695151,48.9534924],[-121.6696404,48.9535404],[-121.6698289,48.953547],[-121.6700998,48.9534449],[-121.6703546,48.9533533],[-121.6704646,48.9532617],[-121.6705343,48.9531296],[-121.6706489,48.9530402],[-121.6707596,48.9530063],[-121.6709715,48.9530627],[-121.6710949,48.9530715],[-121.6712049,48.9530345],[-121.671347,48.9529623],[-121.6715716,48.9527584],[-121.6716233,48.9526875],[-121.6718057,48.9525448],[-121.6718888,48.9523793],[-121.6719471,48.9520186],[-121.6719693,48.9519143],[-121.6720766,48.9517487],[-121.6723973,48.9515111],[-121.6726767,48.9513774],[-121.6728222,48.9513207],[-121.6732131,48.951159],[-121.6734016,48.9510001],[-121.6735672,48.9509124],[-121.6740453,48.9507852],[-121.6746293,48.9505672],[-121.6748017,48.9504787],[-121.6750887,48.950366],[-121.6752201,48.9503043],[-121.6754125,48.9502871],[-121.6756439,48.950314],[-121.6757553,48.9503002],[-121.6758196,48.9503272],[-121.6758559,48.950324],[-121.6760865,48.9502321],[-121.6761616,48.9501863],[-121.6762555,48.9501634],[-121.6763037,48.9501423],[-121.6766034,48.9501163],[-121.6769099,48.9501035],[-121.6770816,48.9500824],[-121.6773686,48.9501],[-121.6774303,48.9500965],[-121.6774383,48.9500542],[-121.6773391,48.9498939],[-121.6772506,48.9497777],[-121.6771486,48.9496861],[-121.6771165,48.9496349],[-121.6772157,48.9493901],[-121.6772935,48.9493426],[-121.6773766,48.949325],[-121.6775429,48.9493311],[-121.6776609,48.9493549],[-121.677779,48.9493558],[-121.6778567,48.9493734],[-121.6779667,48.9493681],[-121.6780606,48.949391],[-121.6781075,48.9493936],[-121.6780297,48.9493285],[-121.6780365,48.9493144],[-121.6779265,48.9492087],[-121.6779218,48.949036],[-121.6778586,48.9490012],[-121.6777146,48.9490466],[-121.677591,48.949061],[-121.6774862,48.9490417],[-121.6774374,48.9489601],[-121.6772768,48.948786],[-121.6771935,48.9485873],[-121.677215,48.9483336],[-121.6772759,48.9482946],[-121.6776607,48.9482986],[-121.6777913,48.9483484],[-121.6778694,48.9483055],[-121.677966,48.9481082],[-121.6779935,48.9480162],[-121.6781356,48.9479239],[-121.6783021,48.9478213],[-121.6785157,48.9478001],[-121.6787871,48.9478166],[-121.6790282,48.94777],[-121.6798487,48.9474629],[-121.6800481,48.9474384],[-121.680311,48.9473785],[-121.681084,48.9473976],[-121.6812945,48.947366],[-121.6814832,48.9472898],[-121.6815625,48.9472106],[-121.681646,48.9472204],[-121.6818539,48.9471712],[-121.6820537,48.9471569],[-121.6823005,48.9470513],[-121.6823729,48.9469368],[-121.682374,48.9467889],[-121.6824402,48.9464707],[-121.682556,48.9463312],[-121.6826633,48.946252],[-121.6827062,48.9461903],[-121.6827296,48.9460789],[-121.6827196,48.9460098],[-121.6826954,48.9459331],[-121.6827062,48.9458715],[-121.6827799,48.945808],[-121.6828926,48.9457992],[-121.6831407,48.9458521],[-121.6833432,48.9458688],[-121.683663,48.945945],[-121.683827,48.9460535],[-121.6839185,48.9461433],[-121.6838638,48.9461735],[-121.6835879,48.9461775],[-121.6832774,48.9462118],[-121.6833137,48.946252],[-121.6832399,48.9462705],[-121.6832399,48.9463092],[-121.6831863,48.9463374],[-121.6832037,48.9463638],[-121.6834196,48.9464237],[-121.6836047,48.9464907],[-121.6836585,48.9465264],[-121.6836613,48.9466348],[-121.6836094,48.9466778],[-121.6835283,48.9467769],[-121.6834619,48.9468015],[-121.6833016,48.9469874],[-121.6832775,48.9470385],[-121.683307,48.9470949],[-121.6833928,48.9471565],[-121.6834036,48.9472323],[-121.6834465,48.9472851],[-121.6837308,48.9473943],[-121.684062,48.9474442],[-121.6842106,48.9474251],[-121.6844313,48.9474422],[-121.6846608,48.9475797],[-121.6846937,48.9477189],[-121.6847064,48.9477599],[-121.6848667,48.9478819],[-121.6849579,48.9479479],[-121.6849854,48.9479831],[-121.6849787,48.9480637],[-121.6849867,48.9481086],[-121.6850343,48.9481236],[-121.6851249,48.9481175],[-121.6851912,48.9480998],[-121.6852435,48.9480659],[-121.685269,48.9480659],[-121.6852959,48.9480747],[-121.685314,48.9481205],[-121.6853555,48.948132],[-121.6853958,48.9481276],[-121.6854219,48.9481157],[-121.6854568,48.9480844],[-121.6856539,48.9480395],[-121.6857659,48.9480382],[-121.6858879,48.9480496],[-121.6859349,48.9480637],[-121.6859577,48.9481047],[-121.686008,48.9481267],[-121.6860871,48.9481333],[-121.6862239,48.9480853],[-121.6862809,48.9480496],[-121.6863044,48.9480144],[-121.6863191,48.9479805],[-121.6863486,48.9479704],[-121.6864465,48.9479743],[-121.6865699,48.9480184],[-121.6866155,48.948051],[-121.6866497,48.9481025],[-121.6867784,48.948158],[-121.6868857,48.9481699],[-121.6869233,48.9481884],[-121.6869816,48.9482342],[-121.6871385,48.9482971],[-121.6872901,48.9484702],[-121.6873082,48.9484962],[-121.6873102,48.9485983],[-121.6873551,48.9486794],[-121.6875013,48.9487996],[-121.6875127,48.9488168],[-121.6875757,48.9490141],[-121.6875824,48.9490299],[-121.6876066,48.9490343],[-121.687679,48.9490414],[-121.6877085,48.9490779],[-121.6877387,48.9492404],[-121.6877505,48.9492766],[-121.6878002,48.9493657],[-121.687852,48.9493725],[-121.6878989,48.9493628],[-121.6879405,48.9493602],[-121.6879754,48.9493479],[-121.6880195,48.9493654],[-121.688059,48.9493481],[-121.6881502,48.9493957],[-121.6881698,48.9493399],[-121.6881323,48.9493126],[-121.6880921,48.9492721],[-121.6881055,48.9492633],[-121.688198,48.9492765],[-121.6881779,48.9492563],[-121.6881484,48.9492043],[-121.6881752,48.9492184],[-121.6882335,48.9492329],[-121.6882087,48.9492105],[-121.6881819,48.9491655],[-121.688198,48.9491356],[-121.68819,48.949118],[-121.6882073,48.9490933],[-121.6881993,48.9490713],[-121.6881846,48.9490141],[-121.6881618,48.9489612],[-121.688181,48.9489421],[-121.6883379,48.9490716],[-121.6882628,48.9489078],[-121.6883916,48.9489729],[-121.6885533,48.9490889],[-121.6885533,48.9490326],[-121.6884667,48.9488426],[-121.6885077,48.9488599],[-121.6886652,48.9489324],[-121.6888028,48.9489815],[-121.6888985,48.9490223],[-121.6890093,48.9490572],[-121.6891246,48.9490731],[-121.68924,48.9491295],[-121.6893929,48.9491929],[-121.6894627,48.9492466],[-121.6895056,48.949295],[-121.6895646,48.9497107],[-121.6894788,48.9500031],[-121.6895163,48.9502075],[-121.6894198,48.9504893],[-121.6894198,48.9507007],[-121.6894828,48.9507553],[-121.6897443,48.9508055],[-121.6900581,48.9509226],[-121.6902996,48.9511304],[-121.6904765,48.9512247],[-121.6905154,48.9512775],[-121.6905463,48.9514836],[-121.6906026,48.9515497],[-121.6908306,48.9516007],[-121.6908789,48.9516095],[-121.6909339,48.9516589],[-121.6910023,48.9517963],[-121.6910023,48.9519266],[-121.6909111,48.95199],[-121.6908896,48.9520851],[-121.6909325,48.9522155],[-121.691013,48.9522824],[-121.6911846,48.952293],[-121.691249,48.9523388],[-121.6913241,48.9524374],[-121.691469,48.9524902],[-121.6915387,48.9526452],[-121.6916782,48.9527932],[-121.6918552,48.95292],[-121.6918699,48.953001],[-121.6918123,48.9530539],[-121.6917586,48.9533075],[-121.6918693,48.9535645],[-121.6920416,48.9536677],[-121.6921227,48.9537536],[-121.6921543,48.9538429],[-121.6921315,48.9539381],[-121.692169,48.9539918],[-121.6921636,48.954079],[-121.6921784,48.9540975],[-121.6921623,48.9541159],[-121.6921864,48.9541529],[-121.6921838,48.9542903],[-121.69222,48.9543106],[-121.6922401,48.9543396],[-121.6922897,48.9543696],[-121.6923581,48.9543696],[-121.6923273,48.9543986],[-121.6923071,48.9544497],[-121.692287,48.954462],[-121.6922964,48.9545026],[-121.6922897,48.9545272],[-121.6923179,48.9545712],[-121.6923662,48.9545985],[-121.6923662,48.9546267],[-121.6924104,48.954632],[-121.6923957,48.9546575],[-121.6924305,48.9546611],[-121.6923849,48.9547157],[-121.6924158,48.9547227],[-121.6924158,48.9547439],[-121.6924708,48.9547509],[-121.6926371,48.9547685],[-121.6927336,48.9547527],[-121.6927712,48.9548011],[-121.6927242,48.9549543],[-121.6927537,48.9550045],[-121.6927081,48.9550635],[-121.6927028,48.9551604],[-121.6926652,48.9552361],[-121.6926706,48.9553506],[-121.6927779,48.9554845],[-121.6928369,48.9556166],[-121.6930005,48.9556905],[-121.6931024,48.9558068],[-121.6933706,48.9560357],[-121.6935316,48.9561027],[-121.6937086,48.95624],[-121.6937569,48.9563968],[-121.69395,48.9565113],[-121.6939876,48.9566187],[-121.6941512,48.9567173],[-121.6941243,48.9568882],[-121.6941834,48.956941],[-121.6943094,48.9569903],[-121.6944167,48.9570872],[-121.6945481,48.9571189],[-121.6947037,48.9572862],[-121.6949505,48.9573954],[-121.695039,48.9575134],[-121.695275,48.9576561],[-121.6954279,48.9579114],[-121.6954547,48.9580153],[-121.6953421,48.9583975],[-121.695393,48.9586132],[-121.6956358,48.9589685],[-121.6956358,48.959029],[-121.6956201,48.9591198],[-121.6956712,48.9592846],[-121.6958835,48.9595588],[-121.6960605,48.9598655],[-121.6960605,48.9599771],[-121.6962729,48.9602373],[-121.6964569,48.960386],[-121.6967613,48.9605115],[-121.6968674,48.9605952],[-121.6968674,48.9606556],[-121.6967896,48.9607486],[-121.6966834,48.960888],[-121.6966763,48.9610274],[-121.6967019,48.9611501],[-121.6967998,48.9612346],[-121.6968267,48.9612936],[-121.6968548,48.9613403],[-121.6968233,48.9614447],[-121.6968305,48.9615346],[-121.6968899,48.9615452],[-121.6969312,48.9615526],[-121.6971506,48.9615758],[-121.6972497,48.9615572],[-121.6972947,48.961549],[-121.6973564,48.9615543],[-121.6973872,48.9615464],[-121.6974825,48.9615745],[-121.697634,48.9616776],[-121.6978097,48.9617154],[-121.6979788,48.961771],[-121.6980739,48.9617991],[-121.698157,48.9617876],[-121.698318,48.9617991],[-121.6983636,48.961829],[-121.69844,48.9618457],[-121.6984735,48.9618616],[-121.6987324,48.9619452],[-121.6989684,48.9619514],[-121.6990449,48.9619849],[-121.6991334,48.9620007],[-121.6991884,48.9620615],[-121.6992661,48.962072],[-121.6993412,48.9621627],[-121.6993412,48.9621918],[-121.6994157,48.9623008],[-121.6996537,48.9624709],[-121.6997235,48.9626311],[-121.6998254,48.9626857],[-121.6998361,48.9627236],[-121.699926,48.962735],[-121.6999286,48.9627606],[-121.7000574,48.9627518],[-121.7001311,48.9627755],[-121.7001808,48.96275],[-121.7002438,48.9627609],[-121.7002863,48.9628213],[-121.7003135,48.9628319],[-121.7003109,48.9628733],[-121.7003484,48.9628706],[-121.700386,48.9628883],[-121.7004249,48.9628812],[-121.7004584,48.9628909],[-121.7005128,48.9628306],[-121.7005456,48.9628354],[-121.7005765,48.9629049],[-121.7006341,48.9629182],[-121.7007039,48.9629049],[-121.7007333,48.9628883],[-121.7007615,48.9628997],[-121.700799,48.9628187],[-121.7008384,48.9628074],[-121.7008597,48.9630072],[-121.7008835,48.9630881],[-121.7009372,48.9631145],[-121.70098,48.9631559],[-121.7011155,48.9632184],[-121.7012081,48.9632422],[-121.7014267,48.9632563],[-121.7014669,48.9632933],[-121.7015634,48.9632933],[-121.7015746,48.9633371],[-121.7016241,48.9634069],[-121.7016595,48.963365],[-121.701702,48.9634394],[-121.7017798,48.9634254],[-121.7017948,48.9634672],[-121.7018648,48.9634533],[-121.7018632,48.9635376],[-121.701884,48.9635623],[-121.7019235,48.9635623],[-121.7019591,48.9634989],[-121.7019812,48.9634896],[-121.7020115,48.9634693],[-121.7020778,48.9634491],[-121.7022116,48.963444],[-121.7023249,48.9634766],[-121.7024665,48.9636764],[-121.702513,48.9638013],[-121.7025197,48.9638718],[-121.7025042,48.9639083],[-121.7024425,48.9639418],[-121.7024311,48.9639645],[-121.7025203,48.9640589],[-121.7025693,48.9641126],[-121.7026417,48.9642059],[-121.7026323,48.9642838],[-121.7024915,48.9643402],[-121.702466,48.9644018],[-121.7024806,48.9645361],[-121.7024942,48.9645973],[-121.7024647,48.9646589],[-121.7023802,48.9647839],[-121.70231,48.9650855],[-121.7021549,48.9652832],[-121.7021281,48.9654276],[-121.7019403,48.9656952],[-121.7018974,48.9658678],[-121.7019081,48.9659664],[-121.7020369,48.9661319],[-121.7021066,48.9662763],[-121.7024231,48.9664911],[-121.7024665,48.9665855],[-121.7024016,48.9666813],[-121.7024124,48.9667693],[-121.7026001,48.9669208],[-121.7026162,48.9669912],[-121.7027235,48.9670581],[-121.7029059,48.9671145],[-121.7030346,48.9672377],[-121.7030867,48.9673354],[-121.7031097,48.967442],[-121.7030722,48.9675371],[-121.7028415,48.9677096],[-121.7028254,48.9678364],[-121.7029113,48.9678892],[-121.7029917,48.9679773],[-121.7031688,48.9680442],[-121.7034477,48.9682203],[-121.7036837,48.9683083],[-121.7036998,48.9683823],[-121.7037588,48.9684791],[-121.7037642,48.9686922],[-121.7038447,48.9688524],[-121.7039654,48.9690408],[-121.704019,48.9692222],[-121.7040029,48.9695567],[-121.7040217,48.9697099],[-121.7039949,48.9698842],[-121.7040458,48.9700885],[-121.7041317,48.9702452],[-121.7042202,48.9702945],[-121.7043221,48.9703367],[-121.7043248,48.9703667],[-121.7042792,48.9704142],[-121.704129,48.970504],[-121.7041183,48.970622],[-121.7040539,48.9706977],[-121.7040512,48.9709142],[-121.7040324,48.9710903],[-121.704129,48.9712646],[-121.7042872,48.9713826],[-121.7044401,48.9714424],[-121.7045957,48.9715639],[-121.7048237,48.9717083],[-121.704931,48.9718967],[-121.7049739,48.9720376],[-121.7051268,48.9721731],[-121.7051482,48.972226],[-121.7051241,48.9722506],[-121.7050704,48.9722647],[-121.705049,48.9722964],[-121.7050973,48.9724091],[-121.7051965,48.9725305],[-121.7052314,48.9726203],[-121.7053762,48.9727964],[-121.7053816,48.9729584],[-121.705462,48.973064],[-121.705462,48.9731309],[-121.705513,48.973189],[-121.7055854,48.9732084],[-121.7057289,48.9732482],[-121.7057921,48.9733875],[-121.7059172,48.9736173],[-121.7061851,48.9737004],[-121.7064287,48.9738614],[-121.706696,48.9739651],[-121.7066962,48.9738872],[-121.7067514,48.9739035],[-121.7068846,48.9737474],[-121.7068836,48.9735853],[-121.7070152,48.9736221],[-121.7071545,48.9737383],[-121.7072886,48.9739338],[-121.7073181,48.9740553],[-121.7075032,48.9741926],[-121.7075595,48.9742612],[-121.7076829,48.9743105],[-121.7079967,48.9743299],[-121.709832,48.974939]]}}]}
