{"type":"FeatureCollection","peaks_destination_id":"agkhOiSeDoTx1mUJfil2","peaks_trailhead_id":"A1CDE8E1D27799C8712C","peaks_source":"https://api.openstreetmap.org/api/0.6","peaks_license_name":"Open Data Commons Open Database License (ODbL) 1.0","peaks_license":"https://opendatacommons.org/licenses/odbl/1-0/","peaks_attribution":"© OpenStreetMap contributors","peaks_retrieved_at":"2026-07-28T02:20:26.742Z","features":[{"type":"Feature","properties":{"name":"Uncompahgre Peak OSM route candidate","trailhead_name":"Nellie Creek Trailhead","destination_name":"Uncompahgre Peak","distance_m":5896.365071447864,"trailhead_snap_m":0,"summit_snap_m":3.545513822562244,"osm_way_ids":[384117013,17063351,384117012],"osm_way_urls":["https://www.openstreetmap.org/way/384117013","https://www.openstreetmap.org/way/17063351","https://www.openstreetmap.org/way/384117012"],"osm_way_names":["Uncompahgre Peak Trail 239"],"osm_foot_access_override_way_ids":[]},"geometry":{"type":"LineString","coordinates":[[-107.4220273,38.0625857],[-107.4220273,38.0625857],[-107.4219493,38.0627969],[-107.421944,38.0629272],[-107.4219615,38.0630768],[-107.4220242,38.0631646],[-107.4222315,38.0633497],[-107.4224807,38.0634691],[-107.4229389,38.0636227],[-107.4233605,38.0637709],[-107.423601,38.0639231],[-107.4239459,38.0641385],[-107.4241097,38.0642414],[-107.4242351,38.0644238],[-107.4244198,38.0645185],[-107.4247909,38.0645788],[-107.4250279,38.064727],[-107.4253363,38.06493],[-107.4256952,38.0650685],[-107.4260593,38.0653525],[-107.4266029,38.0656405],[-107.4269165,38.0657311],[-107.4273294,38.0657571],[-107.4275612,38.0658463],[-107.4276936,38.0658655],[-107.4279183,38.0659039],[-107.4281013,38.0660589],[-107.4282354,38.066277],[-107.4283591,38.0664773],[-107.4285299,38.0666789],[-107.4287051,38.0667709],[-107.4288637,38.0668971],[-107.4289804,38.0669986],[-107.4290414,38.0670274],[-107.4293411,38.067118],[-107.4294787,38.0671797],[-107.4296529,38.0672085],[-107.4298028,38.0673347],[-107.4299317,38.0674444],[-107.4300868,38.0675418],[-107.4301983,38.067631],[-107.4302627,38.0677311],[-107.4303586,38.0678189],[-107.4306391,38.0679574],[-107.4308656,38.0680274],[-107.4310311,38.0680768],[-107.431106,38.0680905],[-107.4312175,38.0680727],[-107.431293,38.0680137],[-107.4314457,38.0679972],[-107.4315381,38.0680096],[-107.4316391,38.0679629],[-107.4317437,38.0679519],[-107.4318273,38.0679862],[-107.4319527,38.0680535],[-107.4321235,38.0680589],[-107.4323169,38.0680589],[-107.4324981,38.0680315],[-107.4326775,38.0680123],[-107.4328796,38.0679369],[-107.4331532,38.0678943],[-107.4333152,38.0678943],[-107.4334041,38.0678642],[-107.4334199,38.0678897],[-107.433357,38.0679486],[-107.4332411,38.0680333],[-107.4330985,38.0681341],[-107.432962,38.0682007],[-107.4327904,38.0682806],[-107.4325911,38.06837],[-107.4324606,38.0684213],[-107.432428,38.0684537],[-107.4324002,38.0684908],[-107.432347,38.0684984],[-107.4322903,38.0685098],[-107.4322649,38.0685231],[-107.4322686,38.0685394],[-107.4322842,38.0685564],[-107.4325077,38.0685269],[-107.4326599,38.0684841],[-107.4327433,38.0684689],[-107.4329342,38.0684794],[-107.4330876,38.0684746],[-107.4331686,38.0684556],[-107.4333486,38.0684432],[-107.433502,38.0683947],[-107.4336023,38.0683101],[-107.433759,38.0682284],[-107.4338536,38.068194],[-107.4339369,38.0681198],[-107.4340348,38.0680856],[-107.4341508,38.0680827],[-107.4341955,38.0680713],[-107.4344286,38.0680637],[-107.4346509,38.0679981],[-107.434779,38.0679363],[-107.4348974,38.0679144],[-107.4350327,38.0679391],[-107.4351716,38.0679249],[-107.435313,38.0679277],[-107.4354157,38.0679534],[-107.4357049,38.0678929],[-107.4359851,38.0678512],[-107.4361884,38.0678619],[-107.436566,38.0678525],[-107.4367351,38.067831],[-107.4369948,38.0678498],[-107.4372084,38.0678579],[-107.4374459,38.06787],[-107.4375911,38.0678767],[-107.4378286,38.0679372],[-107.4382557,38.0679911],[-107.438811,38.0681847],[-107.4393458,38.0683529],[-107.4396482,38.0684309],[-107.4399762,38.0684887],[-107.4403436,38.0685614],[-107.4404854,38.0685708],[-107.4405982,38.0686179],[-107.4407211,38.0686659],[-107.4407646,38.0686973],[-107.4407996,38.0687011],[-107.4408214,38.0686916],[-107.4408649,38.0686735],[-107.4409192,38.0686773],[-107.4410859,38.0687163],[-107.4412853,38.0687449],[-107.441568,38.0687097],[-107.441777,38.0687135],[-107.4418881,38.0687163],[-107.4422032,38.068719],[-107.4424612,38.0687365],[-107.442685,38.0687445],[-107.4429994,38.0687956],[-107.4432505,38.068758],[-107.4434214,38.0687755],[-107.4435683,38.0688172],[-107.4437101,38.0688965],[-107.4437921,38.0689261],[-107.4439254,38.0689207],[-107.4439972,38.0689032],[-107.4441748,38.068875],[-107.4443218,38.0687956],[-107.4444577,38.0686239],[-107.4446166,38.0684988],[-107.4447567,38.0683535],[-107.4448387,38.0682472],[-107.4449173,38.0681854],[-107.4449737,38.0681733],[-107.4450352,38.0681827],[-107.4452692,38.068262],[-107.4454783,38.0683269],[-107.44579,38.0684277],[-107.4459567,38.0684791],[-107.44615,38.0685533],[-107.4462926,38.068597],[-107.446411,38.0685951],[-107.4466913,38.0686769],[-107.4467903,38.0687111],[-107.4470115,38.0687931],[-107.4471653,38.0688778],[-107.447302,38.0689491],[-107.4473515,38.0690446],[-107.4473737,38.0690903],[-107.4473959,38.0691562],[-107.4474147,38.0691764],[-107.4474506,38.0691697],[-107.4475036,38.0691414],[-107.4476385,38.0691118],[-107.4478111,38.0690137],[-107.447929,38.0690029],[-107.4480315,38.068941],[-107.4480828,38.0688993],[-107.4484091,38.0688993],[-107.4485697,38.0689195],[-107.4486654,38.0689477],[-107.4489849,38.0688872],[-107.449277,38.068859],[-107.4495965,38.0688617],[-107.449764,38.068867],[-107.4499673,38.0688361],[-107.4500544,38.0688227],[-107.4500763,38.0687943],[-107.4501211,38.0687366],[-107.4502868,38.0686034],[-107.4504166,38.0684178],[-107.4505157,38.0682792],[-107.4506268,38.0682026],[-107.4506985,38.0681313],[-107.4506746,38.0680008],[-107.4505977,38.0676968],[-107.4505499,38.0674843],[-107.4505738,38.0672758],[-107.4505533,38.0671278],[-107.4505807,38.0669933],[-107.4506712,38.066848],[-107.4507517,38.0666149],[-107.4507825,38.0663876],[-107.4507654,38.0662598],[-107.4507346,38.0660621],[-107.4507278,38.0659343],[-107.4507056,38.0658428],[-107.4507671,38.0657312],[-107.4509021,38.0655778],[-107.451049,38.0654742],[-107.4511891,38.0654339],[-107.4512352,38.0654083],[-107.4513585,38.0653238],[-107.4514047,38.0652606],[-107.4514064,38.0651261],[-107.4514388,38.0651019],[-107.4516524,38.0650077],[-107.4516661,38.064927],[-107.4517549,38.0649001],[-107.4517549,38.0648436],[-107.4516599,38.0646803],[-107.451788,38.0645795],[-107.4520623,38.0645136],[-107.4522374,38.0644939],[-107.4522567,38.0643797],[-107.4521214,38.0642523],[-107.4520368,38.064218],[-107.4519112,38.0641362],[-107.451759,38.0639917],[-107.4514883,38.0637938],[-107.451353,38.0636797],[-107.4511066,38.0635742],[-107.451062,38.0631053],[-107.4510893,38.0629627],[-107.4512511,38.0628662],[-107.4515644,38.0628022],[-107.4519208,38.0626835],[-107.4520362,38.0625075],[-107.4521893,38.0624481],[-107.4525438,38.0623921],[-107.453445,38.0624554],[-107.4538732,38.0624984],[-107.4543402,38.0626195],[-107.4546187,38.0626762],[-107.4552505,38.0627127],[-107.4560944,38.0631823],[-107.4565117,38.063426],[-107.4570071,38.0636781],[-107.4575667,38.0641444],[-107.4577996,38.0644515],[-107.4578201,38.0645881],[-107.457985,38.0649206],[-107.4585027,38.0656808],[-107.4588386,38.0659106],[-107.4597678,38.066308],[-107.4601289,38.0668335],[-107.4604182,38.0673846],[-107.4604759,38.0676527],[-107.4606511,38.0674799],[-107.460918,38.0671104],[-107.4609561,38.0669943],[-107.4610364,38.0668887],[-107.4610532,38.0667476],[-107.4611263,38.0666516],[-107.4614048,38.0672257],[-107.4614026,38.0677026],[-107.4614275,38.0676514],[-107.4614833,38.0676204],[-107.4615255,38.0676456],[-107.461667,38.0675429],[-107.4616965,38.0675925],[-107.4616998,38.0676453],[-107.4617668,38.067746],[-107.4619661,38.067685],[-107.4621477,38.0677931],[-107.4621897,38.0680018],[-107.4621253,38.0681499],[-107.4621439,38.0682984],[-107.4619576,38.0684174],[-107.4619697,38.0685334],[-107.4618013,38.0685608],[-107.4618156,38.0686854],[-107.4617385,38.0687739],[-107.4617891,38.0690768],[-107.4618388,38.0691361],[-107.4618176,38.0692101],[-107.4618753,38.0693064],[-107.4618738,38.0694222],[-107.4619862,38.0696837],[-107.4619735,38.0698634],[-107.4614872,38.0700676],[-107.4614097,38.0702037],[-107.4613406,38.0702987],[-107.46139,38.0703925],[-107.4613948,38.0704854],[-107.4615917,38.070707],[-107.4616877,38.0709124],[-107.4621399,38.0712377],[-107.4622123,38.0713676],[-107.4621412,38.0716272],[-107.462165,38.071653]]}}]}
