{"type":"FeatureCollection","peaks_destination_id":"iBWwtKxvlxZEtjTSclRt","peaks_trailhead_id":"F88500755F4DE6F283C9","peaks_source":"https://api.openstreetmap.org/api/0.6","peaks_license_name":"Open Data Commons Open Database License (ODbL) 1.0","peaks_license":"https://opendatacommons.org/licenses/odbl/1-0/","peaks_attribution":"© OpenStreetMap contributors","peaks_retrieved_at":"2026-07-28T02:20:33.451Z","features":[{"type":"Feature","properties":{"name":"Wilson Peak OSM route candidate","trailhead_name":"Rock of Ages Trailhead","destination_name":"Wilson Peak","distance_m":7398.300091110715,"trailhead_snap_m":10.646067582635627,"summit_snap_m":6.864510731829345,"osm_way_ids":[1484421334,247956957,250490639],"osm_way_urls":["https://www.openstreetmap.org/way/1484421334","https://www.openstreetmap.org/way/247956957","https://www.openstreetmap.org/way/250490639"],"osm_way_names":["Rock of Ages Trail","Rock of Ages Connection Trail","Wilson Peak Southwest Ridge"],"osm_foot_access_override_way_ids":[]},"geometry":{"type":"LineString","coordinates":[[-108.0185987,37.8829932],[-108.0186248,37.8828997],[-108.0186377,37.8826017],[-108.0186205,37.8823815],[-108.0186634,37.8821884],[-108.018672,37.8820225],[-108.0185647,37.8818667],[-108.0184231,37.8817142],[-108.018393,37.881616],[-108.0185261,37.8815516],[-108.0186934,37.8815212],[-108.0187621,37.881406],[-108.0188222,37.8809352],[-108.0187449,37.8806168],[-108.0186334,37.8803695],[-108.0186334,37.8801053],[-108.0186677,37.8797835],[-108.018775,37.8795701],[-108.0189295,37.879228],[-108.0190496,37.8789028],[-108.0190368,37.8786216],[-108.0189424,37.8783744],[-108.0188994,37.8781847],[-108.018981,37.8780593],[-108.0192814,37.8779611],[-108.0194445,37.8778561],[-108.019496,37.8776799],[-108.0194058,37.8774496],[-108.0192857,37.877331],[-108.0192342,37.8771244],[-108.0190282,37.8769652],[-108.0187578,37.876701],[-108.0185518,37.8762911],[-108.0184274,37.8759523],[-108.0184145,37.8755967],[-108.0183973,37.8754815],[-108.0183287,37.8754442],[-108.0182815,37.8755492],[-108.0181699,37.8757897],[-108.0180583,37.8759117],[-108.0179939,37.8759219],[-108.0179639,37.8758372],[-108.0179768,37.8756475],[-108.0179467,37.8754747],[-108.0178051,37.8752715],[-108.0176377,37.8751495],[-108.0175219,37.8750377],[-108.0174832,37.8748412],[-108.0175433,37.8743636],[-108.0175819,37.8740282],[-108.0175905,37.8738487],[-108.0175562,37.8737132],[-108.0174575,37.8736657],[-108.0173502,37.8737775],[-108.0172772,37.873991],[-108.0172172,37.8741027],[-108.0171442,37.8740418],[-108.0170627,37.8737538],[-108.0169725,37.8735065],[-108.016921,37.8733134],[-108.0168009,37.8729137],[-108.0167365,37.8727443],[-108.0167065,37.8724564],[-108.016582,37.8721413],[-108.0164061,37.8718534],[-108.0162816,37.8715519],[-108.0161657,37.8714062],[-108.0161357,37.871291],[-108.0162215,37.8711623],[-108.0163031,37.8709929],[-108.0163159,37.8708506],[-108.0163073,37.8707083],[-108.0163031,37.8705796],[-108.0163288,37.8705118],[-108.0162773,37.8703933],[-108.0161142,37.8702374],[-108.0160651,37.8701828],[-108.0159984,37.8701087],[-108.0158653,37.8699766],[-108.0158524,37.870085],[-108.0157881,37.8702747],[-108.0156379,37.8703966],[-108.0155091,37.8704509],[-108.015419,37.8705931],[-108.0153675,37.8707185],[-108.0152473,37.8708303],[-108.0151744,37.8709963],[-108.0151272,37.8712334],[-108.0150791,37.8715529],[-108.0150448,37.8719594],[-108.0149761,37.8721897],[-108.0150104,37.8725014],[-108.0149246,37.8726369],[-108.014813,37.8728537],[-108.0147959,37.8730434],[-108.0146929,37.8733348],[-108.0145555,37.8735177],[-108.0144096,37.8739716],[-108.014341,37.8742223],[-108.0141693,37.8745475],[-108.014032,37.8749066],[-108.0139976,37.8751166],[-108.0138689,37.8754012],[-108.0135856,37.8757196],[-108.0133367,37.875828],[-108.0131222,37.8759974],[-108.0128217,37.8761058],[-108.0126844,37.8761667],[-108.0125299,37.8761464],[-108.012384,37.8760245],[-108.0122724,37.8758686],[-108.0121952,37.8756654],[-108.011972,37.8755231],[-108.011706,37.8752589],[-108.0113884,37.8749472],[-108.0111137,37.8745746],[-108.0107618,37.874141],[-108.0104013,37.8738022],[-108.0100408,37.8735041],[-108.0095773,37.873118],[-108.0091825,37.8728537],[-108.0088392,37.872603],[-108.0084787,37.8723998],[-108.0082126,37.8722304],[-108.0080152,37.8721152],[-108.0078799,37.8720335],[-108.0078185,37.8719448],[-108.0077716,37.8718514],[-108.007747,37.8717717],[-108.0076558,37.8716958],[-108.0075794,37.8716335],[-108.007572,37.8715557],[-108.007641,37.8714798],[-108.0077569,37.8714078],[-108.0078555,37.8712658],[-108.0078086,37.8711101],[-108.007747,37.8709097],[-108.0076213,37.8708202],[-108.0074512,37.8707871],[-108.0072836,37.8707074],[-108.0071407,37.87054],[-108.0070938,37.870326],[-108.0071086,37.8701139],[-108.0070667,37.869968],[-108.0069509,37.869822],[-108.0068079,37.8696761],[-108.0065811,37.8695905],[-108.0063864,37.8695827],[-108.0061966,37.8696255],[-108.0060931,37.8697286],[-108.0060364,37.8698824],[-108.0059625,37.8699972],[-108.0058417,37.8700478],[-108.0056889,37.8700555],[-108.0055508,37.8699816],[-108.0054399,37.8699582],[-108.0053536,37.8700186],[-108.0052896,37.8701431],[-108.0051885,37.8702131],[-108.0050554,37.8702443],[-108.0048755,37.8702229],[-108.0046881,37.8700906],[-108.0044441,37.8699096],[-108.0042272,37.8697753],[-108.0041089,37.8696703],[-108.0039807,37.8695068],[-108.003892,37.8693648],[-108.0038747,37.8691877],[-108.0038575,37.8689542],[-108.0037835,37.8687635],[-108.0036061,37.8686546],[-108.0034582,37.8685514],[-108.0032856,37.8683608],[-108.0031476,37.8681681],[-108.0030687,37.8679988],[-108.0030589,37.867777],[-108.0030047,37.8675649],[-108.0028642,37.8673898],[-108.0027458,37.8672536],[-108.0027286,37.8671641],[-108.002773,37.8670512],[-108.0027779,37.8668722],[-108.0026842,37.8665959],[-108.0025842,37.866259],[-108.0024801,37.8658842],[-108.0024411,37.8656531],[-108.0024931,37.865422],[-108.0026882,37.8650009],[-108.0027988,37.8648777],[-108.0030005,37.8648314],[-108.0030525,37.8647441],[-108.002968,37.8646312],[-108.0027858,37.8644566],[-108.0024801,37.8642666],[-108.0023305,37.8641228],[-108.0021809,37.8639482],[-108.0020378,37.8638455],[-108.0018556,37.8636247],[-108.001719,37.8633782],[-108.001641,37.8631933],[-108.0016475,37.8630546],[-108.0016345,37.8628698],[-108.0015239,37.8628184],[-108.0014198,37.8628852],[-108.0013873,37.8630649],[-108.0013288,37.8634192],[-108.0012962,37.8637274],[-108.0012507,37.8642204],[-108.0012312,37.8643898],[-108.0011661,37.8644309],[-108.0010816,37.8644052],[-108.0008604,37.8640458],[-108.0008084,37.8638609],[-108.0006523,37.8636657],[-108.0005742,37.8634141],[-108.0004961,37.8631163],[-108.0004701,37.8629262],[-108.0004441,37.8627568],[-108.000353,37.8625822],[-108.000353,37.8624332],[-108.0002815,37.8623511],[-108.0001124,37.8622895],[-107.9998587,37.8623357],[-107.999553,37.8623665],[-107.9993188,37.86231],[-107.9989675,37.8621765],[-107.9986163,37.8620738],[-107.9985512,37.8620327],[-107.9984537,37.8619711],[-107.9983626,37.8618427],[-107.998265,37.8616886],[-107.9980504,37.8614626],[-107.9978487,37.8612316],[-107.9976796,37.8610364],[-107.9975625,37.8609388],[-107.9974779,37.8607539],[-107.9974389,37.8605588],[-107.9973934,37.8604715],[-107.9973706,37.8603046],[-107.9973505,37.8602159],[-107.997396,37.8601645],[-107.9973993,37.8600438],[-107.9974025,37.8599591],[-107.9973798,37.8598564],[-107.9973017,37.8597768],[-107.9972659,37.8596176],[-107.9972432,37.8595072],[-107.9972985,37.8594866],[-107.9975099,37.8595123],[-107.997692,37.8595431],[-107.9978709,37.8596047],[-107.9979684,37.8596201],[-107.9980335,37.8596022],[-107.9980107,37.8595482],[-107.9978611,37.8594327],[-107.9977863,37.8593248],[-107.9977701,37.8592632],[-107.9976952,37.8592247],[-107.9974773,37.8591014],[-107.99737,37.8589679],[-107.9972659,37.8588293],[-107.9971911,37.8587163],[-107.9972009,37.8586546],[-107.9973082,37.8586367],[-107.9974481,37.8585827],[-107.9975359,37.8585776],[-107.9975814,37.8585288],[-107.9975196,37.8584723],[-107.997292,37.8582772],[-107.9969718,37.858054],[-107.9966205,37.8579051],[-107.9963278,37.857828],[-107.9960481,37.8577869],[-107.9956839,37.8577304],[-107.9955277,37.8577048],[-107.9953456,37.8576175],[-107.9952285,37.8575661],[-107.9950984,37.8574274],[-107.9947797,37.8573504],[-107.9944284,37.857145],[-107.9940707,37.8568676],[-107.9939536,37.8567444],[-107.993791,37.8566827],[-107.9935101,37.856621],[-107.9932258,37.8565694],[-107.9930065,37.8565301],[-107.9928356,37.8565229],[-107.9925928,37.8565158],[-107.9922971,37.8564784],[-107.9919552,37.8564602],[-107.9915867,37.8564433],[-107.9913858,37.8563467],[-107.9911247,37.8562478],[-107.9908951,37.856218],[-107.9906131,37.8561438],[-107.9902765,37.8561876],[-107.9897794,37.8560831],[-107.9895013,37.856032],[-107.9891557,37.8559595],[-107.9889962,37.855874],[-107.9888739,37.8558489],[-107.9887943,37.8563895],[-107.98876,37.8566621],[-107.9887254,37.8568329],[-107.9886297,37.856943],[-107.9886125,37.8570415],[-107.9885116,37.857159],[-107.9884679,37.8572425],[-107.9883945,37.857368],[-107.9882858,37.8575313],[-107.9882066,37.8576811],[-107.9880886,37.8577652],[-107.9879399,37.8578674],[-107.9877937,37.8579579],[-107.9877614,37.8580345],[-107.9876724,37.8581201],[-107.9874739,37.8582696],[-107.9873592,37.8583633],[-107.9871992,37.8584879],[-107.9871839,37.8585652],[-107.9872132,37.8586533],[-107.9871737,37.8586951],[-107.9870032,37.8587379],[-107.986819,37.8588315],[-107.9866816,37.8589348],[-107.9864847,37.8589532],[-107.9863491,37.8589949],[-107.9861152,37.8591435],[-107.9858709,37.8593559],[-107.9856124,37.8595385],[-107.9854451,37.8596462],[-107.9851874,37.8597537],[-107.9850634,37.8598191],[-107.9849689,37.8599],[-107.9849356,37.8599511],[-107.9847575,37.8602698],[-107.98468,37.860278]]}}]}
