{"type":"FeatureCollection","peaks_destination_id":"V5IhF4hNJ4IKtNEHOgMi","peaks_trailhead_id":"draft-trailhead","peaks_source":"https://www.openstreetmap.org/","peaks_retrieval_source":"https://api.openstreetmap.org/api/0.6","peaks_license_name":"Open Data Commons Open Database License (ODbL) 1.0","peaks_license":"https://opendatacommons.org/licenses/odbl/1-0/","peaks_attribution":"© OpenStreetMap contributors","peaks_retrieved_at":"2026-07-31T12:38:39.530Z","features":[{"type":"Feature","properties":{"name":"Cerro Copiapó OSM route candidate","trailhead_name":"Cerro Copiapó South Base Camp","destination_name":"Cerro Copiapó","distance_m":3041.0249445235863,"trailhead_snap_m":0,"summit_snap_m":24.919176681959655,"osm_way_ids":[475173302],"osm_way_urls":["https://www.openstreetmap.org/way/475173302"],"osm_way_names":["Ascenso Cara Sur del Copiapó"],"osm_foot_access_override_way_ids":[]},"geometry":{"type":"LineString","coordinates":[[-69.1354235,-27.3303876],[-69.1354235,-27.3303876],[-69.1351821,-27.3297252],[-69.1351392,-27.3293821],[-69.135225,-27.3289007],[-69.1350641,-27.3285814],[-69.1348442,-27.3284337],[-69.1342004,-27.3282097],[-69.1338249,-27.3280667],[-69.1336694,-27.3278856],[-69.1336104,-27.3276902],[-69.1336425,-27.3270373],[-69.1334226,-27.3258888],[-69.1332778,-27.3251358],[-69.1334011,-27.3247545],[-69.1343453,-27.3240301],[-69.134356,-27.3235964],[-69.1339644,-27.3226718],[-69.1335299,-27.3222],[-69.1328003,-27.3216042],[-69.1324087,-27.3211705],[-69.132339,-27.320439],[-69.1329613,-27.3190282],[-69.1340341,-27.3168358],[-69.1335192,-27.3146814],[-69.1316738,-27.3120885],[-69.131073,-27.3088855],[-69.1308209,-27.3072172],[-69.1310059,-27.3064724],[-69.131237,-27.306089],[-69.130994,-27.306029]]}}]}
