{"type":"FeatureCollection","peaks_destination_id":"8RtxmvglalqMYeuCTLvS","peaks_trailhead_id":"4D7B93615A5D4EFBB62A","peaks_source":"https://www.openstreetmap.org/","peaks_retrieval_source":"https://api.openstreetmap.org/api/0.6","peaks_license_name":"Open Data Commons Open Database License (ODbL) 1.0","peaks_license":"https://opendatacommons.org/licenses/odbl/1-0/","peaks_attribution":"© OpenStreetMap contributors","peaks_retrieved_at":"2026-07-30T19:17:50.736Z","features":[{"type":"Feature","properties":{"name":"Damavand OSM route candidate","trailhead_name":"Goosfand Sara Trailhead","destination_name":"Damavand","distance_m":8911.118505401397,"trailhead_snap_m":0,"summit_snap_m":9.116694364794833,"osm_way_ids":[203845919,72515396,72515400,705355969],"osm_way_urls":["https://www.openstreetmap.org/way/203845919","https://www.openstreetmap.org/way/72515396","https://www.openstreetmap.org/way/72515400","https://www.openstreetmap.org/way/705355969"],"osm_way_names":["یال خومه","یال جنوبی","دور کاسه"],"osm_foot_access_override_way_ids":[]},"geometry":{"type":"LineString","coordinates":[[52.1095878,35.9016136],[52.1095878,35.9016136],[52.109568,35.9017042],[52.1094955,35.9021001],[52.1092353,35.9025195],[52.1090309,35.9030602],[52.1088195,35.9034081],[52.108385,35.9037318],[52.1079907,35.9040425],[52.1077172,35.9040903],[52.1075691,35.9042856],[52.1074677,35.9047377],[52.1073846,35.9047594],[52.1072934,35.9051613],[52.1070627,35.9055046],[52.1069742,35.9053916],[52.1068995,35.9051883],[52.1067491,35.9051348],[52.1065921,35.9051407],[52.1065514,35.9052174],[52.1064953,35.9059668],[52.106397,35.9062409],[52.1063085,35.9068666],[52.1059464,35.9076595],[52.1057779,35.9080899],[52.1057077,35.9084547],[52.1053246,35.9087112],[52.105477,35.9088631],[52.1053702,35.908935],[52.1055816,35.9090586],[52.1054775,35.9091414],[52.1055741,35.9092087],[52.1054185,35.9093282],[52.1056728,35.9094627],[52.1053971,35.9098539],[52.1055548,35.9100536],[52.1053005,35.9103666],[52.1054314,35.9104989],[52.1054351,35.9106235],[52.1053388,35.9108213],[52.105345,35.9110284],[52.1052131,35.9113196],[52.1052731,35.9116177],[52.1051804,35.9117778],[52.1050582,35.9118286],[52.1049512,35.9120269],[52.1048762,35.9123085],[52.1045012,35.9128062],[52.1043215,35.9130734],[52.1042399,35.9132419],[52.1041546,35.9135241],[52.1040802,35.9136454],[52.1039641,35.9137483],[52.1039622,35.9139769],[52.1038655,35.914316],[52.1039516,35.9145976],[52.10387,35.9147304],[52.1036643,35.9148843],[52.103624,35.9150181],[52.1033371,35.9151089],[52.1033433,35.9151713],[52.1034975,35.9153259],[52.1032845,35.9154833],[52.1035887,35.9159667],[52.1035222,35.9162276],[52.1031749,35.916496],[52.1031408,35.9167661],[52.1031815,35.9172485],[52.1030233,35.9173311],[52.1030945,35.9178288],[52.1033284,35.9181297],[52.1033009,35.9182668],[52.1031767,35.9185145],[52.1034506,35.9191274],[52.1036408,35.9193636],[52.1035211,35.9194541],[52.1036432,35.919554],[52.1035793,35.9197444],[52.1037586,35.9199296],[52.1043134,35.9201701],[52.1041364,35.9204286],[52.1046782,35.920661],[52.1050859,35.9209043],[52.105308,35.9215318],[52.1054502,35.9220966],[52.105536,35.9229046],[52.1058069,35.9234454],[52.1060805,35.9235345],[52.1062232,35.9242537],[52.106464,35.9245684],[52.1068986,35.9250484],[52.1073604,35.9256242],[52.1078293,35.9262517],[52.1080605,35.9263605],[52.1082,35.9268753],[52.1086769,35.9273681],[52.1092133,35.9279176],[52.109688,35.9284171],[52.1098785,35.9290513],[52.109702,35.9292557],[52.1097792,35.9293532],[52.1096162,35.9294229],[52.1097712,35.9295921],[52.1093453,35.9299073],[52.1094413,35.9300439],[52.1094386,35.9301937],[52.1092728,35.9303503],[52.1095079,35.9304772],[52.1093394,35.9306894],[52.1094738,35.93082],[52.1093425,35.9310004],[52.1090938,35.931194],[52.1088493,35.9312995],[52.1087596,35.9313847],[52.108418,35.931709],[52.108797,35.93189],[52.108474,35.93215],[52.10858,35.932164],[52.108569,35.932221],[52.108345,35.932407],[52.108282,35.932533],[52.1083,35.932625],[52.108985,35.933013],[52.108405,35.93348],[52.108296,35.933663],[52.108608,35.933837],[52.108295,35.934148],[52.107886,35.934351],[52.107871,35.934391],[52.108277,35.934861],[52.108045,35.935123],[52.10821,35.935285],[52.108341,35.935307],[52.108367,35.93533],[52.108218,35.93547],[52.1079,35.935598],[52.107833,35.935665],[52.108,35.935866],[52.108069,35.935884],[52.107951,35.936038],[52.107851,35.936052],[52.108101,35.936175],[52.107764,35.936344],[52.108053,35.936506],[52.107827,35.936543],[52.107546,35.936761],[52.107632,35.936761],[52.107938,35.936963],[52.108326,35.937068],[52.10882,35.937288],[52.10885,35.937346],[52.10874,35.937473],[52.108533,35.937584],[52.108103,35.937709],[52.108126,35.937811],[52.108373,35.937843],[52.108761,35.938074],[52.108972,35.938143],[52.108799,35.938271],[52.108383,35.938451],[52.108373,35.938519],[52.108686,35.938664],[52.108928,35.938723],[52.108519,35.938915],[52.108476,35.938991],[52.108605,35.939041],[52.10883,35.939006],[52.108716,35.939103],[52.108781,35.939193],[52.108249,35.939362],[52.108757,35.939526],[52.108289,35.939791],[52.107566,35.939962],[52.107441,35.940052],[52.107525,35.940138],[52.107973,35.94031],[52.108331,35.940518],[52.108648,35.940546],[52.108682,35.940514],[52.108838,35.940581],[52.108376,35.940811],[52.107885,35.940955],[52.107811,35.941016],[52.107713,35.941005],[52.108156,35.941408],[52.107712,35.941574],[52.10787,35.941715],[52.108257,35.941827],[52.108063,35.941955],[52.10745,35.942178],[52.107432,35.942234],[52.107857,35.942391],[52.108185,35.942635],[52.107426,35.942985],[52.107127,35.943056],[52.107628,35.943511],[52.107421,35.943638],[52.107455,35.943829],[52.107605,35.943884],[52.107446,35.944105],[52.106922,35.944277],[52.10712,35.944465],[52.107134,35.944524],[52.106895,35.944631],[52.106997,35.944718],[52.106846,35.944822],[52.106404,35.94492],[52.106659,35.945197],[52.106756,35.945245],[52.106361,35.9453],[52.106551,35.945415],[52.106851,35.945676],[52.106631,35.945738],[52.106519,35.94586],[52.106693,35.946089],[52.107008,35.946283],[52.106859,35.946387],[52.107146,35.94649],[52.106681,35.946715],[52.1069,35.946874],[52.107312,35.946934],[52.10804,35.94689],[52.107781,35.947222],[52.107641,35.947299],[52.107712,35.947366],[52.107935,35.947384],[52.10743,35.947857],[52.108005,35.947985],[52.107929,35.948061],[52.108281,35.948083],[52.108164,35.948154],[52.108316,35.948169],[52.108306,35.948368],[52.10847,35.948384],[52.108081,35.9488],[52.108498,35.948884],[52.108281,35.949174],[52.108471,35.949189],[52.108661,35.949148],[52.108635,35.949281],[52.108726,35.949284],[52.108544,35.949452],[52.108864,35.949443],[52.108638,35.949644],[52.108947,35.949657],[52.108871,35.949752],[52.108675,35.949856],[52.109095,35.94999],[52.108999,35.950177],[52.10911,35.950163],[52.109229,35.950254],[52.109315,35.950252],[52.10921,35.950359],[52.109286,35.950407],[52.10925,35.950509],[52.109094,35.950698],[52.10935,35.950725],[52.109281,35.950902],[52.10909,35.951032],[52.109652,35.951139],[52.109738,35.951086],[52.109769,35.95114],[52.109872,35.951152],[52.109904,35.951171],[52.110026,35.951157],[52.110082,35.951241],[52.1102,35.951269],[52.110322,35.951201],[52.110472,35.951286],[52.110544,35.951347],[52.110487,35.951441],[52.110642,35.951525],[52.110602,35.951747],[52.11065,35.951749],[52.11067,35.951946],[52.110765,35.951998],[52.110732,35.952107],[52.110884,35.952171],[52.11084,35.952273],[52.111008,35.952383],[52.110959,35.952577],[52.111013,35.952868],[52.110684,35.953266],[52.110926,35.953516],[52.111131,35.953642],[52.110869,35.953886],[52.110718,35.953868],[52.110571,35.953951],[52.110692,35.954118],[52.110536,35.954207],[52.110321,35.9542781],[52.11042,35.954344],[52.110551,35.954685],[52.110451,35.955032],[52.1105442,35.9553054],[52.110296,35.955307],[52.110195,35.955349],[52.110176,35.955497],[52.110085,35.955533]]}}]}
