{"type":"FeatureCollection","peaks_destination_id":"8RtxmvglalqMYeuCTLvS","peaks_trailhead_id":"draft-trailhead","peaks_source":"https://www.openstreetmap.org/","peaks_retrieval_source":"https://overpass-api.de/api/interpreter","peaks_license_name":"Open Data Commons Open Database License (ODbL) 1.0","peaks_license":"https://opendatacommons.org/licenses/odbl/1-0/","peaks_attribution":"© OpenStreetMap contributors","peaks_retrieved_at":"2026-07-30T19:06:13.236Z","features":[{"type":"Feature","properties":{"name":"Damavand OSM route candidate","trailhead_name":"Goosfand Sara Trailhead","destination_name":"Damavand","distance_m":6827.616132895385,"trailhead_snap_m":4.1940095798006185,"summit_snap_m":9.116694364794833,"osm_way_ids":[203845919,539808509,539808505,72515400,705355969],"osm_way_urls":["https://www.openstreetmap.org/way/203845919","https://www.openstreetmap.org/way/539808509","https://www.openstreetmap.org/way/539808505","https://www.openstreetmap.org/way/72515400","https://www.openstreetmap.org/way/705355969"],"osm_way_names":["یال خومه","یال ملاخوران","یال جنوبی","دور کاسه"],"osm_foot_access_override_way_ids":[]},"geometry":{"type":"LineString","coordinates":[[52.1096,35.90165],[52.1095878,35.9016136],[52.109568,35.9017042],[52.1094955,35.9021001],[52.1092353,35.9025195],[52.1092787,35.9033833],[52.1095781,35.9038096],[52.1097039,35.9038308],[52.1097399,35.9038297],[52.110097,35.903897],[52.11097,35.905063],[52.112646,35.906078],[52.112937,35.907044],[52.113381,35.907387],[52.113523,35.907945],[52.114112,35.908226],[52.11439,35.90879],[52.115201,35.909179],[52.115525,35.909099],[52.115781,35.909272],[52.116589,35.909326],[52.116817,35.909682],[52.117424,35.909869],[52.11726,35.911202],[52.117485,35.911583],[52.117474,35.911883],[52.11771,35.912114],[52.117742,35.912452],[52.117279,35.913553],[52.1172912,35.9137485],[52.117429,35.915959],[52.117314,35.917094],[52.117059,35.917665],[52.117029,35.919478],[52.117196,35.920198],[52.11744,35.9204],[52.117605,35.921292],[52.117667,35.922656],[52.117852,35.92314],[52.1177375,35.9237744],[52.117665,35.924176],[52.118137,35.925905],[52.117626,35.927214],[52.117577,35.927689],[52.117058,35.928164],[52.116565,35.929354],[52.116204,35.92981],[52.115933,35.930693],[52.115359,35.931074],[52.115201,35.931332],[52.1152153,35.9314396],[52.11531,35.932152],[52.114941,35.932857],[52.114959,35.933573],[52.114764,35.933933],[52.114888,35.934124],[52.114649,35.93474],[52.114885,35.935301],[52.114817,35.935743],[52.115376,35.937075],[52.115185,35.937385],[52.115533,35.938419],[52.11541,35.938471],[52.115392,35.940245],[52.115711,35.940565],[52.115403,35.941408],[52.115468,35.941535],[52.1153791,35.9416365],[52.115033,35.942032],[52.115102,35.942216],[52.114915,35.942954],[52.114567,35.943276],[52.114456,35.944274],[52.11408,35.945039],[52.113548,35.946971],[52.113186,35.947365],[52.1126649,35.9483293],[52.112611,35.948429],[52.11244,35.948509],[52.112323,35.949144],[52.112419,35.949832],[52.112796,35.950278],[52.112681,35.951129],[52.112313,35.951235],[52.112148,35.951487],[52.112121,35.952034],[52.1115603,35.9529538],[52.11148,35.953091],[52.1116281,35.9533299],[52.1111493,35.9536137],[52.111131,35.953642],[52.110869,35.953886],[52.110718,35.953868],[52.110571,35.953951],[52.110692,35.954118],[52.110536,35.954207],[52.110321,35.9542781],[52.11042,35.954344],[52.110551,35.954685],[52.110451,35.955032],[52.1105442,35.9553054],[52.110296,35.955307],[52.110195,35.955349],[52.110176,35.955497],[52.110085,35.955533]]}}]}
