{"type":"FeatureCollection","peaks_destination_id":"dLAIe934cvPFKnjhB0hW","peaks_trailhead_id":"draft-trailhead","peaks_source":"https://www.openstreetmap.org/","peaks_retrieval_source":"https://overpass-api.de/api/interpreter","peaks_license_name":"Open Data Commons Open Database License (ODbL) 1.0","peaks_license":"https://opendatacommons.org/licenses/odbl/1-0/","peaks_attribution":"© OpenStreetMap contributors","peaks_retrieved_at":"2026-07-30T20:53:58.174Z","features":[{"type":"Feature","properties":{"name":"Denali OSM route candidate","trailhead_name":"Kahiltna Base Camp","destination_name":"Denali","distance_m":21375.843601008357,"trailhead_snap_m":941.0125295970919,"summit_snap_m":9.771035153155903,"osm_way_ids":[1133167907,734022270,503179913],"osm_way_urls":["https://www.openstreetmap.org/way/1133167907","https://www.openstreetmap.org/way/734022270","https://www.openstreetmap.org/way/503179913"],"osm_way_names":["Cassin Ridge Route"],"osm_foot_access_override_way_ids":[]},"geometry":{"type":"LineString","coordinates":[[-151.15332,62.96608],[-151.1713895,62.9681222],[-151.1742354,62.9685279],[-151.1783123,62.9692886],[-151.1802435,62.9692691],[-151.1916161,62.9704003],[-151.1968518,62.9719605],[-151.2009717,62.9750806],[-151.2098981,62.9890001],[-151.2102414,62.9933267],[-151.2071515,62.9976916],[-151.1902429,63.0057182],[-151.1856938,63.0109966],[-151.1864233,63.0119899],[-151.1823464,63.0166441],[-151.1813593,63.0192142],[-151.1853934,63.024023],[-151.1828614,63.0280524],[-151.1843623,63.0295324],[-151.1788274,63.0316921],[-151.1633778,63.0359734],[-151.1521339,63.038948],[-151.150986,63.0392083],[-151.1497629,63.0393493],[-151.1486578,63.0394028],[-151.1479712,63.0393737],[-151.1476225,63.0391232],[-151.1475527,63.0390429],[-151.147247,63.0390283],[-151.146968,63.0390186],[-151.1465013,63.039145],[-151.146099,63.0392229],[-151.1457449,63.0392861],[-151.1453533,63.0392131],[-151.1450905,63.0393007],[-151.1449939,63.039415],[-151.1449577,63.0394272],[-151.1448276,63.0394387],[-151.1446144,63.0394788],[-151.144487,63.0394813],[-151.1444239,63.0394825],[-151.1442295,63.039505],[-151.143465,63.0396363],[-151.1431848,63.0397014],[-151.1430225,63.0397379],[-151.1426979,63.0398011],[-151.142474,63.0398394],[-151.1423667,63.0398358],[-151.1423036,63.0398431],[-151.1422285,63.0398698],[-151.1420944,63.0398862],[-151.1420046,63.0398862],[-151.1419268,63.0398929],[-151.1416049,63.0398765],[-151.1414185,63.0398728],[-151.1413662,63.0398856],[-151.14133,63.0398984],[-151.1412857,63.0399045],[-151.1412442,63.0398984],[-151.1412013,63.0398923],[-151.1411087,63.0398814],[-151.140988,63.0398771],[-151.1408459,63.0398935],[-151.1405817,63.0399105],[-151.1403134,63.0399622],[-151.1399969,63.0400291],[-151.1397971,63.0400632],[-151.1396885,63.0400796],[-151.1394726,63.0401282],[-151.1392728,63.0401677],[-151.1391346,63.0401702],[-151.1390086,63.0401799],[-151.1387873,63.040206],[-151.1386304,63.0402389],[-151.1385231,63.0402753],[-151.1383729,63.0403313],[-151.1382642,63.0403611],[-151.1381958,63.0403678],[-151.1381395,63.0403836],[-151.1380403,63.0404322],[-151.137929,63.0404505],[-151.1377841,63.0404614],[-151.1376795,63.0405046],[-151.1374797,63.0405587],[-151.1373228,63.0406031],[-151.1370935,63.0406304],[-151.136895,63.0406383],[-151.1367032,63.0406462],[-151.13649,63.0406815],[-151.1363867,63.0407064],[-151.1363304,63.0407356],[-151.1362526,63.0407672],[-151.135983,63.0408086],[-151.135751,63.0408505],[-151.1356115,63.0408834],[-151.1354989,63.0409508],[-151.135409,63.0409764],[-151.1352414,63.0410201],[-151.1351676,63.0410317],[-151.1349839,63.0410518],[-151.1349088,63.04107],[-151.1348404,63.0410797],[-151.1347103,63.0410937],[-151.1346191,63.0411199],[-151.1344944,63.0411582],[-151.1342879,63.0411867],[-151.1341752,63.0411861],[-151.134076,63.0412117],[-151.133915,63.0412567],[-151.1336616,63.0413229],[-151.133561,63.0413363],[-151.1333625,63.0413783],[-151.1333156,63.0414196],[-151.1332592,63.0414457],[-151.1331023,63.0414713],[-151.1329789,63.0414901],[-151.132932,63.0415157],[-151.1328529,63.0415491],[-151.1326423,63.0416774],[-151.1325122,63.0416902],[-151.1324734,63.0417011],[-151.1320978,63.0418032],[-151.1319181,63.0418896],[-151.131776,63.041965],[-151.1315078,63.0419929],[-151.1310518,63.0421315],[-151.1307192,63.0422446],[-151.130459,63.0423151],[-151.1300567,63.0425219],[-151.1295792,63.0427042],[-151.1290079,63.0429644],[-151.1288202,63.0430009],[-151.1283079,63.0434362],[-151.1279109,63.0437548],[-151.1271143,63.0442618],[-151.1259556,63.044787],[-151.1254406,63.0450788],[-151.1246252,63.0452345],[-151.123724,63.0453901],[-151.1221791,63.0456235],[-151.1212349,63.0457791],[-151.1208058,63.0459737],[-151.1202908,63.0461098],[-151.1193896,63.0461877],[-151.1180592,63.0461877],[-151.1168576,63.0458959],[-151.1163426,63.0455652],[-151.1156559,63.0453512],[-151.1153609,63.0451518],[-151.1152589,63.0450399],[-151.1153287,63.0448892],[-151.1152911,63.0448162],[-151.1148352,63.0448697],[-151.1144972,63.0449183],[-151.1141914,63.0448843],[-151.1140466,63.0448308],[-151.1131239,63.0446509],[-151.1117506,63.0444174],[-151.1104203,63.0442034],[-151.1098195,63.0440867],[-151.1091328,63.0439311],[-151.1086607,63.0439116],[-151.1084408,63.043863],[-151.1079901,63.0438229],[-151.1076388,63.0437487],[-151.1073706,63.0437183],[-151.1072606,63.0436855],[-151.1068261,63.0436137],[-151.1066155,63.043587],[-151.1063419,63.0435304],[-151.1037255,63.0430946],[-151.1020518,63.0430557],[-151.1010647,63.0427638],[-151.1007643,63.0425887],[-151.0996485,63.0424331],[-151.0980177,63.0423942],[-151.0965586,63.0423942],[-151.0941554,63.042472],[-151.0924817,63.0422775],[-151.0908509,63.0422775],[-151.0884047,63.0423358],[-151.0856152,63.0421997],[-151.0838342,63.0422288],[-151.0837269,63.0420732],[-151.0833407,63.0419954],[-151.0829115,63.0420537],[-151.0822249,63.0419954],[-151.0804653,63.0419565],[-151.0788775,63.0419954],[-151.0780406,63.0420635],[-151.0776329,63.0420148],[-151.0773325,63.0418105],[-151.0770536,63.0417716],[-151.0765171,63.0417522],[-151.0762167,63.0416354],[-151.0758305,63.0416354],[-151.0755944,63.0415673],[-151.0753799,63.0414603],[-151.0751224,63.041402],[-151.0745859,63.0413922],[-151.0744035,63.0413704],[-151.0745162,63.0412074],[-151.0745966,63.0410688],[-151.0740119,63.0409715],[-151.0736257,63.0408815],[-151.0732234,63.0407551],[-151.0721451,63.0404389],[-151.071496,63.0404997],[-151.0707557,63.0403538],[-151.069833,63.0401981],[-151.0688675,63.0399792],[-151.0679716,63.0396631],[-151.0667861,63.0392618],[-151.0660243,63.0392958],[-151.0657454,63.0392083],[-151.0655737,63.039038],[-151.0651982,63.0389456],[-151.0644579,63.0389164],[-151.0608852,63.0384884],[-151.0603595,63.0386343],[-151.0597372,63.0389359],[-151.058203,63.0394174],[-151.0561001,63.0403659],[-151.0504139,63.0425596],[-151.0467231,63.0439457],[-151.0427749,63.0451421],[-151.0351253,63.0467517],[-151.0267568,63.0484246],[-151.0186673,63.0523145],[-151.0163499,63.0544926],[-151.016264,63.0557372],[-151.0160924,63.0584595],[-151.0160924,63.0597428],[-151.0148907,63.0615801],[-151.0148263,63.0622654],[-151.0140431,63.0635048],[-151.0126698,63.0646226],[-151.0127235,63.065235],[-151.0121441,63.0663284],[-151.0120368,63.0678203],[-151.0123455,63.0680695],[-151.0115134,63.0683255],[-151.0108155,63.0684855],[-151.0099462,63.0687127],[-151.0090216,63.0688725],[-151.0081021,63.0690693],[-151.0079096,63.0690922],[-151.0077136,63.0691119],[-151.007514,63.0691261],[-151.0073182,63.069137],[-151.0071675,63.0691442],[-151.0070029,63.0691481],[-151.0068577,63.0691505],[-151.0067099,63.069148],[-151.0064722,63.0691331],[-151.006239,63.069115],[-151.006347,63.069042]]}}]}
