{"type":"FeatureCollection","peaks_destination_id":"JtHzkU6Z7baLiNgBc4Jj","peaks_trailhead_id":"draft-trailhead","peaks_source":"https://www.openstreetmap.org/","peaks_retrieval_source":"https://overpass-api.de/api/interpreter","peaks_license_name":"Open Data Commons Open Database License (ODbL) 1.0","peaks_license":"https://opendatacommons.org/licenses/odbl/1-0/","peaks_attribution":"© OpenStreetMap contributors","peaks_retrieved_at":"2026-07-30T20:19:01.959Z","features":[{"type":"Feature","properties":{"name":"Elbrus OSM route candidate","trailhead_name":"Garabashi Station","destination_name":"Elbrus","distance_m":6566.76649575241,"trailhead_snap_m":7.704291768088541,"summit_snap_m":37.41962487418568,"osm_way_ids":[201256336,226056643,226056654,1365327953,46931794,172543859],"osm_way_urls":["https://www.openstreetmap.org/way/201256336","https://www.openstreetmap.org/way/226056643","https://www.openstreetmap.org/way/226056654","https://www.openstreetmap.org/way/1365327953","https://www.openstreetmap.org/way/46931794","https://www.openstreetmap.org/way/172543859"],"osm_way_names":["Южная тропа","Косая полка","взлёт","Тропа зомби"],"osm_foot_access_override_way_ids":[]},"geometry":{"type":"LineString","coordinates":[[42.4602078,43.3042317],[42.460303,43.3042327],[42.4602852,43.3043801],[42.4603329,43.3044105],[42.4602914,43.3044775],[42.4603276,43.3046756],[42.4604154,43.3047839],[42.4604966,43.3048139],[42.4605636,43.3048659],[42.4606884,43.3050074],[42.46075,43.3050608],[42.4608864,43.3053974],[42.4609324,43.3056076],[42.4608789,43.3058853],[42.4608318,43.3061116],[42.4607849,43.3070441],[42.4607527,43.307657],[42.4607956,43.3088944],[42.4608815,43.3103934],[42.4608171,43.3111584],[42.460747,43.3113819],[42.4606508,43.3115292],[42.4604523,43.3118142],[42.460193,43.312015],[42.4599481,43.3122045],[42.4598408,43.3124153],[42.4598086,43.3128212],[42.4598703,43.3132057],[42.4599025,43.3134184],[42.4599776,43.3135238],[42.4600553,43.3136487],[42.4600822,43.3137541],[42.4601036,43.3138634],[42.4601251,43.3139805],[42.4601307,43.3142467],[42.4601471,43.314542],[42.4604873,43.3159622],[42.4608118,43.3163032],[42.4608458,43.3165559],[42.4608263,43.316893],[42.4608174,43.317236],[42.4608337,43.3179273],[42.4605064,43.3189828],[42.4601244,43.3202299],[42.4595713,43.321452],[42.4594009,43.3218823],[42.4593635,43.32211],[42.459219,43.3229726],[42.4591282,43.3241021],[42.4590673,43.3249658],[42.4591015,43.3260738],[42.459187,43.3271909],[42.4583154,43.3292989],[42.4577968,43.3309007],[42.457697,43.3313452],[42.4581319,43.3324588],[42.4581893,43.3329118],[42.4581978,43.3333577],[42.4575444,43.3353647],[42.4570228,43.3367872],[42.4564203,43.3382676],[42.4563789,43.3383491],[42.4563733,43.3383595],[42.4563674,43.3383691],[42.4563593,43.3383801],[42.456351,43.3383892],[42.4556745,43.3389899],[42.4554531,43.3391592],[42.4549567,43.3397723],[42.4543303,43.3402658],[42.4536956,43.3406895],[42.4526265,43.3415319],[42.4520335,43.3419868],[42.4514751,43.3423609],[42.451457,43.3423701],[42.4514381,43.3423787],[42.4514173,43.3423867],[42.4513954,43.3423933],[42.4504991,43.3425742],[42.4504719,43.3425818],[42.450459,43.3425865],[42.4504478,43.3425916],[42.4504285,43.3426011],[42.4504097,43.3426109],[42.4497825,43.3429742],[42.4493802,43.3434267],[42.4491763,43.343653],[42.4489188,43.3440744],[42.448377,43.3454905],[42.4477279,43.3468793],[42.447454,43.3472043],[42.4473711,43.3473645],[42.4473045,43.3475188],[42.4471283,43.3480476],[42.4470685,43.3482657],[42.4466235,43.348508],[42.4464148,43.3485835],[42.4461948,43.3486427],[42.4456847,43.3486829],[42.4452218,43.3487263],[42.4449828,43.3487839],[42.4447719,43.3488578],[42.4443808,43.3491257],[42.4439789,43.3494633],[42.4436776,43.3499109],[42.4434489,43.3502958],[42.4433496,43.3507403],[42.4433126,43.3513704],[42.4432913,43.351434],[42.4432436,43.3514881],[42.4430974,43.3517081],[42.4429196,43.351902],[42.4427537,43.352008],[42.4425188,43.352121],[42.4422642,43.3522308],[42.4420061,43.3523171],[42.4418017,43.3523785],[42.4414611,43.3524505],[42.4410837,43.3525215],[42.4405984,43.3525981],[42.4401835,43.3526628],[42.4399139,43.3526956],[42.4393879,43.3528022],[42.4392556,43.3528144],[42.4391367,43.3528188],[42.4390165,43.3528164],[42.4389043,43.3528091],[42.4388028,43.3527978],[42.4387073,43.352787],[42.4386519,43.3527732],[42.438566,43.3527487],[42.4384855,43.3527223],[42.4383714,43.3526666],[42.4382516,43.3525792],[42.4381599,43.3525225],[42.4380916,43.3524832],[42.4380126,43.3524468],[42.4379672,43.3524259],[42.4379426,43.3524153],[42.43792,43.3524066],[42.4379163,43.3524056],[42.4379098,43.3524052],[42.4379023,43.3524051],[42.4378873,43.3524059],[42.4378432,43.3524103],[42.4378251,43.3526279],[42.4377997,43.3527737],[42.437666,43.3530194],[42.4373532,43.353382],[42.4371095,43.353557],[42.4369403,43.3536233],[42.4368524,43.3536651],[42.4365599,43.3537899],[42.436098,43.353811]]}}]}
