{"type":"FeatureCollection","peaks_destination_id":"JtHzkU6Z7baLiNgBc4Jj","peaks_trailhead_id":"draft-trailhead","peaks_source":"https://www.openstreetmap.org/","peaks_retrieval_source":"https://overpass-api.de/api/interpreter","peaks_license_name":"Open Data Commons Open Database License (ODbL) 1.0","peaks_license":"https://opendatacommons.org/licenses/odbl/1-0/","peaks_attribution":"© OpenStreetMap contributors","peaks_retrieved_at":"2026-07-30T20:14:05.961Z","features":[{"type":"Feature","properties":{"name":"Elbrus OSM route candidate","trailhead_name":"Azau Valley Trailhead","destination_name":"Elbrus","distance_m":14439.726550600428,"trailhead_snap_m":8.930814810638728,"summit_snap_m":37.41962487418568,"osm_way_ids":[430614931,554184326,1299181155,1168300381,404885315,302136184,1103646869,160185287,376366371,649162165,10637464,649162160,10637534,649162166,1168306107,226056643,226056654,1365327953,46931794,172543859],"osm_way_urls":["https://www.openstreetmap.org/way/430614931","https://www.openstreetmap.org/way/554184326","https://www.openstreetmap.org/way/1299181155","https://www.openstreetmap.org/way/1168300381","https://www.openstreetmap.org/way/404885315","https://www.openstreetmap.org/way/302136184","https://www.openstreetmap.org/way/1103646869","https://www.openstreetmap.org/way/160185287","https://www.openstreetmap.org/way/376366371","https://www.openstreetmap.org/way/649162165","https://www.openstreetmap.org/way/10637464","https://www.openstreetmap.org/way/649162160","https://www.openstreetmap.org/way/10637534","https://www.openstreetmap.org/way/649162166","https://www.openstreetmap.org/way/1168306107","https://www.openstreetmap.org/way/226056643","https://www.openstreetmap.org/way/226056654","https://www.openstreetmap.org/way/1365327953","https://www.openstreetmap.org/way/46931794","https://www.openstreetmap.org/way/172543859"],"osm_way_names":["Экотропа \"Чегетский поворот - водопад Азау\"","Южная тропа","Косая полка","взлёт","Тропа зомби"],"osm_foot_access_override_way_ids":[]},"geometry":{"type":"LineString","coordinates":[[42.47968,43.2659],[42.4797232,43.2658261],[42.4798045,43.2657591],[42.4800834,43.2656653],[42.4803891,43.2655086],[42.4805365,43.2654256],[42.4804069,43.2653904],[42.4803146,43.2653214],[42.4802726,43.265309],[42.4803519,43.2652558],[42.4805214,43.2652067],[42.480642,43.2651877],[42.4807439,43.265159],[42.4809176,43.2651262],[42.4810141,43.2650657],[42.481108,43.2649993],[42.4811757,43.2649458],[42.4814567,43.2648079],[42.4815506,43.2647317],[42.4817196,43.264718],[42.482087,43.2645051],[42.4821353,43.2643782],[42.4820119,43.2642415],[42.481931,43.2640617],[42.4822246,43.264005],[42.4825363,43.2639969],[42.4827026,43.2639651],[42.4830289,43.2637595],[42.483239,43.2637102],[42.4833857,43.2636669],[42.4838228,43.2634665],[42.4840263,43.2634612],[42.4840696,43.2635212],[42.4841983,43.2636853],[42.4843915,43.2637986],[42.4845524,43.2637712],[42.4847026,43.2637283],[42.4848421,43.26374],[42.4850942,43.2637908],[42.4852931,43.2638567],[42.4858738,43.2635628],[42.4860435,43.263398],[42.4861111,43.2634891],[42.4861548,43.2635694],[42.4865362,43.2638639],[42.4868604,43.2642367],[42.4870482,43.2646077],[42.4870456,43.2650124],[42.4871769,43.2653122],[42.4872566,43.2655464],[42.487429,43.2658536],[42.4873904,43.2660541],[42.4872755,43.2663575],[42.4877422,43.2664584],[42.487635,43.2669008],[42.4876545,43.2672091],[42.4878144,43.2674785],[42.4879618,43.2684214],[42.4884336,43.2697297],[42.4885726,43.2703449],[42.4887386,43.2711049],[42.4884714,43.2715179],[42.4883878,43.2719201],[42.4881366,43.2722237],[42.487571,43.2725677],[42.4868976,43.2730485],[42.4862419,43.2735259],[42.4861009,43.2736322],[42.4858572,43.2737005],[42.4855354,43.2738437],[42.4846975,43.2744606],[42.4839452,43.2749975],[42.4837071,43.275188],[42.4835179,43.2753998],[42.4833462,43.2755417],[42.4829287,43.2758915],[42.4827555,43.2760504],[42.4826361,43.2762093],[42.4825929,43.2765521],[42.482563,43.2769643],[42.4824212,43.2774099],[42.4822322,43.2776829],[42.4821018,43.2778691],[42.4815954,43.278312],[42.4812989,43.2787827],[42.481031,43.2791163],[42.4809824,43.2793289],[42.4808476,43.2793435],[42.4804826,43.2791647],[42.4803058,43.2788469],[42.4801659,43.2788767],[42.480049,43.2792974],[42.479911,43.2792287],[42.4797289,43.2790122],[42.4795274,43.2789872],[42.4794213,43.2790868],[42.4794963,43.2794506],[42.4793574,43.2795846],[42.4791423,43.2795128],[42.4786786,43.2788795],[42.4788147,43.2785709],[42.4772685,43.2785456],[42.4760061,43.2787058],[42.4758309,43.2786763],[42.475284,43.2784401],[42.4749177,43.2783989],[42.4742081,43.2782085],[42.4737938,43.2768215],[42.4737156,43.2766583],[42.4736588,43.276569],[42.4736304,43.2765153],[42.4735666,43.2764719],[42.473472,43.2764474],[42.4733667,43.2764204],[42.4730961,43.2763993],[42.472732,43.2763502],[42.4723694,43.2764008],[42.4721232,43.2764062],[42.4717756,43.2764265],[42.4711916,43.2766065],[42.4704881,43.2770124],[42.4703497,43.2772854],[42.4703267,43.2778948],[42.4704019,43.2783229],[42.4699956,43.2786445],[42.4693331,43.2789315],[42.4690354,43.2790604],[42.4688177,43.2791145],[42.4686,43.279182],[42.468442,43.2791899],[42.467945,43.2791439],[42.4674877,43.2792429],[42.4664169,43.278862],[42.4661113,43.2790315],[42.4657998,43.2794914],[42.4655393,43.279791],[42.4651719,43.2801961],[42.4653608,43.2803883],[42.4655203,43.2806017],[42.4654162,43.2807576],[42.465266,43.2808536],[42.4650873,43.280968],[42.4647945,43.281327],[42.4644367,43.2817354],[42.4643243,43.2819779],[42.4643635,43.2822101],[42.4643587,43.2823207],[42.4641726,43.2827997],[42.464245,43.2829674],[42.4643679,43.2834387],[42.4644837,43.2836165],[42.4645379,43.2840347],[42.4644841,43.2842811],[42.4644114,43.2845821],[42.464387,43.2846604],[42.4643723,43.284843],[42.464508,43.2849719],[42.4645293,43.2853674],[42.4643957,43.2858797],[42.463789,43.2868415],[42.4634628,43.2874812],[42.4634188,43.2877809],[42.4636422,43.2880635],[42.46366,43.288332],[42.4636657,43.288418],[42.4639901,43.289243],[42.4640005,43.2893218],[42.4639926,43.2893878],[42.4638892,43.2894789],[42.4635727,43.2897735],[42.4632347,43.2900098],[42.4629688,43.2900994],[42.4626018,43.2900251],[42.4622515,43.2898479],[42.4620416,43.2898323],[42.4616459,43.2899478],[42.4615771,43.2899752],[42.4615118,43.2900132],[42.4613675,43.2900582],[42.4611692,43.290176],[42.4611108,43.2902172],[42.4610787,43.2902413],[42.46105,43.2902661],[42.461033,43.2902883],[42.461008,43.2903227],[42.4609907,43.2903658],[42.4609792,43.2903962],[42.4609717,43.2904237],[42.4609571,43.2905016],[42.4609211,43.2906985],[42.4608863,43.2908335],[42.4608452,43.2909726],[42.4608305,43.2910209],[42.4608276,43.2910842],[42.4608092,43.2912205],[42.460771,43.2913198],[42.4607372,43.2914095],[42.4607392,43.2914765],[42.4607473,43.2915403],[42.4607668,43.291584],[42.4607952,43.2916241],[42.4608432,43.2918267],[42.4608694,43.2919505],[42.4609419,43.2921182],[42.4610694,43.2923316],[42.4611802,43.2925199],[42.4612224,43.292597],[42.4612447,43.2926859],[42.4612594,43.2927691],[42.4612646,43.2928131],[42.461261,43.2929593],[42.4612711,43.2931187],[42.4613204,43.2932745],[42.4613328,43.293487],[42.4613079,43.2937163],[42.4612955,43.2940473],[42.4612976,43.2941311],[42.4613058,43.2942097],[42.461349,43.2943741],[42.4613552,43.294459],[42.4613855,43.2945532],[42.4613926,43.2947146],[42.4614024,43.2948914],[42.4614719,43.2950576],[42.4615191,43.295184],[42.461598,43.2953731],[42.4616821,43.2956128],[42.4617378,43.2959044],[42.4617554,43.295998],[42.4617658,43.296043],[42.4618089,43.2961382],[42.4619037,43.2962935],[42.4619484,43.2963762],[42.4619679,43.2964224],[42.461976,43.2964818],[42.4620278,43.2969533],[42.4620583,43.2972358],[42.462089,43.2973787],[42.4621197,43.2975015],[42.4621708,43.2976606],[42.4621765,43.2976879],[42.4621798,43.2977161],[42.4621796,43.2977511],[42.4621771,43.2977817],[42.4621429,43.2978705],[42.462102,43.2979713],[42.4620936,43.2980055],[42.4620945,43.2980347],[42.4621009,43.2980822],[42.4621097,43.2981298],[42.4621196,43.2981723],[42.4621318,43.2982097],[42.4621833,43.2983065],[42.4622672,43.2984165],[42.4625241,43.2986639],[42.462584,43.298733],[42.4626033,43.2987562],[42.4626143,43.2987677],[42.4626259,43.2987787],[42.462639,43.2987884],[42.4626551,43.2987995],[42.4626707,43.2988081],[42.4626872,43.2988139],[42.4627027,43.298818],[42.4627413,43.2988239],[42.462905,43.2988539],[42.4630579,43.2988848],[42.4631388,43.2989142],[42.463239,43.2988861],[42.4634418,43.2988291],[42.4637447,43.298744],[42.4638584,43.298707],[42.4639114,43.2986882],[42.4639664,43.2986712],[42.4640331,43.2986547],[42.4640516,43.2986505],[42.4640706,43.2986466],[42.4640846,43.2986473],[42.464096,43.2986502],[42.4641051,43.2986536],[42.4641101,43.2986571],[42.4641158,43.2986649],[42.4641195,43.2986742],[42.4641243,43.2987037],[42.4641284,43.2987352],[42.4641376,43.2987834],[42.4641531,43.2989096],[42.4642296,43.2991211],[42.4641594,43.2991624],[42.4641523,43.2992002],[42.4641401,43.299226],[42.464139,43.2992482],[42.4641329,43.2992675],[42.4641045,43.2992697],[42.4640511,43.2992718],[42.4640033,43.2992759],[42.4639696,43.2993188],[42.4639191,43.2993719],[42.4639415,43.2994415],[42.463964,43.2995335],[42.4639391,43.2997372],[42.4639391,43.2999644],[42.4639068,43.3002737],[42.4638719,43.300444],[42.4637863,43.3006952],[42.4636699,43.3010229],[42.4635146,43.3013732],[42.4633904,43.3016161],[42.4627469,43.3048066],[42.4625931,43.3054301],[42.4624686,43.3061533],[42.4622293,43.3074573],[42.4617842,43.3096413],[42.4613392,43.3117684],[42.4611817,43.3125221],[42.4611328,43.312894],[42.4610912,43.3131952],[42.4610799,43.3134458],[42.4610586,43.313674],[42.4610196,43.3138868],[42.4609103,43.314434],[42.4608203,43.3150707],[42.4607497,43.3154157],[42.46074,43.3158588],[42.4607913,43.3161012],[42.4608118,43.3163032],[42.4608458,43.3165559],[42.4608263,43.316893],[42.4608174,43.317236],[42.4608337,43.3179273],[42.4605064,43.3189828],[42.4601244,43.3202299],[42.4595713,43.321452],[42.4594009,43.3218823],[42.4593635,43.32211],[42.459219,43.3229726],[42.4591282,43.3241021],[42.4590673,43.3249658],[42.4591015,43.3260738],[42.459187,43.3271909],[42.4583154,43.3292989],[42.4577968,43.3309007],[42.457697,43.3313452],[42.4581319,43.3324588],[42.4581893,43.3329118],[42.4581978,43.3333577],[42.4575444,43.3353647],[42.4570228,43.3367872],[42.4564203,43.3382676],[42.4563789,43.3383491],[42.4563733,43.3383595],[42.4563674,43.3383691],[42.4563593,43.3383801],[42.456351,43.3383892],[42.4556745,43.3389899],[42.4554531,43.3391592],[42.4549567,43.3397723],[42.4543303,43.3402658],[42.4536956,43.3406895],[42.4526265,43.3415319],[42.4520335,43.3419868],[42.4514751,43.3423609],[42.451457,43.3423701],[42.4514381,43.3423787],[42.4514173,43.3423867],[42.4513954,43.3423933],[42.4504991,43.3425742],[42.4504719,43.3425818],[42.450459,43.3425865],[42.4504478,43.3425916],[42.4504285,43.3426011],[42.4504097,43.3426109],[42.4497825,43.3429742],[42.4493802,43.3434267],[42.4491763,43.343653],[42.4489188,43.3440744],[42.448377,43.3454905],[42.4477279,43.3468793],[42.447454,43.3472043],[42.4473711,43.3473645],[42.4473045,43.3475188],[42.4471283,43.3480476],[42.4470685,43.3482657],[42.4466235,43.348508],[42.4464148,43.3485835],[42.4461948,43.3486427],[42.4456847,43.3486829],[42.4452218,43.3487263],[42.4449828,43.3487839],[42.4447719,43.3488578],[42.4443808,43.3491257],[42.4439789,43.3494633],[42.4436776,43.3499109],[42.4434489,43.3502958],[42.4433496,43.3507403],[42.4433126,43.3513704],[42.4432913,43.351434],[42.4432436,43.3514881],[42.4430974,43.3517081],[42.4429196,43.351902],[42.4427537,43.352008],[42.4425188,43.352121],[42.4422642,43.3522308],[42.4420061,43.3523171],[42.4418017,43.3523785],[42.4414611,43.3524505],[42.4410837,43.3525215],[42.4405984,43.3525981],[42.4401835,43.3526628],[42.4399139,43.3526956],[42.4393879,43.3528022],[42.4392556,43.3528144],[42.4391367,43.3528188],[42.4390165,43.3528164],[42.4389043,43.3528091],[42.4388028,43.3527978],[42.4387073,43.352787],[42.4386519,43.3527732],[42.438566,43.3527487],[42.4384855,43.3527223],[42.4383714,43.3526666],[42.4382516,43.3525792],[42.4381599,43.3525225],[42.4380916,43.3524832],[42.4380126,43.3524468],[42.4379672,43.3524259],[42.4379426,43.3524153],[42.43792,43.3524066],[42.4379163,43.3524056],[42.4379098,43.3524052],[42.4379023,43.3524051],[42.4378873,43.3524059],[42.4378432,43.3524103],[42.4378251,43.3526279],[42.4377997,43.3527737],[42.437666,43.3530194],[42.4373532,43.353382],[42.4371095,43.353557],[42.4369403,43.3536233],[42.4368524,43.3536651],[42.4365599,43.3537899],[42.436098,43.353811]]}}]}
