{"type":"FeatureCollection","peaks_destination_id":"kh3mu5DVvZ677DcFCVPY","peaks_trailhead_id":"draft-trailhead","peaks_source":"https://www.openstreetmap.org/","peaks_retrieval_source":"https://overpass-api.de/api/interpreter","peaks_license_name":"Open Data Commons Open Database License (ODbL) 1.0","peaks_license":"https://opendatacommons.org/licenses/odbl/1-0/","peaks_attribution":"© OpenStreetMap contributors","peaks_retrieved_at":"2026-07-30T19:16:30.249Z","features":[{"type":"Feature","properties":{"name":"Etna OSM route candidate","trailhead_name":"Rifugio Sapienza Trailhead","destination_name":"Etna","distance_m":6908.586590367697,"trailhead_snap_m":8.434300323021994,"summit_snap_m":132.2960591408503,"osm_way_ids":[244952130,44178524,759078268,759078267,1189805123,1189805124,641219497,1189805125,478698569,1151430855,1421542802,478701594,478701593,1524544214,1294699686,1151430858,1151430857,1294699687,509572792,1151430863],"osm_way_urls":["https://www.openstreetmap.org/way/244952130","https://www.openstreetmap.org/way/44178524","https://www.openstreetmap.org/way/759078268","https://www.openstreetmap.org/way/759078267","https://www.openstreetmap.org/way/1189805123","https://www.openstreetmap.org/way/1189805124","https://www.openstreetmap.org/way/641219497","https://www.openstreetmap.org/way/1189805125","https://www.openstreetmap.org/way/478698569","https://www.openstreetmap.org/way/1151430855","https://www.openstreetmap.org/way/1421542802","https://www.openstreetmap.org/way/478701594","https://www.openstreetmap.org/way/478701593","https://www.openstreetmap.org/way/1524544214","https://www.openstreetmap.org/way/1294699686","https://www.openstreetmap.org/way/1151430858","https://www.openstreetmap.org/way/1151430857","https://www.openstreetmap.org/way/1294699687","https://www.openstreetmap.org/way/509572792","https://www.openstreetmap.org/way/1151430863"],"osm_way_names":["Crateri Centrali"],"osm_foot_access_override_way_ids":[]},"geometry":{"type":"LineString","coordinates":[[14.99873,37.70019],[14.9987378,37.7001144],[14.9986473,37.7001265],[14.9985344,37.7001417],[14.9986079,37.7004387],[14.9986232,37.7005004],[14.9986438,37.7005836],[14.998903,37.7005839],[14.9991053,37.7005914],[14.9991866,37.7005979],[14.9995203,37.7006615],[14.9996108,37.7007059],[14.9996594,37.7008073],[14.9996806,37.7008924],[14.9997151,37.70095],[14.9997842,37.7009961],[14.9997469,37.7011161],[14.9995994,37.701549],[14.9995258,37.7017752],[14.9993848,37.7021432],[14.9993837,37.7023259],[14.9994009,37.7025422],[14.9994057,37.7026006],[14.9994546,37.7028075],[14.999519,37.7030791],[14.9994358,37.7033316],[14.9992561,37.7035672],[14.9989505,37.7038438],[14.9988752,37.7041274],[14.9988833,37.704711],[14.998835,37.7049699],[14.9987733,37.7052012],[14.998728,37.705626],[14.9986621,37.705907],[14.9987429,37.7061543],[14.998764,37.7062784],[14.9987934,37.7064081],[14.9988377,37.7069604],[14.9987682,37.707791],[14.998666,37.7082124],[14.9985965,37.7083557],[14.9985614,37.7085116],[14.9985051,37.7089912],[14.9985071,37.7096898],[14.9984595,37.7102049],[14.9983334,37.7106845],[14.9982799,37.7110591],[14.998051,37.7114525],[14.9978914,37.711584],[14.9978211,37.7117093],[14.9977439,37.711914],[14.9975749,37.71221],[14.997369,37.7124821],[14.997273,37.7125771],[14.9971613,37.7127003],[14.9971559,37.7128573],[14.9971532,37.7131119],[14.9972686,37.7133771],[14.9973893,37.7136105],[14.9974805,37.7137548],[14.9975234,37.7139182],[14.9976709,37.7140731],[14.998033,37.7143702],[14.9982395,37.7147542],[14.9984139,37.7149536],[14.9985165,37.7150306],[14.998428,37.7150921],[14.9984548,37.7151282],[14.998436,37.7151727],[14.9984628,37.7152024],[14.9984427,37.7152746],[14.9985027,37.7153272],[14.9984427,37.7153998],[14.9984736,37.7154464],[14.9984789,37.7155515],[14.9984856,37.715666],[14.9984105,37.7159122],[14.9984508,37.7160851],[14.9985192,37.7166261],[14.9984923,37.7168468],[14.9984709,37.7171863],[14.9987123,37.7176573],[14.9990364,37.7182675],[14.9991897,37.7182448],[14.9991964,37.7184214],[14.9993488,37.7185896],[14.9994662,37.7186513],[14.9995458,37.7187919],[14.9996088,37.7188863],[14.9998757,37.7189372],[15.0002405,37.7189828],[15.0002821,37.7190698],[15.0003867,37.7194316],[15.0005838,37.7195546],[15.0006589,37.7195514],[15.0007394,37.7195599],[15.0012571,37.7200097],[15.0013134,37.7202664],[15.0013348,37.7203704],[15.0015575,37.7205932],[15.0014287,37.720712],[15.0012597,37.7209369],[15.0012544,37.7212275],[15.0010076,37.7213379],[15.0008896,37.7213506],[15.0008118,37.7214567],[15.0005758,37.7218152],[15.0003129,37.7222438],[15.0003505,37.7224326],[15.0003639,37.7227105],[15.0003344,37.7228548],[15.0003478,37.7230521],[15.0005516,37.7233619],[15.0006053,37.7237607],[15.0009379,37.724098],[15.0008842,37.7243208],[15.0008789,37.7245011],[15.0009674,37.7245775],[15.0009191,37.7247812],[15.000962,37.7255428],[15.0010183,37.7256467],[15.0010157,37.7258059],[15.0011095,37.7259141],[15.0010908,37.7260647],[15.0011471,37.7263405],[15.0011176,37.7265463],[15.0010747,37.7266099],[15.0011042,37.726699],[15.0009406,37.7268942],[15.0009996,37.7270766],[15.0009835,37.7271784],[15.0008923,37.727276],[15.0009137,37.7275136],[15.0008386,37.7276537],[15.0007287,37.7276282],[15.0006294,37.727694],[15.0005677,37.7277131],[15.0005758,37.7277725],[15.0004685,37.7277958],[15.0001654,37.727974],[15.0001171,37.7280419],[15.0001144,37.7281225],[15.000231,37.7281506],[15.0004292,37.7283858],[15.0004611,37.7286489],[15.0004363,37.7287413],[15.000546,37.7288644],[15.0005354,37.7289512],[15.0006663,37.729024],[15.0005708,37.7291611],[15.0007336,37.7293123],[15.0004514,37.7294851],[15.0002293,37.7296367],[15.0000552,37.7297506],[14.9999965,37.72975],[14.9998877,37.7296454],[14.9997957,37.7296482],[14.9997285,37.7297238],[14.9998061,37.7298502],[14.9998181,37.7299431],[14.9998677,37.7300508],[15.0003719,37.7306194],[15.0004685,37.7309291],[15.0003692,37.7311879],[15.0004014,37.73154],[15.0004024,37.7317343],[15.0002888,37.7317946],[15.0000995,37.7319848],[15.0000491,37.732107],[15.0000234,37.7322917],[14.9998796,37.7323989],[14.999801,37.7326475],[14.9998043,37.7329291],[14.9999002,37.7331515],[14.9999659,37.7334092],[15.0001118,37.7339085],[15.0001264,37.733973],[15.0000726,37.7339993],[14.9999572,37.7341168],[14.9994734,37.7344303],[14.9991676,37.7347983],[14.9991623,37.7352109],[14.9992642,37.7354538],[14.9994278,37.7356691],[14.9997255,37.7359183],[14.9998298,37.7359528],[14.9998033,37.7360095],[14.9998328,37.7362025],[14.9997336,37.736263],[14.9996169,37.7362747],[14.9994788,37.7364199],[14.9992883,37.7364889],[14.9992669,37.7365653],[14.9990979,37.736596],[14.9988605,37.7367731],[14.9987572,37.7368166],[14.9987385,37.7369418],[14.9985883,37.7370998],[14.9985042,37.7370653],[14.9984434,37.7370404],[14.9984099,37.7372037],[14.9980947,37.7373946],[14.9978667,37.7375155],[14.9975368,37.7375113],[14.9973786,37.7374201],[14.9972284,37.7374752],[14.997156,37.7375813],[14.9972552,37.737734],[14.9972391,37.7378549],[14.9972498,37.7380225],[14.9973518,37.7383704],[14.9972498,37.7385634],[14.9970889,37.7387034],[14.9970678,37.7387557],[14.9970648,37.7389516],[14.9970299,37.7390725],[14.9971184,37.7392421],[14.9971785,37.7395718],[14.9968106,37.7402472],[14.9962939,37.7406069],[14.99571,37.7407253],[14.9948143,37.7414878],[14.9938805,37.7429027],[14.9936058,37.7436009],[14.9925565,37.7451066],[14.9922369,37.7453609],[14.9919477,37.7455071],[14.9924712,37.7460051],[14.9927694,37.7468272],[14.9927233,37.7477814],[14.9928241,37.7480404],[14.9929435,37.7481413],[14.9930014,37.7482009],[14.9930383,37.7483506],[14.9929829,37.7484609],[14.9931681,37.7486458],[14.9931809,37.7487199],[14.9935779,37.7486423],[14.9938703,37.7486677],[14.9945194,37.7488798],[14.9950961,37.749094],[14.9953294,37.7492128],[14.9955574,37.7493422],[14.9957317,37.7495097],[14.9960241,37.7497896],[14.9960858,37.7500929],[14.994611,37.750329]]}}]}
