{"type":"FeatureCollection","peaks_destination_id":"rDewl9rzLJCn3OFqqefi","peaks_trailhead_id":"draft-trailhead","peaks_source":"https://www.openstreetmap.org/","peaks_retrieval_source":"https://overpass-api.de/api/interpreter","peaks_license_name":"Open Data Commons Open Database License (ODbL) 1.0","peaks_license":"https://opendatacommons.org/licenses/odbl/1-0/","peaks_attribution":"© OpenStreetMap contributors","peaks_retrieved_at":"2026-07-30T19:36:20.314Z","features":[{"type":"Feature","properties":{"name":"Gunung Agung OSM route candidate","trailhead_name":"Pura Besakih Trailhead","destination_name":"Gunung Agung","distance_m":7838.08095095614,"trailhead_snap_m":3.790687955861299,"summit_snap_m":93.08891081907721,"osm_way_ids":[807104418,530136435,28653334,1444591911,1444591909,1491744415,1491744414,1444591910,28653333],"osm_way_urls":["https://www.openstreetmap.org/way/807104418","https://www.openstreetmap.org/way/530136435","https://www.openstreetmap.org/way/28653334","https://www.openstreetmap.org/way/1444591911","https://www.openstreetmap.org/way/1444591909","https://www.openstreetmap.org/way/1491744415","https://www.openstreetmap.org/way/1491744414","https://www.openstreetmap.org/way/1444591910","https://www.openstreetmap.org/way/28653333"],"osm_way_names":["Trail Besakih - Gunung Agung","Trail Pasar Agung - Gunung Agung"],"osm_foot_access_override_way_ids":[]},"geometry":{"type":"LineString","coordinates":[[115.45322,-8.37267],[115.4532269,-8.3727034],[115.4533181,-8.3729465],[115.4533922,-8.373088],[115.4535167,-8.3732132],[115.4536182,-8.3731299],[115.4537244,-8.373026],[115.4538961,-8.3728623],[115.4539925,-8.3727579],[115.4541349,-8.3726176],[115.4542368,-8.3725133],[115.4544752,-8.3722949],[115.4544901,-8.3722482],[115.454675,-8.3720238],[115.4548728,-8.3718067],[115.454955,-8.3717219],[115.4550265,-8.371655],[115.4551645,-8.371541],[115.4552275,-8.371466],[115.4552185,-8.371423],[115.4553265,-8.371376],[115.4554495,-8.371356],[115.4554995,-8.37129],[115.4558038,-8.3710363],[115.4566535,-8.370286],[115.4567515,-8.370167],[115.4569645,-8.370104],[115.4573195,-8.370126],[115.4573755,-8.370046],[115.4574265,-8.369804],[115.4574875,-8.369655],[115.4575765,-8.36934],[115.4576935,-8.36922],[115.4578055,-8.369004],[115.4580565,-8.368657],[115.4581695,-8.368476],[115.4582655,-8.368421],[115.4583085,-8.368375],[115.4587265,-8.368155],[115.4588605,-8.367953],[115.4589655,-8.367946],[115.4590445,-8.367758],[115.4591195,-8.367607],[115.4591795,-8.367522],[115.4592235,-8.367397],[115.4593035,-8.367264],[115.4594535,-8.367104],[115.4596155,-8.366974],[115.4598195,-8.366662],[115.4600525,-8.366547],[115.4602205,-8.366437],[115.4603165,-8.366335],[115.4604835,-8.366229],[115.4605895,-8.366041],[115.4609435,-8.365714],[115.4612245,-8.365512],[115.4614435,-8.365337],[115.4615525,-8.365028],[115.4615945,-8.364709],[115.4616025,-8.364447],[115.4616806,-8.3642622],[115.4617234,-8.3640365],[115.4619592,-8.3633509],[115.461686,-8.36309],[115.4618601,-8.3629523],[115.4619017,-8.3629032],[115.4620233,-8.3628157],[115.462056,-8.3627771],[115.4621834,-8.3626975],[115.4622021,-8.3626471],[115.4622826,-8.3625091],[115.4622772,-8.3622995],[115.4622692,-8.3621933],[115.4622719,-8.3620819],[115.4622799,-8.3620288],[115.4624006,-8.3616122],[115.462465,-8.3614423],[115.4625092,-8.361226],[115.4625095,-8.36116],[115.4625119,-8.3611318],[115.4625052,-8.3611053],[115.4624395,-8.3610456],[115.4623483,-8.3609341],[115.4622839,-8.3608784],[115.4622692,-8.3608545],[115.4622786,-8.3607484],[115.4622933,-8.3606648],[115.4623403,-8.3605626],[115.4625455,-8.3603782],[115.4626554,-8.360219],[115.4626769,-8.3601712],[115.4627587,-8.3600531],[115.4628137,-8.3599443],[115.4628888,-8.3595807],[115.4630202,-8.3594255],[115.4630578,-8.3593884],[115.4631409,-8.359322],[115.463452,-8.3591018],[115.4637176,-8.3588125],[115.4639348,-8.3586042],[115.4642138,-8.3583906],[115.4643238,-8.3583375],[115.4646496,-8.3582021],[115.4647489,-8.3581225],[115.4648401,-8.3580668],[115.4648589,-8.3580469],[115.4648843,-8.3579978],[115.4648924,-8.3579434],[115.4649273,-8.3578983],[115.4649501,-8.3578797],[115.4650426,-8.3578611],[115.4650708,-8.3578691],[115.4652357,-8.3578611],[115.4652572,-8.3578465],[115.4652612,-8.3578187],[115.4652344,-8.3577669],[115.4652263,-8.3577099],[115.4652625,-8.3576528],[115.4654503,-8.3575095],[115.4656635,-8.3573158],[115.4657292,-8.3572375],[115.46574,-8.3572123],[115.4657386,-8.3571844],[115.4657198,-8.3571632],[115.4656085,-8.3571499],[115.4655804,-8.3571407],[115.4655589,-8.3571234],[115.4656514,-8.3569496],[115.4657346,-8.3568647],[115.4658875,-8.3566709],[115.4660913,-8.356318],[115.4661557,-8.3562304],[115.4663408,-8.3558934],[115.4663756,-8.3557899],[115.4664266,-8.3556917],[115.4665393,-8.3555484],[115.4666452,-8.355494],[115.4667994,-8.3554277],[115.4670167,-8.3552499],[115.4670958,-8.3551557],[115.4673225,-8.3549566],[115.4674673,-8.3548823],[115.4675183,-8.3548505],[115.4678924,-8.3546674],[115.4681446,-8.3545135],[115.4684973,-8.3542786],[115.4685992,-8.3541724],[115.4686582,-8.3540517],[115.4687038,-8.3539774],[115.4687253,-8.3539601],[115.4687521,-8.3539535],[115.4687709,-8.3539734],[115.468795,-8.3540212],[115.4688299,-8.354065],[115.4688527,-8.3540822],[115.4688795,-8.3540862],[115.4689546,-8.354057],[115.4692912,-8.3538659],[115.4694663,-8.3536777],[115.4701248,-8.3534467],[115.4702975,-8.3534236],[115.4705653,-8.3534002],[115.47058,-8.3533776],[115.4706028,-8.3533657],[115.4706404,-8.3533637],[115.4707785,-8.3534918],[115.470808,-8.3535037],[115.4708335,-8.353509],[115.4710011,-8.3534957],[115.471091,-8.3534851],[115.4712559,-8.3534453],[115.4714316,-8.3533856],[115.4718004,-8.353241],[115.4718286,-8.353229],[115.4719506,-8.35316],[115.4721813,-8.3530114],[115.4721895,-8.353011],[115.4722108,-8.3529902],[115.4723087,-8.3529239],[115.472418,-8.3528376],[115.4724669,-8.3528316],[115.4724783,-8.3528376],[115.4725146,-8.3528787],[115.4726091,-8.3528522],[115.4726681,-8.3528416],[115.4730839,-8.3526956],[115.4731402,-8.352685],[115.4732957,-8.3526107],[115.4734594,-8.3524701],[115.4735023,-8.3524409],[115.4738429,-8.3522976],[115.4739475,-8.3522684],[115.4739985,-8.3522631],[115.474205,-8.3521888],[115.4743592,-8.3520402],[115.4745403,-8.3519287],[115.4746811,-8.3518584],[115.4747616,-8.3518265],[115.4748756,-8.3517721],[115.4749024,-8.3517549],[115.4749976,-8.3517323],[115.4750553,-8.3517416],[115.4751666,-8.3517854],[115.4752189,-8.3517973],[115.4752457,-8.3517987],[115.475302,-8.351788],[115.4753771,-8.3517443],[115.4754375,-8.3516806],[115.4754657,-8.3516315],[115.4754992,-8.3515558],[115.4755475,-8.3514882],[115.4759002,-8.3513051],[115.4759538,-8.3512838],[115.4760584,-8.3512308],[115.4761121,-8.3512122],[115.4761711,-8.3512016],[115.4763374,-8.3511909],[115.4764527,-8.3511618],[115.4765063,-8.3511405],[115.4766002,-8.3510875],[115.4766592,-8.3510609],[115.4767075,-8.3510317],[115.4769194,-8.3508513],[115.477193,-8.3505859],[115.4777348,-8.3502436],[115.477834,-8.3501931],[115.4778877,-8.3502037],[115.4779977,-8.3502064],[115.4781546,-8.3502343],[115.4781814,-8.3502316],[115.478231,-8.3502011],[115.4782511,-8.3501799],[115.4782981,-8.3501493],[115.4783718,-8.3501334],[115.4783946,-8.3501507],[115.4784107,-8.3501732],[115.4784563,-8.3502568],[115.478459,-8.3504187],[115.4785046,-8.3504452],[115.4785582,-8.3504187],[115.4786494,-8.3503417],[115.4787004,-8.3503126],[115.4787379,-8.3502754],[115.4787889,-8.3501799],[115.4790223,-8.3499145],[115.4791108,-8.3498959],[115.4791376,-8.3499079],[115.4791644,-8.3499105],[115.4792301,-8.3498574],[115.4792596,-8.3498415],[115.4792878,-8.3498389],[115.4792999,-8.3498136],[115.4793039,-8.3497858],[115.4793508,-8.3497221],[115.4793723,-8.3497048],[115.4794742,-8.3496571],[115.4795212,-8.3496252],[115.4795413,-8.3495655],[115.4797116,-8.3492298],[115.4799932,-8.348857],[115.4801796,-8.3486274],[115.480193,-8.3486048],[115.4801998,-8.3485783],[115.4801957,-8.3485504],[115.4801622,-8.3485013],[115.4801179,-8.3484549],[115.4801045,-8.3484297],[115.4801407,-8.3483036],[115.4802078,-8.3482001],[115.4802293,-8.3481444],[115.4802507,-8.348033],[115.4802132,-8.3479905],[115.4801515,-8.3479746],[115.480063,-8.347895],[115.4800361,-8.3478445],[115.4800227,-8.3477888],[115.4800013,-8.3477384],[115.4799892,-8.3476919],[115.4799275,-8.3476322],[115.4799221,-8.3476057],[115.4799275,-8.3475778],[115.4799637,-8.3475248],[115.4801998,-8.3475155],[115.4802883,-8.3474929],[115.4805779,-8.3473058],[115.4806262,-8.3472819],[115.4807335,-8.3472395],[115.4807872,-8.3472235],[115.4808435,-8.3472182],[115.4809588,-8.3471917],[115.4811037,-8.3471254],[115.4811546,-8.3471015],[115.4811895,-8.3470564],[115.4812646,-8.3469767],[115.4814014,-8.3469038],[115.4814711,-8.3468494],[115.4815797,-8.3468003],[115.4817112,-8.346728],[115.4818802,-8.3466198],[115.4819781,-8.3465919],[115.4819995,-8.346576],[115.4820293,-8.346533],[115.482029,-8.3465044],[115.4820424,-8.3464486],[115.48219,-8.3462629],[115.4822141,-8.3461859],[115.4822651,-8.346174],[115.4822879,-8.346162],[115.4823066,-8.3461408],[115.4823603,-8.3460174],[115.4824448,-8.3459457],[115.4824944,-8.3459166],[115.482654,-8.3458476],[115.4828095,-8.3457387],[115.4829437,-8.3456207],[115.4830791,-8.345476],[115.4830858,-8.3453938],[115.4831167,-8.3453168],[115.4831435,-8.3453115],[115.483169,-8.3453208],[115.4832132,-8.3453486],[115.48324,-8.3453526],[115.4832595,-8.345341],[115.4832803,-8.3453221],[115.4832897,-8.3452956],[115.4832964,-8.3452412],[115.4833165,-8.3451907],[115.4833326,-8.3451668],[115.483403,-8.3451244],[115.4834379,-8.3451098],[115.4835265,-8.345094],[115.4835753,-8.3450852],[115.4837751,-8.3450103],[115.4838194,-8.3449744],[115.483916,-8.3449147],[115.4840152,-8.3448325],[115.4840487,-8.344786],[115.4840782,-8.3447051],[115.484101,-8.3446892],[115.4841265,-8.3447024],[115.4841399,-8.3447568],[115.4841788,-8.3448272],[115.4842029,-8.3448365],[115.4842298,-8.3448272],[115.4842995,-8.3447874],[115.4843827,-8.3446839],[115.4844457,-8.3446268],[115.4844698,-8.3446149],[115.4844967,-8.3446095],[115.4845275,-8.3446095],[115.484612,-8.3445963],[115.4848051,-8.3444742],[115.4850371,-8.3443057],[115.4850747,-8.3442619],[115.4851189,-8.3441823],[115.4851551,-8.3441372],[115.485241,-8.3440907],[115.485536,-8.3439554],[115.4857224,-8.3438943],[115.4859504,-8.343751],[115.4860255,-8.343709],[115.4860644,-8.3436701],[115.4860979,-8.3436223],[115.4861075,-8.343618],[115.486118,-8.3435653],[115.4861663,-8.3435135],[115.486228,-8.3434969],[115.4863608,-8.3434359],[115.4864413,-8.3433735],[115.4864547,-8.3433497],[115.4864607,-8.3433238],[115.4864473,-8.3432408],[115.4869013,-8.3428952],[115.4869415,-8.3428554],[115.4869683,-8.342805],[115.486975,-8.3426935],[115.486971,-8.3426643],[115.4869401,-8.3425847],[115.4869348,-8.3425581],[115.4869616,-8.3425091],[115.4869844,-8.3424931],[115.487022,-8.3424812],[115.4871735,-8.3424852],[115.4872701,-8.3425316],[115.4872955,-8.3425382],[115.4874001,-8.3425396],[115.4874296,-8.3425369],[115.4874846,-8.342517],[115.4875517,-8.3424706],[115.4875785,-8.3424653],[115.4877408,-8.3424746],[115.4878414,-8.3424308],[115.4878923,-8.3423843],[115.4879433,-8.3423644],[115.4880171,-8.3423525],[115.4880948,-8.342318],[115.4881619,-8.3422636],[115.488186,-8.342249],[115.4882129,-8.3422384],[115.4882678,-8.3422277],[115.4884583,-8.3422437],[115.4884864,-8.3422476],[115.4885454,-8.3422569],[115.4888767,-8.3423206],[115.4889022,-8.3423326],[115.488984,-8.3423498],[115.4890165,-8.342359],[115.4890671,-8.3423764],[115.4892495,-8.3424215],[115.4892605,-8.342435],[115.4895043,-8.342513],[115.4897296,-8.3425183],[115.4900059,-8.3425144],[115.4900596,-8.3425223],[115.4901661,-8.3425075],[115.490309,-8.3425011],[115.490364,-8.3425528],[115.4904364,-8.3425701],[115.4904874,-8.3425489],[115.4905222,-8.3425077],[115.4906845,-8.3424706],[115.4907784,-8.3424347],[115.4908401,-8.3424162],[115.4909138,-8.3423737],[115.4911378,-8.3423153],[115.4912384,-8.34231],[115.491292,-8.3423379],[115.4912974,-8.3424056],[115.4912464,-8.3424772],[115.4912135,-8.3425168],[115.4914005,-8.3426],[115.4915285,-8.342622],[115.4917045,-8.342558],[115.4917715,-8.342579],[115.4918835,-8.342572],[115.4919775,-8.34254],[115.4921375,-8.342605],[115.4921935,-8.342588],[115.4922945,-8.342591],[115.4924485,-8.342556],[115.4925205,-8.342451],[115.4926505,-8.342391],[115.4928405,-8.342365],[115.4929335,-8.342331],[115.4929905,-8.342278],[115.4930625,-8.342275],[115.4931185,-8.342297],[115.4932525,-8.34224],[115.4934035,-8.342222],[115.4935555,-8.3421667],[115.4936232,-8.3421574],[115.4936535,-8.342151],[115.4937765,-8.342143],[115.4938535,-8.342174],[115.4939635,-8.342188],[115.4945525,-8.342171],[115.4948095,-8.342083],[115.4950225,-8.341988],[115.4951455,-8.341967],[115.4951975,-8.341906],[115.4952705,-8.341851],[115.4953055,-8.341876],[115.4953015,-8.341865],[115.4953625,-8.341856],[115.4954925,-8.341868],[115.4955825,-8.341855],[115.4957835,-8.341768],[115.4958875,-8.341752],[115.4959575,-8.34172],[115.4961085,-8.34162],[115.4962425,-8.341501],[115.4967735,-8.34131],[115.4969985,-8.34121],[115.4970795,-8.341193],[115.4971905,-8.341122],[115.4975315,-8.340982],[115.4975565,-8.340982],[115.4977905,-8.340867],[115.4979545,-8.340756],[115.4980355,-8.34062],[115.4980535,-8.340571],[115.4981935,-8.340463],[115.4983925,-8.340339],[115.4985795,-8.340343],[115.4987175,-8.340368],[115.4988275,-8.340335],[115.4990835,-8.340306],[115.4992965,-8.34033],[115.4995905,-8.340406],[115.4997555,-8.340424],[115.5002095,-8.340455],[115.5004695,-8.340417],[115.5006025,-8.340451],[115.5010255,-8.340505],[115.5011822,-8.3405345],[115.5013085,-8.340662],[115.5013445,-8.340635],[115.5014355,-8.340671],[115.5014945,-8.340785],[115.5017045,-8.340809],[115.5019425,-8.3409],[115.5020875,-8.340979],[115.5024406,-8.3411288],[115.5024883,-8.3411521],[115.5025797,-8.3411943],[115.5028,-8.3412817],[115.5030656,-8.3413772],[115.5032201,-8.3414227],[115.503622,-8.340686]]}}]}
