{"type":"FeatureCollection","peaks_destination_id":"BEE624473BF27DDDA790","peaks_trailhead_id":"draft-trailhead","peaks_source":"https://www.openstreetmap.org/","peaks_retrieval_source":"https://overpass-api.de/api/interpreter","peaks_license_name":"Open Data Commons Open Database License (ODbL) 1.0","peaks_license":"https://opendatacommons.org/licenses/odbl/1-0/","peaks_attribution":"© OpenStreetMap contributors","peaks_retrieved_at":"2026-07-31T14:32:56.754Z","features":[{"type":"Feature","properties":{"name":"Gunung Buthak OSM route candidate","trailhead_name":"Butak Kraton Trailhead","destination_name":"Gunung Buthak","distance_m":11459.647816965402,"trailhead_snap_m":1.1452823015332225,"summit_snap_m":6.809243134092659,"osm_way_ids":[782978657,1530552179,818496993,1530552183,1530552187,1530552190,1530552193,1530552194,819114229,1530552196,1530552197,1220445532,1220445533,1220445536,1302430299,1220445535],"osm_way_urls":["https://www.openstreetmap.org/way/782978657","https://www.openstreetmap.org/way/1530552179","https://www.openstreetmap.org/way/818496993","https://www.openstreetmap.org/way/1530552183","https://www.openstreetmap.org/way/1530552187","https://www.openstreetmap.org/way/1530552190","https://www.openstreetmap.org/way/1530552193","https://www.openstreetmap.org/way/1530552194","https://www.openstreetmap.org/way/819114229","https://www.openstreetmap.org/way/1530552196","https://www.openstreetmap.org/way/1530552197","https://www.openstreetmap.org/way/1220445532","https://www.openstreetmap.org/way/1220445533","https://www.openstreetmap.org/way/1220445536","https://www.openstreetmap.org/way/1302430299","https://www.openstreetmap.org/way/1220445535"],"osm_way_names":["Jalur pendakian Gunung Butak","Tanjakan PHP2","Jalur pendakian Gunung Butak via Panderman","Jalur pendakian Gunung Butak via Kraton Kawi"],"osm_foot_access_override_way_ids":[]},"geometry":{"type":"LineString","coordinates":[[112.496643,-7.889497],[112.4966338,-7.8895018],[112.4959885,-7.8898383],[112.495797,-7.889895],[112.4956693,-7.8899765],[112.4956126,-7.8900173],[112.4955674,-7.8900774],[112.495546,-7.8901239],[112.4955311,-7.8902366],[112.4954444,-7.8904035],[112.4953583,-7.8904611],[112.4953078,-7.890589],[112.4952728,-7.8906788],[112.4951911,-7.8907314],[112.4950604,-7.8907375],[112.4948811,-7.8908394],[112.4945605,-7.8911411],[112.4942976,-7.8913005],[112.4940628,-7.8915341],[112.4939983,-7.8915492],[112.4939399,-7.8915176],[112.4939202,-7.8914633],[112.4941206,-7.890902],[112.4941152,-7.8906894],[112.4940455,-7.8904928],[112.4939597,-7.8902883],[112.4938189,-7.8902593],[112.493593,-7.8902337],[112.4935419,-7.8902726],[112.4935949,-7.8908342],[112.493565,-7.8909295],[112.4934782,-7.8909604],[112.4933772,-7.8909295],[112.4930638,-7.89053],[112.4929847,-7.8904636],[112.4929002,-7.8904716],[112.4928439,-7.8905778],[112.4926776,-7.8910334],[112.4925166,-7.8911623],[112.4923047,-7.8911995],[112.4921251,-7.8912447],[112.4918276,-7.8915603],[112.4914796,-7.8917933],[112.4911882,-7.8921052],[112.4911364,-7.8924688],[112.4910624,-7.8927876],[112.4910039,-7.8932028],[112.4909029,-7.893758],[112.4907924,-7.8944108],[112.4905608,-7.8945306],[112.4903952,-7.8947561],[112.4902945,-7.8948489],[112.4901859,-7.8948149],[112.4900341,-7.8946086],[112.4899771,-7.8945662],[112.4899333,-7.8945138],[112.4898636,-7.8945085],[112.4897778,-7.894551],[112.4895069,-7.8947343],[112.4893138,-7.895008],[112.4891072,-7.8951833],[112.4888819,-7.8955526],[112.4886459,-7.8959751],[112.4886164,-7.8961079],[112.4886217,-7.8963072],[112.4886378,-7.8963842],[112.4887398,-7.8964984],[112.4889517,-7.8965835],[112.4892355,-7.8966874],[112.489372,-7.8969341],[112.4894643,-7.8970498],[112.4897214,-7.8974222],[112.4896637,-7.8975969],[112.4895027,-7.8976327],[112.4894012,-7.8976495],[112.4890883,-7.8974693],[112.4889786,-7.8974518],[112.4889078,-7.8974623],[112.4888512,-7.8975044],[112.4887839,-7.8975815],[112.4886565,-7.8976376],[112.4883238,-7.8979075],[112.4882283,-7.8980407],[112.488115,-7.8981073],[112.4880407,-7.8981845],[112.4879911,-7.8983352],[112.4878602,-7.8984579],[112.4877363,-7.8985596],[112.48757,-7.8987734],[112.4875095,-7.8989104],[112.4874564,-7.899303],[112.4873042,-7.9005019],[112.4872724,-7.9006912],[112.4874635,-7.9012101],[112.4876263,-7.9013012],[112.4877502,-7.9014204],[112.487782,-7.9015186],[112.4877926,-7.9017149],[112.4878316,-7.901806],[112.4878953,-7.9019322],[112.4880369,-7.9020689],[112.4880829,-7.9021951],[112.4880722,-7.9023283],[112.4879767,-7.902423],[112.4879767,-7.9025352],[112.4878387,-7.9027245],[112.4878174,-7.9028261],[112.4878387,-7.9029068],[112.4879661,-7.9031522],[112.4879979,-7.903345],[112.4879378,-7.9037377],[112.487999,-7.9038989],[112.4880355,-7.9041048],[112.4881493,-7.9042451],[112.4882669,-7.9044667],[112.4884368,-7.904947],[112.4885748,-7.9052261],[112.4886687,-7.9053278],[112.4886395,-7.9055687],[112.488527,-7.9058],[112.4884036,-7.9059443],[112.488207,-7.9060524],[112.4880242,-7.9061509],[112.4878105,-7.9061609],[112.4877198,-7.9061851],[112.4873738,-7.9063661],[112.487224,-7.9064052],[112.4869703,-7.9065594],[112.4867229,-7.9066336],[112.4866376,-7.9067161],[112.486625,-7.906814],[112.4865839,-7.9068506],[112.4865326,-7.9068414],[112.4864834,-7.906759],[112.4864147,-7.9067321],[112.4862397,-7.9067723],[112.4861209,-7.9068624],[112.4859475,-7.9069392],[112.4858235,-7.9070626],[112.4857405,-7.9072187],[112.4854705,-7.9074439],[112.4851822,-7.9075827],[112.4849478,-7.9079023],[112.4848247,-7.9079647],[112.484551,-7.908027],[112.4844577,-7.9080271],[112.4844343,-7.907988],[112.4845135,-7.907809],[112.4844798,-7.9077114],[112.4845021,-7.9076332],[112.4847031,-7.9073173],[112.4847208,-7.9072155],[112.484685,-7.9071485],[112.484358,-7.9069433],[112.4842829,-7.906859],[112.4842397,-7.9066301],[112.4843164,-7.9064396],[112.484291,-7.906205],[112.4842437,-7.9061584],[112.4841791,-7.9061447],[112.4839432,-7.9063551],[112.4835554,-7.906537],[112.4834588,-7.9066699],[112.4833354,-7.9068],[112.4832024,-7.907034],[112.483145,-7.9071613],[112.4829519,-7.9074164],[112.4828339,-7.9076395],[112.4826152,-7.9079058],[112.4823304,-7.9082021],[112.4820614,-7.9084738],[112.4816751,-7.9087235],[112.481443,-7.9088468],[112.4812876,-7.9089759],[112.4811382,-7.9089448],[112.4810423,-7.908893],[112.480945,-7.9088603],[112.4809176,-7.9088158],[112.4809021,-7.9086761],[112.4808582,-7.9086291],[112.4807295,-7.9086989],[112.4806344,-7.9087022],[112.4805216,-7.9087314],[112.480493,-7.9087213],[112.4804674,-7.9087287],[112.480391,-7.9088121],[112.4803354,-7.9088729],[112.480102,-7.9091047],[112.4799585,-7.909304],[112.479799,-7.9096759],[112.4797999,-7.9100539],[112.4799419,-7.9105345],[112.4800418,-7.9107799],[112.4800927,-7.9108968],[112.4801142,-7.9109871],[112.4801035,-7.9110615],[112.4800579,-7.9111625],[112.479985,-7.9112452],[112.479885,-7.9113351],[112.4800094,-7.9116325],[112.480098,-7.9119275],[112.480106,-7.9122197],[112.4801302,-7.912496],[112.4801336,-7.9126416],[112.4801783,-7.9127357],[112.4802549,-7.9128077],[112.4803824,-7.91282],[112.4805137,-7.9129187],[112.4806151,-7.9130756],[112.4806983,-7.9133766],[112.4809134,-7.9138721],[112.4811629,-7.9144087],[112.4812668,-7.9147519],[112.4812821,-7.9149888],[112.4811671,-7.9151682],[112.4811764,-7.9152823],[112.4810949,-7.9155153],[112.4810928,-7.9155934],[112.4812723,-7.9158104],[112.4813925,-7.9160271],[112.4816236,-7.9162651],[112.4817553,-7.9164031],[112.4817636,-7.9166916],[112.4818268,-7.9173217],[112.4817637,-7.9176499],[112.481702,-7.9181254],[112.4815867,-7.9183751],[112.4815384,-7.9186474],[112.4814472,-7.9189198],[112.4813104,-7.9192996],[112.4811253,-7.9195919],[112.4810709,-7.9197718],[112.4809871,-7.919945],[112.4809268,-7.9202481],[112.4808758,-7.9209149],[112.480735,-7.9212642],[112.4806398,-7.9216907],[112.4805647,-7.9219244],[112.4805375,-7.9223231],[112.4805566,-7.9225168],[112.4805352,-7.9227028],[112.4806396,-7.9229419],[112.4805984,-7.9230759],[112.4806164,-7.9231603],[112.4806622,-7.9231957],[112.4807268,-7.9231832],[112.480814,-7.9231494],[112.4809107,-7.9231464],[112.4810072,-7.923181],[112.4811924,-7.9233935],[112.4813776,-7.9238117],[112.4814408,-7.9240473],[112.4814632,-7.9245172],[112.4814632,-7.9250565],[112.4815173,-7.9254292],[112.4814083,-7.925837],[112.4813876,-7.9262143],[112.4811843,-7.9267063],[112.4810834,-7.9269065],[112.4809254,-7.9270394],[112.4807344,-7.9275401],[112.4806934,-7.9278725],[112.4804923,-7.9282365],[112.480436,-7.9284782],[112.4802724,-7.9288262],[112.4802268,-7.9290546],[112.4800492,-7.9293027],[112.4797311,-7.9299198],[112.479442,-7.9302784],[112.4793529,-7.9304995],[112.4791081,-7.9308404],[112.4790591,-7.9309555],[112.4790652,-7.9310979],[112.4788262,-7.9317259],[112.4787511,-7.9319836],[112.4787422,-7.9321763],[112.4786017,-7.9325061],[112.4784848,-7.9330123],[112.4783009,-7.9332281],[112.477986,-7.933608],[112.4777698,-7.9340729],[112.4775404,-7.9345383],[112.4774482,-7.9347502],[112.4774102,-7.9348679],[112.4772256,-7.9350706],[112.4771385,-7.9352382],[112.4769599,-7.9354084],[112.4760854,-7.9358475],[112.4750715,-7.9360919],[112.4746907,-7.9361397],[112.4742454,-7.936416],[112.4738713,-7.936653],[112.4736858,-7.9367486],[112.4735991,-7.9368386],[112.4735662,-7.9369224],[112.4735915,-7.9369868],[112.4736359,-7.9370368],[112.4736164,-7.9372141],[112.4736493,-7.9373849],[112.4735383,-7.9376964],[112.473528,-7.9379589],[112.4735672,-7.938053],[112.4735033,-7.9381913],[112.4734989,-7.9383633],[112.4735762,-7.9383976],[112.4735823,-7.9384637],[112.4734936,-7.9385225],[112.4733281,-7.93886],[112.4729583,-7.939314],[112.4727614,-7.9394637],[112.4725945,-7.9397055],[112.4725448,-7.9398953],[112.4722662,-7.9400942],[112.4721522,-7.9402934],[112.4720542,-7.9403356],[112.4718834,-7.9406864],[112.4719065,-7.9410542],[112.4720031,-7.9413836],[112.4720085,-7.9418087],[112.471919,-7.942088],[112.4717783,-7.9423817],[112.4715896,-7.9426625],[112.4713647,-7.9428287],[112.4713463,-7.9428495],[112.4713356,-7.9429519],[112.4711621,-7.9431539],[112.4709302,-7.9437213],[112.4707317,-7.9441039],[112.4705762,-7.9442632],[112.4701899,-7.9445714],[112.4699539,-7.944683],[112.4697179,-7.9447202],[112.4696749,-7.9451558],[112.4696811,-7.9454321],[112.4697554,-7.9458518],[112.4696696,-7.94616],[112.4695584,-7.9463564],[112.4692619,-7.9463406],[112.4691707,-7.9468028],[112.4689561,-7.9471535],[112.4690854,-7.9472766],[112.4689485,-7.9475199],[112.4688005,-7.9478867],[112.4686503,-7.9481735],[112.4683392,-7.9489758],[112.4682695,-7.9492786],[112.4682426,-7.949693],[112.4682802,-7.9499055],[112.4682668,-7.9504939],[112.4682587,-7.9507237],[112.4683432,-7.9509375],[112.4679583,-7.9511607],[112.46775,-7.9512652],[112.4676079,-7.9514523],[112.4675734,-7.951789],[112.4675775,-7.9519643],[112.4675681,-7.9521662],[112.4675158,-7.9524371],[112.4674983,-7.9525606],[112.4674983,-7.9526882],[112.4674876,-7.9528143],[112.4674809,-7.9529657],[112.467493,-7.9531145],[112.4675788,-7.9532765],[112.4676123,-7.953497],[112.4676016,-7.9537228],[112.4675426,-7.9539194],[112.4675372,-7.9539725],[112.4675533,-7.9540841],[112.467615,-7.9542382],[112.4676177,-7.9542966],[112.4675909,-7.9544002],[112.4675909,-7.9545118],[112.4676177,-7.954618],[112.4676552,-7.9546605],[112.467792,-7.9547349],[112.4679583,-7.9547508],[112.468071,-7.9547827],[112.4682614,-7.9549049],[112.4683499,-7.9549793],[112.4684465,-7.9550404],[112.468484,-7.9550802],[112.4686289,-7.955322],[112.4686664,-7.9553618],[112.4687174,-7.9553884],[112.4687308,-7.9556089],[112.4687496,-7.9556646],[112.4688542,-7.9558001],[112.4689454,-7.9560286],[112.4689481,-7.9560923],[112.4691492,-7.956257],[112.4692538,-7.9563978],[112.4693987,-7.956706],[112.469396,-7.9568202],[112.4694255,-7.9569982],[112.4695167,-7.9571522],[112.4696213,-7.9572107],[112.4698347,-7.9571878],[112.4699244,-7.9574152],[112.4698654,-7.9574338],[112.4696749,-7.9574285],[112.4695542,-7.9573966],[112.469514,-7.9573568],[112.4694577,-7.9573355],[112.4693477,-7.9573249],[112.4691868,-7.9572665],[112.4689293,-7.9571283],[112.4687764,-7.9570752],[112.4686691,-7.9570221],[112.4683982,-7.9569291],[112.4682963,-7.9568813],[112.4682084,-7.9570079],[112.4677878,-7.9568041],[112.4667593,-7.9563211],[112.4663679,-7.9561949],[112.4659172,-7.9560472],[112.4657509,-7.9559436],[112.465606,-7.955832],[112.4653566,-7.9556062],[112.465197,-7.9554389],[112.4651563,-7.9553928]]}}]}
