{"type":"FeatureCollection","peaks_destination_id":"AB15EC56DCD8C13EF7B0","peaks_trailhead_id":"19923BB8275BD9BBC83B","peaks_source":"https://www.openstreetmap.org/","peaks_retrieval_source":"https://api.openstreetmap.org/api/0.6","peaks_license_name":"Open Data Commons Open Database License (ODbL) 1.0","peaks_license":"https://opendatacommons.org/licenses/odbl/1-0/","peaks_attribution":"© OpenStreetMap contributors","peaks_retrieved_at":"2026-07-31T16:15:54.798Z","features":[{"type":"Feature","properties":{"name":"Hikurangi OSM route candidate","trailhead_name":"Te Ara ki Hikurangi Car Park","destination_name":"Hikurangi","distance_m":11465.156704314786,"trailhead_snap_m":3.8740816114453027,"summit_snap_m":76.75661627628773,"osm_way_ids":[1545558400,1545558401,834623046,1263601028,1384568695,1384568694,1263601030,1263601032,1263601031,1263601029,1263601035,1381831936],"osm_way_urls":["https://www.openstreetmap.org/way/1545558400","https://www.openstreetmap.org/way/1545558401","https://www.openstreetmap.org/way/834623046","https://www.openstreetmap.org/way/1263601028","https://www.openstreetmap.org/way/1384568695","https://www.openstreetmap.org/way/1384568694","https://www.openstreetmap.org/way/1263601030","https://www.openstreetmap.org/way/1263601032","https://www.openstreetmap.org/way/1263601031","https://www.openstreetmap.org/way/1263601029","https://www.openstreetmap.org/way/1263601035","https://www.openstreetmap.org/way/1381831936"],"osm_way_names":["Pakihiroa Road","Te Ara ki Hikurangi"],"osm_foot_access_override_way_ids":[]},"geometry":{"type":"LineString","coordinates":[[178.0865705,-37.8551967],[178.0865264,-37.8551955],[178.0864363,-37.8552022],[178.0864003,-37.8552049],[178.086411,-37.8552492],[178.0864329,-37.8552955],[178.0864618,-37.8553434],[178.0865156,-37.855425],[178.0865494,-37.8554814],[178.0865568,-37.8555202],[178.0865562,-37.8555527],[178.0865404,-37.8556448],[178.086525,-37.8557815],[178.086489,-37.8559366],[178.0864439,-37.85609],[178.0864034,-37.8562075],[178.0863584,-37.8562819],[178.0862996,-37.8563529],[178.0862705,-37.8564542],[178.0862759,-37.8565189],[178.0862904,-37.8565725],[178.0863286,-37.8566278],[178.0863692,-37.856676],[178.0864546,-37.8567352],[178.0868126,-37.856866],[178.0868619,-37.8569059],[178.0869138,-37.8569594],[178.0870089,-37.8571152],[178.0870706,-37.8571886],[178.0871867,-37.8573194],[178.0872331,-37.8573872],[178.0872522,-37.8574442],[178.0872545,-37.8574939],[178.0872409,-37.8575364],[178.0872137,-37.8575677],[178.087173,-37.8575943],[178.0871255,-37.8576009],[178.0870784,-37.8575925],[178.0870341,-37.8575759],[178.0869734,-37.8575413],[178.0868928,-37.8574821],[178.0868176,-37.8574421],[178.0867242,-37.8574165],[178.0866319,-37.8573975],[178.0865257,-37.8573824],[178.0864377,-37.8573601],[178.0863674,-37.8573348],[178.0863018,-37.8573005],[178.0862022,-37.8572283],[178.0861119,-37.8571525],[178.0860103,-37.8570893],[178.0859163,-37.8570454],[178.0857911,-37.8570116],[178.0856204,-37.8569562],[178.0854743,-37.8569065],[178.0853406,-37.8568549],[178.0852342,-37.8568319],[178.0851258,-37.8568362],[178.0850226,-37.8568577],[178.0849252,-37.8568893],[178.0848256,-37.8569392],[178.0847269,-37.8570012],[178.0846391,-37.8570632],[178.0845292,-37.8571554],[178.0844547,-37.8572246],[178.0843914,-37.8572901],[178.0843377,-37.8573746],[178.0842802,-37.8574862],[178.0841839,-37.8578005],[178.0841207,-37.8579979],[178.0840665,-37.8581433],[178.0840131,-37.8582424],[178.083959,-37.8583153],[178.0838891,-37.8583728],[178.0837829,-37.8584519],[178.0836432,-37.8585634],[178.083509,-37.858686],[178.0834043,-37.8588093],[178.0832896,-37.8589464],[178.0831885,-37.8590405],[178.0829153,-37.8592278],[178.0828074,-37.8592911],[178.0825664,-37.8594207],[178.0824189,-37.8594927],[178.082285,-37.8595432],[178.0821681,-37.8595985],[178.0821418,-37.859623],[178.0820298,-37.8596143],[178.0818769,-37.8596249],[178.0816704,-37.859644],[178.081539,-37.8596524],[178.0814156,-37.8596461],[178.0812976,-37.8596249],[178.0811876,-37.8596037],[178.0810776,-37.8595974],[178.0809247,-37.8596016],[178.080619,-37.8596355],[178.0804446,-37.8596545],[178.0803212,-37.8596757],[178.0802408,-37.8596736],[178.0801603,-37.8596715],[178.080112,-37.8596736],[178.0800718,-37.8596821],[178.0800423,-37.8596969],[178.0800262,-37.8597202],[178.0800316,-37.8597477],[178.0800503,-37.8597731],[178.0800798,-37.8597943],[178.0801174,-37.8598155],[178.0801625,-37.8598274],[178.080213,-37.8598286],[178.0802602,-37.8598274],[178.0803237,-37.8598171],[178.0804833,-37.8597798],[178.0805435,-37.8597682],[178.0805956,-37.8597657],[178.0806445,-37.8597708],[178.0806917,-37.8597824],[178.0808627,-37.8598492],[178.0809246,-37.8598724],[178.0809751,-37.8598865],[178.081032,-37.8598955],[178.0810956,-37.8598968],[178.0811705,-37.8598968],[178.0812388,-37.8599019],[178.0813203,-37.8599161],[178.0813675,-37.8599264],[178.0814066,-37.8599431],[178.0814375,-37.8599611],[178.0814766,-37.8599932],[178.0816101,-37.8601089],[178.0816557,-37.8601398],[178.0817111,-37.8601719],[178.0817941,-37.860213],[178.0819407,-37.860303],[178.0819993,-37.8603519],[178.0820433,-37.8603892],[178.0820693,-37.8604226],[178.0820823,-37.8604522],[178.0820889,-37.8604907],[178.0820823,-37.8605332],[178.0820628,-37.8605782],[178.0819863,-37.8607234],[178.0819586,-37.8607659],[178.081926,-37.8608019],[178.0818788,-37.8608379],[178.0818299,-37.860861],[178.0817616,-37.8608906],[178.0817176,-37.8609137],[178.0816769,-37.8609433],[178.0816492,-37.8609857],[178.0814001,-37.8613572],[178.0812584,-37.8615526],[178.0811753,-37.8616375],[178.0811167,-37.8616889],[178.0810695,-37.8617172],[178.0810027,-37.8617416],[178.0808855,-37.8617686],[178.0806445,-37.8618303],[178.0805321,-37.8618728],[178.0804523,-37.8619203],[178.0803791,-37.8619782],[178.0803205,-37.8620463],[178.0802765,-37.8621299],[178.0802081,-37.8623394],[178.0801332,-37.8625772],[178.0801088,-37.8627135],[178.0801023,-37.8628099],[178.0800957,-37.8629501],[178.0800729,-37.8630709],[178.0800273,-37.863184],[178.0799736,-37.8632869],[178.0799557,-37.8633434],[178.079941,-37.8634154],[178.079941,-37.8635016],[178.0799443,-37.8635903],[178.0799655,-37.8638949],[178.0799638,-37.8640338],[178.0799638,-37.8641495],[178.0799704,-37.8642318],[178.0799866,-37.864296],[178.0800029,-37.8643732],[178.0800046,-37.8644477],[178.079985,-37.8645467],[178.0799606,-37.8646817],[178.0799345,-37.8647537],[178.0798857,-37.864818],[178.0798336,-37.8648771],[178.0797912,-37.8649234],[178.0797619,-37.8649748],[178.0797245,-37.8650571],[178.0797082,-37.8651226],[178.0797082,-37.8652049],[178.0796968,-37.8653887],[178.0796903,-37.8654479],[178.0796724,-37.865516],[178.0796431,-37.8656008],[178.0796089,-37.8656754],[178.0795681,-37.8657538],[178.079516,-37.8658284],[178.079363,-37.8660019],[178.0792995,-37.8660778],[178.0792724,-37.8661039],[178.0792278,-37.8661935],[178.0792067,-37.8662539],[178.0791855,-37.8663259],[178.0791773,-37.8664004],[178.079179,-37.866502],[178.0791676,-37.8666202],[178.0791448,-37.8667205],[178.0791024,-37.8668606],[178.0790536,-37.8670252],[178.0790324,-37.8671126],[178.0790259,-37.8671691],[178.0790259,-37.8672578],[178.0790373,-37.8675458],[178.0790373,-37.8676242],[178.079052,-37.8677091],[178.0790862,-37.8678067],[178.0791187,-37.8679019],[178.0791252,-37.8679546],[178.0791236,-37.8679957],[178.079109,-37.8680279],[178.0790813,-37.8680523],[178.0790259,-37.8680947],[178.078951,-37.8681513],[178.0789038,-37.8681937],[178.0788745,-37.8682335],[178.0788403,-37.8682837],[178.0788191,-37.8683299],[178.0787947,-37.8683826],[178.0787719,-37.8684572],[178.0787491,-37.8685343],[178.0787263,-37.868605],[178.078697,-37.8687271],[178.0786823,-37.868794],[178.0786758,-37.8688724],[178.0786481,-37.8690575],[178.07864,-37.8691449],[178.07864,-37.8692349],[178.07864,-37.869312],[178.0786204,-37.869384],[178.0785781,-37.8695768],[178.0785341,-37.8697812],[178.078513,-37.8698648],[178.0784885,-37.8699406],[178.0784771,-37.8699946],[178.0784755,-37.8700653],[178.0784804,-37.8702054],[178.0784951,-37.8703185],[178.0784951,-37.8703738],[178.0784853,-37.8704175],[178.0784641,-37.8704664],[178.0784397,-37.8705152],[178.0783127,-37.870744],[178.0782475,-37.8708828],[178.0781938,-37.8709959],[178.0781482,-37.8710654],[178.0781157,-37.8711071],[178.0780813,-37.8711408],[178.0780694,-37.8711624],[178.0780635,-37.8711978],[178.0780587,-37.8712376],[178.0780587,-37.8712916],[178.0780587,-37.8713636],[178.0780505,-37.871442],[178.0780424,-37.8715037],[178.078031,-37.8715474],[178.0780147,-37.8715872],[178.0779919,-37.8716245],[178.0779675,-37.8716631],[178.0779202,-37.8717119],[178.0778502,-37.8717775],[178.0777981,-37.8718263],[178.0777476,-37.8718829],[178.0776972,-37.8719484],[178.0776532,-37.8720101],[178.077575,-37.8721284],[178.0775278,-37.8721901],[178.0774838,-37.8722325],[178.0774317,-37.8722698],[178.0773601,-37.8723071],[178.0772819,-37.8723469],[178.0772347,-37.8723816],[178.0771989,-37.872415],[178.0771679,-37.8724485],[178.0771451,-37.8724947],[178.0771158,-37.8725731],[178.0770523,-37.8727595],[178.0770312,-37.8728187],[178.0770019,-37.8728675],[178.0769725,-37.8729125],[178.0769237,-37.8729626],[178.0767446,-37.8731374],[178.0766925,-37.8731978],[178.0765687,-37.8733547],[178.0765313,-37.8734061],[178.0765036,-37.8734575],[178.0764743,-37.8735115],[178.0764417,-37.8735565],[178.0763994,-37.8736092],[178.0763472,-37.8736593],[178.0762837,-37.8737017],[178.0761763,-37.873757],[178.076033,-37.8738105],[178.0759027,-37.8738555],[178.0758245,-37.8738928],[178.0757627,-37.8739287],[178.0757203,-37.8739596],[178.0756682,-37.8739892],[178.0756112,-37.8740097],[178.0755168,-37.8740354],[178.0754191,-37.8740624],[178.0753719,-37.8740804],[178.0753311,-37.8741074],[178.0752953,-37.8741421],[178.0752611,-37.8741768],[178.0752318,-37.8742192],[178.0752058,-37.8742604],[178.0751862,-37.8743066],[178.0751781,-37.8743503],[178.0751651,-37.8744352],[178.0751504,-37.8744879],[178.0751292,-37.8745367],[178.075095,-37.8745804],[178.0750494,-37.8746164],[178.0749794,-37.874655],[178.0748817,-37.8747102],[178.0748133,-37.8747527],[178.0747417,-37.8748015],[178.0746733,-37.8748324],[178.0745984,-37.8748722],[178.0745105,-37.874912],[178.0744421,-37.8749326],[178.0743818,-37.8749442],[178.0743069,-37.8749532],[178.074245,-37.8749506],[178.0741571,-37.8749455],[178.0740952,-37.8749442],[178.0740431,-37.8749506],[178.0739943,-37.8749647],[178.0739389,-37.8749905],[178.0738526,-37.875038],[178.0738005,-37.8750624],[178.0737386,-37.8750843],[178.0736458,-37.8751074],[178.0735693,-37.8751331],[178.0735351,-37.8751486],[178.0735106,-37.8751678],[178.0734895,-37.8751935],[178.0734308,-37.8752758],[178.0733641,-37.8753683],[178.0732892,-37.8754583],[178.0732061,-37.8755496],[178.0731198,-37.8756653],[178.0730693,-37.8757411],[178.0730368,-37.8757771],[178.0730058,-37.8758028],[178.0729619,-37.8758234],[178.0729179,-37.8758401],[178.0728788,-37.8758491],[178.0728365,-37.8758516],[178.0727893,-37.8758503],[178.0727372,-37.8758414],[178.0726802,-37.8758221],[178.0725401,-37.8757797],[178.0725011,-37.8757694],[178.0724522,-37.8757617],[178.0724115,-37.8757629],[178.0723643,-37.8757732],[178.0723252,-37.8757912],[178.0722812,-37.8758182],[178.0722373,-37.8758581],[178.0722047,-37.8758966],[178.0721786,-37.875939],[178.0721576,-37.8759857],[178.0721233,-37.876074],[178.072094,-37.8761588],[178.0720598,-37.8762321],[178.0720191,-37.8763169],[178.0719783,-37.876394],[178.0719442,-37.8764763],[178.0719393,-37.8765097],[178.0719442,-37.8765406],[178.0719555,-37.8765688],[178.0719751,-37.876592],[178.0720028,-37.8766087],[178.0720467,-37.876619],[178.0721054,-37.8766241],[178.0722552,-37.8766331],[178.0723545,-37.8766434],[178.0724799,-37.8766614],[178.0726623,-37.8766897],[178.0728837,-37.8767257],[178.0730058,-37.8767539],[178.0731035,-37.8767681],[178.0731833,-37.8767758],[178.073255,-37.8767771],[178.0733103,-37.8767681],[178.0733755,-37.8767514],[178.0735448,-37.8766935],[178.0736295,-37.8766704],[178.073693,-37.8766588],[178.0737451,-37.8766537],[178.0738054,-37.8766537],[178.0738526,-37.8766627],[178.0738868,-37.8766794],[178.0739177,-37.8767025],[178.0739324,-37.8767257],[178.0739389,-37.8767578],[178.0739324,-37.8767861],[178.0739177,-37.8768246],[178.07389,-37.8768709],[178.0738575,-37.8769159],[178.0737875,-37.8769866],[178.0737451,-37.8770277],[178.0736702,-37.8770855],[178.0736197,-37.87711],[178.0735579,-37.8771331],[178.0734895,-37.8771511],[178.0734113,-37.8771768],[178.0733511,-37.8772038],[178.0733055,-37.8772244],[178.0732501,-37.8772655],[178.0731931,-37.8773208],[178.0731426,-37.8773863],[178.0730954,-37.8774557],[178.0730563,-37.8775226],[178.0730384,-37.8775804],[178.0730433,-37.8776344],[178.0730514,-37.8777205],[178.0730547,-37.877822],[178.0730498,-37.8778876],[178.0730433,-37.8779454],[178.0730466,-37.8779981],[178.073058,-37.8780418],[178.0730807,-37.8780855],[178.0731052,-37.8781112],[178.073141,-37.8781369],[178.0731817,-37.8781601],[178.0732338,-37.8781793],[178.0732843,-37.8781922],[178.0733266,-37.8782089],[178.0733641,-37.8782295],[178.0734048,-37.878259],[178.0734341,-37.8782886],[178.0734699,-37.878322],[178.0735058,-37.8783439],[178.0735481,-37.878367],[178.0735953,-37.878385],[178.0736507,-37.8783978],[178.0736979,-37.8784043],[178.0737467,-37.8784133],[178.0737826,-37.8784274],[178.0738168,-37.8784493],[178.0738363,-37.878475],[178.0738493,-37.8785148],[178.0738656,-37.8785714],[178.073877,-37.8786073],[178.0738998,-37.8786433],[178.0739373,-37.8786755],[178.073978,-37.8787037],[178.0740382,-37.8787294],[178.0741164,-37.8787526],[178.0742141,-37.8787783],[178.0742727,-37.8787873],[178.0743525,-37.8787911],[178.0744062,-37.8787911],[178.0744583,-37.8787989],[178.0745056,-37.8788117],[178.0745544,-37.8788336],[178.0746114,-37.8788721],[178.0746489,-37.8789081],[178.0746863,-37.8789531],[178.0747352,-37.8790173],[178.0747824,-37.8790765],[178.0748247,-37.8791137],[178.0748719,-37.8791536],[178.0749289,-37.8791909],[178.0749778,-37.8792217],[178.0750136,-37.87925],[178.0750478,-37.879286],[178.0750771,-37.879322],[178.0751032,-37.8793708],[178.0751712,-37.8795157],[178.0752432,-37.8797268],[178.0752693,-37.8798104],[178.075279,-37.8798772],[178.0752709,-37.8799453],[178.0752595,-37.8800417],[178.0752562,-37.8801163],[178.0752725,-37.8802191],[178.075279,-37.8803065],[178.0752758,-37.8803939],[178.0752709,-37.880516],[178.0752725,-37.8805648],[178.0752595,-37.8806214],[178.0752351,-37.8806625],[178.0751862,-37.8807203],[178.0751488,-37.8807666],[178.0751225,-37.8808184],[178.075095,-37.8808758],[178.075056,-37.8809247],[178.0749892,-37.8809722],[178.0748752,-37.8810416],[178.0747808,-37.8811085],[178.0747368,-37.8811637],[178.0746798,-37.8812241],[178.0746244,-37.8812666],[178.0745251,-37.8813128],[178.0744453,-37.881345],[178.0743476,-37.8813861],[178.0742483,-37.8814349],[178.0741897,-37.8814748],[178.074149,-37.8815082],[178.0741196,-37.8815493],[178.0741082,-37.8816033],[178.0741131,-37.8816521],[178.074131,-37.8817112],[178.0741685,-37.8817729],[178.0742027,-37.8818333],[178.0742662,-37.8819066],[178.074302,-37.8819387],[178.0743444,-37.8819657],[178.0743786,-37.8819786],[178.074429,-37.8819863],[178.0745121,-37.8819889],[178.0745837,-37.881994],[178.0746375,-37.8820004],[178.0746928,-37.8820184],[178.0747368,-37.8820454],[178.0747775,-37.8820814],[178.0748117,-37.8821097],[178.0748418,-37.8821399],[178.0748752,-37.8821636],[178.0749159,-37.8821842],[178.0749648,-37.8822009],[178.075012,-37.8822125],[178.0750641,-37.8822292],[178.0751048,-37.8822498],[178.0751341,-37.8822742],[178.0751569,-37.8823063],[178.0751667,-37.8823384],[178.0751716,-37.8823719],[178.0751651,-37.882422],[178.075152,-37.8824708],[178.0751325,-37.8825209],[178.0751227,-37.8825634],[178.0751178,-37.8826109],[178.0751276,-37.8826507],[178.0751471,-37.8827047],[178.0751813,-37.8827613],[178.0752644,-37.8828949],[178.0753116,-37.8829785],[178.0753458,-37.8830826],[178.0753816,-37.8831905],[178.0754288,-37.8833126],[178.0754728,-37.8833923],[178.0755119,-37.8834501],[178.0755656,-37.8835016],[178.0756568,-37.8835607],[178.0757822,-37.8836339],[178.0760281,-37.8837612],[178.0761486,-37.8838164],[178.076186,-37.8838421],[178.0762121,-37.8838756],[178.0762267,-37.8839167],[178.0762951,-37.884139],[178.0763147,-37.884184],[178.076357,-37.8842303],[178.0764645,-37.8843228],[178.0764971,-37.8843601],[178.0765215,-37.8844038],[178.0765312,-37.8844449],[178.0765312,-37.8844963],[178.0765166,-37.8845323],[178.0764954,-37.8845991],[178.0764645,-37.8846544],[178.0764417,-37.8846891],[178.0764349,-37.884708],[178.0764308,-37.8847165],[178.0764254,-37.8847469],[178.0764319,-37.8847829],[178.0764368,-37.8848343],[178.0764352,-37.8848767],[178.0764238,-37.8849204],[178.0764042,-37.8849731],[178.0763684,-37.8850258],[178.0763326,-37.8850721],[178.0762837,-37.8851055],[178.0762105,-37.8851479],[178.0761502,-37.8851877],[178.0761062,-37.885225],[178.0760655,-37.8852584],[178.0760313,-37.8852931],[178.0759841,-37.8853188],[178.0759108,-37.8853445],[178.0758343,-37.8853715],[178.0757692,-37.8854062],[178.0757138,-37.8854422],[178.0756715,-37.8854769],[178.075634,-37.8855244],[178.075608,-37.8855746],[178.0755933,-37.8856337],[178.075564,-37.8857635],[178.0755461,-37.8858316],[178.0755249,-37.8858946],[178.075494,-37.8859537],[178.0754598,-37.8860051],[178.075424,-37.8860526],[178.0753898,-37.8860822],[178.0753474,-37.8861053],[178.0752839,-37.8861233],[178.0752172,-37.8861349],[178.0750348,-37.886167],[178.0749778,-37.8861837],[178.0749403,-37.8862004],[178.0749159,-37.8862197],[178.0748964,-37.8862467],[178.0748915,-37.8862711],[178.0748931,-37.8862968],[178.0749061,-37.88632],[178.0749273,-37.8863392],[178.0749631,-37.8863547],[178.0750087,-37.8863662],[178.0750674,-37.8863688],[178.0751243,-37.8863662],[178.0752139,-37.8863547],[178.075367,-37.8863315],[178.075647,-37.8862673],[178.0757171,-37.8862596],[178.0757692,-37.8862583],[178.075818,-37.8862621],[178.0758669,-37.8862724],[178.0759206,-37.886293],[178.0759711,-37.8863251],[178.0760313,-37.8863624],[178.0761128,-37.8864266],[178.0762528,-37.886541],[178.0763538,-37.8866027],[178.0764547,-37.8866451],[178.0765752,-37.8866837],[178.0766892,-37.8867081],[178.0768846,-37.8867363],[178.0769888,-37.8867582],[178.07708,-37.8867826],[178.077194,-37.8868199],[178.0773226,-37.8868713],[178.0773845,-37.8869137],[178.0774399,-37.8869677],[178.0774969,-37.8870486],[178.0775457,-37.8871386],[178.0775799,-37.8872234],[178.0776076,-37.8873224],[178.0776092,-37.8874149],[178.077576,-37.8874914],[178.0775029,-37.8875597],[178.0773837,-37.8876143],[178.0772587,-37.8876431],[178.0770144,-37.8876841],[178.0769529,-37.8877099],[178.0768683,-37.88776],[178.0767587,-37.8878465],[178.076674,-37.8879057],[178.0765837,-37.8879467],[178.076474,-37.8879892],[178.0763356,-37.8880711],[178.0762279,-37.8881349],[178.0761356,-37.8882017],[178.0760779,-37.8882563],[178.0760529,-37.8883049],[178.0760433,-37.888358],[178.0760452,-37.8884263],[178.0761221,-37.8887283],[178.0762587,-37.8891715],[178.0762952,-37.889431],[178.0762971,-37.8895175],[178.0762875,-37.8895722],[178.0762606,-37.8896329],[178.0762106,-37.8896799],[178.0761375,-37.8897179],[178.0760414,-37.8897603],[178.0759798,-37.8897983],[178.0759433,-37.8898302],[178.0759106,-37.8898666],[178.0758952,-37.889906],[178.0758894,-37.8899516],[178.0758971,-37.8900077],[178.0759394,-37.8901367],[178.0759761,-37.8902787],[178.0759943,-37.8903683],[178.0760215,-37.8904525],[178.0760647,-37.8905189],[178.0761169,-37.8905708],[178.0761896,-37.8906318],[178.076335,-37.8907339],[178.0764349,-37.8908146],[178.0764962,-37.8908809],[178.0765348,-37.8909652],[178.0765621,-37.8910745],[178.0765734,-37.8911713],[178.0765802,-37.8912663],[178.0765621,-37.8913613],[178.0765212,-37.8914598],[178.0764826,-37.8915566],[178.0764531,-37.8916444],[178.0764235,-37.8917359],[178.076369,-37.8918129],[178.0762918,-37.8918846],[178.0761896,-37.8919653],[178.0759898,-37.8921445],[178.0758739,-37.8922664],[178.0757536,-37.8924062],[178.0756059,-37.892546],[178.075481,-37.8926589],[178.0753129,-37.8927915],[178.0752157,-37.892855],[178.0751111,-37.8929079],[178.0749904,-37.8929545],[178.0747812,-37.8930032],[178.0744298,-37.8931027],[178.0742581,-37.8931493],[178.0741455,-37.8931979],[178.0740865,-37.8932297],[178.0740194,-37.8932678],[178.073947,-37.8932868],[178.0738773,-37.8932826],[178.0738156,-37.8932657],[178.0737297,-37.8932212],[178.0735849,-37.8931239],[178.073483,-37.8930752],[178.0733542,-37.8930392],[178.0731853,-37.8930117],[178.0730109,-37.8930053],[178.0728741,-37.8930201],[178.0727561,-37.8930413],[178.072622,-37.893054],[178.0724798,-37.8930371],[178.0719783,-37.8929587],[178.0716135,-37.8928783],[178.0714928,-37.8928593],[178.0714096,-37.892855],[178.0713399,-37.8928635],[178.0712943,-37.8928762],[178.0712407,-37.8929037],[178.071187,-37.8929397],[178.0711387,-37.8929905],[178.0711092,-37.8930328],[178.0710904,-37.8930858],[178.0710904,-37.893126],[178.0711092,-37.8931598],[178.0711495,-37.8931831],[178.0712111,-37.8932149],[178.0712621,-37.893236],[178.071305,-37.8932593],[178.0713292,-37.8932847],[178.0713426,-37.8933228],[178.0713506,-37.8933757],[178.0713533,-37.8934287],[178.0713694,-37.8935049],[178.0713962,-37.8935641],[178.0714525,-37.8936276],[178.0715947,-37.8938012],[178.0717208,-37.8939282],[178.0717583,-37.8939832],[178.0717825,-37.8940277],[178.0717959,-37.8940848],[178.0717851,-37.894142],[178.071761,-37.8942076],[178.0716966,-37.8943685],[178.0716644,-37.8944933],[178.0716349,-37.8946351],[178.0716215,-37.8947643],[178.0716269,-37.8948595],[178.0716457,-37.8949548],[178.0716671,-37.8950733],[178.0716805,-37.8951389],[178.0716832,-37.8951897],[178.0716752,-37.8952405],[178.071651,-37.8952765],[178.0716162,-37.8953125],[178.0715598,-37.8953463],[178.0715035,-37.8953908],[178.0714633,-37.8954395],[178.071415,-37.895503],[178.0713667,-37.8956003],[178.0713184,-37.8956765],[178.0712809,-37.8957189],[178.0712353,-37.8957443],[178.0711763,-37.8957591],[178.0710797,-37.895776],[178.0709778,-37.8957972],[178.0709,-37.8958289],[178.0708571,-37.8958586],[178.0708088,-37.8959072],[178.0707713,-37.8959771],[178.070723,-37.8960914],[178.0706801,-37.8961718],[178.0706291,-37.8962268],[178.0705567,-37.8963052],[178.0704414,-37.8963898],[178.0703797,-37.8964364],[178.0703582,-37.8964639],[178.0703448,-37.8964914],[178.070318,-37.8965316],[178.0702751,-37.8965676],[178.0701973,-37.8965994],[178.0701114,-37.8966226],[178.0699988,-37.8966502],[178.0699451,-37.8966607],[178.0699103,-37.8966777],[178.0698727,-37.8967073],[178.0698432,-37.8967412],[178.0698137,-37.8967772],[178.0697547,-37.8968174],[178.0696877,-37.8968385],[178.0695938,-37.8968534],[178.0694945,-37.8968597],[178.0694275,-37.8968745],[178.0693846,-37.8968957],[178.069339,-37.8969359],[178.0693041,-37.8969804],[178.0692773,-37.8970375],[178.0692451,-37.8971116],[178.0692317,-37.8971645],[178.0692156,-37.8972026],[178.0691861,-37.897228],[178.0691405,-37.8972407],[178.0690895,-37.8972343],[178.0690547,-37.8972153],[178.0689983,-37.8971772],[178.0688749,-37.8970735],[178.0688213,-37.897046],[178.0687703,-37.8970375],[178.0687221,-37.8970417],[178.0686818,-37.8970565],[178.068647,-37.8970883],[178.0686201,-37.8971285],[178.0685987,-37.8971793],[178.0685826,-37.897247],[178.0684968,-37.8976471],[178.0684968,-37.8976979],[178.0685075,-37.8977487],[178.0685289,-37.8977952],[178.0685584,-37.8978376],[178.0686067,-37.8979011],[178.0686416,-37.8979413],[178.068663,-37.8979921],[178.0686791,-37.8980429],[178.0686845,-37.898081],[178.0686791,-37.8981106],[178.068663,-37.8981339],[178.0686335,-37.8981487],[178.0685879,-37.8981487],[178.068537,-37.8981402],[178.068478,-37.8981275],[178.0684029,-37.8981064],[178.0678316,-37.8979074],[178.0677431,-37.8978841],[178.0676948,-37.8978757],[178.0676492,-37.8978757],[178.0676036,-37.8978841],[178.0675633,-37.8979074],[178.0675258,-37.8979286],[178.0674239,-37.8980217],[178.0673059,-37.8980746],[178.0670618,-37.8981974],[178.0669894,-37.8982228],[178.0669277,-37.8982355],[178.0668472,-37.8982397],[178.0666112,-37.8982291],[178.0665173,-37.8982291],[178.0664529,-37.8982461],[178.0663859,-37.8982672],[178.0663349,-37.8982926],[178.0662893,-37.8983265],[178.0662544,-37.8983752],[178.0662249,-37.8984133],[178.0661954,-37.8984746],[178.0661659,-37.898536],[178.0661337,-37.8985741],[178.0660908,-37.8985995],[178.0660264,-37.8986164],[178.0659406,-37.8986291],[178.0657582,-37.8986524],[178.0656751,-37.8986736],[178.0656187,-37.8986905],[178.065549,-37.8987265],[178.0655007,-37.8987583],[178.0654364,-37.8987985],[178.0653639,-37.8988387],[178.0652915,-37.8988662],[178.065211,-37.8988916],[178.0650984,-37.8989212],[178.0650021,-37.8989467],[178.0649136,-37.8989812],[178.064821,-37.8990199],[178.0647129,-37.8990791],[178.0646342,-37.8991296],[178.0645545,-37.8991615],[178.0644513,-37.8991917],[178.0643209,-37.8992162],[178.0641891,-37.8992451],[178.0641465,-37.899263],[178.0640985,-37.8992888],[178.0640484,-37.8993343],[178.0639927,-37.8993844],[178.0639619,-37.8994269],[178.0639157,-37.8994891],[178.0638946,-37.8995392],[178.0638676,-37.8995863],[178.063858,-37.8996409],[178.0638599,-37.8996849],[178.0638696,-37.8997335],[178.0638734,-37.8997669],[178.0638696,-37.8998033],[178.0638599,-37.8998443],[178.0638446,-37.8998807],[178.0638234,-37.8999202],[178.0638061,-37.8999718],[178.0638061,-37.9000052],[178.0638119,-37.9000598],[178.0638292,-37.9001054],[178.0638426,-37.9001418],[178.0638446,-37.9001782],[178.063833,-37.9002055],[178.0638119,-37.9002313],[178.0637676,-37.9002556],[178.0637061,-37.9002754],[178.063556,-37.9003042],[178.0634041,-37.9003452],[178.0633326,-37.900376],[178.0632763,-37.9004035],[178.0632119,-37.9004479],[178.0631341,-37.9005114],[178.0630456,-37.900558],[178.0629517,-37.9005898],[178.0628605,-37.9006131],[178.0627532,-37.9006279],[178.0626539,-37.9006321],[178.0625466,-37.9006617],[178.062442,-37.9006977],[178.0623159,-37.9007443],[178.0622166,-37.9007951],[178.0621549,-37.9008205],[178.062104,-37.900829],[178.0620369,-37.9008269],[178.0619457,-37.9008163],[178.0618947,-37.900812],[178.0618518,-37.9008163],[178.0618008,-37.900829],[178.0617498,-37.9008523],[178.0616398,-37.9009179],[178.0615138,-37.9009877],[178.0614172,-37.9010576],[178.0613501,-37.9010978],[178.0612965,-37.9011232],[178.0612213,-37.9011444],[178.0611409,-37.9011592],[178.0610738,-37.9011677],[178.0610175,-37.9011846],[178.0609772,-37.9012037],[178.060945,-37.9012291],[178.0609182,-37.9012735],[178.0608005,-37.9014323],[178.0607842,-37.9014593],[178.0607728,-37.9014914],[178.0607728,-37.9015236],[178.0607777,-37.9015621],[178.0607907,-37.9016238],[178.0608103,-37.9016855],[178.0608184,-37.9017228],[178.0608135,-37.9017575],[178.0608054,-37.9017922],[178.0607793,-37.9018269],[178.0607467,-37.9018603],[178.0607044,-37.901904],[178.0606458,-37.9019721],[178.0606344,-37.9020016],[178.0606327,-37.9020261],[178.060636,-37.9020492],[178.060649,-37.9020698],[178.0606686,-37.9020903],[178.0606962,-37.9021032],[178.0607304,-37.9021109],[178.0607761,-37.9021122],[178.06082,-37.9021134],[178.061066,-37.9021096],[178.0611278,-37.9021173],[178.0611751,-37.9021263],[178.0612093,-37.902143],[178.061237,-37.9021623],[178.0612533,-37.9021854],[178.0612614,-37.9022098],[178.0612598,-37.9022381],[178.0612484,-37.9022664],[178.0612288,-37.9022921],[178.0611881,-37.9023204],[178.0611409,-37.9023396],[178.0610708,-37.9023666],[178.0608689,-37.9024244],[178.0607761,-37.9024501],[178.0606881,-37.9024759],[178.0606132,-37.9025144],[178.0605692,-37.9025388],[178.0605236,-37.9025761],[178.0604682,-37.9026339],[178.0604275,-37.9026879],[178.060377,-37.9027689],[178.0603168,-37.9028858],[178.0602712,-37.9029552],[178.0602044,-37.9030323],[178.0601637,-37.9030786],[178.0601181,-37.903121],[178.0600725,-37.9031582],[178.0600448,-37.9031852],[178.0600334,-37.9032096],[178.0600269,-37.9032302],[178.0600285,-37.9032521],[178.0600415,-37.9032675],[178.059944,-37.903301],[178.0598424,-37.903336],[178.0597525,-37.9033655],[178.059707,-37.9033784],[178.0596836,-37.9033885],[178.0596696,-37.9034005],[178.0596603,-37.9034235],[178.0596556,-37.9034521],[178.0596544,-37.9036502],[178.0596579,-37.9037156],[178.0596813,-37.9037663],[178.0597023,-37.9038114],[178.0597175,-37.9038796],[178.0597233,-37.90398],[178.0597385,-37.9040362],[178.0597607,-37.904109],[178.0597817,-37.9041689],[178.0597817,-37.9042076],[178.0597677,-37.9042389],[178.059728,-37.9042693],[178.0596322,-37.904308],[178.0595738,-37.9043357],[178.0594972,-37.9043619],[178.0593969,-37.9043492],[178.0593485,-37.9043182],[178.0593123,-37.9042979],[178.0592597,-37.9042749],[178.0592224,-37.9042638],[178.059185,-37.9042601],[178.0591523,-37.9042638],[178.0591243,-37.904273],[178.0591021,-37.9042878],[178.0590811,-37.9043071],[178.0590238,-37.9043421],[178.0589561,-37.9043633],[178.0588919,-37.9043744],[178.0588055,-37.9043818],[178.0587272,-37.9043864],[178.0586583,-37.9043781],[178.0585766,-37.9043615],[178.0585287,-37.904356],[178.0584867,-37.9043541],[178.0584575,-37.904356],[178.0584341,-37.9043624],[178.058419,-37.9043772],[178.0584143,-37.9043947],[178.0584155,-37.9044094],[178.0584341,-37.904438],[178.058489,-37.9045117],[178.0585544,-37.9045799],[178.0586677,-37.9046683],[178.0587798,-37.9047494],[178.0588323,-37.9048074],[178.0588989,-37.9048784],[178.0589374,-37.9049281],[178.0589491,-37.9049678],[178.0589596,-37.9049982],[178.0589771,-37.9050184],[178.0590017,-37.9050369],[178.0590379,-37.9050507],[178.0590811,-37.9050682],[178.0591068,-37.9050802],[178.0591196,-37.9050931],[178.0591243,-37.9051078],[178.0591208,-37.9051262],[178.0591079,-37.9051447],[178.0590846,-37.9051576],[178.0590565,-37.9051751],[178.0590402,-37.905187],[178.0590227,-37.9052101],[178.0590145,-37.9052257],[178.0590028,-37.9052561],[178.0589993,-37.9052884],[178.0589923,-37.9053252],[178.058976,-37.9053501],[178.0589444,-37.9053778],[178.0589024,-37.9054192],[178.0588662,-37.905469],[178.0588265,-37.9055436],[178.0587903,-37.9056136],[178.0587951,-37.9057215],[178.0587461,-37.9057709],[178.058612,-37.9057872],[178.0585138,-37.9058414],[178.0584963,-37.905916],[178.058641,-37.9060293],[178.0586877,-37.9061767],[178.0587333,-37.9065111],[178.058669,-37.9065811],[178.0585932,-37.9065912],[178.0584134,-37.9067395],[178.0583048,-37.9068832],[178.0583036,-37.9069809],[178.0582032,-37.9071273],[178.0582044,-37.9072968],[178.0580818,-37.9076478],[178.0581787,-37.9080236],[178.0582744,-37.9081019],[178.0582546,-37.9082521],[178.0581483,-37.9083525],[178.0580865,-37.9087661],[178.0579872,-37.9089171],[178.0574338,-37.9091649],[178.0572704,-37.9093666],[178.0572634,-37.9095923],[178.0570474,-37.9097572],[178.0570369,-37.9098281],[178.0569517,-37.9098723],[178.0569015,-37.9099709],[178.0569517,-37.91004],[178.0569096,-37.91018],[178.0569528,-37.9103136],[178.0568629,-37.910437],[178.0566154,-37.9104462],[178.0564741,-37.9105466],[178.0562465,-37.9105752],[178.0561426,-37.9106203],[178.0559114,-37.9108368],[178.0559149,-37.9110357],[178.0556359,-37.9113167],[178.0550533,-37.9113646],[178.0546762,-37.9116188],[178.0546528,-37.9116566],[178.0545233,-37.9117109],[178.0544053,-37.911698],[178.0543621,-37.9117192],[178.0541345,-37.9119301],[178.0540259,-37.9121567],[178.0540352,-37.9122672],[178.0539337,-37.9124091],[178.0536184,-37.9126596],[178.0535846,-37.9127425],[178.0535752,-37.9128319],[178.0535461,-37.912866],[178.0534422,-37.9129111],[178.053455,-37.9130023],[178.0534807,-37.9131073],[178.0534503,-37.9131985],[178.0535414,-37.9135282],[178.0535157,-37.9136747],[178.0536605,-37.9139215],[178.0536255,-37.9140606],[178.0537877,-37.9146906],[178.0539687,-37.9150084],[178.0539675,-37.9151244],[178.0540971,-37.9153216],[178.0540817,-37.9153356],[178.0540049,-37.9154054],[178.0540224,-37.9155279],[178.0540749,-37.9155914],[178.0540177,-37.9157416],[178.0540352,-37.9158493],[178.0539162,-37.9160777],[178.053936,-37.916227],[178.0538846,-37.9163108],[178.0539453,-37.9164784],[178.0539313,-37.9167308],[178.0539769,-37.916833],[178.053908,-37.9169426],[178.0539057,-37.9171222],[178.0539944,-37.9173598],[178.0538753,-37.9174727],[178.0538346,-37.9178383],[178.0542656,-37.918082],[178.0546965,-37.9179473],[178.0551275,-37.9180371],[178.0554364,-37.917973],[178.0558105,-37.9179858],[178.0561763,-37.91805],[178.0566073,-37.9182616],[178.0571358,-37.918794],[178.0579326,-37.9191404],[178.0581638,-37.9193064],[178.0585018,-37.9191393],[178.0588397,-37.9188981],[178.0591723,-37.9186463],[178.0593708,-37.9183818],[178.0597839,-37.9182125],[178.0602268,-37.9180027],[178.0603377,-37.9181236],[178.0603483,-37.9183107],[178.0607394,-37.9189282]]}}]}
