{"type":"FeatureCollection","peaks_destination_id":"z8ngP6wuWFbOgoIsTbqO","peaks_trailhead_id":"EC7F585E18BFDD5CF857","peaks_source":"https://api.openstreetmap.org/api/0.6","peaks_license_name":"Open Data Commons Open Database License (ODbL) 1.0","peaks_license":"https://opendatacommons.org/licenses/odbl/1-0/","peaks_attribution":"© OpenStreetMap contributors","peaks_retrieved_at":"2026-07-30T16:15:54.662Z","features":[{"type":"Feature","properties":{"name":"Humboldt Peak OSM route candidate","trailhead_name":"South Colony Lakes Trailhead","destination_name":"Humboldt Peak","distance_m":8774.586428232084,"trailhead_snap_m":1.0929699330138447,"summit_snap_m":12.308550956868988,"osm_way_ids":[233237471,1389594866,248171399,248171698],"osm_way_urls":["https://www.openstreetmap.org/way/233237471","https://www.openstreetmap.org/way/1389594866","https://www.openstreetmap.org/way/248171399","https://www.openstreetmap.org/way/248171698"],"osm_way_names":["South Colony Road","South Colony Spur","South Colony Trail","Humboldt Trail"],"osm_foot_access_override_way_ids":[]},"geometry":{"type":"LineString","coordinates":[[-105.5065336,37.9761816],[-105.5065451,37.9761778],[-105.5066494,37.9761582],[-105.5070521,37.9760475],[-105.5071834,37.9760397],[-105.5075513,37.9761608],[-105.507838,37.9761904],[-105.508266,37.9761845],[-105.5084078,37.976176],[-105.5085302,37.9761568],[-105.508748,37.9760048],[-105.5089087,37.9758797],[-105.5090514,37.975753],[-105.5091819,37.975628],[-105.5093125,37.9755266],[-105.5094069,37.9753936],[-105.5094632,37.9752859],[-105.5095121,37.975257],[-105.5096285,37.9751641],[-105.509725,37.9750445],[-105.5097557,37.9749843],[-105.5097874,37.9748787],[-105.5097523,37.974769],[-105.5097505,37.9746997],[-105.5098185,37.9745758],[-105.5098935,37.9745331],[-105.5099527,37.9744247],[-105.5100438,37.9743684],[-105.5101688,37.9743261],[-105.5103204,37.9742907],[-105.5103958,37.97427],[-105.5104479,37.9742772],[-105.5104759,37.9743039],[-105.5105027,37.9743716],[-105.5104468,37.9747082],[-105.5104343,37.9747652],[-105.5104657,37.9748089],[-105.5105105,37.9748227],[-105.5105651,37.9747951],[-105.5106058,37.9747406],[-105.5106807,37.9746718],[-105.5107799,37.9746367],[-105.5108929,37.9746122],[-105.5110127,37.9745571],[-105.5111111,37.9744795],[-105.5111852,37.974362],[-105.5113243,37.974185],[-105.5114187,37.9740438],[-105.5118739,37.9737557],[-105.5119138,37.9736708],[-105.5119755,37.9735647],[-105.5120737,37.9734368],[-105.5122859,37.9732777],[-105.5125545,37.9731477],[-105.5127788,37.9730532],[-105.513142,37.9728954],[-105.5134154,37.9728049],[-105.5137219,37.9727507],[-105.5140536,37.9726849],[-105.5142422,37.9726557],[-105.5144127,37.9725798],[-105.5146798,37.9724531],[-105.5150635,37.9722647],[-105.5153827,37.9721437],[-105.5158268,37.9720021],[-105.5162469,37.9719309],[-105.5167305,37.9718543],[-105.5170065,37.9718597],[-105.5172126,37.9718466],[-105.5174217,37.9717627],[-105.5175955,37.9717175],[-105.517771,37.9717146],[-105.5179663,37.9717283],[-105.5182562,37.9716377],[-105.5183743,37.9715933],[-105.5184429,37.9716004],[-105.518618,37.9715594],[-105.5186592,37.9715295],[-105.5190486,37.9714665],[-105.5191774,37.9714397],[-105.5194238,37.9713669],[-105.5196219,37.9712716],[-105.5197762,37.9712326],[-105.5199331,37.9712391],[-105.5200423,37.9712512],[-105.5201017,37.971269],[-105.5201796,37.9712728],[-105.5203671,37.9712051],[-105.5207662,37.9709953],[-105.5210132,37.9709074],[-105.5213714,37.9708999],[-105.5216458,37.9708677],[-105.5218237,37.9708425],[-105.5219666,37.9707887],[-105.5220979,37.9707152],[-105.5224065,37.9705974],[-105.5226171,37.9705458],[-105.5232518,37.9702757],[-105.523572,37.9701564],[-105.5238165,37.9701609],[-105.5239567,37.9701669],[-105.5240902,37.9701426],[-105.5244657,37.9700462],[-105.5247306,37.9699843],[-105.5248878,37.9699475],[-105.5250741,37.9698374],[-105.5251811,37.9697624],[-105.5253186,37.9697204],[-105.52542,37.9696968],[-105.5255747,37.9696928],[-105.525811,37.969687],[-105.525907,37.9696577],[-105.5262276,37.9695429],[-105.5263795,37.9694615],[-105.5266347,37.9694199],[-105.5270101,37.9693368],[-105.5273413,37.9692553],[-105.527685,37.9691775],[-105.5278896,37.969089],[-105.5280584,37.9689843],[-105.528206,37.9688579],[-105.528322,37.9687332],[-105.5285013,37.9686251],[-105.5286342,37.9685436],[-105.5287924,37.968512],[-105.5290293,37.9685457],[-105.5291983,37.9686004],[-105.5293714,37.9686254],[-105.5296234,37.9686284],[-105.5298193,37.968633],[-105.5300494,37.9685852],[-105.5305071,37.9685054],[-105.5306518,37.968515],[-105.5307897,37.9684871],[-105.53095,37.9684455],[-105.5312643,37.9683508],[-105.5314582,37.9683728],[-105.5316106,37.968393],[-105.5319327,37.9683816],[-105.5321269,37.9683275],[-105.5322176,37.9682726],[-105.5322884,37.9682179],[-105.5323915,37.9681658],[-105.5324876,37.9681479],[-105.5326618,37.9681018],[-105.5328295,37.9680546],[-105.5330784,37.9679611],[-105.5331647,37.967955],[-105.5332484,37.9679493],[-105.5333322,37.9679302],[-105.5334206,37.9678898],[-105.5334852,37.9678419],[-105.5336392,37.9676823],[-105.5337447,37.9675643],[-105.5338185,37.9674928],[-105.5339682,37.9674462],[-105.5340683,37.9674548],[-105.5341707,37.9674196],[-105.5344934,37.9673348],[-105.5347151,37.9672572],[-105.5348369,37.9672293],[-105.5349796,37.9671901],[-105.5350491,37.967195],[-105.5351594,37.9672353],[-105.5353036,37.9672963],[-105.5353924,37.9672991],[-105.5355004,37.967294],[-105.5356452,37.9672548],[-105.5357749,37.9671918],[-105.5358937,37.9670969],[-105.5361056,37.967035],[-105.5362763,37.966989],[-105.5364063,37.9669455],[-105.5365529,37.9669056],[-105.5367042,37.9668664],[-105.5368858,37.9668613],[-105.5370607,37.9668766],[-105.5372058,37.9669089],[-105.5373253,37.9669371],[-105.5374762,37.9669701],[-105.5376083,37.9669984],[-105.5376703,37.9669942],[-105.5377849,37.966989],[-105.5380118,37.966955],[-105.5381717,37.9669294],[-105.5383684,37.96688],[-105.5385175,37.9668476],[-105.5387488,37.9667897],[-105.5387969,37.9667413],[-105.5388625,37.9666775],[-105.5389741,37.9666183],[-105.5391378,37.9665954],[-105.5393119,37.9665854],[-105.5393979,37.9665828],[-105.5394603,37.9664504],[-105.5395343,37.9663388],[-105.5396202,37.9662932],[-105.5397538,37.9662836],[-105.5398445,37.9662649],[-105.5401536,37.9662257],[-105.5407717,37.9661456],[-105.5411586,37.9660758],[-105.5413255,37.9660296],[-105.5413989,37.9660243],[-105.5415455,37.9660506],[-105.541768,37.9660927],[-105.5420079,37.966086],[-105.5421477,37.9660953],[-105.5422463,37.9661327],[-105.5423755,37.9661112],[-105.5425815,37.9660672],[-105.5427406,37.9660178],[-105.5428836,37.9659463],[-105.5430584,37.9658806],[-105.5431744,37.9658296],[-105.543267,37.9657185],[-105.5433165,37.9656261],[-105.5434042,37.9654826],[-105.5434991,37.9654137],[-105.5436224,37.9653874],[-105.5437261,37.9653772],[-105.543925,37.9653601],[-105.5440763,37.9653618],[-105.5442062,37.9653099],[-105.5444403,37.9652754],[-105.544531,37.965257],[-105.5446711,37.9652195],[-105.545126,37.9650694],[-105.5452972,37.9649808],[-105.5454384,37.9649032],[-105.5455821,37.9648065],[-105.5457271,37.9647163],[-105.5458223,37.964655],[-105.5461084,37.9647084],[-105.546232,37.9647074],[-105.5463732,37.9647167],[-105.5464969,37.9647254],[-105.5465992,37.9647226],[-105.5466504,37.9647031],[-105.5467,37.9646989],[-105.5467788,37.9646457],[-105.5468373,37.9645867],[-105.5468593,37.9645376],[-105.546861,37.9645027],[-105.5469067,37.9644237],[-105.5469396,37.9644089],[-105.5469577,37.9643746],[-105.5469935,37.9643616],[-105.54704,37.9643116],[-105.5470372,37.964272],[-105.5470921,37.9641923],[-105.5471951,37.9640942],[-105.547208,37.9639859],[-105.5472423,37.963881],[-105.5472756,37.9638492],[-105.5473326,37.9638068],[-105.5473834,37.963769],[-105.5474421,37.963775],[-105.5475384,37.9638201],[-105.54765,37.9637998],[-105.5478509,37.9637735],[-105.5479457,37.9637924],[-105.548045,37.96379],[-105.5482465,37.963832],[-105.5483667,37.9638134],[-105.5486156,37.9638235],[-105.5488945,37.9638641],[-105.5490361,37.9638912],[-105.5491863,37.9638371],[-105.5493108,37.9638438],[-105.5494395,37.9637863],[-105.5495211,37.9637931],[-105.5496155,37.9638472],[-105.5497314,37.9638709],[-105.5498258,37.9639318],[-105.5499417,37.9639419],[-105.5501197,37.9639856],[-105.5501391,37.9640536],[-105.5501925,37.964136],[-105.55034,37.9641575],[-105.5505411,37.9641525],[-105.5506133,37.9640918],[-105.5506567,37.9640797],[-105.5507882,37.9640832],[-105.550887,37.9640493],[-105.5510701,37.9639711],[-105.5512121,37.9639681],[-105.5513242,37.9640241],[-105.5514475,37.9640329],[-105.5514886,37.964083],[-105.5514437,37.9641684],[-105.5514138,37.9642244],[-105.5514549,37.9642656],[-105.5515222,37.9642686],[-105.5516118,37.9642303],[-105.5517389,37.9642185],[-105.5518323,37.9642686],[-105.5519182,37.9642656],[-105.5520377,37.9642862],[-105.5521797,37.9643599],[-105.5523067,37.9643923],[-105.5523927,37.9644041],[-105.5524498,37.9644021],[-105.5524597,37.9644472],[-105.5524379,37.9644949],[-105.5524566,37.9645244],[-105.5525432,37.9645852],[-105.5526592,37.9646361],[-105.5527364,37.9646456],[-105.5528117,37.9646779],[-105.5528733,37.9647326],[-105.5529531,37.9647987],[-105.5530726,37.9648076],[-105.5531847,37.9648783],[-105.5533267,37.9649548],[-105.5533875,37.9649934],[-105.5534313,37.9650579],[-105.5535724,37.9651626],[-105.5536287,37.9651948],[-105.553655,37.9652163],[-105.5536906,37.9652102],[-105.553736,37.9651745],[-105.5537994,37.9651034],[-105.5538933,37.965052],[-105.554029,37.9649872],[-105.5542009,37.9649048],[-105.5544662,37.9648501],[-105.5546093,37.9648732],[-105.5547491,37.9648732],[-105.5548438,37.9648382],[-105.5548959,37.964821],[-105.5550013,37.9648511],[-105.5550274,37.9648444],[-105.5550944,37.9647739],[-105.5551203,37.9647601],[-105.555162,37.9647613],[-105.5551776,37.9647343],[-105.5552035,37.9647127],[-105.555229,37.9647153],[-105.5552549,37.9647255],[-105.5553296,37.964695],[-105.5553563,37.9646851],[-105.5554687,37.9647018],[-105.5555882,37.9646578],[-105.555664,37.9646257],[-105.5558052,37.9645716],[-105.5558773,37.9645189],[-105.5559444,37.9645064],[-105.555967,37.9644893],[-105.555993,37.9644517],[-105.5559977,37.9644063],[-105.5560096,37.9643273],[-105.5560508,37.9642437],[-105.5560778,37.964201],[-105.5561172,37.9641806],[-105.5562,37.9641895],[-105.5562602,37.9642306],[-105.5563664,37.9643269],[-105.5564739,37.9644515],[-105.5565395,37.9644993],[-105.5566512,37.9645784],[-105.5567829,37.9646462],[-105.5569899,37.9646686],[-105.5570588,37.9646922],[-105.5571895,37.9647582],[-105.5572772,37.9647886],[-105.5573598,37.9648083],[-105.5574075,37.964814],[-105.5574926,37.9648437],[-105.5576553,37.964836],[-105.5578007,37.9647932],[-105.5578563,37.9647638],[-105.5579289,37.9647505],[-105.5580571,37.9647291],[-105.5582001,37.964733],[-105.5582986,37.9647913],[-105.5583381,37.9648709],[-105.5583438,37.9649027],[-105.5583913,37.9649354],[-105.5584488,37.9649532],[-105.558488,37.9649375],[-105.5585057,37.964904],[-105.5585465,37.964872],[-105.5585796,37.9648541],[-105.5586037,37.9648036],[-105.5586594,37.9647603],[-105.5587833,37.9647527],[-105.5589192,37.9647742],[-105.5590473,37.964862],[-105.5591695,37.9649576],[-105.5593132,37.9650278],[-105.5594261,37.9650735],[-105.5594808,37.9651348],[-105.5595535,37.9651798],[-105.5596797,37.9652724],[-105.5597455,37.9653182],[-105.5598588,37.9653809],[-105.5599224,37.9654015],[-105.5599735,37.9653921],[-105.5600746,37.9654199],[-105.5601455,37.9654143],[-105.5602446,37.9653872],[-105.560321,37.9653466],[-105.5603704,37.9653266],[-105.5604469,37.9653164],[-105.5605363,37.9652708],[-105.5606428,37.9652368],[-105.5606784,37.965218],[-105.5607633,37.9652242],[-105.5608381,37.9652122],[-105.5609091,37.9651828],[-105.5609994,37.9651615],[-105.5610964,37.9651615],[-105.5611674,37.965141],[-105.5612255,37.9651554],[-105.5613489,37.9651692],[-105.561406,37.9652138],[-105.5614839,37.9652919],[-105.5615147,37.9653073],[-105.5615579,37.9653094],[-105.5616574,37.9652715],[-105.5617098,37.9652834],[-105.5617554,37.9653086],[-105.5618281,37.9653925],[-105.5618866,37.9654259],[-105.5619386,37.9654714],[-105.5620632,37.965529],[-105.5620912,37.9656154],[-105.5621298,37.9656662],[-105.562147,37.9657458],[-105.5621363,37.9658322],[-105.5621427,37.9659694],[-105.5621126,37.9660626],[-105.562147,37.9661812],[-105.5622222,37.9662625],[-105.562291,37.9663658],[-105.5624263,37.9665267],[-105.5625252,37.9666131],[-105.5625596,37.9666318],[-105.5626713,37.9667859],[-105.5626971,37.9667978],[-105.5628002,37.9668181],[-105.5628647,37.9668604],[-105.5629141,37.9669316],[-105.5630903,37.9670129],[-105.5631741,37.9670298],[-105.5632944,37.9670569],[-105.563505,37.9671383],[-105.5637134,37.9671738],[-105.5637864,37.9672399],[-105.5638831,37.9672467],[-105.5639605,37.967311],[-105.5640593,37.9673398],[-105.5641689,37.9674161],[-105.5642398,37.9674838],[-105.5643408,37.9675871],[-105.5643623,37.9675922],[-105.5644203,37.9676498],[-105.5645127,37.9676769],[-105.5646523,37.9676989],[-105.5648006,37.9677565],[-105.5649789,37.9678514],[-105.5651659,37.9679598],[-105.5652067,37.9679615],[-105.5652668,37.9679988],[-105.5653249,37.9679971],[-105.5653485,37.9680377],[-105.5654086,37.9680648],[-105.5655182,37.9681919],[-105.5655741,37.9682816],[-105.5656192,37.9683138],[-105.5656643,37.9683883],[-105.5658233,37.9685865],[-105.5659888,37.9686661],[-105.5660339,37.9687356],[-105.5661542,37.9687898],[-105.5663476,37.9687966],[-105.5664293,37.9688135],[-105.5665281,37.9688813],[-105.5666613,37.968966],[-105.5667193,37.9690964],[-105.5667902,37.9691218],[-105.5668697,37.9692065],[-105.5670846,37.9693505],[-105.5672071,37.9693708],[-105.5674456,37.9693251],[-105.5675057,37.9692912],[-105.5675938,37.9693606],[-105.5677012,37.9694368],[-105.5677807,37.9694589],[-105.5678967,37.9695073],[-105.5678752,37.9695818],[-105.5678451,37.9696648],[-105.5678108,37.9697021],[-105.5677399,37.9697174],[-105.567699,37.9697461],[-105.567669,37.9697868],[-105.5676303,37.9698512],[-105.5675873,37.9699172],[-105.5674305,37.9699003],[-105.5673681,37.9698986],[-105.5673187,37.9699088],[-105.5672736,37.9699155],[-105.5673015,37.9699697],[-105.5673832,37.9700189],[-105.5673939,37.9700646],[-105.5674348,37.9700934],[-105.5674906,37.970195],[-105.5675916,37.9702865],[-105.5677227,37.970383],[-105.5677721,37.9704372],[-105.567843,37.9705101],[-105.567901,37.970566],[-105.5678795,37.9705829],[-105.5676496,37.9705219],[-105.56751,37.9704796],[-105.5674025,37.9704593],[-105.5673316,37.9704101],[-105.5672048,37.9703881],[-105.5671189,37.9703475],[-105.5670373,37.9703407],[-105.5670158,37.9703509],[-105.5670201,37.970383],[-105.5670888,37.9704474],[-105.5671619,37.9704897],[-105.5671619,37.9705118],[-105.5671146,37.9705152],[-105.5670566,37.9704914],[-105.5669685,37.9704745],[-105.5669277,37.9704372],[-105.5668331,37.9704203],[-105.566788,37.9703746],[-105.5667021,37.9703254],[-105.5666032,37.970317],[-105.5666655,37.9704118],[-105.5666935,37.9704762],[-105.5667794,37.9705321],[-105.5667923,37.970571],[-105.5670115,37.9707489],[-105.5671318,37.9708234],[-105.5672177,37.9708522],[-105.5673746,37.9709589],[-105.5671898,37.9709776],[-105.5671662,37.9709928],[-105.5671017,37.9709793],[-105.5670244,37.9709911],[-105.5669535,37.9709725],[-105.5668611,37.9709894],[-105.566586,37.9709081],[-105.5665044,37.9709013],[-105.5664442,37.9709132],[-105.5664142,37.9709403],[-105.566412,37.9709793],[-105.5664485,37.9710826],[-105.5664936,37.9712604],[-105.5665302,37.9712977],[-105.5665259,37.9713485],[-105.5665925,37.9714552],[-105.5666032,37.9714976],[-105.5666484,37.971567],[-105.5667407,37.9716653],[-105.5668074,37.9717262],[-105.5669685,37.9718194],[-105.5671082,37.9719024],[-105.567207,37.971982],[-105.5673445,37.9720718],[-105.5674777,37.9721361],[-105.5676367,37.9722005],[-105.5677656,37.972275],[-105.567944,37.97238],[-105.5681502,37.9724901],[-105.5682147,37.9725325],[-105.5684188,37.9725985],[-105.56858,37.9726663],[-105.5686788,37.9727493],[-105.5687175,37.9727984],[-105.568812,37.9728238],[-105.5686745,37.9728645],[-105.5685864,37.9728797],[-105.5685134,37.9729237],[-105.5683329,37.9729847],[-105.568161,37.9730406],[-105.5681094,37.9730609],[-105.5680707,37.9731016],[-105.5681094,37.9731693],[-105.5681094,37.9732015],[-105.5682469,37.9732405],[-105.5682469,37.9732659],[-105.5679955,37.9733506],[-105.5677442,37.9733912],[-105.5676711,37.9733946],[-105.5675852,37.9733895],[-105.567583,37.9734319],[-105.5674455,37.9734217],[-105.5672779,37.9734573],[-105.5671576,37.9734793],[-105.567033,37.9734996],[-105.5668632,37.9735183],[-105.5667193,37.9735301],[-105.5666226,37.973542],[-105.5665452,37.9735064],[-105.566427,37.9735657],[-105.5663669,37.9736029],[-105.5662552,37.9735877],[-105.5660446,37.9736944],[-105.5659479,37.9737063],[-105.5658791,37.97373],[-105.5657867,37.9736809],[-105.5656772,37.97373],[-105.5656342,37.9737012],[-105.5655654,37.973752],[-105.5655031,37.9737283],[-105.5654129,37.973752],[-105.5653527,37.97373],[-105.5652646,37.9737334],[-105.5651013,37.9737994],[-105.5650734,37.9737689],[-105.5650046,37.9738248],[-105.5649574,37.9737943],[-105.564822,37.9738587],[-105.5647146,37.973857],[-105.5646071,37.9739027],[-105.5644782,37.9738621],[-105.5643622,37.9738841],[-105.5642225,37.973857],[-105.5641946,37.9739078],[-105.5639948,37.9739637],[-105.5639432,37.9740196],[-105.5638809,37.9739925],[-105.5638487,37.9739502],[-105.5637563,37.9739773],[-105.5637112,37.9739349],[-105.5636489,37.9738909],[-105.5635672,37.9738807],[-105.5634963,37.9739417],[-105.5634426,37.973918],[-105.5633373,37.9739942],[-105.563318,37.9740484],[-105.5632514,37.9740569],[-105.5632041,37.9740213],[-105.5630902,37.974106],[-105.562957,37.9742076],[-105.5629334,37.974189],[-105.5629463,37.9741517],[-105.5628839,37.9741161],[-105.5627937,37.9741178],[-105.562697,37.9741958],[-105.5625917,37.9741958],[-105.5625659,37.9741483],[-105.5625101,37.9741229],[-105.5624499,37.9741907],[-105.5623876,37.9742127],[-105.5623597,37.9741907],[-105.5621147,37.9742855],[-105.5620438,37.9742838],[-105.561988,37.9743279],[-105.5619171,37.9743838],[-105.5617053,37.9743186],[-105.5615663,37.9743333],[-105.5614717,37.9743672],[-105.5613099,37.9743572],[-105.5611823,37.974346],[-105.5611037,37.9744097],[-105.5610664,37.9745038],[-105.5609436,37.9745207],[-105.5606821,37.9744518],[-105.5606134,37.9745399],[-105.5604062,37.9745689],[-105.5603479,37.9746125],[-105.5603155,37.9746603],[-105.5602437,37.9746554],[-105.5601983,37.9746374],[-105.560125,37.9746509],[-105.5600514,37.974694],[-105.560041,37.9747743],[-105.5600139,37.9748528],[-105.5599139,37.9749085],[-105.559792,37.9749198],[-105.5597018,37.9749353],[-105.5596434,37.9749986],[-105.5595529,37.9750221],[-105.5595053,37.9750645],[-105.5593759,37.9751104],[-105.559261,37.9751656],[-105.5589461,37.9753771],[-105.5585639,37.97555],[-105.5581951,37.975665],[-105.5576805,37.9757883],[-105.5569486,37.9759077],[-105.556517,37.9758909],[-105.5562424,37.9759717],[-105.5556764,37.9760808],[-105.5552935,37.9761468],[-105.555207,37.976234]]}}]}
