{"type":"FeatureCollection","peaks_destination_id":"r8BbID4eb58zpo65zd2x","peaks_trailhead_id":"draft-trailhead","peaks_source":"https://www.openstreetmap.org/","peaks_retrieval_source":"https://overpass-api.de/api/interpreter","peaks_license_name":"Open Data Commons Open Database License (ODbL) 1.0","peaks_license":"https://opendatacommons.org/licenses/odbl/1-0/","peaks_attribution":"© OpenStreetMap contributors","peaks_retrieved_at":"2026-07-30T19:24:13.777Z","features":[{"type":"Feature","properties":{"name":"Mauna Kea OSM route candidate","trailhead_name":"Maunakea Visitor Information Station Trailhead","destination_name":"Mauna Kea","distance_m":12274.090581309883,"trailhead_snap_m":1.8556025114849641,"summit_snap_m":263.2892075632416,"osm_way_ids":[931178629,1342720585,1185467687,1342718117,1194447117,1415492153,1415492152,45653429,45716241],"osm_way_urls":["https://www.openstreetmap.org/way/931178629","https://www.openstreetmap.org/way/1342720585","https://www.openstreetmap.org/way/1185467687","https://www.openstreetmap.org/way/1342718117","https://www.openstreetmap.org/way/1194447117","https://www.openstreetmap.org/way/1415492153","https://www.openstreetmap.org/way/1415492152","https://www.openstreetmap.org/way/45653429","https://www.openstreetmap.org/way/45716241"],"osm_way_names":["Mauna Kea–Humuʻula Trail","Mauna Kea Access Road"],"osm_foot_access_override_way_ids":[]},"geometry":{"type":"LineString","coordinates":[[-155.45617,19.75929],[-155.4561877,19.759291],[-155.4561874,19.7592519],[-155.456188,19.7591915],[-155.4561401,19.7589397],[-155.4561014,19.7587285],[-155.456139,19.7585218],[-155.4561971,19.7585204],[-155.4562714,19.7585195],[-155.4563304,19.7585143],[-155.4567256,19.7584135],[-155.4569407,19.7583526],[-155.4573792,19.7579387],[-155.4574584,19.7578983],[-155.4575788,19.7578623],[-155.45776,19.7577213],[-155.4579534,19.75756],[-155.458094,19.757389],[-155.4584655,19.7572736],[-155.458804,19.7572041],[-155.4590863,19.7571248],[-155.4593046,19.7570311],[-155.4598263,19.7568291],[-155.4600017,19.7568309],[-155.4604285,19.7568923],[-155.4607393,19.7569342],[-155.4609964,19.7570237],[-155.4610802,19.7570219],[-155.4612103,19.7569638],[-155.4614208,19.7569304],[-155.4616109,19.756983],[-155.461831,19.7568834],[-155.461996,19.7569204],[-155.4621362,19.7568745],[-155.4623014,19.7567947],[-155.4624532,19.7568021],[-155.462586,19.7568207],[-155.4627186,19.7567426],[-155.462845,19.7566874],[-155.4630538,19.7567069],[-155.4632715,19.7566693],[-155.4635096,19.7566991],[-155.4636214,19.7566265],[-155.4637485,19.7565657],[-155.463934,19.7564967],[-155.4640942,19.7565247],[-155.4642609,19.7567805],[-155.4645088,19.7571693],[-155.4650809,19.7580667],[-155.4659007,19.7591379],[-155.4665709,19.7598319],[-155.4670693,19.7602624],[-155.467827,19.7610936],[-155.4682592,19.761625],[-155.4682257,19.7628312],[-155.4679996,19.7628222],[-155.4676029,19.7627954],[-155.4670561,19.7626699],[-155.4667061,19.7625342],[-155.46651,19.7624073],[-155.466208,19.7624039],[-155.4660045,19.7624346],[-155.4656999,19.7626538],[-155.4652911,19.7627184],[-155.4649149,19.7628107],[-155.4647072,19.7628581],[-155.4644426,19.7630266],[-155.4640488,19.7630131],[-155.4638346,19.7630795],[-155.4637163,19.7631555],[-155.4634564,19.7631528],[-155.4631726,19.7632678],[-155.4629102,19.7633718],[-155.4627017,19.763578],[-155.4624092,19.7636899],[-155.4621901,19.7638658],[-155.4620447,19.763816],[-155.4618493,19.7636885],[-155.4616443,19.7636461],[-155.4613722,19.7637377],[-155.4609028,19.7637107],[-155.4604828,19.763688],[-155.460525,19.7638461],[-155.4602958,19.764231],[-155.4602733,19.7643907],[-155.4603153,19.7645812],[-155.4603601,19.7648342],[-155.460518,19.7650596],[-155.460722,19.7652379],[-155.4607634,19.7653334],[-155.4607436,19.7655573],[-155.4607521,19.7657076],[-155.4608627,19.765922],[-155.4610957,19.7662317],[-155.4611434,19.7663686],[-155.4611559,19.7665007],[-155.4612588,19.7666376],[-155.4613064,19.7668973],[-155.4613086,19.7671591],[-155.4614644,19.7672065],[-155.4617629,19.7672419],[-155.4622971,19.7671829],[-155.4626147,19.7674221],[-155.463216,19.7675226],[-155.4635021,19.7677709],[-155.4634946,19.7678241],[-155.4636851,19.7680661],[-155.4637227,19.7681447],[-155.463724,19.7681964],[-155.4637053,19.7682463],[-155.4637189,19.7682736],[-155.4636995,19.7682967],[-155.4637354,19.768324],[-155.4639212,19.7685468],[-155.4640728,19.7687939],[-155.4641597,19.7688472],[-155.4642231,19.7689034],[-155.4642666,19.7689857],[-155.4642648,19.7690193],[-155.4643269,19.7690752],[-155.4643269,19.7691122],[-155.4643598,19.7691346],[-155.4644248,19.7692232],[-155.4644878,19.7692765],[-155.4645546,19.7693754],[-155.4645864,19.7694482],[-155.4646789,19.7697557],[-155.4646725,19.7698749],[-155.4646554,19.77021],[-155.4646141,19.7704423],[-155.4645843,19.7707249],[-155.4646393,19.7709528],[-155.464622,19.7710271],[-155.4644488,19.7711477],[-155.4643001,19.771284],[-155.4641893,19.771507],[-155.4641555,19.7716176],[-155.4639978,19.7717348],[-155.4639531,19.7718751],[-155.4638399,19.7719198],[-155.4637509,19.7720423],[-155.4636422,19.7720709],[-155.4636227,19.7720945],[-155.4635883,19.7722184],[-155.4635491,19.7723094],[-155.4635085,19.7723906],[-155.4634482,19.7724438],[-155.4634083,19.77256],[-155.4632133,19.7729359],[-155.4631055,19.7730649],[-155.4629229,19.7732483],[-155.4628837,19.7735999],[-155.4628889,19.7738334],[-155.4628589,19.773951],[-155.4627854,19.7740503],[-155.4625986,19.774291],[-155.4625895,19.7743723],[-155.4625722,19.7744116],[-155.4624912,19.7744754],[-155.4624101,19.7745003],[-155.4623479,19.7745677],[-155.462337,19.7746888],[-155.4622864,19.7747632],[-155.4622145,19.7749677],[-155.4622051,19.7750768],[-155.4620625,19.7753351],[-155.4620439,19.7754618],[-155.4619746,19.7755383],[-155.4619278,19.7756924],[-155.4617285,19.776299],[-155.4616478,19.7764538],[-155.4617091,19.7769855],[-155.4616344,19.777311],[-155.4616076,19.7774083],[-155.4615846,19.7774983],[-155.46161,19.777624],[-155.4617397,19.7777774],[-155.4618636,19.7780752],[-155.4620971,19.7785879],[-155.4621136,19.7788413],[-155.4622733,19.7792972],[-155.4623609,19.7795679],[-155.4624378,19.7796843],[-155.4624378,19.7797748],[-155.4624928,19.7799041],[-155.462645,19.780906],[-155.462673,19.7810596],[-155.4627233,19.7811023],[-155.4628043,19.7811385],[-155.4628433,19.7811726],[-155.4629282,19.7812211],[-155.462928,19.7812666],[-155.4629595,19.7812949],[-155.4629788,19.7813362],[-155.4630583,19.7813996],[-155.4632052,19.7815918],[-155.4633296,19.7816749],[-155.4633469,19.7817161],[-155.4632939,19.7817765],[-155.4633093,19.7818671],[-155.4633316,19.7819117],[-155.4632991,19.7820742],[-155.4629,19.782471],[-155.4626606,19.7826888],[-155.4626369,19.7827374],[-155.4624415,19.7828787],[-155.4623844,19.7829474],[-155.4623969,19.7830157],[-155.4623272,19.7831364],[-155.462256,19.7832953],[-155.4622784,19.7833478],[-155.4622016,19.7834764],[-155.4621613,19.7835952],[-155.4621108,19.7836314],[-155.4620851,19.7837635],[-155.4620131,19.7840299],[-155.4619932,19.7840486],[-155.4619323,19.7843791],[-155.4618431,19.7844444],[-155.4618346,19.7845097],[-155.461768,19.7846936],[-155.4617703,19.7847586],[-155.4617312,19.7848056],[-155.4615833,19.7849236],[-155.4614041,19.7852807],[-155.4614031,19.7853472],[-155.4613191,19.7856074],[-155.4612989,19.7857331],[-155.4612108,19.7858509],[-155.4611807,19.7859329],[-155.4611847,19.7859857],[-155.4611377,19.7860865],[-155.4611417,19.7861195],[-155.4611266,19.7861581],[-155.4611277,19.786177],[-155.4610666,19.7862759],[-155.4610327,19.7863604],[-155.4609544,19.7864182],[-155.4608813,19.7865549],[-155.4607269,19.7867633],[-155.460707,19.7868593],[-155.4607279,19.7869816],[-155.4607731,19.7869969],[-155.4608634,19.7869974],[-155.4609173,19.7870817],[-155.4609023,19.7871552],[-155.4609085,19.7872187],[-155.4608693,19.7874992],[-155.4608432,19.7875519],[-155.4608192,19.7877272],[-155.4607971,19.7879609],[-155.4608302,19.7882521],[-155.460855,19.7883305],[-155.4608984,19.7886002],[-155.4609495,19.7886596],[-155.4610005,19.7887943],[-155.4610096,19.7888518],[-155.4610386,19.7889564],[-155.4610306,19.7890177],[-155.4610707,19.7890827],[-155.4610656,19.7891732],[-155.4611057,19.7892231],[-155.4611419,19.789322],[-155.4612419,19.7894022],[-155.4612784,19.7894346],[-155.461282,19.7894776],[-155.461266,19.7895124],[-155.461302,19.7895426],[-155.461318,19.7895718],[-155.461313,19.7896076],[-155.4613901,19.7897471],[-155.4613891,19.7897829],[-155.4614102,19.7898159],[-155.4614673,19.789846],[-155.4615895,19.7900458],[-155.4616696,19.7901928],[-155.4616816,19.7902711],[-155.4617136,19.7902993],[-155.461709,19.790356],[-155.4617327,19.7904049],[-155.4618398,19.7905274],[-155.4618579,19.7905802],[-155.4619009,19.7906047],[-155.461934,19.7906235],[-155.461962,19.7906791],[-155.4620001,19.7907112],[-155.4620211,19.7907865],[-155.4621153,19.7909599],[-155.4621786,19.7911253],[-155.4622835,19.7913341],[-155.4622745,19.791385],[-155.4623166,19.7914613],[-155.4622965,19.7915216],[-155.4623144,19.791578],[-155.4622613,19.791991],[-155.4622441,19.7920695],[-155.4622599,19.7922224],[-155.462224,19.7924405],[-155.4622139,19.7925891],[-155.4622537,19.7926592],[-155.4626269,19.7930236],[-155.4627064,19.7931317],[-155.4627646,19.7932792],[-155.4628159,19.793375],[-155.4628957,19.7935017],[-155.4632184,19.7943672],[-155.4633109,19.7945793],[-155.463457,19.7949754],[-155.463583,19.7951972],[-155.4636913,19.7954556],[-155.4637683,19.7955599],[-155.4638513,19.7958235],[-155.4639325,19.7959288],[-155.4640427,19.7960772],[-155.4640803,19.7961509],[-155.4641947,19.7962783],[-155.4645492,19.7965642],[-155.4646774,19.7966707],[-155.4647445,19.7967708],[-155.464869,19.796889],[-155.4650212,19.7969801],[-155.4652652,19.797267],[-155.4653882,19.7974081],[-155.4654068,19.7975811],[-155.4654022,19.797689],[-155.4654259,19.7977415],[-155.4654181,19.7977989],[-155.465617,19.7981286],[-155.4656451,19.7982252],[-155.4657704,19.7982842],[-155.4658828,19.79839],[-155.4658928,19.7984439],[-155.4659401,19.798505],[-155.4659661,19.798564],[-155.4659715,19.7986265],[-155.4660662,19.7987617],[-155.4661006,19.7988573],[-155.46625,19.7990307],[-155.4664399,19.7992062],[-155.4665502,19.7992764],[-155.4667626,19.7993413],[-155.4668348,19.7994421],[-155.4669108,19.7994796],[-155.4670222,19.7994753],[-155.4670842,19.7995109],[-155.4671534,19.7994882],[-155.467193,19.7994915],[-155.4675,19.8000188],[-155.4676987,19.8002792],[-155.4677664,19.8004283],[-155.4678927,19.8004997],[-155.4680478,19.8007104],[-155.4681408,19.8008109],[-155.4682086,19.8009816],[-155.4683142,19.8010954],[-155.4683705,19.8015921],[-155.4684487,19.8017178],[-155.4686324,19.8019666],[-155.4687829,19.802034],[-155.4688008,19.802152],[-155.468851,19.8023509],[-155.4689292,19.8025729],[-155.4688782,19.8027224],[-155.468866,19.8028182],[-155.4689119,19.8028936],[-155.4689861,19.8030185],[-155.4689815,19.803133],[-155.4691198,19.8031487],[-155.4692768,19.8032749],[-155.4694156,19.8032865],[-155.4694524,19.803334],[-155.469448,19.803454],[-155.4697326,19.8036128],[-155.4699613,19.803889],[-155.469959,19.8040255],[-155.4699818,19.8040782],[-155.4700516,19.8041729],[-155.4700666,19.8043931],[-155.4701658,19.8044745],[-155.4703996,19.8047734],[-155.470413,19.8049335],[-155.4706921,19.8055932],[-155.4708223,19.8056901],[-155.4709319,19.8060156],[-155.4710406,19.8061955],[-155.4712875,19.8063434],[-155.4713362,19.8064954],[-155.4714057,19.8065481],[-155.4715153,19.806718],[-155.471598,19.8069514],[-155.4716164,19.8071632],[-155.4715245,19.8072172],[-155.4715155,19.8074151],[-155.4715911,19.80747],[-155.4717887,19.8075148],[-155.47219,19.807653],[-155.4725375,19.8079193],[-155.4726074,19.8081155],[-155.4727382,19.8083507],[-155.4727715,19.8085112],[-155.4728841,19.808627],[-155.4730467,19.8086805],[-155.4730704,19.8087537],[-155.4731221,19.8087818],[-155.4732036,19.8087721],[-155.4732591,19.8088039],[-155.4733495,19.808851],[-155.4733759,19.8088769],[-155.4733839,19.8089169],[-155.4734459,19.8089601],[-155.4734942,19.809013],[-155.473524,19.8090228],[-155.473609,19.8090746],[-155.4736136,19.8091103],[-155.4736412,19.8091351],[-155.4736822,19.8092143],[-155.4737147,19.8092508],[-155.4736906,19.8092983],[-155.4736952,19.8093685],[-155.4737135,19.8093999],[-155.4736986,19.8094301],[-155.4736584,19.8095468],[-155.4736837,19.8095944],[-155.4736515,19.8096916],[-155.4736644,19.809775],[-155.4737208,19.809859],[-155.4737224,19.8099041],[-155.4737362,19.8099247],[-155.4737435,19.8099874],[-155.4737679,19.8100271],[-155.4737756,19.8101042],[-155.4737419,19.8102013],[-155.4737565,19.8102517],[-155.4738458,19.8103449],[-155.4739092,19.8103342],[-155.4739985,19.8103877],[-155.4740569,19.8104692],[-155.4741712,19.8105164],[-155.474193,19.8106],[-155.4742406,19.8106015],[-155.4743106,19.8105819],[-155.4744012,19.8106],[-155.4744711,19.8105783],[-155.4745875,19.8105634],[-155.4746714,19.8105591],[-155.4747442,19.810609],[-155.4748137,19.8108859],[-155.4747164,19.8110252],[-155.4746234,19.8111868],[-155.4746037,19.8113235],[-155.4746129,19.8115245],[-155.4747234,19.8117344],[-155.475317,19.8127843],[-155.4754387,19.8130643],[-155.4755351,19.8135695],[-155.4755608,19.8138736],[-155.4755033,19.8142976],[-155.4753928,19.8148043],[-155.4753248,19.8150671],[-155.4752542,19.8153148],[-155.4751455,19.8155997],[-155.4747458,19.8161785],[-155.4746878,19.8163565],[-155.4746673,19.8166531],[-155.4746214,19.816833],[-155.4745271,19.8170079],[-155.4742076,19.8177241],[-155.4741196,19.8178449],[-155.4737051,19.81832],[-155.4735709,19.8183937],[-155.4736982,19.8186396],[-155.473753,19.8187453],[-155.4738063,19.8188228],[-155.4738452,19.8188576],[-155.4738958,19.8188952],[-155.4739536,19.8189303],[-155.4740411,19.8189678],[-155.4741085,19.8189965],[-155.4741365,19.8190171],[-155.4741609,19.8190406],[-155.4741817,19.8190701],[-155.4741919,19.8190892],[-155.4742011,19.8191166],[-155.4742035,19.819148],[-155.4742023,19.8191776],[-155.4741963,19.8192128],[-155.4741799,19.8192471],[-155.4741616,19.819271],[-155.4741362,19.8192929],[-155.4741135,19.8193065],[-155.4740887,19.819316],[-155.4740618,19.8193208],[-155.4740322,19.8193209],[-155.4740089,19.8193163],[-155.4738886,19.8192726],[-155.4738036,19.8192259],[-155.4736821,19.8191481],[-155.4736135,19.8190993],[-155.4735777,19.8190667],[-155.4734855,19.8189654],[-155.4733732,19.8188415],[-155.4732948,19.8187563],[-155.4732098,19.8186757],[-155.4731073,19.8185836],[-155.472983,19.8184791],[-155.4728032,19.8183375],[-155.4726357,19.8182123],[-155.4724369,19.8180799],[-155.4722549,19.8179654],[-155.4720349,19.8178456],[-155.4718308,19.817747],[-155.471629,19.8176483],[-155.471452,19.8175737],[-155.4713452,19.8175347],[-155.4712239,19.817493],[-155.4709492,19.8174122],[-155.470563,19.8173115],[-155.4704323,19.8172778],[-155.4702755,19.8172441],[-155.4701388,19.8172178],[-155.4696067,19.8171537],[-155.4692096,19.8170945],[-155.4690482,19.817068],[-155.4688773,19.8170414],[-155.4687028,19.8170054],[-155.4685881,19.8169749],[-155.4684038,19.8169179],[-155.468111,19.8168062],[-155.4677507,19.8166683],[-155.4676799,19.8166503],[-155.4676004,19.8166366],[-155.4675399,19.8166352],[-155.467522,19.8166388],[-155.4674886,19.8166463],[-155.4674527,19.8166569],[-155.4674293,19.816672],[-155.4674068,19.8166974],[-155.4673888,19.8167305],[-155.4673773,19.8167609],[-155.4673721,19.8167985],[-155.4673749,19.8168328],[-155.4673835,19.8168588],[-155.4673955,19.8168753],[-155.4674104,19.8168897],[-155.46743,19.816903],[-155.4674532,19.8169121],[-155.4674835,19.816918],[-155.4675184,19.8169196],[-155.467543,19.8169212],[-155.4676285,19.8169085],[-155.4676841,19.8169028],[-155.4677447,19.8169033],[-155.4678831,19.8169356],[-155.4679657,19.8169599],[-155.4680753,19.8169994],[-155.4682101,19.817075],[-155.4683495,19.8171423],[-155.4684584,19.8172014],[-155.4685652,19.8172644],[-155.4686618,19.817328],[-155.4689333,19.8175183],[-155.4691433,19.8176616],[-155.4693541,19.8177974],[-155.4695975,19.8179476],[-155.4697824,19.8180472],[-155.469995,19.8181537],[-155.4702001,19.8182604],[-155.4703837,19.8183714],[-155.4705294,19.8184762],[-155.470617,19.8185528],[-155.4707141,19.8186431],[-155.4708281,19.8187648],[-155.4709194,19.8188738],[-155.4710049,19.8189951],[-155.4710449,19.819058],[-155.4711062,19.8191753],[-155.4711739,19.8193194],[-155.471227,19.8194628],[-155.471344,19.8198026],[-155.4713935,19.8199737],[-155.4714155,19.8200898],[-155.471425,19.8202128],[-155.4714243,19.8203328],[-155.471414,19.8204447],[-155.4713983,19.820556],[-155.4713789,19.8206673],[-155.4713463,19.820804],[-155.4713117,19.82091],[-155.4712711,19.8210069],[-155.4712313,19.8210928],[-155.471164,19.8211883],[-155.4710837,19.8213136],[-155.4710041,19.8214316],[-155.4708972,19.8216103],[-155.470844,19.8217062],[-155.4706746,19.8220115],[-155.4706347,19.8220637],[-155.4705942,19.822104],[-155.4705464,19.8221529],[-155.4704853,19.8222074],[-155.4704109,19.8222509],[-155.4702368,19.8223474],[-155.4699728,19.8224881],[-155.4698111,19.8225441],[-155.4696987,19.8225879],[-155.4695791,19.8226249],[-155.4694534,19.8226573],[-155.469417,19.822671],[-155.4693136,19.8227124],[-155.468024,19.820679]]}}]}
