{"type":"FeatureCollection","peaks_destination_id":"knQFIPXtgeqmSUl7shWJ","peaks_trailhead_id":"ABC87105223BE0290DE0","peaks_source":"https://api.openstreetmap.org/api/0.6","peaks_license_name":"Open Data Commons Open Database License (ODbL) 1.0","peaks_license":"https://opendatacommons.org/licenses/odbl/1-0/","peaks_attribution":"© OpenStreetMap contributors","peaks_retrieved_at":"2026-07-30T16:15:54.662Z","features":[{"type":"Feature","properties":{"name":"Mount Sherman OSM route candidate","trailhead_name":"Fourmile Creek Trailhead","destination_name":"Mount Sherman","distance_m":3707.9708164853373,"trailhead_snap_m":0,"summit_snap_m":12.89198302917855,"osm_way_ids":[132153942,1304896645,1190722396,1304896648,1304896649,1190834708,1304896650,1304896644,1304900226,441970652],"osm_way_urls":["https://www.openstreetmap.org/way/132153942","https://www.openstreetmap.org/way/1304896645","https://www.openstreetmap.org/way/1190722396","https://www.openstreetmap.org/way/1304896648","https://www.openstreetmap.org/way/1304896649","https://www.openstreetmap.org/way/1190834708","https://www.openstreetmap.org/way/1304896650","https://www.openstreetmap.org/way/1304896644","https://www.openstreetmap.org/way/1304900226","https://www.openstreetmap.org/way/441970652"],"osm_way_names":["Four Mile Creek Road","Mount Sherman - Southwest Ridge from Fourmile Creek"],"osm_foot_access_override_way_ids":[]},"geometry":{"type":"LineString","coordinates":[[-106.1623453,39.2057968],[-106.1623453,39.2057968],[-106.1625585,39.2062507],[-106.1627543,39.206584],[-106.1629079,39.2067425],[-106.1630475,39.2068523],[-106.1632285,39.2069184],[-106.1634697,39.2070046],[-106.1638905,39.2072645],[-106.1641314,39.2073892],[-106.1642419,39.2074146],[-106.1643419,39.2074167],[-106.1644267,39.2074111],[-106.1645326,39.2073712],[-106.1649362,39.2071282],[-106.1650769,39.2070798],[-106.1652177,39.2070618],[-106.1655249,39.2070669],[-106.1656855,39.2070747],[-106.1658684,39.2070964],[-106.1661253,39.207141],[-106.1663614,39.2072186],[-106.16661,39.2073136],[-106.1668496,39.2074147],[-106.1670582,39.2075255],[-106.1672631,39.2076288],[-106.1675146,39.2077294],[-106.1677721,39.2078081],[-106.1680127,39.2078691],[-106.1689394,39.2080563],[-106.1691619,39.2081116],[-106.1693748,39.2081557],[-106.1696011,39.2081818],[-106.1698318,39.2081959],[-106.1702421,39.2081677],[-106.1703771,39.2081741],[-106.1704933,39.2082091],[-106.1706476,39.2082774],[-106.1706983,39.2083055],[-106.1707666,39.2083242],[-106.170842,39.208311],[-106.1708995,39.2082745],[-106.1709749,39.2082434],[-106.1710506,39.2082369],[-106.1711266,39.2082805],[-106.1711751,39.2083292],[-106.1712067,39.2083932],[-106.1712109,39.2084533],[-106.1711977,39.2085028],[-106.171216,39.2085477],[-106.171276,39.2085765],[-106.1714919,39.2085855],[-106.1716457,39.2086226],[-106.1717945,39.2087078],[-106.1719071,39.2087765],[-106.171985,39.2088408],[-106.1720493,39.2089177],[-106.1721472,39.2089551],[-106.1722451,39.209006],[-106.1723672,39.2090531],[-106.1724042,39.2091457],[-106.1724885,39.2092415],[-106.1725921,39.2093215],[-106.17271,39.2093855],[-106.1730926,39.2095212],[-106.1731746,39.209553],[-106.1732324,39.2095831],[-106.1733018,39.2096265],[-106.1734842,39.2097824],[-106.1734969,39.2098151],[-106.1734952,39.2098533],[-106.1736292,39.2098893],[-106.1737968,39.2099298],[-106.1738974,39.2099621],[-106.174002,39.2099787],[-106.1741482,39.2099891],[-106.1742421,39.2099963],[-106.1743064,39.2100119],[-106.1743882,39.2100545],[-106.1744955,39.2101262],[-106.1746162,39.2102146],[-106.1747544,39.2102769],[-106.1749019,39.2103476],[-106.1750843,39.2104619],[-106.1751889,39.2105211],[-106.1752854,39.2106032],[-106.1753431,39.2106832],[-106.1754088,39.210731],[-106.1754946,39.210757],[-106.17561,39.2107861],[-106.1756556,39.2108599],[-106.175724,39.2109492],[-106.1758246,39.2110012],[-106.1759345,39.2110604],[-106.1760378,39.2111602],[-106.1761075,39.211263],[-106.1761464,39.2114127],[-106.176196,39.2115592],[-106.1762148,39.2116673],[-106.1762242,39.2117483],[-106.1762121,39.2118013],[-106.1761129,39.2118678],[-106.1759613,39.2119468],[-106.175795,39.2120839],[-106.1756462,39.212191],[-106.1754665,39.2123115],[-106.1754008,39.2123572],[-106.1753458,39.2124539],[-106.1753243,39.2125359],[-106.1752774,39.2126191],[-106.1751392,39.2127406],[-106.1750561,39.2128362],[-106.1749703,39.212937],[-106.1748227,39.2130513],[-106.1747503,39.213122],[-106.174686,39.2132062],[-106.1746658,39.2133007],[-106.1746699,39.2134109],[-106.1746752,39.2135293],[-106.1747034,39.2136467],[-106.1747409,39.2137454],[-106.1747812,39.2138836],[-106.1748013,39.2139387],[-106.1748509,39.2140042],[-106.1749099,39.2140281],[-106.1749689,39.2140748],[-106.1749971,39.2141403],[-106.1750212,39.214238],[-106.1750481,39.2143097],[-106.1750869,39.2143803],[-106.1751431,39.2144502],[-106.1754633,39.2143653],[-106.1755868,39.2143512],[-106.1756288,39.2143504],[-106.1756697,39.2143567],[-106.1760223,39.2144769],[-106.1760681,39.2144855],[-106.1761126,39.214504],[-106.1761812,39.2145052],[-106.1762715,39.2145147],[-106.1763486,39.2145063],[-106.1764089,39.2144859],[-106.1764508,39.2144543],[-106.1765104,39.2143827],[-106.1765633,39.2143008],[-106.1766222,39.2142528],[-106.1766698,39.2142031],[-106.1767189,39.2141546],[-106.1767513,39.2141531],[-106.1768069,39.2141763],[-106.1768355,39.2141883],[-106.1768519,39.2141883],[-106.1768658,39.2141788],[-106.1768731,39.2141589],[-106.1769122,39.2141334],[-106.1769657,39.2140703],[-106.1769959,39.2140515],[-106.1770491,39.213974],[-106.1770883,39.2139469],[-106.1771273,39.2138997],[-106.1772164,39.2138679],[-106.1772573,39.2138493],[-106.1772709,39.2138351],[-106.1772877,39.2138251],[-106.1773041,39.2138279],[-106.1773168,39.213839],[-106.1773378,39.213925],[-106.1773431,39.2140265],[-106.1773608,39.2141005],[-106.1773519,39.2142239],[-106.1773431,39.21435],[-106.1773643,39.2144378],[-106.1773867,39.2144729],[-106.1774068,39.2145105],[-106.1774776,39.2145612],[-106.1775218,39.2145968],[-106.1775342,39.2146668],[-106.1775713,39.2147147],[-106.1776315,39.2147901],[-106.1776704,39.2149053],[-106.1776474,39.2149889],[-106.1776227,39.2150644],[-106.1776439,39.2151878],[-106.1776704,39.2152426],[-106.1777359,39.2152878],[-106.177766,39.2153276],[-106.17772,39.2153866],[-106.1776933,39.2154463],[-106.17766,39.2155196],[-106.1776428,39.2155928],[-106.1776267,39.2156827],[-106.1776138,39.2157818],[-106.1776074,39.2158542],[-106.1776149,39.2159166],[-106.1776361,39.2160898],[-106.1776084,39.2162745],[-106.1775741,39.2163736],[-106.1775322,39.2165026],[-106.177559,39.2165783],[-106.1775225,39.2166641],[-106.1775322,39.2167864],[-106.177472,39.2168696],[-106.1775429,39.2169545],[-106.1776022,39.2170082],[-106.1776042,39.2170521],[-106.1775605,39.2171037],[-106.1775703,39.2171219],[-106.1776172,39.2171769],[-106.1776074,39.2172588],[-106.1776095,39.217301],[-106.1776321,39.2173493],[-106.1776471,39.2174108],[-106.1775623,39.2175449],[-106.1775988,39.2175707],[-106.1775773,39.2176372],[-106.1775086,39.217698],[-106.1774065,39.2177688],[-106.1773098,39.217842],[-106.1772614,39.217876],[-106.1772389,39.2179061],[-106.1772368,39.2179494],[-106.1772251,39.2179775],[-106.1771744,39.2180476],[-106.1772045,39.2180775],[-106.1772367,39.2180847],[-106.1772604,39.2181025],[-106.1772636,39.218135],[-106.1772088,39.218224],[-106.1772593,39.2183081],[-106.1772432,39.2183755],[-106.1772496,39.2184413],[-106.1772368,39.2185237],[-106.177226,39.2186102],[-106.1772035,39.2186635],[-106.1771401,39.2187018],[-106.1770874,39.2187426],[-106.1770509,39.2188067],[-106.1770015,39.2188449],[-106.1769695,39.2188925],[-106.1769714,39.2189456],[-106.1769705,39.2190155],[-106.1769411,39.2190739],[-106.1768972,39.2191396],[-106.1768453,39.2191901],[-106.1767699,39.2192272],[-106.1767658,39.2192728],[-106.1767592,39.2193214],[-106.1767307,39.2194155],[-106.176672,39.2194576],[-106.1765959,39.2194853],[-106.1765181,39.2195255],[-106.1764325,39.2195911],[-106.176341,39.2196573],[-106.1762817,39.2196847],[-106.1762344,39.2197289],[-106.1761522,39.2197759],[-106.1760397,39.2198182],[-106.1759254,39.2198426],[-106.1758561,39.2198803],[-106.1758181,39.2199258],[-106.1757768,39.2199786],[-106.1757259,39.2200223],[-106.1756564,39.2200566],[-106.1755648,39.2200869],[-106.1754617,39.220128],[-106.175351,39.2201833],[-106.1753197,39.2202105],[-106.1752995,39.2202606],[-106.1752918,39.2203126],[-106.175266,39.2203713],[-106.1752316,39.2204174],[-106.1751659,39.220506],[-106.1751286,39.2205395],[-106.175055,39.2205944],[-106.1750259,39.2206454],[-106.1749714,39.2206807],[-106.1748789,39.2207051],[-106.1748395,39.2207369],[-106.1748113,39.2207712],[-106.1747513,39.2207917],[-106.1746931,39.220797],[-106.1745745,39.220869],[-106.1744332,39.2209364],[-106.174309,39.2210119],[-106.1742131,39.2210559],[-106.1736014,39.2213444],[-106.1735196,39.2214051],[-106.1734828,39.2214469],[-106.1734209,39.2214882],[-106.1733569,39.2215029],[-106.1732935,39.2215344],[-106.1731336,39.2216983],[-106.1731021,39.2217737],[-106.1730595,39.2218214],[-106.1729951,39.2218489],[-106.1728849,39.2218843],[-106.1727856,39.2219414],[-106.1726448,39.2220433],[-106.172602,39.2220729],[-106.1724845,39.2221275],[-106.1723984,39.2221913],[-106.1723462,39.2222393],[-106.1721799,39.2223887],[-106.1720848,39.2224714],[-106.1719804,39.222525],[-106.1718503,39.2225851],[-106.1716732,39.2227059],[-106.1714512,39.222946],[-106.1712931,39.2230441],[-106.1711238,39.2231507],[-106.1708817,39.2233611],[-106.1707528,39.223587],[-106.1706776,39.2236297],[-106.1705371,39.2237517],[-106.170487,39.223826],[-106.1703453,39.224157],[-106.1703026,39.2242723],[-106.1701868,39.2244216],[-106.1701089,39.224629],[-106.1700671,39.2250795],[-106.16993,39.225033]]}}]}
