{"type":"FeatureCollection","peaks_destination_id":"MsFlUhY0bBEZd8GiPJg1","peaks_trailhead_id":"draft-trailhead","peaks_source":"https://www.openstreetmap.org/","peaks_retrieval_source":"https://api.openstreetmap.org/api/0.6","peaks_license_name":"Open Data Commons Open Database License (ODbL) 1.0","peaks_license":"https://opendatacommons.org/licenses/odbl/1-0/","peaks_attribution":"© OpenStreetMap contributors","peaks_retrieved_at":"2026-07-30T19:42:58.133Z","features":[{"type":"Feature","properties":{"name":"Mount Kosciuszko OSM route candidate","trailhead_name":"Charlotte Pass Summit Walk Trailhead","destination_name":"Mount Kosciuszko","distance_m":12661.098467404177,"trailhead_snap_m":41.54576925228345,"summit_snap_m":26.04361080366139,"osm_way_ids":[233218498,995790920,233218503,29276127,746848137,746848138,678046886,1375213493,1526253398,1375213494,289134852,1526253397],"osm_way_urls":["https://www.openstreetmap.org/way/233218498","https://www.openstreetmap.org/way/995790920","https://www.openstreetmap.org/way/233218503","https://www.openstreetmap.org/way/29276127","https://www.openstreetmap.org/way/746848137","https://www.openstreetmap.org/way/746848138","https://www.openstreetmap.org/way/678046886","https://www.openstreetmap.org/way/1375213493","https://www.openstreetmap.org/way/1526253398","https://www.openstreetmap.org/way/1375213494","https://www.openstreetmap.org/way/289134852","https://www.openstreetmap.org/way/1526253397"],"osm_way_names":["Main Range Walking Track","Kosciuszko Walk"],"osm_foot_access_override_way_ids":[]},"geometry":{"type":"LineString","coordinates":[[148.32908,-36.43152],[148.3286543,-36.4316693],[148.3285264,-36.4315829],[148.3282569,-36.4313733],[148.3280383,-36.4312163],[148.3278035,-36.4311398],[148.3275355,-36.4310781],[148.3268214,-36.431064],[148.3264406,-36.431056],[148.3260044,-36.431165],[148.3255681,-36.431274],[148.3251357,-36.431316],[148.3248264,-36.4314327],[148.3245384,-36.4314187],[148.3242503,-36.4313788],[148.3235403,-36.4314473],[148.3229716,-36.4314977],[148.3225771,-36.431488],[148.3225148,-36.431477],[148.3224674,-36.4314468],[148.3224346,-36.4314032],[148.322137,-36.4308032],[148.3220816,-36.4306424],[148.3220871,-36.4305471],[148.3221552,-36.430428],[148.3221794,-36.4303613],[148.3221788,-36.4302869],[148.3221679,-36.4302181],[148.3221185,-36.4301298],[148.3220248,-36.4299905],[148.3219571,-36.4299835],[148.3218738,-36.4299953],[148.3217404,-36.4300402],[148.3216777,-36.4300131],[148.3216579,-36.4298748],[148.3215672,-36.4296672],[148.3215052,-36.4296114],[148.3214054,-36.4295739],[148.3210776,-36.4294942],[148.3209143,-36.4294185],[148.3206422,-36.4291926],[148.3203335,-36.4291226],[148.3201868,-36.4289799],[148.3199454,-36.4286941],[148.3197299,-36.4286072],[148.3193046,-36.4285562],[148.3188213,-36.4285421],[148.3182374,-36.4282635],[148.3174193,-36.4279551],[148.317087,-36.4277587],[148.3168857,-36.4276462],[148.3167667,-36.4274924],[148.3167239,-36.427437],[148.3166543,-36.4273951],[148.3165414,-36.4273881],[148.3163951,-36.4274025],[148.3161687,-36.4273387],[148.3159567,-36.427216],[148.3157447,-36.4270851],[148.3154991,-36.4269261],[148.3153074,-36.4267827],[148.3151651,-36.426553],[148.3150905,-36.4263606],[148.3150219,-36.4257458],[148.3150139,-36.4254917],[148.3150333,-36.425272],[148.315096,-36.4250301],[148.3152567,-36.4247446],[148.3152781,-36.4245959],[148.3152089,-36.4241655],[148.3152205,-36.4236083],[148.3151844,-36.4234017],[148.3151728,-36.4230453],[148.3151093,-36.4228503],[148.3150818,-36.422652],[148.3149999,-36.4225377],[148.3148101,-36.4221784],[148.3146737,-36.422064],[148.3146089,-36.4218809],[148.3145569,-36.4217972],[148.3141796,-36.4216058],[148.3140151,-36.4214665],[148.3138028,-36.4212071],[148.3137014,-36.4211396],[148.313407,-36.4210647],[148.3131898,-36.4209754],[148.312998,-36.4208512],[148.3127578,-36.4206216],[148.3126173,-36.4205115],[148.3124076,-36.4203818],[148.3122669,-36.4202603],[148.3120847,-36.4199792],[148.3118392,-36.4195246],[148.3115251,-36.4190641],[148.3113593,-36.4186105],[148.3112578,-36.4184272],[148.3110458,-36.4176198],[148.3110142,-36.4173794],[148.3110686,-36.4171961],[148.3110681,-36.4169217],[148.3109899,-36.4167241],[148.3109904,-36.416543],[148.3109288,-36.4161012],[148.3108474,-36.4158475],[148.3104489,-36.4151949],[148.31032,-36.414886],[148.3101038,-36.414584],[148.3098357,-36.414272],[148.309611,-36.4141129],[148.3090269,-36.4139887],[148.3086849,-36.4138352],[148.3084839,-36.4137052],[148.3083388,-36.4135095],[148.3082069,-36.4132595],[148.3076983,-36.4128351],[148.3072104,-36.4124357],[148.3071814,-36.4124119],[148.3071874,-36.4121516],[148.3071182,-36.4118142],[148.3070458,-36.4116],[148.3068686,-36.4113608],[148.3065259,-36.4111523],[148.3059811,-36.4108699],[148.3058571,-36.4106473],[148.305698,-36.4104376],[148.3054648,-36.410163],[148.3055091,-36.4098353],[148.3057035,-36.4094017],[148.3057764,-36.4090979],[148.3059394,-36.4086348],[148.3060356,-36.4082319],[148.3062178,-36.4078716],[148.3062913,-36.4077629],[148.3063743,-36.4076273],[148.3063786,-36.4075882],[148.3063382,-36.4075559],[148.306168,-36.4075211],[148.3056527,-36.4074012],[148.3055844,-36.4073856],[148.3055128,-36.4073807],[148.3052499,-36.4074079],[148.3050677,-36.4074255],[148.3049515,-36.407433],[148.3048778,-36.4074325],[148.3042759,-36.4074156],[148.304172,-36.4074216],[148.3040351,-36.4074478],[148.303914,-36.4074633],[148.3035977,-36.4074733],[148.3034515,-36.4074814],[148.3031682,-36.4075114],[148.3030648,-36.4075148],[148.3027816,-36.4075042],[148.3023222,-36.4074441],[148.3022251,-36.4074067],[148.3020862,-36.4073389],[148.3019113,-36.4071864],[148.301812,-36.4071274],[148.3017297,-36.4071064],[148.3016323,-36.4071035],[148.3015111,-36.4070924],[148.3013427,-36.4070322],[148.3012436,-36.4069976],[148.300932,-36.4069274],[148.3006951,-36.4068557],[148.3006278,-36.4068259],[148.300573,-36.4067772],[148.3005132,-36.4067761],[148.3004542,-36.4067791],[148.3002755,-36.4068256],[148.3001095,-36.4068963],[148.2997984,-36.4070534],[148.2996691,-36.4071121],[148.2995691,-36.4071346],[148.2994543,-36.4071371],[148.2993168,-36.4071183],[148.2989629,-36.4070817],[148.2987936,-36.407065],[148.2986195,-36.4070288],[148.2983937,-36.4069753],[148.2981,-36.4069279],[148.2977883,-36.4069047],[148.297585,-36.4069021],[148.2973856,-36.406909],[148.297139,-36.4069271],[148.2968725,-36.406958],[148.2966103,-36.4070353],[148.2962241,-36.4071869],[148.2961391,-36.4072372],[148.2960652,-36.4073161],[148.2958879,-36.4080603],[148.295855,-36.4080946],[148.2958016,-36.408116],[148.2951256,-36.4083372],[148.2945797,-36.4085183],[148.2944789,-36.4085714],[148.2943546,-36.4086692],[148.2942888,-36.4086962],[148.2942178,-36.4086884],[148.2940086,-36.4085876],[148.2939207,-36.4085602],[148.2937827,-36.4085311],[148.2937185,-36.4085394],[148.2936941,-36.4085679],[148.2929369,-36.409904],[148.2928721,-36.4105757],[148.2926462,-36.4106342],[148.2925509,-36.4103828],[148.2921575,-36.4100092],[148.2914508,-36.4097645],[148.2909508,-36.4099883],[148.2905236,-36.4099613],[148.2902116,-36.4102722],[148.2901121,-36.4102775],[148.2896247,-36.4098024],[148.2893447,-36.4101605],[148.2886517,-36.4099096],[148.288121,-36.4095438],[148.2879198,-36.4094038],[148.2877538,-36.4092842],[148.2876883,-36.4092668],[148.2876419,-36.4093003],[148.2876055,-36.4094223],[148.2876005,-36.4096955],[148.2876297,-36.4100465],[148.2875943,-36.4107065],[148.2875292,-36.4110376],[148.2874251,-36.4113647],[148.287355,-36.4116159],[148.287332,-36.4122933],[148.2873321,-36.4123641],[148.2873327,-36.4127103],[148.2873094,-36.4129002],[148.2872866,-36.4131852],[148.2871391,-36.4136115],[148.2868655,-36.4139924],[148.2863036,-36.4150317],[148.2861346,-36.4153944],[148.2858154,-36.4159631],[148.2852843,-36.4163182],[148.2848874,-36.4169204],[148.2845628,-36.417624],[148.2841846,-36.4183212],[148.283698,-36.418734],[148.283152,-36.4188845],[148.2824573,-36.4189881],[148.2816634,-36.4192148],[148.2813039,-36.4194932],[148.2810035,-36.4198126],[148.2807675,-36.4201321],[148.2804483,-36.4204903],[148.2801291,-36.4208637],[148.2800111,-36.4211573],[148.2799521,-36.4214594],[148.2796973,-36.421931],[148.2797188,-36.4223508],[148.279696,-36.4226627],[148.2796048,-36.4231839],[148.2795967,-36.4234828],[148.2795686,-36.4238885],[148.279527,-36.424209],[148.2794814,-36.4244929],[148.279472,-36.4246331],[148.2793312,-36.4247993],[148.2792869,-36.4250497],[148.2793137,-36.4252428],[148.2791772,-36.425488],[148.2790513,-36.4257076],[148.2789442,-36.4259104],[148.2788373,-36.4260871],[148.2786943,-36.4262593],[148.2785148,-36.4266303],[148.2780793,-36.4272791],[148.2779337,-36.4274975],[148.2778413,-36.427716],[148.2774824,-36.4280629],[148.2771919,-36.4284007],[148.276866,-36.4289047],[148.2766623,-36.4291263],[148.2765624,-36.4292783],[148.27647,-36.4293846],[148.2763965,-36.4296158],[148.2763105,-36.4297543],[148.2762813,-36.4298409],[148.276267,-36.4301106],[148.2762583,-36.4303086],[148.2762058,-36.4303969],[148.2759996,-36.4305966],[148.2759388,-36.430688],[148.2757126,-36.4310281],[148.2754827,-36.4314377],[148.2753819,-36.4316825],[148.2750989,-36.4320619],[148.2746654,-36.4324502],[148.2742061,-36.4329178],[148.273938,-36.4332577],[148.2737041,-36.4336144],[148.2734406,-36.4341191],[148.273159,-36.4345637],[148.27306,-36.4347173],[148.2730104,-36.4348033],[148.2729914,-36.4349119],[148.2729591,-36.4349829],[148.2727485,-36.4352234],[148.2726642,-36.435358],[148.2725869,-36.4355829],[148.272555,-36.4357284],[148.272513,-36.4358362],[148.2723418,-36.4360447],[148.2721541,-36.436335],[148.2720803,-36.4364706],[148.2720333,-36.4366535],[148.2720509,-36.4368187],[148.2720815,-36.4369526],[148.2720633,-36.4371502],[148.2720752,-36.4374772],[148.2720464,-36.4375915],[148.2720487,-36.4377215],[148.2720281,-36.4378875],[148.271909,-36.4381309],[148.2718209,-36.4382485],[148.2717161,-36.4383581],[148.2715846,-36.4384408],[148.2713648,-36.438505],[148.2711661,-36.4385587],[148.2710475,-36.4386051],[148.2709557,-36.4386757],[148.2706219,-36.4389822],[148.2705655,-36.4390667],[148.270539,-36.4391764],[148.2705259,-36.4392887],[148.2705213,-36.4393323],[148.2704821,-36.4394463],[148.2704689,-36.4395838],[148.2704538,-36.4407353],[148.2704561,-36.4409523],[148.2704015,-36.4412181],[148.2703505,-36.4413267],[148.2703315,-36.4415098],[148.2703553,-36.4416337],[148.2703683,-36.4417101],[148.270297,-36.4419177],[148.2702193,-36.4420613],[148.2697357,-36.4428224],[148.269554,-36.4430353],[148.2694267,-36.443204],[148.2693587,-36.4433643],[148.2692946,-36.4435602],[148.2692649,-36.4437251],[148.2692131,-36.4441923],[148.269187,-36.4446595],[148.2691119,-36.4452615],[148.2690478,-36.4453855],[148.2689319,-36.4455045],[148.2686486,-36.4457065],[148.2684803,-36.4458346],[148.268409,-36.4459315],[148.2683047,-36.4461337],[148.2681816,-36.4462988],[148.2680278,-36.4464469],[148.2679104,-36.4466089],[148.2677186,-36.4468515],[148.2676472,-36.4469418],[148.2675071,-36.4471686],[148.2673927,-36.44738],[148.2672934,-36.4475355],[148.2672101,-36.4476658],[148.2670758,-36.447857],[148.26697,-36.4479647],[148.2669222,-36.4480362],[148.2669076,-36.4481759],[148.2668682,-36.4484323],[148.2668308,-36.4486819],[148.2667279,-36.4492465],[148.266603,-36.4495153],[148.2664266,-36.4497599],[148.2658908,-36.4504455],[148.2657383,-36.4506425],[148.2657265,-36.450748],[148.265676,-36.4508292],[148.2655128,-36.4510298],[148.2653324,-36.4513168],[148.2651444,-36.4517005],[148.2651606,-36.4520402],[148.2651827,-36.4523516],[148.2652228,-36.4525254],[148.2653451,-36.4527189],[148.2652294,-36.4526655],[148.2651918,-36.4525923],[148.265095,-36.4524388],[148.2649887,-36.4522572],[148.2648173,-36.4520233],[148.2646772,-36.451893],[148.2646257,-36.4518406],[148.2645534,-36.4518111],[148.2644092,-36.4518018],[148.2642195,-36.4518502],[148.2639109,-36.451957],[148.2636543,-36.452087],[148.2634616,-36.4522755],[148.2633915,-36.4524123],[148.263392,-36.4525718],[148.2633967,-36.4528594],[148.2633689,-36.4530408],[148.2633089,-36.4535233],[148.2632827,-36.4539065],[148.2632469,-36.4541162],[148.2632324,-36.4541688],[148.2631126,-36.4543631],[148.262824,-36.4547318],[148.2626896,-36.4549059],[148.2625916,-36.4550685],[148.2625401,-36.4551938],[148.2624431,-36.4556057],[148.2623825,-36.4558194],[148.2623659,-36.4559767],[148.2623846,-36.4561225],[148.2624278,-36.4563342],[148.2624867,-36.456472],[148.2625843,-36.4565826],[148.262724,-36.4566891],[148.2628997,-36.4567813],[148.2630614,-36.4568409],[148.2631548,-36.456861],[148.2632613,-36.4568623],[148.2635008,-36.45686],[148.2637167,-36.4568153],[148.2638762,-36.4567321],[148.2639692,-36.4566444],[148.264002,-36.4565361],[148.2640046,-36.4564557],[148.2639908,-36.4563155],[148.2639608,-36.4561931],[148.2637996,-36.4560354],[148.2636267,-36.45593],[148.263399,-36.456076]]}}]}
