{"type":"FeatureCollection","peaks_destination_id":"DhPNvjb5FeG85XuFWLkW","peaks_trailhead_id":"draft-trailhead","peaks_source":"https://www.openstreetmap.org/","peaks_retrieval_source":"https://overpass-api.de/api/interpreter","peaks_license_name":"Open Data Commons Open Database License (ODbL) 1.0","peaks_license":"https://opendatacommons.org/licenses/odbl/1-0/","peaks_attribution":"© OpenStreetMap contributors","peaks_retrieved_at":"2026-07-30T18:27:39.195Z","features":[{"type":"Feature","properties":{"name":"Mount Ararat OSM route candidate","trailhead_name":"Mount Ararat South Route Trailhead","destination_name":"Mount Ararat","distance_m":11505.308149630704,"trailhead_snap_m":12.14499559634532,"summit_snap_m":126.43797959851851,"osm_way_ids":[989710853,989710855,1113714347,295652722,295652719,1125237667,989710856,1125237662,1125237659,989710857,1125237660,295652716,46120394,610437966,70544489],"osm_way_urls":["https://www.openstreetmap.org/way/989710853","https://www.openstreetmap.org/way/989710855","https://www.openstreetmap.org/way/1113714347","https://www.openstreetmap.org/way/295652722","https://www.openstreetmap.org/way/295652719","https://www.openstreetmap.org/way/1125237667","https://www.openstreetmap.org/way/989710856","https://www.openstreetmap.org/way/1125237662","https://www.openstreetmap.org/way/1125237659","https://www.openstreetmap.org/way/989710857","https://www.openstreetmap.org/way/1125237660","https://www.openstreetmap.org/way/295652716","https://www.openstreetmap.org/way/46120394","https://www.openstreetmap.org/way/610437966","https://www.openstreetmap.org/way/70544489"],"osm_way_names":[],"osm_foot_access_override_way_ids":[]},"geometry":{"type":"LineString","coordinates":[[44.22352,39.65511],[44.2234219,39.6550311],[44.2236233,39.6550084],[44.2240213,39.6550121],[44.2243245,39.6550916],[44.2244531,39.6550635],[44.2244843,39.6550033],[44.2244704,39.6549324],[44.2244533,39.6548657],[44.2243561,39.6545849],[44.2242831,39.6544298],[44.2240746,39.654173],[44.22396,39.6540499],[44.2239609,39.6539117],[44.2241233,39.6537156],[44.2243213,39.6536353],[44.2247035,39.6536059],[44.2250648,39.6537343],[44.225257,39.6536574],[44.2255187,39.6535087],[44.2257462,39.6535021],[44.2261496,39.653555],[44.2264715,39.6536905],[44.226523,39.6536475],[44.2265144,39.6535517],[44.2266302,39.6536013],[44.2267847,39.6536971],[44.2269374,39.6537156],[44.2271938,39.6538786],[44.227311,39.6538864],[44.2274715,39.6539598],[44.2276279,39.6540823],[44.2279397,39.6541774],[44.2282589,39.6543317],[44.2286841,39.6543999],[44.2291035,39.6543869],[44.2293407,39.6543007],[44.2298956,39.6542505],[44.2300938,39.6543139],[44.2304452,39.6543355],[44.2309483,39.6544037],[44.2314754,39.6545682],[44.2316093,39.6545586],[44.2317389,39.6545592],[44.232136,39.65462],[44.2322193,39.6546204],[44.232281,39.6545927],[44.2324008,39.6547223],[44.2327951,39.6549162],[44.2330152,39.6550492],[44.2332897,39.6551171],[44.2334065,39.6552572],[44.2339431,39.6554861],[44.2344016,39.6555807],[44.2348333,39.6557721],[44.2351109,39.6558458],[44.2354219,39.655959],[44.2357259,39.6560331],[44.2359898,39.6561877],[44.2363302,39.6563264],[44.2365741,39.6564089],[44.2368688,39.6564766],[44.2371131,39.6565967],[44.2376155,39.6565893],[44.2381564,39.6566323],[44.2382366,39.6567161],[44.2383488,39.6567238],[44.2386804,39.6567885],[44.2387856,39.656854],[44.2390423,39.6568967],[44.2393192,39.6569586],[44.239489,39.6570905],[44.2396581,39.6571811],[44.239839,39.6573761],[44.2398648,39.6575288],[44.2400294,39.6577815],[44.2402367,39.6579489],[44.2403019,39.6580565],[44.2404321,39.6581351],[44.2407083,39.658435],[44.240745,39.6585664],[44.2408415,39.6586701],[44.2410632,39.6590272],[44.2412401,39.6592243],[44.2414729,39.6594264],[44.2415971,39.6597203],[44.2417114,39.6599585],[44.2418255,39.6600565],[44.2419957,39.6600294],[44.2421718,39.6599133],[44.2423723,39.6598965],[44.2424557,39.6599487],[44.2426426,39.6599759],[44.2427683,39.6601053],[44.2428609,39.6601874],[44.2430765,39.6602555],[44.2431823,39.6603146],[44.2432012,39.6604475],[44.2432354,39.6606131],[44.2434584,39.6608923],[44.2436052,39.6610787],[44.2437456,39.661186],[44.2438733,39.6614192],[44.2442067,39.6615672],[44.2444331,39.6618147],[44.244553,39.6618843],[44.2446197,39.6620482],[44.2447696,39.6622087],[44.2451216,39.6622099],[44.2453072,39.6623751],[44.2453292,39.6625035],[44.2452236,39.6626162],[44.2452794,39.6626824],[44.2454492,39.662684],[44.2455095,39.6628011],[44.2456291,39.6628192],[44.2456863,39.6629012],[44.2458616,39.6629014],[44.2459439,39.6629762],[44.2461002,39.6630137],[44.2464663,39.6630285],[44.2468006,39.6629639],[44.2469294,39.6629984],[44.2471275,39.6629571],[44.2472869,39.6629992],[44.2474149,39.6632172],[44.2474002,39.663301],[44.2474449,39.6633401],[44.2476326,39.66334],[44.2477623,39.6634225],[44.2479112,39.6633499],[44.2480353,39.6633745],[44.2482866,39.6632865],[44.2483341,39.6631741],[44.2484632,39.663193],[44.2485472,39.6631391],[44.2487166,39.6631932],[44.2487755,39.6633442],[44.2488129,39.6634885],[44.2488891,39.6635085],[44.2489591,39.6635892],[44.2490569,39.6635625],[44.2491506,39.6638294],[44.2492618,39.6639417],[44.249268,39.6640163],[44.2494139,39.6640109],[44.2495593,39.6640536],[44.2496609,39.6639654],[44.2497712,39.6639954],[44.2498239,39.6640992],[44.2498256,39.6641447],[44.2500323,39.6642316],[44.2500584,39.6641955],[44.2500375,39.6641326],[44.2500966,39.6641246],[44.2502558,39.6641782],[44.2503797,39.6641637],[44.2506534,39.6643822],[44.250857,39.6644545],[44.2508806,39.6646216],[44.2509302,39.664704],[44.251064,39.6647774],[44.251052,39.6649069],[44.2509751,39.6649807],[44.2510376,39.6650419],[44.2511853,39.6651152],[44.2511822,39.6651961],[44.2512802,39.665272],[44.2511409,39.6653891],[44.2510724,39.6656298],[44.2510463,39.665694],[44.2511002,39.6657635],[44.2510064,39.6659788],[44.2510817,39.6662664],[44.2511362,39.6663635],[44.2510204,39.6664959],[44.2511863,39.6665475],[44.2511801,39.6666701],[44.2513532,39.6666791],[44.2514289,39.6668112],[44.2515136,39.6668975],[44.2515124,39.6670263],[44.2513502,39.6671188],[44.2513588,39.6674668],[44.2511269,39.6676632],[44.25109,39.6678939],[44.2510812,39.6679028],[44.250923,39.668136],[44.2509861,39.6682941],[44.2510005,39.6684262],[44.2510537,39.6685845],[44.2511378,39.6687218],[44.2511505,39.6688337],[44.2511322,39.6689211],[44.2512242,39.6690435],[44.2512578,39.6692181],[44.2515519,39.6694237],[44.2516821,39.6694521],[44.251808,39.6694638],[44.2519026,39.669519],[44.2520702,39.6695239],[44.2522682,39.6695575],[44.2525236,39.6695275],[44.2526451,39.6695542],[44.2528805,39.6697984],[44.2529287,39.6699843],[44.2531551,39.6701962],[44.2532355,39.6703975],[44.2534239,39.670585],[44.2535147,39.6706737],[44.2535368,39.6708079],[44.2537727,39.6708703],[44.2539299,39.670963],[44.2540748,39.6708382],[44.2541412,39.6707871],[44.2542959,39.6707474],[44.2543254,39.670702],[44.2543328,39.6706585],[44.2544212,39.6706321],[44.2544753,39.670598],[44.2546241,39.6704999],[44.2548703,39.6703862],[44.2550235,39.6703901],[44.2552712,39.6705262],[44.2554235,39.670564],[44.2555739,39.6707224],[44.2556783,39.6707657],[44.2557469,39.6708505],[44.2558527,39.6709012],[44.255856,39.67091],[44.255866,39.671006],[44.255816,39.671166],[44.255793,39.671474],[44.255749,39.671672],[44.255801,39.671866],[44.255938,39.671977],[44.255971,39.672071],[44.25608,39.672133],[44.256204,39.672292],[44.256356,39.672425],[44.2564765,39.6725951],[44.2565805,39.6727781],[44.2566605,39.6726931],[44.2567245,39.6726781],[44.2568505,39.6727221],[44.2568665,39.6728301],[44.256892,39.672954],[44.256957,39.672985],[44.257049,39.673116],[44.257225,39.673276],[44.257231,39.673326],[44.257303,39.673485],[44.257278,39.673632],[44.257343,39.673837],[44.257375,39.673881],[44.257542,39.673986],[44.25758,39.674033],[44.257627,39.674135],[44.257709,39.674211],[44.257756,39.674368],[44.257841,39.674518],[44.258027,39.674709],[44.2581117,39.6748013],[44.2582738,39.6749548],[44.2584025,39.6750925],[44.2585228,39.6752737],[44.2587116,39.6754826],[44.2586421,39.6763562],[44.2592908,39.6777209],[44.2595494,39.6775901],[44.2597318,39.6777552],[44.2599463,39.6775942],[44.2601985,39.6777387],[44.2604238,39.6775199],[44.2606223,39.6777428],[44.2608851,39.6776603],[44.2612874,39.6776107],[44.2625159,39.6776892],[44.263342,39.677747],[44.2634815,39.6776479],[44.2636639,39.6774786],[44.2641467,39.677458],[44.2643938,39.6778351],[44.2645605,39.6779263],[44.2646877,39.6780005],[44.2646869,39.6781435],[44.265021,39.6786554],[44.2655682,39.6791425],[44.2664455,39.6794779],[44.2668039,39.6799179],[44.2669145,39.6799904],[44.26719,39.6800895],[44.2673664,39.6800917],[44.2675123,39.6800626],[44.2675849,39.6800645],[44.2677484,39.6799718],[44.2678712,39.679881],[44.2680653,39.6798583],[44.2682151,39.6798754],[44.268451,39.6798848],[44.2685714,39.6798999],[44.2686721,39.6799113],[44.2688047,39.6798829],[44.2688416,39.6799094],[44.268962,39.6799151],[44.2690627,39.6798943],[44.2691659,39.6798943],[44.2692617,39.6798999],[44.2693059,39.6799245],[44.269355,39.6799529],[44.2694189,39.6799945],[44.2694975,39.6800285],[44.2695515,39.6800247],[44.2696768,39.679934],[44.2697143,39.6798822],[44.2697628,39.6798772],[44.2699716,39.6798659],[44.270178,39.6798489],[44.2703942,39.6798338],[44.2704335,39.6798262],[44.2705072,39.6797733],[44.2705489,39.6797506],[44.2706644,39.6797459],[44.2707332,39.6796967],[44.2707775,39.6796986],[44.2708168,39.6797081],[44.2708585,39.6797364],[44.2708831,39.6797742],[44.2709003,39.6798272],[44.2709715,39.6798158],[44.2709789,39.6798366],[44.2709814,39.6798877],[44.2710059,39.6799274],[44.2710649,39.6799274],[44.2711165,39.6799501],[44.2711312,39.6799747],[44.2711803,39.6799803],[44.2713105,39.6798801],[44.271566,39.6798593],[44.2716324,39.6798083],[44.2716618,39.6797232],[44.2716741,39.6796135],[44.271765,39.6795095],[44.27191,39.6794415],[44.2720328,39.6794131],[44.2721311,39.6794698],[44.2723055,39.6793848],[44.2724259,39.6793791],[44.2725045,39.6794472],[44.2726273,39.6795871],[44.2727182,39.6796438],[44.2728558,39.6796589],[44.2729958,39.6797516],[44.27318,39.6797761],[44.2732636,39.679865],[44.273406,39.6799293],[44.2735952,39.6799104],[44.2736984,39.6797799],[44.2739269,39.6797119],[44.2742233,39.6797415],[44.2741779,39.6799263],[44.274346,39.679846],[44.2744305,39.6800068],[44.274455,39.6800824],[44.2746221,39.6800314],[44.2746368,39.6800786],[44.2746712,39.6801391],[44.2747474,39.6801637],[44.2748432,39.6801391],[44.2748751,39.6801694],[44.2750544,39.6801864],[44.2750422,39.680245],[44.2750839,39.6803225],[44.2751625,39.6803566],[44.2751748,39.6804076],[44.2753763,39.6804681],[44.2753861,39.6805513],[44.2753812,39.6806421],[44.2754524,39.6807026],[44.2756171,39.6807196],[44.2759538,39.6805957],[44.2761463,39.6805775],[44.2764688,39.6805],[44.2766273,39.680457],[44.2766798,39.6805126],[44.2768641,39.6805131],[44.2769582,39.6805161],[44.2770639,39.6805425],[44.2771769,39.6805503],[44.277091,39.6807815],[44.277311,39.6808228],[44.2773968,39.6808888],[44.2773002,39.6810911],[44.2775148,39.6810953],[44.2775094,39.6811778],[44.277665,39.6811696],[44.2775899,39.681343],[44.2777455,39.681376],[44.277783,39.6817352],[44.2779198,39.6817042],[44.278003,39.6820407],[44.2781237,39.6819168],[44.2781652,39.6819664],[44.2782497,39.6819313],[44.2782538,39.682018],[44.2783973,39.6819612],[44.2783785,39.6820644],[44.2784777,39.6820479],[44.2784214,39.6821522],[44.278475,39.6823049],[44.2786816,39.6822203],[44.2786735,39.682371],[44.2788827,39.6823194],[44.2790651,39.6823834],[44.2790973,39.6824824],[44.279328,39.682532],[44.2791992,39.6826971],[44.2791778,39.6828499],[44.2791295,39.6829201],[44.2791144,39.6829784],[44.2791844,39.6830084],[44.2792644,39.6830084],[44.2793544,39.6830284],[44.2794244,39.6830184],[44.2794344,39.6830584],[44.2793195,39.6832903],[44.27946,39.6833],[44.27951,39.68332],[44.27956,39.68336],[44.27955,39.68344],[44.27957,39.68348],[44.27961,39.68351],[44.27961,39.68356],[44.27959,39.68362],[44.27969,39.68366],[44.27971,39.68371],[44.27971,39.68377],[44.27974,39.68382],[44.27976,39.68387],[44.27977,39.68393],[44.2797749,39.6840603],[44.2798987,39.684101],[44.28002,39.68412],[44.28005,39.68416],[44.2801,39.68428],[44.28016,39.68427],[44.28018,39.68433],[44.28024,39.6843],[44.28028,39.68438],[44.2803,39.68444],[44.28034,39.68447],[44.28035,39.68452],[44.28041,39.68454],[44.28041,39.6846],[44.28048,39.68464],[44.28049,39.6847],[44.28056,39.68472],[44.28062,39.68475],[44.28062,39.6848],[44.28067,39.68483],[44.28069,39.68486],[44.28077,39.68491],[44.28077,39.68497],[44.2808,39.68508],[44.2808649,39.6850265],[44.2809049,39.6850565],[44.2809649,39.6850265],[44.2809949,39.6850665],[44.2810549,39.6851665],[44.2810449,39.6852565],[44.2810749,39.6852665],[44.2811349,39.6852765],[44.2811849,39.6852965],[44.2812249,39.6853265],[44.2812349,39.6854065],[44.2813149,39.6855565],[44.2813549,39.6856065],[44.2814449,39.6856565],[44.2814849,39.6856965],[44.2815249,39.6857165],[44.2815749,39.6857065],[44.2816149,39.6856465],[44.2816649,39.6856065],[44.2817249,39.6855865],[44.2817349,39.6856465],[44.2817449,39.6857065],[44.2817449,39.6857665],[44.2817949,39.6859065],[44.2818049,39.6859765],[44.2818649,39.6860065],[44.282,39.68597],[44.28205,39.68592],[44.28211,39.68593],[44.28217,39.68597],[44.28224,39.68594],[44.2823,39.68591],[44.28247,39.6858],[44.28251,39.68581],[44.28256,39.68583],[44.28264,39.68584],[44.28269,39.68581],[44.2828,39.68583],[44.28276,39.68588],[44.28281,39.6859],[44.28293,39.68597],[44.283,39.68598],[44.28307,39.686],[44.28312,39.68605],[44.28326,39.68608],[44.28329,39.68613],[44.2833,39.68619],[44.28334,39.68624],[44.2833525,39.6862595],[44.2832952,39.6862956],[44.2833091,39.6863456],[44.2833479,39.6863542],[44.28341,39.68633],[44.2834296,39.6863451],[44.28343,39.68637],[44.2834014,39.6863942],[44.2834062,39.6864202],[44.2834483,39.6864266],[44.2834461,39.6864841],[44.2835036,39.6864631],[44.2835483,39.6865088],[44.2835799,39.6865079],[44.2836009,39.6865283],[44.28363,39.68651],[44.2837,39.68654],[44.2837368,39.6866047],[44.2838,39.68662],[44.2838175,39.6866432],[44.2837838,39.6866779],[44.28384,39.68669],[44.2838751,39.6867003],[44.283815,39.6867235],[44.283823,39.6867566],[44.2837783,39.6867983],[44.2837739,39.6868425],[44.283843,39.6868499],[44.2838883,39.6868383],[44.283994,39.6868404],[44.2839479,39.686875],[44.2838783,39.6868883],[44.2838442,39.686914],[44.2838783,39.6869283],[44.2838983,39.6869683],[44.2839376,39.6869685],[44.2839683,39.6869883],[44.2840376,39.6869902],[44.2840207,39.6870208],[44.2839891,39.6870577],[44.284058,39.6870443],[44.2841183,39.6870537],[44.284089,39.6870949],[44.2840383,39.6871083],[44.2840241,39.6871424],[44.2841186,39.6871544],[44.2840962,39.6871929],[44.2840228,39.6872265],[44.2840161,39.6872688],[44.283952,39.6873567],[44.2839838,39.687408],[44.2840964,39.6874232],[44.2841675,39.6874462],[44.2842332,39.6874691],[44.28428,39.68745],[44.28434,39.68747],[44.28436,39.68751],[44.2843078,39.6875643],[44.2843032,39.6876864],[44.2843572,39.6876932],[44.2843324,39.6877671],[44.2844373,39.6877719],[44.2845315,39.6877357],[44.2845287,39.6878155],[44.2846486,39.6877784],[44.2846579,39.6878511],[44.2847396,39.6878308],[44.2848245,39.68779],[44.2848657,39.6877885],[44.28486,39.68781],[44.2848294,39.687874],[44.2849244,39.6878724],[44.28488,39.68795],[44.28492,39.68798],[44.28498,39.688],[44.28503,39.68804],[44.2851024,39.6880587],[44.2851023,39.6881182],[44.285066,39.6881457],[44.28506,39.68816],[44.28507,39.68823],[44.2850376,39.6882738],[44.2850676,39.6883646],[44.28513,39.6884],[44.285139,39.6884598],[44.2851102,39.6884964],[44.28508,39.68853],[44.28507,39.68857],[44.28506,39.68862],[44.28504,39.68868],[44.28499,39.68872],[44.2849181,39.688747],[44.2849337,39.6888228],[44.28507,39.68892],[44.28505,39.68901],[44.2850319,39.6891122],[44.2850931,39.6892473],[44.2851021,39.6893944],[44.2850408,39.6894125],[44.2849632,39.6893986],[44.284873,39.6894722],[44.2848207,39.6895541],[44.284864,39.6895986],[44.2849081,39.6896623],[44.2850807,39.6898327],[44.2850632,39.6899442],[44.285029,39.6900463],[44.285029,39.6900649],[44.2850344,39.6901578],[44.2851068,39.6902507],[44.285076,39.6903807],[44.285033,39.6904818],[44.2850773,39.6905468],[44.2850438,39.6906356],[44.2850371,39.6906459],[44.2849955,39.6907594],[44.2850263,39.6908564],[44.2848842,39.6910391],[44.2847246,39.6911702],[44.2847407,39.6913456],[44.2848882,39.6914963],[44.2849982,39.6917068],[44.2850411,39.6918843],[44.2852235,39.691938],[44.2854595,39.6922145],[44.2855963,39.6923384],[44.2855829,39.6924601],[44.2856795,39.6924911],[44.2857385,39.6925633],[44.2857894,39.6926067],[44.2857438,39.692683],[44.285835,39.6927099],[44.2859504,39.6927388],[44.2859665,39.692844],[44.2858887,39.6928791],[44.2859477,39.6929637],[44.2859316,39.6930339],[44.2859289,39.6931846],[44.2860335,39.6933228],[44.2862615,39.6934364],[44.2862883,39.6935684],[44.2863312,39.693684],[44.286468,39.6938223],[44.2865512,39.693876],[44.2866316,39.6939812],[44.2865163,39.6940431],[44.2865941,39.6940885],[44.2866397,39.6942413],[44.2868328,39.6943568],[44.2868596,39.6945467],[44.2868623,39.6947159],[44.2868972,39.6948398],[44.2869401,39.6949904],[44.2869723,39.6951236],[44.2871976,39.6951844],[44.2872807,39.6952051],[44.2872754,39.6953124],[44.2872137,39.6955807],[44.2871922,39.6957912],[44.2872485,39.6958985],[44.2874444,39.6960554],[44.2874551,39.6961586],[44.287506,39.6962803],[44.2877287,39.6963299],[44.2878215,39.6963812],[44.2878333,39.6964785],[44.2880754,39.6966177],[44.2882471,39.6966547],[44.2881988,39.6967393],[44.2883655,39.6968825],[44.2882866,39.6969242],[44.2884475,39.697077],[44.2884797,39.6972255],[44.2885011,39.6974072],[44.2886728,39.6974835],[44.2887989,39.6976032],[44.2889652,39.6976548],[44.2891207,39.6976961],[44.289161,39.6978488],[44.2892468,39.6979664],[44.289306,39.698092],[44.289365,39.698113],[44.289431,39.698125],[44.2895526,39.6981192],[44.2895633,39.6982616],[44.2896089,39.6983482],[44.2897403,39.6983482],[44.2897725,39.6983895],[44.2899442,39.6985175],[44.2901883,39.6986351],[44.2903519,39.6988064],[44.2903814,39.6989116],[44.2905396,39.6990313],[44.2906523,39.699279],[44.2908776,39.6994874],[44.291009,39.6995782],[44.2909634,39.7001333],[44.2910358,39.7001725],[44.29122,39.700321],[44.2912484,39.7004229],[44.2912673,39.7004844],[44.291363,39.700536],[44.291387,39.700557],[44.291423,39.70058],[44.291457,39.700617],[44.291466,39.700643],[44.291484,39.700679],[44.291501,39.700725],[44.291518,39.70076],[44.291548,39.700795],[44.291581,39.700828],[44.2915815,39.700827],[44.291586,39.700826],[44.291588,39.700826],[44.291619,39.700843],[44.291655,39.70086],[44.291658,39.700862],[44.291658,39.700864],[44.291659,39.700865],[44.291652,39.700885],[44.291653,39.700932],[44.291662,39.700952],[44.291672,39.70097],[44.291718,39.70097],[44.291731,39.700972],[44.291741,39.700977],[44.291774,39.701012],[44.291781,39.701045],[44.291784,39.701075],[44.291814,39.701102],[44.291864,39.70114],[44.2919,39.701178],[44.2919,39.701191],[44.291895,39.701208],[44.291896,39.701217],[44.291903,39.701279],[44.291904,39.7013],[44.291908,39.701318],[44.291909,39.70132],[44.291914,39.701355],[44.291931,39.701365],[44.2920348,39.7014696],[44.292149,39.701507],[44.292183,39.701533],[44.292234,39.701549],[44.2922507,39.7015893],[44.292317,39.701637],[44.292503,39.701776],[44.2927068,39.7018957],[44.292731,39.7020237],[44.2928275,39.7020773],[44.2929643,39.7020732],[44.2930609,39.7021413],[44.2932674,39.702164],[44.2936563,39.7023724],[44.2940935,39.7023868],[44.2944268,39.7024393],[44.2945844,39.702498],[44.294718,39.702513],[44.294856,39.702607],[44.294912,39.70263],[44.294972,39.702638],[44.294953,39.702681],[44.295124,39.70275],[44.295175,39.702784],[44.295289,39.702819],[44.295419,39.702834],[44.295529,39.702878],[44.295623,39.702937],[44.2957657,39.7030106],[44.2959255,39.7030431],[44.2962152,39.703008],[44.2965505,39.7030286],[44.2972264,39.7029688],[44.2973927,39.7029007],[44.2976609,39.7027191],[44.298765,39.703475]]}}]}
