{"type":"FeatureCollection","peaks_destination_id":"nJSKqdQBa1xYcHDUQIEl","peaks_trailhead_id":"draft-trailhead","peaks_source":"https://www.openstreetmap.org/","peaks_retrieval_source":"https://api.openstreetmap.org/api/0.6","peaks_license_name":"Open Data Commons Open Database License (ODbL) 1.0","peaks_license":"https://opendatacommons.org/licenses/odbl/1-0/","peaks_attribution":"© OpenStreetMap contributors","peaks_retrieved_at":"2026-07-30T18:46:52.916Z","features":[{"type":"Feature","properties":{"name":"Ojos del Salado OSM route candidate","trailhead_name":"Refugio Murray","destination_name":"Ojos del Salado","distance_m":26344.673170925755,"trailhead_snap_m":17.44443748845329,"summit_snap_m":11.396066505171136,"osm_way_ids":[626728113,1120662601,458112587,483541774,265034468,458115463,458122934,483534752,411346029],"osm_way_urls":["https://www.openstreetmap.org/way/626728113","https://www.openstreetmap.org/way/1120662601","https://www.openstreetmap.org/way/458112587","https://www.openstreetmap.org/way/483541774","https://www.openstreetmap.org/way/265034468","https://www.openstreetmap.org/way/458115463","https://www.openstreetmap.org/way/458122934","https://www.openstreetmap.org/way/483534752","https://www.openstreetmap.org/way/411346029"],"osm_way_names":[],"osm_foot_access_override_way_ids":[]},"geometry":{"type":"LineString","coordinates":[[-68.59687,-26.93289],[-68.5967065,-26.932948],[-68.5966758,-26.9330536],[-68.5963277,-26.9344985],[-68.596054,-26.9354118],[-68.5884554,-26.9459955],[-68.5867416,-26.9488327],[-68.5813047,-26.9588939],[-68.5811618,-26.9601209],[-68.5817501,-26.9625119],[-68.5821075,-26.9633119],[-68.5838404,-26.9649221],[-68.5852569,-26.9666949],[-68.5857665,-26.967778],[-68.5858452,-26.968222],[-68.5866994,-26.9699672],[-68.586956,-26.970327],[-68.5871784,-26.9708017],[-68.5874436,-26.9717634],[-68.5876746,-26.9723031],[-68.5878159,-26.9724566],[-68.5878495,-26.9727315],[-68.5879601,-26.9732733],[-68.5882204,-26.9737735],[-68.5884389,-26.9739652],[-68.5885548,-26.9741569],[-68.5887423,-26.9744454],[-68.5887664,-26.9746251],[-68.5885897,-26.9750517],[-68.5883702,-26.9754149],[-68.5882832,-26.9761963],[-68.5881228,-26.9768741],[-68.5881706,-26.9774045],[-68.5879906,-26.9779612],[-68.5876896,-26.9784123],[-68.5871884,-26.9790318],[-68.5869862,-26.9794381],[-68.5864419,-26.98081],[-68.585978,-26.9812453],[-68.5854,-26.9819805],[-68.5847052,-26.9825937],[-68.5844323,-26.9829528],[-68.5840704,-26.9836467],[-68.5838055,-26.9842848],[-68.58325,-26.9852102],[-68.58306,-26.9856845],[-68.5826143,-26.9865239],[-68.5816383,-26.988034],[-68.5815342,-26.9884344],[-68.5815505,-26.9887591],[-68.5816728,-26.9891121],[-68.5817893,-26.9898004],[-68.5814343,-26.9903533],[-68.5812568,-26.9907364],[-68.5812906,-26.9910398],[-68.5814043,-26.9913813],[-68.5814451,-26.9920718],[-68.5814683,-26.9930854],[-68.5814887,-26.9936085],[-68.581567,-26.9939463],[-68.5815491,-26.9942143],[-68.581352,-26.9947548],[-68.5809866,-26.9951505],[-68.5803585,-26.9960876],[-68.5801301,-26.996574],[-68.5791317,-26.9980512],[-68.5783262,-26.9996346],[-68.5779257,-27.0003287],[-68.5777292,-27.0005836],[-68.5775385,-27.0007723],[-68.5772368,-27.0011956],[-68.576335,-27.002047],[-68.5759692,-27.0023496],[-68.5751189,-27.003167],[-68.5747078,-27.0038471],[-68.5742427,-27.0045745],[-68.5739903,-27.0051437],[-68.5739373,-27.0053993],[-68.5737028,-27.0056689],[-68.5732802,-27.0065052],[-68.5714179,-27.0101904],[-68.571189,-27.0105296],[-68.5710033,-27.0106712],[-68.5708049,-27.0106481],[-68.5706002,-27.0105425],[-68.5702155,-27.0105811],[-68.569945,-27.0104979],[-68.5676938,-27.0088649],[-68.5660009,-27.0076352],[-68.5654849,-27.0073507],[-68.5644884,-27.0070433],[-68.563566,-27.0066241],[-68.5624415,-27.0063504],[-68.5616725,-27.0061352],[-68.5610604,-27.0060191],[-68.5605849,-27.0059883],[-68.5598041,-27.0061278],[-68.5588237,-27.0065315],[-68.5582074,-27.0065365],[-68.5580016,-27.0066152],[-68.5575468,-27.0068716],[-68.5569129,-27.0071881],[-68.5560512,-27.0079543],[-68.5550643,-27.0088264],[-68.5543169,-27.0093861],[-68.5539667,-27.0103068],[-68.5536973,-27.0119246],[-68.5536026,-27.0122929],[-68.5534216,-27.0126689],[-68.5522129,-27.0130787],[-68.5520237,-27.013324],[-68.5517311,-27.0134847],[-68.5508156,-27.0137871],[-68.5503659,-27.0138743],[-68.5499426,-27.013823],[-68.5495412,-27.0138627],[-68.548836,-27.0136943],[-68.548561,-27.0136139],[-68.5483977,-27.0134355],[-68.5476651,-27.0132416],[-68.5465996,-27.0130446],[-68.5454564,-27.0124017],[-68.5441323,-27.011522],[-68.5435784,-27.0114174],[-68.5427495,-27.0114136],[-68.542183,-27.0114737],[-68.5415799,-27.0116065],[-68.5408417,-27.0119407],[-68.5405462,-27.0121967],[-68.5402527,-27.0126948],[-68.540129,-27.0131165],[-68.5399025,-27.0142722],[-68.5399657,-27.0148439],[-68.5401152,-27.0153388],[-68.540274,-27.0162234],[-68.5408772,-27.0176532],[-68.5407933,-27.0181578],[-68.5409751,-27.0185097],[-68.5408292,-27.0188911],[-68.5406048,-27.0191792],[-68.5404785,-27.0195614],[-68.5403828,-27.0201704],[-68.5399211,-27.0210979],[-68.5398167,-27.0215128],[-68.539945,-27.022096],[-68.5405519,-27.0239978],[-68.5407967,-27.0252663],[-68.5408314,-27.0260625],[-68.5409548,-27.0269824],[-68.5409387,-27.0281914],[-68.5410567,-27.0288556],[-68.5414081,-27.029742],[-68.5416387,-27.0306905],[-68.5418962,-27.0319042],[-68.541907,-27.0330749],[-68.541392,-27.0342121],[-68.5412927,-27.0345944],[-68.5410889,-27.035206],[-68.5408394,-27.0357902],[-68.5411157,-27.0360004],[-68.5412498,-27.0361294],[-68.5412284,-27.0369536],[-68.5411157,-27.037582],[-68.5411828,-27.038239],[-68.5415529,-27.038798],[-68.5418372,-27.0391062],[-68.5420786,-27.039406],[-68.5427384,-27.040806],[-68.543071,-27.0415657],[-68.5437523,-27.0428366],[-68.5444926,-27.0442939],[-68.5449969,-27.0454262],[-68.545136,-27.045639],[-68.5454153,-27.0460664],[-68.5455762,-27.0464678],[-68.5457801,-27.0467687],[-68.5458015,-27.0470602],[-68.5455762,-27.047366],[-68.5453348,-27.0477243],[-68.5449808,-27.0483741],[-68.5449325,-27.0487181],[-68.5450666,-27.0493248],[-68.5452061,-27.0496927],[-68.5453938,-27.0500797],[-68.5461073,-27.0505527],[-68.5465365,-27.0509468],[-68.5463004,-27.0515966],[-68.5465365,-27.052189],[-68.5463862,-27.0527432],[-68.5464935,-27.0533165],[-68.546236,-27.0538706],[-68.5454421,-27.0543675],[-68.54497,-27.0548452],[-68.5445194,-27.0559345],[-68.5447278,-27.0569659],[-68.5449536,-27.0571437],[-68.5451922,-27.0572597],[-68.5455578,-27.0573829],[-68.5458345,-27.0576821],[-68.5463851,-27.0580962],[-68.5468928,-27.058472],[-68.5471002,-27.0588787],[-68.5472197,-27.0592915],[-68.5474884,-27.0601449],[-68.5475281,-27.060911],[-68.5475943,-27.0616299],[-68.5477002,-27.0622664],[-68.5480023,-27.0631002],[-68.5482277,-27.0638183],[-68.5483533,-27.0647651],[-68.5483355,-27.0653661],[-68.5482339,-27.0660675],[-68.5480622,-27.0664691],[-68.547806,-27.0667804],[-68.5471116,-27.067587],[-68.5465752,-27.0680533],[-68.5461033,-27.0686731],[-68.5460459,-27.0688456],[-68.5459495,-27.068968],[-68.5459173,-27.0693073],[-68.5460722,-27.0701276],[-68.5461596,-27.0704162],[-68.5461603,-27.0707167],[-68.5461644,-27.0710834],[-68.5460505,-27.0714853],[-68.5460854,-27.0719896],[-68.5462563,-27.0723314],[-68.5462851,-27.0727214],[-68.5462127,-27.0728062],[-68.5462001,-27.0732341],[-68.5460759,-27.0734573],[-68.5459909,-27.0737074],[-68.5458348,-27.0738099],[-68.5457341,-27.0741907],[-68.5456296,-27.074583],[-68.5454338,-27.0748969],[-68.5451408,-27.0750378],[-68.5448546,-27.0751245],[-68.5440739,-27.0751019],[-68.543944,-27.075327],[-68.5437784,-27.0756012],[-68.5434579,-27.075965],[-68.5434929,-27.0761638],[-68.5434312,-27.0765224],[-68.5433577,-27.0771899],[-68.5433283,-27.0774228],[-68.5433547,-27.0777814],[-68.5433694,-27.0784044],[-68.543343,-27.079009],[-68.5432254,-27.0794644],[-68.5431372,-27.0795665],[-68.5430431,-27.0795796],[-68.5430402,-27.0797602],[-68.5430078,-27.0800088],[-68.5429367,-27.0806],[-68.5429326,-27.0808314],[-68.5428428,-27.081016],[-68.5426041,-27.081291],[-68.5424921,-27.0814495],[-68.5424531,-27.0816497],[-68.5423954,-27.0817994],[-68.542269,-27.0818719],[-68.5421662,-27.0819494],[-68.5420832,-27.0822444],[-68.5420315,-27.0825858],[-68.541952,-27.0828124],[-68.541748,-27.0830312],[-68.5416481,-27.0833718],[-68.5416709,-27.0835033],[-68.5416152,-27.0836939],[-68.5416804,-27.0840344],[-68.5416319,-27.0842765],[-68.5415248,-27.0844125],[-68.541282,-27.0845387],[-68.5412019,-27.0847631],[-68.5411374,-27.0851812],[-68.5410312,-27.085612],[-68.5408172,-27.0861815],[-68.5407191,-27.0863554],[-68.5406263,-27.0864611],[-68.5405646,-27.0865905],[-68.5404776,-27.0866299],[-68.5403121,-27.086609],[-68.5401241,-27.0866294],[-68.5397574,-27.0864722],[-68.5396387,-27.0863172],[-68.5394535,-27.0862545],[-68.5392211,-27.0863593],[-68.5391285,-27.0864935],[-68.5391076,-27.0867939],[-68.5384093,-27.0873695],[-68.5383055,-27.0875018],[-68.5381652,-27.0876712],[-68.5382468,-27.0878142],[-68.538425,-27.0880664],[-68.5386032,-27.0883034],[-68.5386548,-27.088547],[-68.5387056,-27.0888284],[-68.5388278,-27.0893721],[-68.5389022,-27.0895338],[-68.5390494,-27.0899951],[-68.5391227,-27.090272],[-68.5392623,-27.0904463],[-68.5394559,-27.0905808],[-68.5392202,-27.090806],[-68.5393021,-27.0909674],[-68.5393673,-27.0910527],[-68.5394733,-27.0912165],[-68.539551,-27.0914436],[-68.5396863,-27.0916232],[-68.5397849,-27.0918384],[-68.5399803,-27.0920535],[-68.5400783,-27.0923106],[-68.5400898,-27.0923942],[-68.5402339,-27.0925359],[-68.540257,-27.092793],[-68.5403357,-27.0928442],[-68.5403366,-27.0929421],[-68.5403935,-27.0929496],[-68.5404913,-27.0931897],[-68.5406222,-27.0934312],[-68.5409845,-27.0937458],[-68.5407242,-27.0942122],[-68.5407895,-27.0942818],[-68.540982,-27.0944945],[-68.5411372,-27.0948066],[-68.5411089,-27.0952599],[-68.5411103,-27.0953749],[-68.5415341,-27.0958143],[-68.5417953,-27.0959792],[-68.5417346,-27.0960394],[-68.5418515,-27.0961442],[-68.5416719,-27.0965766],[-68.5414603,-27.0967311],[-68.5415306,-27.0969761],[-68.5414834,-27.0970967],[-68.5415411,-27.0971807],[-68.5422075,-27.0976446],[-68.5411265,-27.0981208],[-68.5420214,-27.098715],[-68.5414697,-27.0992718],[-68.5417958,-27.0994598],[-68.5415959,-27.0997523],[-68.5413094,-27.1001013],[-68.5416469,-27.1002161],[-68.5415341,-27.1003202],[-68.5416713,-27.1004033],[-68.5415156,-27.1005548],[-68.5418152,-27.1007822],[-68.5416373,-27.1009111],[-68.5418453,-27.1010579],[-68.5415824,-27.1012632],[-68.5418077,-27.1014542],[-68.5416493,-27.1015328],[-68.5417587,-27.1016254],[-68.5413893,-27.1018601],[-68.541679,-27.1021466],[-68.5414348,-27.102279],[-68.5416363,-27.1025089],[-68.5412565,-27.1027692],[-68.5415327,-27.1030398],[-68.5419047,-27.1031928],[-68.5418368,-27.1032904],[-68.5421838,-27.1034473],[-68.5427411,-27.1035527],[-68.5430182,-27.1038734],[-68.5436114,-27.1041651],[-68.5433764,-27.1043874],[-68.5437089,-27.1047037],[-68.544219,-27.1054727],[-68.5442614,-27.1059882],[-68.5443102,-27.1063417],[-68.5441385,-27.1064707],[-68.5441493,-27.1067429],[-68.5437899,-27.106953],[-68.543173,-27.1069243],[-68.5428511,-27.1070867],[-68.5424112,-27.1073589],[-68.5420679,-27.1075403],[-68.5417914,-27.1079581],[-68.541705,-27.1082085],[-68.5415407,-27.108352],[-68.5415768,-27.108879],[-68.5417299,-27.10914],[-68.5417839,-27.1092936],[-68.5419708,-27.1096047],[-68.54258,-27.1095689],[-68.54257,-27.109671]]}}]}
