{"type":"FeatureCollection","peaks_destination_id":"ixsWw1fEt9y9HL7Ind5Q","peaks_trailhead_id":"draft-trailhead","peaks_source":"https://www.openstreetmap.org/","peaks_retrieval_source":"https://overpass-api.de/api/interpreter","peaks_license_name":"Open Data Commons Open Database License (ODbL) 1.0","peaks_license":"https://opendatacommons.org/licenses/odbl/1-0/","peaks_attribution":"© OpenStreetMap contributors","peaks_retrieved_at":"2026-07-30T18:58:23.847Z","features":[{"type":"Feature","properties":{"name":"Pico Duarte OSM route candidate","trailhead_name":"La Ciénaga Trailhead","destination_name":"Pico Duarte","distance_m":21419.370337785247,"trailhead_snap_m":67.77948599796129,"summit_snap_m":11.88924776518133,"osm_way_ids":[339602537,249883928,249883926,339606983,339606523,339606520,339606991,339606519,339606518,339609475,339621334,339621333,339621330,339621331,48537598,339621336,48537585,249883929,339633038],"osm_way_urls":["https://www.openstreetmap.org/way/339602537","https://www.openstreetmap.org/way/249883928","https://www.openstreetmap.org/way/249883926","https://www.openstreetmap.org/way/339606983","https://www.openstreetmap.org/way/339606523","https://www.openstreetmap.org/way/339606520","https://www.openstreetmap.org/way/339606991","https://www.openstreetmap.org/way/339606519","https://www.openstreetmap.org/way/339606518","https://www.openstreetmap.org/way/339609475","https://www.openstreetmap.org/way/339621334","https://www.openstreetmap.org/way/339621333","https://www.openstreetmap.org/way/339621330","https://www.openstreetmap.org/way/339621331","https://www.openstreetmap.org/way/48537598","https://www.openstreetmap.org/way/339621336","https://www.openstreetmap.org/way/48537585","https://www.openstreetmap.org/way/249883929","https://www.openstreetmap.org/way/339633038"],"osm_way_names":["La Ciénaga - Los Tablones (4 km)","Los Tablones - Alto de la Cotorra (3,8 km)","Alto de la Cotorra - La Laguna (2,8 km)","La Laguna - El Cruce (0,5 km)","El Cruce - Agüita Fría (3 km)","Agüita Fría - La Compartición (4 km)","La Compartición - Valle de Lilís (3,8 km)","Valle de Lilís - Pico Duarte (1,2 km)"],"osm_foot_access_override_way_ids":[]},"geometry":{"type":"LineString","coordinates":[[-70.86389,19.06758],[-70.863511,19.0670868],[-70.8635614,19.0669921],[-70.8636063,19.0668843],[-70.8635898,19.066746],[-70.8634701,19.0665672],[-70.8634014,19.066412],[-70.8633742,19.0662578],[-70.8633886,19.066096],[-70.863411,19.0659101],[-70.8633822,19.0657029],[-70.8634196,19.0655456],[-70.863419,19.0652977],[-70.8635378,19.065013],[-70.8636254,19.0648079],[-70.8637085,19.0645932],[-70.8636829,19.064321],[-70.8636902,19.0641094],[-70.8637725,19.0639143],[-70.8638589,19.0637223],[-70.8639617,19.0635221],[-70.8640781,19.0633186],[-70.8641101,19.063119],[-70.8641255,19.0629701],[-70.8641955,19.0628024],[-70.8641987,19.0626209],[-70.8642339,19.0624637],[-70.8642755,19.0622641],[-70.8643206,19.0619922],[-70.8650211,19.0612325],[-70.8652306,19.0608978],[-70.865555,19.0606936],[-70.8658536,19.0604798],[-70.8663513,19.0602916],[-70.8666499,19.0601634],[-70.867039,19.0600436],[-70.8673543,19.0600618],[-70.867582,19.0599923],[-70.867944,19.0598041],[-70.8685955,19.0595219],[-70.8688217,19.0592738],[-70.8689667,19.0590333],[-70.8693215,19.0586107],[-70.8695321,19.0585307],[-70.8698296,19.0586153],[-70.8699704,19.0586607],[-70.8700184,19.0586063],[-70.8698968,19.0584188],[-70.8698616,19.0582131],[-70.8699192,19.0579924],[-70.8700376,19.0578079],[-70.8702487,19.0576356],[-70.8705527,19.0575327],[-70.870837,19.057448],[-70.8710262,19.0572999],[-70.8712021,19.0572213],[-70.8714261,19.0572061],[-70.8717506,19.0570559],[-70.8719073,19.0568926],[-70.8720801,19.0568291],[-70.8722881,19.0567928],[-70.8725152,19.0567626],[-70.872752,19.056687],[-70.8729343,19.0566459],[-70.8731615,19.0566295],[-70.8733375,19.0566083],[-70.8734782,19.056572],[-70.8736126,19.0565028],[-70.8738206,19.0564904],[-70.8740534,19.0565117],[-70.8741223,19.0565314],[-70.8741885,19.0565539],[-70.8744508,19.0566688],[-70.8746044,19.0567263],[-70.8748015,19.056807],[-70.8749664,19.0568746],[-70.8751564,19.0568938],[-70.8754233,19.056834],[-70.8757627,19.0567613],[-70.876041,19.0566843],[-70.8763102,19.0566886],[-70.8764979,19.0566009],[-70.8767061,19.0566116],[-70.8767346,19.0565736],[-70.8767706,19.0565256],[-70.8768147,19.0564683],[-70.8769125,19.0563678],[-70.8771687,19.0562156],[-70.877367,19.0561733],[-70.8776198,19.0562308],[-70.877831,19.0561461],[-70.8780773,19.0560251],[-70.8783237,19.0558437],[-70.8785252,19.0558588],[-70.8787236,19.0559435],[-70.8789857,19.0559059],[-70.8792003,19.0558224],[-70.8794491,19.0557967],[-70.8796301,19.0558523],[-70.8798066,19.0559336],[-70.8800599,19.0560704],[-70.8802862,19.0561517],[-70.880431,19.0561388],[-70.880689,19.0562319],[-70.8810192,19.0563142],[-70.8811775,19.056404],[-70.8813811,19.0565836],[-70.8815847,19.056682],[-70.8818336,19.056759],[-70.8821655,19.056844],[-70.8824354,19.0570455],[-70.8827566,19.0571225],[-70.882887,19.0570901],[-70.8830326,19.0570327],[-70.8831667,19.0570986],[-70.8833295,19.0572012],[-70.88342,19.0573809],[-70.8835105,19.057569],[-70.8837277,19.0576973],[-70.8839977,19.0576818],[-70.8841983,19.0576588],[-70.8845783,19.0576759],[-70.8849765,19.0576075],[-70.8852797,19.0575434],[-70.8855912,19.0574289],[-70.8858537,19.0572935],[-70.8859827,19.0571738],[-70.8861437,19.0570376],[-70.8862067,19.0568723],[-70.8862406,19.0566784],[-70.8863107,19.0565366],[-70.8864404,19.0562629],[-70.8866003,19.056141],[-70.8867044,19.0559806],[-70.8867722,19.055848],[-70.8867813,19.0557133],[-70.886759,19.0555332],[-70.8867315,19.0553712],[-70.8868084,19.0551595],[-70.886874,19.0550397],[-70.8869176,19.0549015],[-70.88696,19.0548302],[-70.8870256,19.0547168],[-70.8870851,19.0546142],[-70.8871659,19.0544816],[-70.8872179,19.0543362],[-70.8873242,19.0542336],[-70.8874638,19.054117],[-70.8875573,19.0539941],[-70.8876376,19.0537995],[-70.8876408,19.0537065],[-70.8876987,19.0536115],[-70.8877953,19.0534833],[-70.8878699,19.0534139],[-70.8878999,19.0533775],[-70.8878762,19.0533112],[-70.8878838,19.053258],[-70.8879927,19.0532231],[-70.8880739,19.0532238],[-70.8882374,19.0531664],[-70.8884661,19.053013],[-70.888564,19.0528536],[-70.8886136,19.0526392],[-70.8886295,19.0524168],[-70.8885597,19.052258],[-70.8885519,19.052033],[-70.8886607,19.0518162],[-70.8887084,19.05159],[-70.8887772,19.0513885],[-70.8889539,19.0512592],[-70.8891178,19.0512179],[-70.889275,19.0510364],[-70.8894735,19.0508044],[-70.8896494,19.0506085],[-70.8898611,19.0504068],[-70.8900566,19.0501666],[-70.890246,19.0501621],[-70.8905279,19.0501595],[-70.8906848,19.0500111],[-70.8907205,19.04983],[-70.8907654,19.0497087],[-70.8907371,19.0494439],[-70.8907427,19.0492712],[-70.8906877,19.049042],[-70.8907091,19.048853],[-70.8907757,19.0487623],[-70.8908983,19.0487119],[-70.8909277,19.048785],[-70.8908877,19.0488959],[-70.8909463,19.0490395],[-70.8910796,19.0490596],[-70.8911543,19.0489916],[-70.8911943,19.048853],[-70.8916961,19.0484734],[-70.8918325,19.0484656],[-70.8919623,19.0483079],[-70.892034,19.0482356],[-70.8921221,19.0481006],[-70.8922027,19.0479774],[-70.8921466,19.0478618],[-70.8921291,19.0477418],[-70.8921323,19.0476061],[-70.8922298,19.0475341],[-70.8923002,19.0473324],[-70.8923391,19.0471387],[-70.8923513,19.0469656],[-70.8923566,19.0468219],[-70.8924226,19.0467076],[-70.892572,19.046551],[-70.8926712,19.0463432],[-70.8927186,19.0461646],[-70.8927263,19.0458473],[-70.8927212,19.0456083],[-70.8927075,19.0454798],[-70.8927478,19.0453157],[-70.8926998,19.0451645],[-70.8926973,19.0449107],[-70.8928197,19.0447083],[-70.8929429,19.044483],[-70.8930197,19.0443656],[-70.8931506,19.0442386],[-70.8931579,19.0441583],[-70.8931741,19.0440073],[-70.8932469,19.0438321],[-70.8933156,19.0437029],[-70.893354,19.0435592],[-70.8933396,19.0434055],[-70.8933307,19.0432663],[-70.8933995,19.0431647],[-70.8933972,19.0429444],[-70.8934068,19.0427952],[-70.8933608,19.0426948],[-70.8933636,19.0426218],[-70.8933529,19.0425235],[-70.8934098,19.0424349],[-70.8934526,19.0422876],[-70.8935715,19.0420119],[-70.8937256,19.0418004],[-70.8938594,19.0416491],[-70.8940145,19.0414796],[-70.8941127,19.0413063],[-70.8942407,19.0411274],[-70.89439,19.041014],[-70.8945154,19.0409677],[-70.8947659,19.0406209],[-70.8949525,19.0404646],[-70.8950938,19.040389],[-70.8951803,19.0402993],[-70.895307,19.0401723],[-70.895475,19.0401421],[-70.8956989,19.0400222],[-70.8957736,19.0400211],[-70.8958897,19.0398837],[-70.8958793,19.0398158],[-70.8959488,19.0397727],[-70.8959335,19.0397237],[-70.8959895,19.039696],[-70.8961308,19.0396759],[-70.8962134,19.0395448],[-70.8963601,19.0394541],[-70.8964762,19.0394366],[-70.8965669,19.0393343],[-70.8965591,19.0392385],[-70.8964891,19.039138],[-70.8964363,19.0390679],[-70.8963723,19.038994],[-70.8964146,19.0389628],[-70.8966274,19.0389316],[-70.8968333,19.0388368],[-70.8972645,19.0385863],[-70.8974565,19.0384074],[-70.8976212,19.0384013],[-70.8975551,19.0382335],[-70.8975226,19.0381357],[-70.8974858,19.0380697],[-70.8975738,19.0380445],[-70.8976852,19.0380142],[-70.8978002,19.0379742],[-70.8979106,19.0379465],[-70.8980035,19.0379518],[-70.898107,19.0379362],[-70.8981923,19.037916],[-70.8982821,19.0378641],[-70.898357,19.0378472],[-70.8984607,19.0378088],[-70.8985493,19.0378146],[-70.8986196,19.0377741],[-70.8986598,19.0377289],[-70.8987836,19.0376614],[-70.89894,19.0376471],[-70.8990927,19.0375652],[-70.8992322,19.0375402],[-70.8993336,19.0375554],[-70.8994188,19.0375687],[-70.8995131,19.0376293],[-70.8995923,19.0377148],[-70.8997055,19.0377833],[-70.8999844,19.0378574],[-70.9002533,19.0378323],[-70.9003991,19.0377558],[-70.9004764,19.0375919],[-70.9005537,19.0374921],[-70.9006494,19.0374335],[-70.9008873,19.0373442],[-70.9010858,19.037444],[-70.9011738,19.0373781],[-70.9012587,19.0373727],[-70.9014359,19.0374547],[-70.9014717,19.0374814],[-70.9015715,19.0375559],[-70.9017078,19.0376003],[-70.9017545,19.037651],[-70.9018233,19.0377517],[-70.9018695,19.037787],[-70.9019203,19.0378218],[-70.9019863,19.0378414],[-70.9020523,19.0378502],[-70.9021544,19.0378719],[-70.9022257,19.0379228],[-70.902296,19.0379455],[-70.9024011,19.0379411],[-70.9026323,19.0379223],[-70.9027686,19.0379483],[-70.9029741,19.0378806],[-70.9030099,19.0379198],[-70.9031155,19.037934],[-70.9032153,19.0379313],[-70.9032927,19.0380748],[-70.9033549,19.0381728],[-70.9033973,19.03813],[-70.9035006,19.038109],[-70.9035519,19.0381464],[-70.9036701,19.0382062],[-70.9037297,19.0381789],[-70.9037639,19.0381479],[-70.9037903,19.0380926],[-70.9037828,19.0379679],[-70.9038281,19.0378863],[-70.9038705,19.0378097],[-70.903911,19.037656],[-70.9039487,19.0375705],[-70.9039977,19.0374868],[-70.9039401,19.0373401],[-70.9038372,19.0371325],[-70.9038185,19.0369586],[-70.9038639,19.0367369],[-70.9040185,19.0365907],[-70.9041704,19.0364949],[-70.9042378,19.0363165],[-70.9043467,19.0361018],[-70.9043624,19.0359178],[-70.9043083,19.0357785],[-70.9042557,19.0356744],[-70.9042479,19.0355646],[-70.904284,19.0354905],[-70.9043801,19.0354381],[-70.9044468,19.0353397],[-70.9044724,19.0352307],[-70.9045317,19.0352082],[-70.9046301,19.0351986],[-70.9047402,19.0351434],[-70.9048122,19.0350777],[-70.9048665,19.034959],[-70.9049513,19.0348853],[-70.904957,19.03482],[-70.9049197,19.0347612],[-70.9049792,19.0347101],[-70.9050413,19.0346825],[-70.9051153,19.0346927],[-70.9052402,19.0346457],[-70.9054663,19.0344854],[-70.9056248,19.034357],[-70.9057763,19.0341945],[-70.9058776,19.0339059],[-70.9059167,19.0336575],[-70.9059207,19.0335448],[-70.9059737,19.0334211],[-70.9060563,19.033392],[-70.9061542,19.0333668],[-70.9061852,19.0333],[-70.906157,19.0332166],[-70.9061316,19.0331292],[-70.9061246,19.0329862],[-70.9060717,19.0327793],[-70.9060278,19.0326498],[-70.9059294,19.0325102],[-70.9058932,19.0324115],[-70.9059199,19.0322401],[-70.9059112,19.0320823],[-70.9060004,19.0320253],[-70.9060251,19.0319294],[-70.9061256,19.0317995],[-70.9062151,19.0317067],[-70.9063191,19.0315505],[-70.9063749,19.0314302],[-70.9067003,19.0309815],[-70.9067989,19.030923],[-70.9070229,19.0308625],[-70.9071032,19.0307868],[-70.9071135,19.0305979],[-70.9071268,19.0303988],[-70.9071908,19.0301946],[-70.9073561,19.0301566],[-70.9074707,19.0301316],[-70.9075294,19.0300837],[-70.9075187,19.0299477],[-70.907607,19.0298961],[-70.907708,19.0299348],[-70.9077981,19.0299612],[-70.9078555,19.0300975],[-70.907975,19.0300257],[-70.9082277,19.0300176],[-70.9083035,19.0300613],[-70.9086338,19.0300632],[-70.9088517,19.0300888],[-70.9090307,19.0301587],[-70.9093075,19.0302375],[-70.9094488,19.0302123],[-70.9095768,19.0301316],[-70.9096754,19.0300913],[-70.9097794,19.030182],[-70.9098591,19.0302893],[-70.9099279,19.0303471],[-70.9100819,19.0304003],[-70.9101975,19.0302669],[-70.9102672,19.0301333],[-70.9103502,19.0300103],[-70.9105368,19.0298998],[-70.9106838,19.0297501],[-70.910763,19.0295952],[-70.9108554,19.0292886],[-70.9110146,19.0292041],[-70.9112232,19.0291134],[-70.9113587,19.0290746],[-70.9114061,19.0289863],[-70.9114561,19.0289309],[-70.9114561,19.0288818],[-70.9114974,19.0288515],[-70.9115294,19.0287898],[-70.9115467,19.0286965],[-70.9115813,19.0286449],[-70.911536,19.0286171],[-70.9115187,19.0285878],[-70.9115467,19.0285718],[-70.911608,19.0285592],[-70.911548,19.0284836],[-70.911544,19.0283639],[-70.9116421,19.0283029],[-70.91166,19.0282441],[-70.9116933,19.0281396],[-70.9117346,19.0280778],[-70.9117626,19.0281118],[-70.911752,19.0282026],[-70.9118173,19.0282643],[-70.9118653,19.0282378],[-70.9119252,19.0281484],[-70.9119866,19.0280274],[-70.9121092,19.0279241],[-70.9121972,19.0277955],[-70.9123658,19.0274888],[-70.9123509,19.027436],[-70.9122962,19.0273896],[-70.9122132,19.0273005],[-70.9122736,19.0272649],[-70.9123724,19.0272306],[-70.912467,19.0272117],[-70.9125337,19.0271802],[-70.9125257,19.0271348],[-70.9124897,19.0271121],[-70.912439,19.0271021],[-70.9123937,19.0270844],[-70.9124112,19.0270538],[-70.9124111,19.0270025],[-70.9123644,19.0269735],[-70.9123657,19.026942],[-70.9123951,19.0269118],[-70.9124404,19.0268941],[-70.9124804,19.0268538],[-70.912443,19.0267971],[-70.9124484,19.0267782],[-70.9125044,19.0267152],[-70.9124777,19.0266698],[-70.9125021,19.0266508],[-70.9125341,19.0265825],[-70.912553,19.0264845],[-70.9125515,19.0264514],[-70.9126472,19.026406],[-70.9127057,19.026333],[-70.9127867,19.0262938],[-70.9128603,19.0262278],[-70.9129029,19.0261508],[-70.9129262,19.0261066],[-70.9129216,19.0260548],[-70.912864,19.0259712],[-70.9128452,19.0258946],[-70.9129045,19.0258182],[-70.9130916,19.0256988],[-70.9132787,19.0255963],[-70.9133901,19.0255854],[-70.9135199,19.0255981],[-70.9138553,19.0257165],[-70.914086,19.025748],[-70.9142937,19.0257328],[-70.9145165,19.0257165],[-70.9146764,19.025724],[-70.9147644,19.025719],[-70.9148471,19.0257404],[-70.915075,19.0256963],[-70.9152179,19.0256915],[-70.9152712,19.0256852],[-70.9153184,19.0256759],[-70.9153791,19.0256701],[-70.9154201,19.0256193],[-70.9155115,19.02562],[-70.9155866,19.0256436],[-70.9156274,19.0256531],[-70.9156803,19.0256547],[-70.915722,19.0256626],[-70.9157865,19.0256846],[-70.9158249,19.0256844],[-70.9158829,19.0256459],[-70.9159073,19.0256914],[-70.9159305,19.02577],[-70.9159674,19.0258152],[-70.9160022,19.025817],[-70.9160453,19.0258498],[-70.9160662,19.025688],[-70.9160892,19.0257285],[-70.9161181,19.0257914],[-70.9161676,19.0258542],[-70.9161982,19.0259152],[-70.9162499,19.0259244],[-70.9162519,19.025886],[-70.9162303,19.0258056],[-70.9162477,19.0256959],[-70.9163382,19.0256391],[-70.9164585,19.0257501],[-70.9165857,19.0258026],[-70.9166622,19.0258327],[-70.9168162,19.0258424],[-70.9168797,19.0258606],[-70.916872,19.0259133],[-70.9168787,19.0260284],[-70.9169102,19.0261214],[-70.9169696,19.0261552],[-70.9170237,19.0261512],[-70.9170587,19.0261203],[-70.9170617,19.0260626],[-70.9170768,19.0260157],[-70.9170936,19.0259862],[-70.9171284,19.0259979],[-70.9171654,19.026025],[-70.9172007,19.0260218],[-70.9173059,19.0260037],[-70.917405,19.0259605],[-70.9174698,19.0260203],[-70.9174601,19.026074],[-70.9174285,19.026129],[-70.9174426,19.0261483],[-70.9174813,19.0261466],[-70.9175269,19.026141],[-70.9175745,19.026129],[-70.9176264,19.0261218],[-70.9177372,19.0261069],[-70.917793,19.0261266],[-70.9178528,19.0261622],[-70.9178255,19.0262106],[-70.9177682,19.0262108],[-70.9177355,19.0262264],[-70.9177114,19.0262653],[-70.9177229,19.0263146],[-70.9177457,19.0264021],[-70.9177655,19.0265006],[-70.9177997,19.0265835],[-70.9178651,19.0266755],[-70.9178605,19.0267135],[-70.9178849,19.0267697],[-70.9179095,19.0267951],[-70.9179428,19.0268116],[-70.9179783,19.0268319],[-70.918057,19.0268067],[-70.918173,19.0267299],[-70.9183143,19.0267513],[-70.9184238,19.026806],[-70.9185102,19.0267538],[-70.9186248,19.0267059],[-70.9188674,19.0265952],[-70.9188612,19.0266583],[-70.9188518,19.0266935],[-70.9188599,19.0267184],[-70.9188841,19.0267284],[-70.91892,19.0267104],[-70.9189822,19.0267158],[-70.9190397,19.0267268],[-70.919109,19.0267407],[-70.9192006,19.0267547],[-70.9192841,19.0267438],[-70.9193621,19.0267402],[-70.9194579,19.02673],[-70.9195438,19.0267306],[-70.9196018,19.0267323],[-70.9196941,19.0267643],[-70.9197771,19.0267358],[-70.9198983,19.0266916],[-70.920007,19.0266541],[-70.9201088,19.0266396],[-70.9202201,19.0266521],[-70.920284,19.0267298],[-70.9202276,19.0268],[-70.920171,19.0268534],[-70.920139,19.0269336],[-70.9201465,19.0269978],[-70.9202012,19.0270031],[-70.9202613,19.027],[-70.920352,19.0269586],[-70.9204953,19.026955],[-70.9204557,19.0270352],[-70.9205307,19.0270624],[-70.9206711,19.0269905],[-70.9207218,19.0269878],[-70.9208185,19.0270762],[-70.9208805,19.027106],[-70.9210253,19.0272036],[-70.9210665,19.0272323],[-70.9210869,19.0272589],[-70.9211133,19.0273047],[-70.921148,19.0273056],[-70.92118,19.027317],[-70.921213,19.0273275],[-70.9212608,19.0273406],[-70.9213522,19.0273516],[-70.9214056,19.027374],[-70.9214494,19.0274107],[-70.9214897,19.0274506],[-70.9215519,19.0275416],[-70.9216181,19.0276322],[-70.9216957,19.0276993],[-70.9217628,19.0277647],[-70.9217861,19.0277996],[-70.9218269,19.0278299],[-70.9218672,19.0278395],[-70.9219108,19.0278693],[-70.9219473,19.0279005],[-70.9219929,19.027921],[-70.9220288,19.0279562],[-70.922045,19.0279759],[-70.9220571,19.0280099],[-70.9220588,19.0280529],[-70.92209,19.0280458],[-70.9221178,19.028033],[-70.9221525,19.0280482],[-70.9221809,19.0280855],[-70.9222096,19.0280973],[-70.9222367,19.0281186],[-70.922274,19.0281335],[-70.9223657,19.0280936],[-70.9223956,19.0281129],[-70.9223852,19.0281467],[-70.9223897,19.0281837],[-70.9224272,19.0282072],[-70.9224862,19.0282226],[-70.9225072,19.0282584],[-70.9225791,19.0282685],[-70.9226796,19.028284],[-70.9227129,19.0283612],[-70.9226961,19.0285436],[-70.9227103,19.0287306],[-70.9227582,19.0288484],[-70.9228703,19.0289373],[-70.9229251,19.0289748],[-70.9229848,19.0289721],[-70.9230354,19.0290005],[-70.9230548,19.0290217],[-70.9230529,19.0290535],[-70.923069,19.0290798],[-70.9230794,19.0291075],[-70.9231162,19.0290796],[-70.9231634,19.0290655],[-70.9232014,19.0290813],[-70.923245,19.0290951],[-70.9232817,19.0291204],[-70.9233042,19.0291537],[-70.9233111,19.0291763],[-70.9233266,19.0292293],[-70.9233506,19.0292685],[-70.9234078,19.029237],[-70.9234605,19.0292349],[-70.9235008,19.029278],[-70.923517,19.0293097],[-70.9235156,19.0293447],[-70.9235516,19.0293498],[-70.9235965,19.0292817],[-70.9236303,19.0292928],[-70.9236807,19.0292905],[-70.9237226,19.0293337],[-70.9237597,19.029369],[-70.9238523,19.0294008],[-70.9238889,19.0294045],[-70.9239192,19.029411],[-70.9239733,19.0294523],[-70.9240075,19.0294643],[-70.9240452,19.0294896],[-70.9241291,19.0295269],[-70.9243305,19.0295381],[-70.9244763,19.0295742],[-70.9246686,19.0296164],[-70.9247431,19.0296567],[-70.9248843,19.029699],[-70.9249359,19.0297203],[-70.9249949,19.0297323],[-70.9250276,19.029787],[-70.9250703,19.0297909],[-70.9251079,19.0297376],[-70.9251193,19.0298068],[-70.9251805,19.0298806],[-70.9252584,19.029848],[-70.9253554,19.0298504],[-70.9255326,19.0298714],[-70.9257221,19.0298864],[-70.9258689,19.0299301],[-70.9260622,19.029931],[-70.9262022,19.0299063],[-70.9262351,19.029967],[-70.9263202,19.02998],[-70.9264597,19.0299625],[-70.926476,19.030034],[-70.9266164,19.030121],[-70.9267689,19.0301981],[-70.9268554,19.0301729],[-70.9269717,19.0302323],[-70.9271064,19.0301671],[-70.9272202,19.0300968],[-70.9273527,19.0301555],[-70.9274828,19.0302138],[-70.927593,19.0302217],[-70.927644,19.0302857],[-70.9277298,19.030384],[-70.9277681,19.030427],[-70.9277918,19.0304856],[-70.9278169,19.0305011],[-70.9278575,19.0305403],[-70.9278995,19.0305754],[-70.9279134,19.0306237],[-70.9279506,19.0306451],[-70.9279748,19.0306663],[-70.928028,19.0307145],[-70.9281288,19.0306696],[-70.928178,19.0308074],[-70.928258,19.0308153],[-70.9282986,19.0308782],[-70.928365,19.0309179],[-70.9283932,19.03095],[-70.9284312,19.030965],[-70.9284799,19.0309615],[-70.9285202,19.0310029],[-70.9284832,19.0310671],[-70.9285516,19.0311228],[-70.9285907,19.031239],[-70.9286537,19.0312872],[-70.928734,19.031346],[-70.9289426,19.0314909],[-70.9290373,19.0315761],[-70.9290749,19.0316439],[-70.929138,19.0317206],[-70.9292297,19.0317892],[-70.9294334,19.0319574],[-70.9294567,19.0320009],[-70.9294883,19.0320187],[-70.9295481,19.032065],[-70.9295845,19.0321255],[-70.9296362,19.0321293],[-70.9296824,19.0321593],[-70.9298869,19.0322284],[-70.9299939,19.0322688],[-70.9300339,19.0322869],[-70.9300826,19.0323071],[-70.9301407,19.0323348],[-70.9301794,19.0323696],[-70.9302307,19.0323694],[-70.9302791,19.0323627],[-70.9303734,19.0323461],[-70.9305,19.0323385],[-70.9306274,19.0323504],[-70.9307786,19.032404],[-70.9309849,19.0324383],[-70.9311478,19.0325212],[-70.9312838,19.0325578],[-70.931355,19.0325635],[-70.9314277,19.0326145],[-70.9315398,19.0327345],[-70.9317339,19.0327605],[-70.9319248,19.0327459],[-70.932058,19.0327239],[-70.9322446,19.0326816],[-70.9323999,19.0326676],[-70.9325811,19.0326414],[-70.9327117,19.0326116],[-70.9328397,19.0325774],[-70.9329297,19.0325261],[-70.9330397,19.0324809],[-70.9331713,19.0324549],[-70.9332745,19.0324447],[-70.933386,19.0324285],[-70.9335782,19.0324543],[-70.9337319,19.0324363],[-70.9339472,19.0324501],[-70.9341346,19.032476],[-70.9342793,19.0324799],[-70.934405,19.0324756],[-70.934565,19.0324904],[-70.9346447,19.0325181],[-70.9347546,19.032528],[-70.9348701,19.0324761],[-70.9350142,19.0325222],[-70.9351071,19.0325738],[-70.9351834,19.0325938],[-70.9352832,19.0326223],[-70.9353991,19.032615],[-70.9354994,19.0326019],[-70.9356065,19.0326405],[-70.9356435,19.0327201],[-70.9357415,19.0328217],[-70.9358226,19.0328787],[-70.9359677,19.0329108],[-70.9361053,19.032966],[-70.936217,19.0330722],[-70.9363836,19.0331541],[-70.9364998,19.0332023],[-70.9365582,19.0332433],[-70.9366147,19.033311],[-70.9366826,19.0335106],[-70.9367606,19.0336164],[-70.9368975,19.0338082],[-70.9369258,19.0339258],[-70.9369691,19.034006],[-70.9370106,19.0341111],[-70.9370634,19.0342198],[-70.9371143,19.0342786],[-70.937218,19.0342822],[-70.9372745,19.0342893],[-70.9373327,19.03435],[-70.9374234,19.0344532],[-70.9374781,19.0345459],[-70.9375988,19.0346671],[-70.9377652,19.0347935],[-70.9378777,19.0348934],[-70.9379833,19.0349736],[-70.9381285,19.0351215],[-70.9383057,19.0352623],[-70.9384829,19.0354137],[-70.9387732,19.0357149],[-70.9390276,19.0359287],[-70.9392222,19.0360406],[-70.9393462,19.0361212],[-70.9394819,19.0362032],[-70.939661,19.0363422],[-70.9400114,19.0367041],[-70.9405351,19.0369192],[-70.9408202,19.0370179],[-70.9410084,19.0370179],[-70.9411237,19.0370561],[-70.9413323,19.0370407],[-70.9414403,19.0370901],[-70.9415563,19.0371496],[-70.9416258,19.0371708],[-70.9417503,19.0371534],[-70.9418925,19.0371875],[-70.9420019,19.0371934],[-70.9421412,19.0371994],[-70.9422813,19.0372064],[-70.9424415,19.0372314],[-70.9426244,19.0372991],[-70.9427149,19.0373615],[-70.9428072,19.0373989],[-70.9428751,19.0374167],[-70.9429505,19.0374488],[-70.9430165,19.0374773],[-70.9431805,19.0375058],[-70.9433383,19.0374991],[-70.9434745,19.0374987],[-70.943567,19.0374712],[-70.9436668,19.0374363],[-70.9437517,19.0374309],[-70.943878,19.0374274],[-70.9440034,19.0374085],[-70.94414,19.0374559],[-70.9442795,19.0374951],[-70.9443968,19.0375291],[-70.9444944,19.0375468],[-70.944615,19.0375575],[-70.9447319,19.0375699],[-70.9448148,19.0375806],[-70.9448959,19.0375619],[-70.9449455,19.0374984],[-70.9450769,19.0373597],[-70.9452541,19.0372242],[-70.9455927,19.0369492],[-70.9457781,19.0367306],[-70.9459914,19.0365109],[-70.9460702,19.0363617],[-70.9462047,19.0363267],[-70.9463413,19.0363027],[-70.9464049,19.0362503],[-70.9464683,19.0361936],[-70.9465413,19.0361443],[-70.946661,19.0361131],[-70.9467657,19.0361115],[-70.9468883,19.0361231],[-70.9469985,19.0361305],[-70.9471311,19.0361487],[-70.9472433,19.0361884],[-70.9473388,19.036202],[-70.9474407,19.0362173],[-70.9475257,19.0362177],[-70.9476393,19.0362234],[-70.9477208,19.0362357],[-70.9478531,19.0362767],[-70.9480082,19.0363154],[-70.9481769,19.0362933],[-70.948251,19.0362367],[-70.94836,19.0361458],[-70.9484656,19.0360408],[-70.9486383,19.0359259],[-70.9488405,19.0359055],[-70.9491298,19.035808],[-70.9494312,19.0356647],[-70.9496028,19.0355917],[-70.9497823,19.0355547],[-70.9499723,19.03554],[-70.9501522,19.0355923],[-70.9504985,19.0357492],[-70.9509401,19.0355343],[-70.9510291,19.0354452],[-70.9511719,19.0353153],[-70.9512653,19.0354613],[-70.9513351,19.0354568],[-70.9513681,19.0354363],[-70.9514227,19.0354194],[-70.9514425,19.0354167],[-70.9514915,19.0354247],[-70.9515061,19.0354083],[-70.9514864,19.0353896],[-70.9514699,19.0353691],[-70.9514845,19.0353615],[-70.9515311,19.0353744],[-70.9516753,19.0353792],[-70.9518226,19.0353733],[-70.9518292,19.0353531],[-70.9518045,19.0353371],[-70.9517638,19.035327],[-70.9517285,19.0352949],[-70.9517045,19.035264],[-70.9516852,19.0352369],[-70.9516938,19.0352237],[-70.9517305,19.0352312],[-70.9517805,19.0352331],[-70.9518045,19.0352186],[-70.9518031,19.035196],[-70.9518364,19.0351075],[-70.9517876,19.0350727],[-70.9517734,19.0350249],[-70.9518297,19.0349997],[-70.9518894,19.0349475],[-70.9520006,19.0349063],[-70.9520726,19.0349093],[-70.9521314,19.0348882],[-70.952195,19.0348529],[-70.9522567,19.0346609],[-70.9523332,19.0345316],[-70.952346,19.0344572],[-70.9522836,19.0344557],[-70.9522438,19.0343997],[-70.9522171,19.0343024],[-70.9522274,19.0342463],[-70.9523566,19.0341706],[-70.9524708,19.0342158],[-70.9525731,19.0342128],[-70.952657,19.0342437],[-70.9528058,19.0345033],[-70.9528614,19.0347072],[-70.9530533,19.0348832],[-70.9533214,19.0348711],[-70.953557,19.0348783],[-70.9536701,19.034905],[-70.9537512,19.0348818],[-70.9539114,19.03488],[-70.9540673,19.0348684],[-70.9541763,19.034834],[-70.9542595,19.034785],[-70.9543195,19.0346916],[-70.9543881,19.034567],[-70.9544973,19.0346274],[-70.9545988,19.0346309],[-70.9546908,19.0347065],[-70.9549013,19.0347664],[-70.955026,19.0349575],[-70.9550939,19.0350234],[-70.9551714,19.035111],[-70.955322,19.0351954],[-70.9554218,19.0352935],[-70.9555145,19.0353334],[-70.9556047,19.0352752],[-70.9557151,19.0351762],[-70.9557767,19.0350737],[-70.9558365,19.0350039],[-70.9560169,19.0348578],[-70.9561941,19.0349985],[-70.956297,19.0350058],[-70.9563857,19.0349888],[-70.9564778,19.0348959],[-70.956575,19.0349056],[-70.9566469,19.0348905],[-70.9566923,19.0348502],[-70.9567536,19.0348124],[-70.9568255,19.0347771],[-70.9569588,19.0347217],[-70.9570175,19.0346864],[-70.9570895,19.0346813],[-70.9571801,19.0346939],[-70.9572598,19.0347657],[-70.9573635,19.0348602],[-70.9573905,19.0349697],[-70.9575301,19.0350897],[-70.9577354,19.035197],[-70.9578585,19.0352047],[-70.9578257,19.0351433],[-70.957777,19.0350894],[-70.9577539,19.0350495],[-70.9577175,19.0349996],[-70.9577264,19.0349207],[-70.9576689,19.0348682],[-70.9576573,19.0348444],[-70.9577897,19.0348636],[-70.957839,19.034961],[-70.9578695,19.034946],[-70.9579271,19.0349268],[-70.957975,19.0349014],[-70.9579857,19.0349467],[-70.9580136,19.0349997],[-70.9580216,19.0350375],[-70.9580333,19.0350916],[-70.9580642,19.0352093],[-70.9580924,19.0352222],[-70.9581048,19.035233],[-70.9581107,19.0352082],[-70.9581234,19.0351825],[-70.9581522,19.0351783],[-70.9581869,19.035216],[-70.9582112,19.035272],[-70.9582479,19.0353217],[-70.9582844,19.0353642],[-70.9583036,19.0354173],[-70.9583264,19.0354925],[-70.9583603,19.0355264],[-70.9583741,19.0355733],[-70.9583725,19.0357078],[-70.9584178,19.035827],[-70.9584999,19.0357719],[-70.9585708,19.0356662],[-70.9586948,19.035485],[-70.9588121,19.0353551],[-70.9588927,19.0352766],[-70.9590115,19.0352571],[-70.9591271,19.035238],[-70.9592151,19.0351856],[-70.959384,19.0351663],[-70.9594527,19.0351459],[-70.9595084,19.0351153],[-70.959537,19.0351024],[-70.9595231,19.035085],[-70.9593658,19.0350447],[-70.9593131,19.0350124],[-70.9593923,19.0349973],[-70.959463,19.0349768],[-70.9594894,19.0349617],[-70.9595403,19.0349599],[-70.9595837,19.0349568],[-70.9596129,19.0349278],[-70.9596487,19.0349189],[-70.9596851,19.0349038],[-70.9597081,19.0348989],[-70.9597354,19.0348913],[-70.95977,19.0348789],[-70.9597669,19.034846],[-70.9597503,19.0347872],[-70.9597323,19.0347467],[-70.9597176,19.0347199],[-70.9597341,19.0347083],[-70.9597675,19.0347214],[-70.9597984,19.0347466],[-70.9598214,19.0347353],[-70.9598126,19.0346934],[-70.9598074,19.0346134],[-70.9598087,19.0345635],[-70.9598491,19.0345761],[-70.9598819,19.0345863],[-70.9599571,19.0346402],[-70.9600121,19.0347053],[-70.9600545,19.0347818],[-70.9601305,19.0348999],[-70.9602145,19.0349346],[-70.9602898,19.0349224],[-70.9605027,19.0348895],[-70.9606071,19.034922],[-70.9606761,19.0349893],[-70.9607609,19.0350445],[-70.960913,19.0351108],[-70.9612373,19.0351677],[-70.9613641,19.0352174],[-70.9615112,19.0353118],[-70.9615526,19.0353617],[-70.961645,19.0353903],[-70.9617386,19.0354078],[-70.9618415,19.03546],[-70.9619639,19.0355475],[-70.9622123,19.0356747],[-70.9622911,19.0357635],[-70.9623372,19.0359417],[-70.9623728,19.0360295],[-70.9624033,19.0361084],[-70.9624726,19.0362189],[-70.9626543,19.0363544],[-70.962744,19.036422],[-70.9628326,19.0364523],[-70.9628967,19.0364381],[-70.9629325,19.0363864],[-70.9630079,19.0363614],[-70.9630362,19.0363454],[-70.9630777,19.0363525],[-70.9631267,19.0363098],[-70.9632662,19.0363026],[-70.9634177,19.036321],[-70.9636949,19.0363444],[-70.9637514,19.0364213],[-70.9638279,19.036561],[-70.9639146,19.0366198],[-70.9640156,19.0366086],[-70.9641201,19.036602],[-70.9642137,19.0366177],[-70.96433,19.036629],[-70.9644099,19.0366469],[-70.9645032,19.0366355],[-70.9646125,19.0366443],[-70.9647378,19.0366123],[-70.9648322,19.036621],[-70.9649326,19.0365942],[-70.9650854,19.036516],[-70.9651775,19.0364565],[-70.9652903,19.0364346],[-70.9654298,19.0364383],[-70.9656457,19.0365885],[-70.9657744,19.0367899],[-70.9658299,19.0368808],[-70.9658602,19.0369497],[-70.9658723,19.0370156],[-70.9659161,19.0371295],[-70.9659498,19.0372657],[-70.9660015,19.0373531],[-70.9661737,19.0374458],[-70.9662278,19.0375605],[-70.9662896,19.0376778],[-70.9663488,19.0377236],[-70.9664081,19.0377187],[-70.9664483,19.0377249],[-70.9665306,19.0377066],[-70.9666133,19.0376665],[-70.9667465,19.037699],[-70.9668545,19.0377242],[-70.9669905,19.0377393],[-70.9671864,19.0377897],[-70.967457,19.0378515],[-70.9675608,19.0378582],[-70.967681,19.0378373],[-70.9677445,19.0378405],[-70.9678362,19.0378232],[-70.967894,19.0378126],[-70.967933,19.0377844],[-70.9679339,19.0377443],[-70.9679151,19.0376926],[-70.9678817,19.0376272],[-70.9678655,19.0375947],[-70.9678924,19.0375661],[-70.9679715,19.0375256],[-70.968023,19.0375533],[-70.9680876,19.0375872],[-70.9681573,19.0375866],[-70.9682299,19.0375607],[-70.9683034,19.0375278],[-70.968359,19.0374823],[-70.9684353,19.0374698],[-70.9684579,19.0375021],[-70.968442,19.0375707],[-70.968484,19.0376487],[-70.9685456,19.0376425],[-70.9686128,19.0376379],[-70.9686534,19.0375932],[-70.96867,19.037523],[-70.9687157,19.0374654],[-70.9687473,19.037431],[-70.9687555,19.0373919],[-70.9687671,19.0373571],[-70.9688501,19.0373513],[-70.9689462,19.0373781],[-70.9690184,19.0373942],[-70.9690754,19.0373818],[-70.9691787,19.0373427],[-70.9692832,19.0373433],[-70.9693959,19.0373655],[-70.969524,19.037394],[-70.9696687,19.0374208],[-70.9697861,19.0374083],[-70.9698822,19.0374118],[-70.969967,19.0373833],[-70.9700839,19.0373067],[-70.9701536,19.0373305],[-70.9703252,19.0373637],[-70.9705231,19.0373851],[-70.9706983,19.0374315],[-70.9711766,19.037488],[-70.9715771,19.0375138],[-70.9719734,19.0374928],[-70.9723517,19.0375405],[-70.9725593,19.0375617],[-70.972698,19.0375796],[-70.9728255,19.0376033],[-70.9729592,19.0375697],[-70.9730774,19.0375817],[-70.9732275,19.0375305],[-70.9733667,19.0374772],[-70.973611,19.0373692],[-70.9738105,19.0372442],[-70.9738957,19.0372406],[-70.9739959,19.0371785],[-70.9740643,19.0371035],[-70.9743895,19.0370253],[-70.9746671,19.0369319],[-70.9749603,19.0367527],[-70.9752296,19.0366821],[-70.9753896,19.036667],[-70.9755708,19.0366972],[-70.9757574,19.0367375],[-70.9758508,19.0367552],[-70.9759787,19.0367023],[-70.9761227,19.0366493],[-70.976249,19.0366717],[-70.9763466,19.0366569],[-70.9765386,19.0365888],[-70.9767892,19.0365132],[-70.9769171,19.0365132],[-70.9771011,19.0365586],[-70.9772024,19.0366115],[-70.9773143,19.0365863],[-70.9774023,19.0365183],[-70.9775569,19.0365384],[-70.9777062,19.0366191],[-70.9777515,19.0367174],[-70.9778608,19.0367527],[-70.9780928,19.0367199],[-70.9783061,19.0367577],[-70.978578,19.0368056],[-70.9787566,19.0368409],[-70.9789432,19.0368787],[-70.9790258,19.0369694],[-70.9791192,19.0369996],[-70.9792258,19.036982],[-70.9793644,19.0370803],[-70.979487,19.0372063],[-70.9795884,19.0373398],[-70.979671,19.0374003],[-70.979759,19.0374457],[-70.9798443,19.0374129],[-70.9799429,19.0372869],[-70.9800762,19.0372264],[-70.9802548,19.0371811],[-70.9803241,19.0371004],[-70.9804921,19.0370702],[-70.9808573,19.0368761],[-70.9810386,19.036861],[-70.9814466,19.0366722],[-70.9817242,19.0367408],[-70.9819165,19.03678],[-70.9821314,19.0367836],[-70.9822897,19.0368086],[-70.9824915,19.0367676],[-70.9826555,19.036764],[-70.982779,19.0368411],[-70.9828863,19.0368244],[-70.9830117,19.0368075],[-70.9831313,19.0367913],[-70.9832239,19.0367237],[-70.9832935,19.0367152],[-70.9833728,19.0366043],[-70.9835246,19.0365382],[-70.9835803,19.0365523],[-70.9836657,19.0365079],[-70.9837821,19.036495],[-70.9838752,19.0364683],[-70.9839105,19.0364316],[-70.9839258,19.0363725],[-70.9839338,19.0363044],[-70.9838938,19.0362338],[-70.9838698,19.0361809],[-70.9839032,19.0361318],[-70.9839525,19.0361519],[-70.9839885,19.0361973],[-70.9840951,19.0362528],[-70.9841831,19.0362515],[-70.9842604,19.0362011],[-70.9843335,19.0361233],[-70.9843484,19.0360348],[-70.984439,19.0360083],[-70.9845443,19.0359226],[-70.9846523,19.0358747],[-70.9848288,19.035829],[-70.9850129,19.0358351],[-70.9850979,19.0358447],[-70.9851832,19.035858],[-70.985231,19.0358679],[-70.9852975,19.0358936],[-70.985422,19.0359101],[-70.985514,19.0359324],[-70.9855764,19.0359441],[-70.9856232,19.0359822],[-70.9857333,19.036025],[-70.9858041,19.0360629],[-70.9858912,19.0361155],[-70.9859507,19.0361118],[-70.9859912,19.036078],[-70.9859884,19.0359964],[-70.9859738,19.0359385],[-70.9859378,19.035907],[-70.9859098,19.0358641],[-70.9859205,19.03582],[-70.9860316,19.0357753],[-70.9861672,19.0357681],[-70.9863245,19.0358494],[-70.9864012,19.0358109],[-70.9864086,19.0357546],[-70.9863727,19.0356528],[-70.9865341,19.035618],[-70.9865201,19.0354769],[-70.9865433,19.0354391],[-70.9866074,19.0354311],[-70.9868669,19.0354372],[-70.9869482,19.0354529],[-70.9870056,19.0354745],[-70.9870468,19.0355353],[-70.9870788,19.0355466],[-70.9871121,19.0355365],[-70.9871148,19.0354433],[-70.9871414,19.0354092],[-70.9871921,19.0354155],[-70.9872587,19.035442],[-70.9873241,19.0354647],[-70.987356,19.0354344],[-70.9873707,19.0353866],[-70.9874294,19.035408],[-70.9874733,19.0353979],[-70.9875093,19.0353475],[-70.9875,19.0352656],[-70.9874387,19.0351094],[-70.987432,19.0350476],[-70.9874563,19.0350151],[-70.9874905,19.0350071],[-70.9875189,19.0350239],[-70.9875709,19.0350579],[-70.9876341,19.0350815],[-70.9876901,19.0350739],[-70.9877141,19.0350109],[-70.9876607,19.0348887],[-70.9875928,19.0347791],[-70.9875541,19.0346997],[-70.9875128,19.0346455],[-70.9874795,19.0345787],[-70.9874675,19.0345094],[-70.9874821,19.0344704],[-70.9875194,19.0344716],[-70.9875981,19.0345384],[-70.9876514,19.0345573],[-70.9876991,19.0346121],[-70.9878027,19.0346445],[-70.9878974,19.0346924],[-70.9879944,19.0347422],[-70.9881043,19.0347713],[-70.9880744,19.0346044],[-70.9880463,19.034518],[-70.9880265,19.0344343],[-70.9880142,19.0344013],[-70.9880076,19.0343648],[-70.988034,19.0343389],[-70.9880802,19.0343336],[-70.9881433,19.0343853],[-70.9882047,19.0344151],[-70.9882336,19.034387],[-70.9883216,19.0343858],[-70.9883362,19.0343417],[-70.9883229,19.0342547],[-70.9884535,19.0343102],[-70.9885322,19.0342837],[-70.9885322,19.0342258],[-70.9884882,19.0341665],[-70.9884762,19.0341098],[-70.9885975,19.0341086],[-70.9886308,19.0340884],[-70.9886175,19.0340544],[-70.9885735,19.0340216],[-70.9885495,19.0339889],[-70.9885428,19.0339397],[-70.9885228,19.0339044],[-70.9884922,19.0338729],[-70.9884735,19.0338313],[-70.9884935,19.0338162],[-70.9885468,19.0338339],[-70.9885828,19.0338414],[-70.9886641,19.0338692],[-70.9887188,19.0338578],[-70.9887694,19.0338616],[-70.9888308,19.0338969],[-70.9889507,19.0339233],[-70.9890136,19.0339466],[-70.9890653,19.0338605],[-70.9891032,19.0337722],[-70.9891226,19.0337161],[-70.9891683,19.0336844],[-70.9892677,19.0336914],[-70.9893618,19.0337017],[-70.9894319,19.0336488],[-70.9894631,19.0335634],[-70.989504,19.0334817],[-70.9895733,19.0334022],[-70.9896532,19.0333899],[-70.98991,19.0331071],[-70.9900228,19.0330605],[-70.9901037,19.0329814],[-70.9901713,19.0329263],[-70.9902074,19.032824],[-70.9902836,19.0328059],[-70.9903626,19.0327125],[-70.9904013,19.0326315],[-70.9904503,19.03257],[-70.9904928,19.0325496],[-70.9905832,19.0324734],[-70.9906345,19.0324345],[-70.9907154,19.0323669],[-70.9907589,19.0323252],[-70.9908043,19.0323021],[-70.9909115,19.0323039],[-70.9909607,19.0322308],[-70.9910314,19.032072],[-70.9910795,19.0319956],[-70.9912058,19.0319261],[-70.9913528,19.031894],[-70.9915168,19.0318406],[-70.9916407,19.0317688],[-70.991722,19.03176],[-70.9919526,19.0317134],[-70.9920592,19.0317046],[-70.9921672,19.0316516],[-70.9923148,19.0315481],[-70.99257,19.0313502],[-70.9926778,19.0313002],[-70.9927543,19.031268],[-70.9928098,19.0312353],[-70.9928704,19.0311894],[-70.9929241,19.0311629],[-70.9931066,19.031032],[-70.9931779,19.0309273],[-70.9932657,19.0307955],[-70.9933591,19.0306715],[-70.9934426,19.0306009],[-70.9935196,19.0305374],[-70.9935433,19.0304518],[-70.9935843,19.0303917],[-70.9935981,19.0303376],[-70.9936064,19.0302575],[-70.9936288,19.0301255],[-70.9936527,19.0300684],[-70.993698,19.0299793],[-70.9937359,19.0299233],[-70.9937668,19.0298725],[-70.9937987,19.0298144],[-70.9938214,19.029764],[-70.9938666,19.0296992],[-70.9938941,19.0296596],[-70.994027,19.0295737],[-70.9940628,19.0295299],[-70.9941135,19.0294823],[-70.9941792,19.0294231],[-70.9942253,19.0293836],[-70.9942943,19.0293093],[-70.9943707,19.0292332],[-70.994457,19.0291704],[-70.9945493,19.0290801],[-70.9946206,19.0289951],[-70.9946692,19.0289473],[-70.9947214,19.0289198],[-70.9947564,19.0288872],[-70.9947935,19.028839],[-70.9948193,19.0288099],[-70.9948533,19.0287902],[-70.994886,19.0287602],[-70.9948965,19.028713],[-70.9949378,19.0286755],[-70.9949599,19.0286446],[-70.9949851,19.0286269],[-70.9950114,19.028596],[-70.9950225,19.0285629],[-70.9950486,19.0285454],[-70.9950759,19.0285441],[-70.9951038,19.0285125],[-70.9951005,19.028458],[-70.9951257,19.0284128],[-70.995147,19.028368],[-70.995188,19.0283288],[-70.9952195,19.0283097],[-70.9952548,19.0282724],[-70.9952874,19.028242],[-70.9952788,19.0281606],[-70.9952798,19.0281039],[-70.9952849,19.0280689],[-70.9952798,19.028027],[-70.9952708,19.0279973],[-70.9952643,19.0279639],[-70.9952721,19.0279475],[-70.9952757,19.0279083],[-70.9952481,19.0278637],[-70.995245,19.0278295],[-70.9952454,19.0277925],[-70.9952526,19.0277637],[-70.9952738,19.0276915],[-70.9952897,19.0276449],[-70.9952914,19.0275866],[-70.995285,19.0275386],[-70.9952579,19.0275119],[-70.9952781,19.02749],[-70.9952839,19.0274436],[-70.9952858,19.0274135],[-70.9953244,19.0273962],[-70.9953426,19.0273578],[-70.9953823,19.0273287],[-70.9954283,19.0273244],[-70.9954544,19.0273259],[-70.9954729,19.0273229],[-70.9954898,19.0273154],[-70.9955209,19.0272905],[-70.9955527,19.0272796],[-70.9955855,19.0272787],[-70.9956308,19.0272823],[-70.9956655,19.0272842],[-70.9957242,19.0272723],[-70.9957869,19.0272496],[-70.9958129,19.0272149],[-70.9958207,19.0270911],[-70.9958466,19.0271366],[-70.9958745,19.0271193],[-70.9959141,19.027102],[-70.9959333,19.0270683],[-70.9959381,19.027051],[-70.9959593,19.0270337],[-70.9959738,19.0270419],[-70.9959969,19.0270501],[-70.9960133,19.0270264],[-70.9960316,19.0269754],[-70.9960461,19.0269071],[-70.9960509,19.0268451],[-70.9960595,19.0267759],[-70.9960644,19.0267331],[-70.9960894,19.0266748],[-70.9961116,19.0266274],[-70.9961742,19.0265609],[-70.9962137,19.0265163],[-70.996258,19.0264535],[-70.9962917,19.0263596],[-70.9963255,19.0262968],[-70.9963659,19.0262367],[-70.9963948,19.0262012],[-70.9964324,19.0261137],[-70.9964594,19.0260481],[-70.9964767,19.0260062],[-70.9965211,19.0259406],[-70.9965791,19.0258623],[-70.9966009,19.0258481],[-70.9966268,19.0258262],[-70.9966665,19.0258035],[-70.9967223,19.0257907],[-70.9967946,19.025761],[-70.9968327,19.0257299],[-70.9968765,19.0257067],[-70.9969326,19.0256684],[-70.99697,19.0256328],[-70.9969714,19.0255842],[-70.9969828,19.0255093],[-70.9969837,19.0254235],[-70.996997,19.0253652],[-70.9970104,19.0253214],[-70.9970466,19.0252707],[-70.9970553,19.0252102],[-70.9970818,19.025177],[-70.9970845,19.0251346],[-70.9970788,19.0250843],[-70.9970836,19.025029],[-70.9971187,19.024985],[-70.997165,19.0249631],[-70.9972291,19.0249567],[-70.9972877,19.0249554],[-70.9973789,19.0249593],[-70.9974613,19.0249505],[-70.9975169,19.0249243],[-70.9975514,19.0248486],[-70.9975694,19.0247994],[-70.9975584,19.0247374],[-70.9975423,19.0246627],[-70.9975481,19.02462],[-70.9975488,19.024588],[-70.9975829,19.0245341],[-70.9976093,19.0244967],[-70.9975927,19.0244307],[-70.9975726,19.0243949],[-70.9975691,19.0243578],[-70.9975792,19.0243268],[-70.99763,19.0242898],[-70.9976593,19.0242589],[-70.9976769,19.0242063],[-70.9976763,19.0241582],[-70.9977014,19.0241304],[-70.9977211,19.0240735],[-70.9977207,19.023997],[-70.9976923,19.0239313],[-70.9977114,19.023845],[-70.997725,19.0237858],[-70.9977482,19.0237226],[-70.9977455,19.0236634],[-70.9977381,19.0235795],[-70.9977525,19.0234775],[-70.997765,19.0234064],[-70.9977834,19.0233026],[-70.9977978,19.023186],[-70.9977988,19.0231022],[-70.99769,19.023073]]}}]}
