{"type":"FeatureCollection","peaks_destination_id":"fdkdpS00x35N0JRNyJGy","peaks_trailhead_id":"draft-trailhead","peaks_source":"https://www.openstreetmap.org/","peaks_retrieval_source":"https://overpass-api.de/api/interpreter","peaks_license_name":"Open Data Commons Open Database License (ODbL) 1.0","peaks_license":"https://opendatacommons.org/licenses/odbl/1-0/","peaks_attribution":"© OpenStreetMap contributors","peaks_retrieved_at":"2026-07-31T05:59:26.918Z","features":[{"type":"Feature","properties":{"name":"Pico da Bandeira OSM route candidate","trailhead_name":"Tronqueira","destination_name":"Pico da Bandeira","distance_m":6797.366392831872,"trailhead_snap_m":5.238497311239771,"summit_snap_m":53.89558420725456,"osm_way_ids":[548141314,39077043,548141297,39076650,548141298,1486755628,1486755625,1487024825,1486755624,1486755620,1486755619,1486755618,1053437770,1053437772,1486422875,1486422873,548141306,451392946,1053437773,39076255,1442675555,1416353859,107857509],"osm_way_urls":["https://www.openstreetmap.org/way/548141314","https://www.openstreetmap.org/way/39077043","https://www.openstreetmap.org/way/548141297","https://www.openstreetmap.org/way/39076650","https://www.openstreetmap.org/way/548141298","https://www.openstreetmap.org/way/1486755628","https://www.openstreetmap.org/way/1486755625","https://www.openstreetmap.org/way/1487024825","https://www.openstreetmap.org/way/1486755624","https://www.openstreetmap.org/way/1486755620","https://www.openstreetmap.org/way/1486755619","https://www.openstreetmap.org/way/1486755618","https://www.openstreetmap.org/way/1053437770","https://www.openstreetmap.org/way/1053437772","https://www.openstreetmap.org/way/1486422875","https://www.openstreetmap.org/way/1486422873","https://www.openstreetmap.org/way/548141306","https://www.openstreetmap.org/way/451392946","https://www.openstreetmap.org/way/1053437773","https://www.openstreetmap.org/way/39076255","https://www.openstreetmap.org/way/1442675555","https://www.openstreetmap.org/way/1416353859","https://www.openstreetmap.org/way/107857509"],"osm_way_names":["Estrada Parque","Trilha Casa Queimada - Pico da Bandeira pelo Pico do Calçado"],"osm_foot_access_override_way_ids":[]},"geometry":{"type":"LineString","coordinates":[[-41.83749,-20.40964],[-41.8375093,-20.4096835],[-41.837468,-20.4096914],[-41.8374275,-20.4097023],[-41.8373951,-20.4097151],[-41.8373644,-20.4097312],[-41.8373121,-20.4097708],[-41.8372498,-20.4098173],[-41.8372373,-20.4098213],[-41.8372243,-20.409823],[-41.837211,-20.4098223],[-41.8371981,-20.4098192],[-41.8371753,-20.4098148],[-41.8371183,-20.4098387],[-41.83706,-20.4098588],[-41.8368716,-20.4099128],[-41.8368132,-20.4099235],[-41.8367844,-20.4099273],[-41.8367787,-20.4099277],[-41.8366744,-20.4099336],[-41.8366557,-20.409938],[-41.8366275,-20.4099449],[-41.8366067,-20.4099656],[-41.8365926,-20.4099864],[-41.8365926,-20.410009],[-41.836592,-20.410048],[-41.8365873,-20.4100769],[-41.8365692,-20.410107],[-41.836545,-20.4101523],[-41.8365276,-20.4102],[-41.8365256,-20.4102491],[-41.8365209,-20.4102786],[-41.8365081,-20.4102949],[-41.836486,-20.4103025],[-41.8364558,-20.4102817],[-41.8364384,-20.4102642],[-41.8364203,-20.4102503],[-41.8363935,-20.4102453],[-41.8363814,-20.4102459],[-41.8363479,-20.4102484],[-41.8363217,-20.4102428],[-41.8362936,-20.4102334],[-41.8362848,-20.4102176],[-41.8362701,-20.4102],[-41.8362453,-20.4101837],[-41.8362205,-20.4101812],[-41.8361977,-20.4101925],[-41.8361836,-20.4102095],[-41.8361796,-20.410222],[-41.8361896,-20.410244],[-41.8362024,-20.4102535],[-41.8362238,-20.4102786],[-41.8362265,-20.4103],[-41.8362232,-20.4103113],[-41.8362138,-20.4103182],[-41.8361876,-20.4103245],[-41.8361601,-20.4103207],[-41.8361494,-20.4103339],[-41.8361199,-20.4103465],[-41.8360978,-20.4103528],[-41.8360776,-20.4103685],[-41.8360683,-20.4103861],[-41.8360743,-20.4104049],[-41.8360689,-20.4104307],[-41.8361085,-20.4104602],[-41.8361306,-20.4104659],[-41.8361393,-20.4104803],[-41.836144,-20.4105111],[-41.836146,-20.4105451],[-41.8361581,-20.4105796],[-41.8361668,-20.4106041],[-41.8361715,-20.4106375],[-41.8361695,-20.410684],[-41.8361434,-20.4107154],[-41.8361212,-20.4107399],[-41.8361051,-20.4107531],[-41.836079,-20.4107493],[-41.8360414,-20.4107525],[-41.8360227,-20.4107644],[-41.836016,-20.410787],[-41.8360005,-20.4108222],[-41.8359804,-20.4108448],[-41.8359663,-20.4108587],[-41.8359536,-20.4108681],[-41.8359295,-20.4108687],[-41.83591,-20.4108857],[-41.8358718,-20.4109045],[-41.8358443,-20.4109133],[-41.8358094,-20.4109322],[-41.8357571,-20.4109429],[-41.835733,-20.4109511],[-41.8357236,-20.4109636],[-41.8357095,-20.410985],[-41.8356834,-20.4109913],[-41.8356706,-20.4109837],[-41.8356485,-20.4109762],[-41.8356518,-20.4109542],[-41.8356438,-20.4109347],[-41.835623,-20.4109265],[-41.8356036,-20.4109316],[-41.8355821,-20.4109416],[-41.8355298,-20.4109335],[-41.8354963,-20.4109303],[-41.8354641,-20.4109253],[-41.8354326,-20.4109297],[-41.8354024,-20.4109347],[-41.8353682,-20.4109322],[-41.83534,-20.4109347],[-41.8353072,-20.4109429],[-41.8352904,-20.4109504],[-41.8352723,-20.4109592],[-41.8352462,-20.4109712],[-41.835222,-20.4109712],[-41.8352012,-20.4109674],[-41.8351838,-20.4109661],[-41.8351664,-20.4109693],[-41.8351429,-20.4109756],[-41.8351295,-20.4109957],[-41.8351164,-20.410995],[-41.8351027,-20.4110057],[-41.8350966,-20.4110189],[-41.8350893,-20.4110296],[-41.8350651,-20.4110233],[-41.8350524,-20.4110189],[-41.8350276,-20.4109994],[-41.8350142,-20.4109844],[-41.8350074,-20.4109674],[-41.8349954,-20.4109454],[-41.8349739,-20.4109253],[-41.8349538,-20.4109014],[-41.8349397,-20.4108951],[-41.8349236,-20.4108832],[-41.834923,-20.4108643],[-41.8349055,-20.4108492],[-41.8348854,-20.4108442],[-41.8348452,-20.4108549],[-41.8348318,-20.4108624],[-41.834821,-20.4108731],[-41.8348056,-20.4108951],[-41.8347942,-20.4109108],[-41.8347815,-20.4109196],[-41.834762,-20.4109379],[-41.8347439,-20.4109523],[-41.8347318,-20.410963],[-41.8347305,-20.4109737],[-41.8347318,-20.4109894],[-41.8347305,-20.411012],[-41.8347184,-20.4110327],[-41.8347131,-20.411056],[-41.834709,-20.4110925],[-41.8347023,-20.4111144],[-41.8347077,-20.4111591],[-41.8347218,-20.4111836],[-41.8347325,-20.4112037],[-41.8347359,-20.4112238],[-41.8347238,-20.4112628],[-41.8347144,-20.4112848],[-41.8347151,-20.4113086],[-41.8347117,-20.4113401],[-41.834697,-20.4113709],[-41.8346943,-20.4114136],[-41.8346822,-20.4114318],[-41.8346702,-20.4114588],[-41.8346742,-20.4114764],[-41.8346702,-20.4115016],[-41.8346655,-20.411538],[-41.8346668,-20.4115726],[-41.8346688,-20.4116329],[-41.8346722,-20.4116631],[-41.8346769,-20.4117008],[-41.8346737,-20.4117291],[-41.8346715,-20.4117486],[-41.8346594,-20.4117957],[-41.8346688,-20.4118321],[-41.8346749,-20.4118604],[-41.8346621,-20.4118906],[-41.834648,-20.4118912],[-41.8346293,-20.4118874],[-41.8346058,-20.4118937],[-41.8345944,-20.4119132],[-41.8345904,-20.4119346],[-41.8345904,-20.4119723],[-41.8345964,-20.4120144],[-41.8345971,-20.4120496],[-41.8346085,-20.4120772],[-41.8346219,-20.4121049],[-41.8346333,-20.4121583],[-41.834638,-20.4122079],[-41.8346252,-20.4122249],[-41.8346065,-20.4122249],[-41.8345964,-20.4122092],[-41.8345904,-20.4121922],[-41.8345803,-20.4121822],[-41.8345662,-20.4121941],[-41.8345528,-20.412196],[-41.8345364,-20.4121882],[-41.8345079,-20.4121684],[-41.8344717,-20.4121627],[-41.8344428,-20.4121602],[-41.83441,-20.4121533],[-41.8343818,-20.4121514],[-41.834363,-20.4121508],[-41.8343436,-20.4121545],[-41.8343101,-20.4121652],[-41.8342886,-20.4121841],[-41.8342551,-20.4121929],[-41.8342303,-20.4121772],[-41.8342115,-20.4121709],[-41.8341813,-20.4121646],[-41.8341558,-20.4121746],[-41.8341297,-20.4121916],[-41.8341015,-20.4122086],[-41.834072,-20.4122325],[-41.8340459,-20.412262],[-41.8340184,-20.4122915],[-41.8339996,-20.4123286],[-41.8339768,-20.4123531],[-41.8339547,-20.4123757],[-41.8339212,-20.4123965],[-41.833887,-20.4124191],[-41.8338581,-20.41246],[-41.8338447,-20.4124725],[-41.8338273,-20.4124958],[-41.8338058,-20.4125366],[-41.8337931,-20.4125454],[-41.8337535,-20.4125693],[-41.8337347,-20.4125894],[-41.8337019,-20.4126164],[-41.8336543,-20.4126648],[-41.8336181,-20.4127038],[-41.8335979,-20.4127327],[-41.8335973,-20.4127534],[-41.8335798,-20.4127811],[-41.8335637,-20.4128025],[-41.8335416,-20.4128345],[-41.8335383,-20.4128565],[-41.8335336,-20.4128917],[-41.8335302,-20.41293],[-41.8335135,-20.412952],[-41.833486,-20.4129772],[-41.8334658,-20.4129992],[-41.8334699,-20.4130237],[-41.8334699,-20.4130538],[-41.8334578,-20.4130802],[-41.8334444,-20.4130909],[-41.8334082,-20.4131016],[-41.83338,-20.4130934],[-41.8333445,-20.4130953],[-41.833317,-20.4131117],[-41.8332821,-20.4131292],[-41.8332493,-20.4131588],[-41.8332265,-20.4131864],[-41.8331996,-20.4132191],[-41.8331896,-20.4132386],[-41.8331641,-20.4132549],[-41.8331239,-20.4132769],[-41.833083,-20.4133046],[-41.8330508,-20.4133423],[-41.8330327,-20.4133699],[-41.8330105,-20.4133976],[-41.8329857,-20.4134146],[-41.8329556,-20.413441],[-41.8329281,-20.4134623],[-41.8328771,-20.4134793],[-41.8328288,-20.413512],[-41.8328,-20.4135302],[-41.8327832,-20.4135465],[-41.8327638,-20.4135704],[-41.8327349,-20.413593],[-41.8327142,-20.41361],[-41.8326947,-20.4136402],[-41.8326793,-20.4136666],[-41.8326679,-20.413698],[-41.8326498,-20.4137269],[-41.8326391,-20.413752],[-41.8326303,-20.4137916],[-41.8326189,-20.4138224],[-41.8325961,-20.4138388],[-41.8325747,-20.4138526],[-41.8325438,-20.413857],[-41.832523,-20.4138658],[-41.8324956,-20.4138721],[-41.832458,-20.4138897],[-41.8324285,-20.4138909],[-41.8324211,-20.4138909],[-41.8323869,-20.4138765],[-41.8323718,-20.4138652],[-41.8323594,-20.4138652],[-41.8323427,-20.4138664],[-41.8323212,-20.4138564],[-41.8322635,-20.4138425],[-41.8322407,-20.4138262],[-41.8322334,-20.4138036],[-41.832226,-20.4137853],[-41.8321972,-20.413769],[-41.8321663,-20.4137621],[-41.8321455,-20.4137545],[-41.83212,-20.4137483],[-41.8320999,-20.4137432],[-41.8320865,-20.4137388],[-41.8320778,-20.4137269],[-41.8320671,-20.413715],[-41.832053,-20.4137074],[-41.8320423,-20.4137087],[-41.8320289,-20.4137106],[-41.8320134,-20.4137062],[-41.8320061,-20.4136917],[-41.8319906,-20.4136779],[-41.8319725,-20.4136659],[-41.831943,-20.4136659],[-41.83189,-20.4136559],[-41.8318572,-20.4136546],[-41.8318377,-20.4136471],[-41.8318062,-20.4136289],[-41.8317787,-20.4136144],[-41.8317553,-20.4136106],[-41.8317284,-20.4135993],[-41.8317023,-20.4135962],[-41.8316728,-20.4136062],[-41.8316473,-20.4136144],[-41.8316118,-20.4136232],[-41.8315561,-20.4136465],[-41.8315085,-20.4136716],[-41.83143,-20.4137407],[-41.8313925,-20.4137665],[-41.831367,-20.413791],[-41.8313395,-20.4138274],[-41.831302,-20.413867],[-41.8312745,-20.4138966],[-41.8312537,-20.4139079],[-41.8312253,-20.4139145],[-41.8312034,-20.4139161],[-41.8311719,-20.4139148],[-41.8311203,-20.4139003],[-41.8310659,-20.4138696],[-41.8309198,-20.413764],[-41.8308561,-20.4137206],[-41.8307964,-20.4136967],[-41.830734,-20.4136622],[-41.8306877,-20.4136314],[-41.8306455,-20.4136219],[-41.8305979,-20.413615],[-41.8305577,-20.413615],[-41.8304886,-20.4136257],[-41.8303813,-20.413654],[-41.8303424,-20.4136647],[-41.8303109,-20.4136691],[-41.8302854,-20.4136904],[-41.8302378,-20.4137194],[-41.8301748,-20.4137382],[-41.8301044,-20.4137665],[-41.8300199,-20.4137853],[-41.829928,-20.4138067],[-41.8298583,-20.4138168],[-41.8297838,-20.4138249],[-41.8297222,-20.4138174],[-41.8296598,-20.4138092],[-41.8296202,-20.4138186],[-41.8295894,-20.4138293],[-41.8295545,-20.4138488],[-41.829529,-20.4138507],[-41.8295096,-20.4138432],[-41.8294667,-20.4138375],[-41.8293862,-20.4138463],[-41.8293259,-20.4138664],[-41.8292454,-20.4138934],[-41.8292105,-20.4139104],[-41.8291837,-20.4139205],[-41.8291381,-20.4139305],[-41.8290898,-20.413945],[-41.8289617,-20.4139751],[-41.8288887,-20.4139864],[-41.828833,-20.413999],[-41.8287988,-20.4140034],[-41.8287693,-20.4140254],[-41.8287465,-20.4140455],[-41.8287143,-20.4140688],[-41.8286667,-20.4140694],[-41.8286332,-20.4140606],[-41.8285903,-20.4140581],[-41.8285239,-20.4140732],[-41.8284743,-20.4140744],[-41.828432,-20.4140795],[-41.8283992,-20.4140839],[-41.828369,-20.4140801],[-41.8283334,-20.4140675],[-41.8282939,-20.4140392],[-41.8282302,-20.4139839],[-41.8281953,-20.4139544],[-41.8281718,-20.4139387],[-41.8281101,-20.413911],[-41.8280947,-20.4139066],[-41.8280632,-20.4139117],[-41.8280391,-20.4139098],[-41.8279995,-20.4138985],[-41.8279774,-20.4138991],[-41.8279438,-20.4139129],[-41.8279123,-20.4139186],[-41.8278587,-20.4139211],[-41.8277876,-20.4139223],[-41.8277179,-20.4139349],[-41.8276498,-20.4139497],[-41.827625,-20.4139635],[-41.8275992,-20.4139824],[-41.8275787,-20.4140069],[-41.8275435,-20.4140597],[-41.8275224,-20.4140864],[-41.8274798,-20.4141187],[-41.827444,-20.4141568],[-41.8274225,-20.4141721],[-41.827395,-20.4141863],[-41.8273709,-20.4141976],[-41.8273192,-20.4142114],[-41.827285,-20.4142064],[-41.8272565,-20.4141985],[-41.8272197,-20.4141841],[-41.8271912,-20.4141596],[-41.8271798,-20.4141451],[-41.827157,-20.4141382],[-41.8270855,-20.4141376],[-41.8270668,-20.4141376],[-41.827053,-20.4141398],[-41.8270409,-20.4141436],[-41.8270232,-20.4141498],[-41.8270051,-20.4141498],[-41.8269964,-20.4141432],[-41.8269759,-20.4141216],[-41.8269518,-20.4141049],[-41.8269296,-20.4140879],[-41.8269135,-20.414082],[-41.8268867,-20.4140823],[-41.8268609,-20.4140851],[-41.8268431,-20.4140782],[-41.8267965,-20.4140575],[-41.826761,-20.4140518],[-41.8267389,-20.4140537],[-41.8267174,-20.4140644],[-41.8266933,-20.4140751],[-41.8266685,-20.4140851],[-41.8266329,-20.4140914],[-41.8266041,-20.4141084],[-41.8265789,-20.4141216],[-41.8265565,-20.41413],[-41.8265367,-20.4141272],[-41.8265146,-20.4141222],[-41.8264931,-20.4141197],[-41.826476,-20.4141294],[-41.8264592,-20.4141445],[-41.8264324,-20.4141709],[-41.826414,-20.4141866],[-41.8263945,-20.4141916],[-41.8263838,-20.4142026],[-41.8263835,-20.414218],[-41.8263741,-20.414235],[-41.8263456,-20.4142611],[-41.8263211,-20.4142872],[-41.8263067,-20.4143082],[-41.8263047,-20.4143255],[-41.8263007,-20.4143497],[-41.8262839,-20.4143701],[-41.8262484,-20.4143949],[-41.8262218,-20.4144147],[-41.8262014,-20.4144326],[-41.8261863,-20.4144493],[-41.8261716,-20.4144923],[-41.8261555,-20.4145106],[-41.8261354,-20.4145338],[-41.8261179,-20.4145571],[-41.8260817,-20.4145803],[-41.8260603,-20.4145967],[-41.8260328,-20.4146099],[-41.8260174,-20.4146161],[-41.8259986,-20.4146287],[-41.8259838,-20.414652],[-41.8259718,-20.4146683],[-41.8259476,-20.414689],[-41.8259282,-20.4147022],[-41.8259121,-20.4147123],[-41.8258873,-20.4147255],[-41.8258685,-20.4147368],[-41.825849,-20.4147506],[-41.8258296,-20.4147688],[-41.8258041,-20.4147783],[-41.825786,-20.414782],[-41.8257632,-20.4147896],[-41.8257478,-20.4148066],[-41.8257122,-20.4148279],[-41.8256747,-20.4148487],[-41.8256291,-20.414865],[-41.8256103,-20.4148656],[-41.8255976,-20.4148713],[-41.8255855,-20.4148839],[-41.8255748,-20.4149014],[-41.8255553,-20.4149134],[-41.8255379,-20.4149222],[-41.8255151,-20.4149385],[-41.8254963,-20.4149549],[-41.8254702,-20.4149699],[-41.8254487,-20.4149775],[-41.8254313,-20.414985],[-41.8254159,-20.4149907],[-41.8254058,-20.4150045],[-41.8254038,-20.4150183],[-41.8253984,-20.415045],[-41.825377,-20.4150752],[-41.8253528,-20.4150991],[-41.8253324,-20.4151135],[-41.8253123,-20.4151406],[-41.8252985,-20.4151635],[-41.8252958,-20.4151905],[-41.8252932,-20.4152446],[-41.8252885,-20.4152659],[-41.8252777,-20.4152782],[-41.8252657,-20.4152867],[-41.8252543,-20.4152923],[-41.8252348,-20.4152986],[-41.8251906,-20.4152911],[-41.825153,-20.4152842],[-41.8251269,-20.415281],[-41.8251027,-20.415282],[-41.8250806,-20.4152829],[-41.8250544,-20.4152851],[-41.825029,-20.415287],[-41.8250135,-20.4152933],[-41.824982,-20.4152948],[-41.8249642,-20.4152914],[-41.8249528,-20.4152851],[-41.8249485,-20.4152713],[-41.8249324,-20.4152581],[-41.8249116,-20.415248],[-41.8248935,-20.4152392],[-41.8248798,-20.4152248],[-41.8248627,-20.4152169],[-41.8248526,-20.4152226],[-41.8248405,-20.4152355],[-41.8248285,-20.4152446],[-41.8247886,-20.4152417],[-41.8247698,-20.4152417],[-41.8247487,-20.4152373],[-41.8247275,-20.4152198],[-41.824697,-20.4152069],[-41.8246746,-20.415205],[-41.8246524,-20.4152128],[-41.8246139,-20.4152213],[-41.8245891,-20.4152254],[-41.82457,-20.4152276],[-41.8245435,-20.4152232],[-41.8245227,-20.4152163],[-41.8244939,-20.4152132],[-41.8244077,-20.4152113],[-41.8243812,-20.4152116],[-41.8242991,-20.4152062],[-41.8242856,-20.4152056],[-41.8242729,-20.4152097],[-41.8242602,-20.4152201],[-41.8242474,-20.4152245],[-41.8242384,-20.4152172],[-41.8242266,-20.4152113],[-41.8242116,-20.4152135],[-41.8241995,-20.4152182],[-41.8241824,-20.4152307],[-41.8241569,-20.4152487],[-41.8241086,-20.4152757],[-41.8240919,-20.4152917],[-41.8240868,-20.4153087],[-41.8240795,-20.4153247],[-41.8240724,-20.415331],[-41.824062,-20.4153354],[-41.8240426,-20.4153489],[-41.8240325,-20.4153611],[-41.8238987,-20.4154683],[-41.8238853,-20.4154828],[-41.823881,-20.4154994],[-41.8238709,-20.4155123],[-41.8238484,-20.4155195],[-41.823832,-20.4155293],[-41.8238112,-20.4155481],[-41.8237583,-20.4156345],[-41.8237432,-20.415648],[-41.8237274,-20.4156581],[-41.8237096,-20.4156628],[-41.8236885,-20.4156776],[-41.823663,-20.4157071],[-41.8236309,-20.4157385],[-41.8235993,-20.4157712],[-41.8235309,-20.4158397],[-41.8234766,-20.4158793],[-41.8234196,-20.4159208],[-41.8233559,-20.4159553],[-41.8232188,-20.4160493],[-41.8231846,-20.4160681],[-41.8231574,-20.4160936],[-41.8231333,-20.41613],[-41.8231078,-20.4161539],[-41.8230696,-20.4161803],[-41.8230183,-20.4162381],[-41.8230049,-20.4162516],[-41.8229918,-20.4162629],[-41.8229462,-20.4162862],[-41.8229036,-20.4163],[-41.8228607,-20.4162997],[-41.8228279,-20.4162922],[-41.8227917,-20.4162963],[-41.8227675,-20.4162994],[-41.8227404,-20.4163057],[-41.8226964,-20.4163283],[-41.8226542,-20.416349],[-41.8226307,-20.4163698],[-41.822618,-20.4163814],[-41.8226136,-20.416394],[-41.8226042,-20.4164103],[-41.8225932,-20.4164295],[-41.8225821,-20.4164565],[-41.8225818,-20.4164666],[-41.8225751,-20.4164879],[-41.8225593,-20.4165134],[-41.8225459,-20.4165285],[-41.8225332,-20.4165476],[-41.8225177,-20.4165618],[-41.8224916,-20.4165743],[-41.8224695,-20.4165894],[-41.8224473,-20.4165973],[-41.8224265,-20.4165948],[-41.8223923,-20.4165941],[-41.8223742,-20.4165992],[-41.8223612,-20.4165995],[-41.8223494,-20.4166076],[-41.8223186,-20.4166215],[-41.8222908,-20.416629],[-41.8222629,-20.4166362],[-41.8222502,-20.416646],[-41.8222371,-20.4166592],[-41.822224,-20.4166702],[-41.8221965,-20.4166875],[-41.822155,-20.4167091],[-41.8221342,-20.4167186],[-41.8221214,-20.4167264],[-41.8220983,-20.4167362],[-41.8220728,-20.4167443],[-41.8220554,-20.416749],[-41.822042,-20.416755],[-41.8220165,-20.4167506],[-41.8220029,-20.4167398],[-41.8220001,-20.4167292],[-41.8219991,-20.4167113],[-41.8219927,-20.4166937],[-41.8219793,-20.4166799],[-41.8219753,-20.4166664],[-41.8219732,-20.416656],[-41.8219555,-20.4166369],[-41.8219414,-20.4166205],[-41.8219166,-20.4166073],[-41.8219005,-20.4166023],[-41.8218834,-20.4166029],[-41.8218663,-20.4165985],[-41.8218552,-20.4165904],[-41.8218425,-20.4165784],[-41.8218103,-20.4165668],[-41.8217852,-20.4165586],[-41.8217607,-20.4165618],[-41.8217459,-20.4165662],[-41.8217362,-20.4165684],[-41.8217272,-20.4165759],[-41.8217205,-20.4165916],[-41.8217218,-20.4166102],[-41.8217322,-20.4166274],[-41.8217429,-20.4166457],[-41.8217553,-20.4166805],[-41.821758,-20.4167035],[-41.8217573,-20.4167189],[-41.821753,-20.4167277],[-41.8217419,-20.4167396],[-41.8217365,-20.4167421],[-41.8217201,-20.4167428],[-41.821708,-20.4167346],[-41.821697,-20.4167349],[-41.8216889,-20.4167374],[-41.8216836,-20.4167421],[-41.8216728,-20.4167462],[-41.8216604,-20.4167421],[-41.8216474,-20.4167308],[-41.8216386,-20.4167198],[-41.8216269,-20.4167154],[-41.8216209,-20.4167182],[-41.8216132,-20.4167333],[-41.8216038,-20.4167462],[-41.8215977,-20.4167525],[-41.8215907,-20.4167553],[-41.821578,-20.4167506],[-41.8215605,-20.4167528],[-41.8215582,-20.4167654],[-41.8215578,-20.4167792],[-41.8215444,-20.416799],[-41.8215337,-20.4168037],[-41.821521,-20.4168009],[-41.8215062,-20.4167952],[-41.8214905,-20.4167908],[-41.8214606,-20.4167911],[-41.8214445,-20.4167858],[-41.8214348,-20.4167754],[-41.8214217,-20.4167735],[-41.8214023,-20.4167776],[-41.8213926,-20.4167783],[-41.8213822,-20.416772],[-41.8213748,-20.4167698],[-41.8213577,-20.4167757],[-41.8213423,-20.4167767],[-41.8213067,-20.4167735],[-41.8212789,-20.4167663],[-41.8212491,-20.4167723],[-41.8212212,-20.416783],[-41.8211766,-20.4167861],[-41.8211652,-20.4167849],[-41.8211501,-20.4167849],[-41.8211408,-20.4167915],[-41.8211384,-20.4168031],[-41.821132,-20.4168141],[-41.8211139,-20.4168191],[-41.8210814,-20.4168288],[-41.8210546,-20.4168342],[-41.8210335,-20.4168383],[-41.821003,-20.4168508],[-41.820945,-20.4168791],[-41.8209225,-20.4168879],[-41.8208943,-20.4168882],[-41.8208578,-20.416898],[-41.8208085,-20.4168882],[-41.8207666,-20.4168769],[-41.8207428,-20.4168754],[-41.8207203,-20.4168801],[-41.8207012,-20.4168851],[-41.8206633,-20.416886],[-41.8206117,-20.4168857],[-41.8205487,-20.4169005],[-41.8205195,-20.4169058],[-41.8204702,-20.4169102],[-41.8204132,-20.4169234],[-41.8203944,-20.4169294],[-41.820381,-20.4169413],[-41.8203703,-20.4169539],[-41.8203659,-20.4169652],[-41.8203535,-20.4169743],[-41.8203418,-20.4169856],[-41.820319,-20.4170076],[-41.8202996,-20.4170171],[-41.820256,-20.4170262],[-41.8202238,-20.4170387],[-41.8201923,-20.4170626],[-41.8201581,-20.4170959],[-41.8201172,-20.4171556],[-41.820089,-20.417199],[-41.8200575,-20.4172442],[-41.820032,-20.4172675],[-41.8200112,-20.4172863],[-41.8199696,-20.4173102],[-41.8199522,-20.4173196],[-41.819924,-20.4173435],[-41.8199133,-20.4173548],[-41.8198852,-20.4173737],[-41.8198328,-20.4174101],[-41.8197812,-20.4174416],[-41.819747,-20.4174566],[-41.8197229,-20.4174573],[-41.819694,-20.4174636],[-41.8196686,-20.4174786],[-41.8196417,-20.4174944],[-41.8196176,-20.417495],[-41.8195847,-20.4175201],[-41.8195291,-20.4175578],[-41.8195076,-20.4175754],[-41.8194828,-20.4175936],[-41.819456,-20.4176188],[-41.8194298,-20.4176452],[-41.8194037,-20.4176697],[-41.8193608,-20.4177068],[-41.8193366,-20.4177489],[-41.8193159,-20.4177753],[-41.8192897,-20.4178017],[-41.8192662,-20.4178042],[-41.8192387,-20.417823],[-41.8192166,-20.4178444],[-41.8192092,-20.417862],[-41.8191891,-20.4178815],[-41.8191536,-20.4179116],[-41.8191361,-20.4179412],[-41.8191281,-20.4179644],[-41.8191321,-20.4179939],[-41.8191154,-20.4180185],[-41.8191154,-20.4180423],[-41.819118,-20.4180738],[-41.8191046,-20.4181014],[-41.8190845,-20.4181379],[-41.8190631,-20.4181712],[-41.8190657,-20.4182227],[-41.8190728,-20.4182513],[-41.8190738,-20.4182632],[-41.8190704,-20.4182796],[-41.8190627,-20.4183],[-41.8190523,-20.4183185],[-41.819046,-20.418339],[-41.8190436,-20.4183657],[-41.819033,-20.4183784],[-41.8190225,-20.4183842],[-41.8190047,-20.4183864],[-41.8189796,-20.4183779],[-41.8189571,-20.4183675],[-41.8189383,-20.4183666],[-41.8189098,-20.4183798],[-41.8188766,-20.4184172],[-41.8188522,-20.4184395],[-41.8188243,-20.4184562],[-41.8188049,-20.4184574],[-41.8187838,-20.4184552],[-41.8187667,-20.4184392],[-41.8187526,-20.4184298],[-41.8187311,-20.4184166],[-41.8187214,-20.4184031],[-41.8187063,-20.4183936],[-41.8186882,-20.4183924],[-41.8186721,-20.418382],[-41.8186601,-20.4183697],[-41.8186443,-20.4183672],[-41.8186198,-20.418376],[-41.8185957,-20.4183902],[-41.8185474,-20.4184285],[-41.8185286,-20.4184499],[-41.8185152,-20.4184574],[-41.8184998,-20.4184587],[-41.818483,-20.4184571],[-41.8184565,-20.4184477],[-41.8184384,-20.4184452],[-41.8184203,-20.4184464],[-41.8183912,-20.4184562],[-41.8183728,-20.4184651],[-41.818359,-20.4184731],[-41.8183462,-20.4184712],[-41.8183355,-20.418459],[-41.8183311,-20.4184455],[-41.8183194,-20.4184382],[-41.8183097,-20.4184417],[-41.8182969,-20.4184477],[-41.8182792,-20.418448],[-41.8182654,-20.4184414],[-41.8182604,-20.4184301],[-41.8182463,-20.4184172],[-41.8182316,-20.4184097],[-41.8182128,-20.4184137],[-41.818188,-20.4184203],[-41.8181766,-20.418414],[-41.818141,-20.4183999],[-41.8181008,-20.4183936],[-41.818073,-20.4183895],[-41.8180512,-20.4183971],[-41.818024,-20.4184031],[-41.8179898,-20.4184078],[-41.8179613,-20.4184103],[-41.8179295,-20.4184159],[-41.8179053,-20.4184169],[-41.8178802,-20.4184247],[-41.8178041,-20.418443],[-41.8177494,-20.4184606],[-41.8177092,-20.4184797],[-41.81768,-20.4185008],[-41.8176663,-20.4185102],[-41.8176448,-20.4185199],[-41.817623,-20.4185171],[-41.8176014,-20.4185089],[-41.817562,-20.4185011],[-41.8175396,-20.418492],[-41.8175174,-20.4184832],[-41.8174896,-20.418481],[-41.8174641,-20.4184794],[-41.8174179,-20.41847],[-41.8173957,-20.4184672],[-41.8173719,-20.4184703],[-41.817331,-20.4184618],[-41.8173166,-20.418459],[-41.8172995,-20.4184502],[-41.8172797,-20.4184401],[-41.8172596,-20.4184335],[-41.8172516,-20.4184307],[-41.8172294,-20.4184298],[-41.8171946,-20.4184263],[-41.817164,-20.418421],[-41.8171151,-20.4183987],[-41.8170755,-20.418388],[-41.8170561,-20.4183883],[-41.8170356,-20.4183839],[-41.8170212,-20.4183641],[-41.8170018,-20.4183452],[-41.816987,-20.418338],[-41.8169602,-20.4183267],[-41.8169371,-20.4183229],[-41.8169149,-20.4183148],[-41.8168764,-20.4182997],[-41.8168274,-20.4182912],[-41.8167537,-20.4182818],[-41.8167232,-20.4182815],[-41.8166896,-20.4182868],[-41.8166662,-20.4182868],[-41.8166256,-20.4182833],[-41.8165777,-20.4182821],[-41.8165542,-20.4182815],[-41.8165347,-20.4182871],[-41.8165086,-20.4183],[-41.8164754,-20.4183232],[-41.8164412,-20.4183591],[-41.8164318,-20.4183719],[-41.8164053,-20.4183735],[-41.8163849,-20.418371],[-41.8163671,-20.4183682],[-41.8163356,-20.4183845],[-41.8162917,-20.4183993],[-41.816237,-20.4184266],[-41.816172,-20.4184624],[-41.816112,-20.4185017],[-41.8160838,-20.4185344],[-41.8160375,-20.4185658],[-41.8159785,-20.4186161],[-41.815941,-20.4186538],[-41.8159101,-20.4186745],[-41.8158873,-20.4186915],[-41.8158457,-20.418706],[-41.8158122,-20.4187179],[-41.815778,-20.4187311],[-41.8157525,-20.418755],[-41.8157267,-20.4187757],[-41.815718,-20.4187864],[-41.8156949,-20.4187977],[-41.8156801,-20.4187949],[-41.815658,-20.4188018],[-41.8156345,-20.4188188],[-41.815598,-20.4188458],[-41.8155872,-20.4188558],[-41.8155896,-20.4188763],[-41.8155872,-20.4188895],[-41.8155775,-20.4189096],[-41.8155561,-20.4189231],[-41.8155212,-20.4189432],[-41.8155064,-20.4189473],[-41.815494,-20.4189491],[-41.8154779,-20.4189627],[-41.8154612,-20.4189737],[-41.8154491,-20.4189847],[-41.815436,-20.4189935],[-41.8154236,-20.4190004],[-41.8154112,-20.4190114],[-41.8154005,-20.4190337],[-41.8153841,-20.4190478],[-41.8153703,-20.4190632],[-41.8153542,-20.4190773],[-41.8153344,-20.4190874],[-41.8153194,-20.4190937],[-41.8152999,-20.4191031],[-41.8152848,-20.4191116],[-41.8152684,-20.4191135],[-41.8152486,-20.4191129],[-41.8152419,-20.4191103],[-41.8152315,-20.4191022],[-41.8152198,-20.4191031],[-41.8152074,-20.4191069],[-41.8151926,-20.4191182],[-41.8151614,-20.419132],[-41.8151386,-20.4191424],[-41.8151202,-20.4191377],[-41.8151068,-20.4191251],[-41.8150927,-20.4191185],[-41.815082,-20.4191213],[-41.8150686,-20.4191286],[-41.8150371,-20.4191455],[-41.8150206,-20.4191543],[-41.8150079,-20.4191656],[-41.8149931,-20.4191795],[-41.8149801,-20.4191917],[-41.814966,-20.4192165],[-41.8149526,-20.4192294],[-41.8149371,-20.419237],[-41.8149244,-20.4192414],[-41.814915,-20.4192492],[-41.8149029,-20.4192624],[-41.8148882,-20.419275],[-41.8148553,-20.4192929],[-41.8148238,-20.4193073],[-41.8148101,-20.4193168],[-41.8147936,-20.4193224],[-41.8147776,-20.4193224],[-41.8147594,-20.4193209],[-41.8147477,-20.4193221],[-41.814732,-20.4193265],[-41.8147212,-20.4193341],[-41.8146911,-20.4193482],[-41.8146602,-20.4193551],[-41.8146233,-20.4193589],[-41.8145875,-20.4193699],[-41.8145492,-20.4193802],[-41.8144989,-20.4193953],[-41.8144627,-20.4194085],[-41.8144409,-20.4194261],[-41.8144302,-20.4194415],[-41.8144178,-20.419456],[-41.8144111,-20.4194638],[-41.8143886,-20.4194736],[-41.8143729,-20.4194924],[-41.8143558,-20.4195059],[-41.8143323,-20.4195169],[-41.8143149,-20.4195308],[-41.8142988,-20.4195474],[-41.8142793,-20.4195631],[-41.8142596,-20.4195744],[-41.8142428,-20.4195829],[-41.8142337,-20.419593],[-41.8142163,-20.4196109],[-41.8141915,-20.4196326],[-41.8141583,-20.4196445],[-41.8141419,-20.4196508],[-41.814109,-20.4196483],[-41.8140933,-20.4196476],[-41.8140674,-20.4196476],[-41.8140423,-20.4196646],[-41.8140178,-20.4196731],[-41.8140057,-20.4196838],[-41.8139954,-20.4196945],[-41.8139846,-20.4197061],[-41.8139625,-20.4197174],[-41.8139511,-20.419718],[-41.8139159,-20.4197196],[-41.8138877,-20.4197196],[-41.8138576,-20.4197152],[-41.8138334,-20.4197095],[-41.8138103,-20.419708],[-41.8137959,-20.4197051],[-41.8137774,-20.4196985],[-41.8137469,-20.4196989],[-41.8137305,-20.419708],[-41.8137198,-20.4197202],[-41.813706,-20.4197265],[-41.8136939,-20.4197303],[-41.8136799,-20.4197328],[-41.8136711,-20.4197372],[-41.8136648,-20.4197454],[-41.8136561,-20.4197535],[-41.8136299,-20.419763],[-41.8136141,-20.4197717],[-41.8135981,-20.4197714],[-41.813591,-20.4197721],[-41.8135783,-20.4197724],[-41.8135659,-20.4197699],[-41.8135545,-20.4197727],[-41.8135451,-20.4197777],[-41.813526,-20.4197783],[-41.8135099,-20.4197755],[-41.8134767,-20.4197689],[-41.8134368,-20.4197746],[-41.8134073,-20.4197837],[-41.8133925,-20.419784],[-41.8133721,-20.419778],[-41.8133617,-20.4197774],[-41.8133426,-20.4197771],[-41.8133328,-20.4197771],[-41.8133121,-20.4197686],[-41.813295,-20.4197611],[-41.8132762,-20.4197576],[-41.8132628,-20.4197601],[-41.8132571,-20.419768],[-41.8132443,-20.4197724],[-41.8132323,-20.4197714],[-41.8132232,-20.4197642],[-41.8132058,-20.4197721],[-41.8131924,-20.4197683],[-41.8131843,-20.4197721],[-41.8131863,-20.4197834],[-41.813179,-20.41979],[-41.8131666,-20.4197969],[-41.8131575,-20.4198022],[-41.813131,-20.4198029],[-41.8131042,-20.4198035],[-41.813079,-20.4197994],[-41.8130502,-20.4197881],[-41.8130187,-20.4197834],[-41.8129979,-20.4197774],[-41.8129892,-20.4197856],[-41.8129768,-20.4197953],[-41.8129429,-20.4198088],[-41.8129245,-20.419817],[-41.8128899,-20.4198214],[-41.8128812,-20.4198236],[-41.8128655,-20.4198371],[-41.8128413,-20.4198415],[-41.8127957,-20.4198355],[-41.8127391,-20.4198233],[-41.8127039,-20.4198157],[-41.8126791,-20.4198117],[-41.8126603,-20.4198038],[-41.8126392,-20.4197966],[-41.8126294,-20.4197953],[-41.812616,-20.4198022],[-41.8126103,-20.4198145],[-41.8126016,-20.4198205],[-41.8125902,-20.419828],[-41.8125778,-20.4198308],[-41.8125671,-20.4198274],[-41.8125577,-20.4198242],[-41.8125409,-20.4198236],[-41.8125279,-20.4198296],[-41.8125188,-20.4198374],[-41.8125094,-20.4198437],[-41.8124953,-20.4198506],[-41.8124648,-20.4198465],[-41.8124554,-20.4198462],[-41.8124501,-20.4198406],[-41.812443,-20.4198324],[-41.8124356,-20.4198311],[-41.8124182,-20.4198333],[-41.8124001,-20.4198299],[-41.8123874,-20.4198314],[-41.8123797,-20.4198352],[-41.8123696,-20.4198412],[-41.8123605,-20.4198453],[-41.8123512,-20.419844],[-41.8123414,-20.419834],[-41.812329,-20.4198258],[-41.8123136,-20.419823],[-41.8123056,-20.4198255],[-41.8122945,-20.4198362],[-41.8123005,-20.4198434],[-41.8123086,-20.4198478],[-41.812316,-20.4198572],[-41.8123106,-20.4198698],[-41.8123049,-20.4198783],[-41.8122979,-20.4198845],[-41.8122908,-20.4198867],[-41.8122797,-20.419893],[-41.812269,-20.4199009],[-41.8122569,-20.4199097],[-41.8122472,-20.419916],[-41.8122352,-20.4199144],[-41.8122157,-20.4199069],[-41.8122043,-20.4198999],[-41.8121899,-20.4198971],[-41.8121778,-20.4198996],[-41.8121456,-20.4198974],[-41.8121302,-20.4198987],[-41.8121081,-20.4198955],[-41.812094,-20.4198993],[-41.8120799,-20.4199081],[-41.8120591,-20.4199257],[-41.8120417,-20.4199527],[-41.8120323,-20.4199716],[-41.8120316,-20.4199898],[-41.8120357,-20.4200143],[-41.8120484,-20.4200231],[-41.8120571,-20.4200344],[-41.8120504,-20.4200526],[-41.8120337,-20.4200665],[-41.8120216,-20.4200702],[-41.8120008,-20.4200765],[-41.8119814,-20.4200954],[-41.8119767,-20.4201152],[-41.8119733,-20.4201227],[-41.8119649,-20.4201334],[-41.8119559,-20.4201384],[-41.8119485,-20.4201306],[-41.8119321,-20.4201284],[-41.8119267,-20.4201394],[-41.811917,-20.4201507],[-41.8119022,-20.4201482],[-41.8118928,-20.4201343],[-41.8118315,-20.4201801],[-41.8118065,-20.4201962],[-41.811801,-20.420201],[-41.8117933,-20.4202041],[-41.8117834,-20.4202038],[-41.8117726,-20.4202027],[-41.8117641,-20.4202054],[-41.8117602,-20.4202049],[-41.8117495,-20.4202063],[-41.8117426,-20.4202135],[-41.8117217,-20.4202195],[-41.8117125,-20.4202245],[-41.8117086,-20.4202314],[-41.811697,-20.420223],[-41.8116762,-20.4202223],[-41.8116605,-20.4202311],[-41.8116461,-20.4202371],[-41.8116353,-20.4202355],[-41.8116226,-20.4202368],[-41.8116038,-20.4202427],[-41.8115887,-20.4202459],[-41.8115733,-20.4202528],[-41.8115582,-20.4202647],[-41.8115512,-20.4202657],[-41.8115328,-20.4202619],[-41.811513,-20.4202641],[-41.8114915,-20.4202773],[-41.8114754,-20.420294],[-41.8114533,-20.4203021],[-41.8114345,-20.4203081],[-41.8114171,-20.4203226],[-41.8113996,-20.4203348],[-41.8113839,-20.4203389],[-41.8113681,-20.4203395],[-41.8113577,-20.4203395],[-41.8113453,-20.4203442],[-41.8113359,-20.4203508],[-41.8113225,-20.4203618],[-41.8113007,-20.4203728],[-41.8112511,-20.4204027],[-41.8112407,-20.4204134],[-41.8112357,-20.4204218],[-41.8112317,-20.4204423],[-41.81123,-20.4204489],[-41.8112199,-20.4204526],[-41.8111981,-20.420452],[-41.8111874,-20.4204498],[-41.81118,-20.4204432],[-41.811173,-20.4204278],[-41.8111693,-20.4204137],[-41.8111653,-20.4204014],[-41.8111546,-20.4203911],[-41.8111096,-20.4203735],[-41.8111001,-20.42037],[-41.8110899,-20.4203691],[-41.8110791,-20.4203708],[-41.8110694,-20.4203753],[-41.8110536,-20.4203867],[-41.8110298,-20.4204244],[-41.8110127,-20.4204448],[-41.8110091,-20.4204705],[-41.8110017,-20.4204925],[-41.810993,-20.4205158],[-41.8109117,-20.4206265],[-41.8108836,-20.420624],[-41.8108418,-20.4206298],[-41.8108076,-20.4206208],[-41.8107795,-20.4206009],[-41.8107253,-20.4205745],[-41.8107027,-20.4205642],[-41.8106705,-20.4205591],[-41.8106452,-20.4205514],[-41.8105944,-20.4205283],[-41.8105629,-20.420509],[-41.8105355,-20.4204891],[-41.8105026,-20.4204705],[-41.8103622,-20.4203832],[-41.8103019,-20.4203344],[-41.8102443,-20.4202804],[-41.8101716,-20.4202128],[-41.810161,-20.4202017],[-41.8101508,-20.4201834],[-41.8101312,-20.4201411],[-41.8101175,-20.4201102],[-41.8101141,-20.4200865],[-41.8101141,-20.4200659],[-41.8101107,-20.4200492],[-41.8101011,-20.4200248],[-41.8100887,-20.4199985],[-41.8100723,-20.4199837],[-41.8100607,-20.4199657],[-41.8100421,-20.4199349],[-41.8100291,-20.4199189],[-41.8100243,-20.4199047],[-41.8100175,-20.4198913],[-41.8100189,-20.419872],[-41.8100182,-20.4198476],[-41.8100127,-20.4198296],[-41.8099997,-20.4198123],[-41.8099832,-20.4197936],[-41.8099654,-20.4197776],[-41.8099517,-20.419768],[-41.8099277,-20.4197564],[-41.8099078,-20.4197525],[-41.8098859,-20.4197513],[-41.8098496,-20.4197487],[-41.8098222,-20.4197352],[-41.8097838,-20.4197204],[-41.8097598,-20.4197134],[-41.8097352,-20.4197127],[-41.8097153,-20.4197025],[-41.8096872,-20.4196947],[-41.8096708,-20.4196903],[-41.8096639,-20.4196806],[-41.8096612,-20.4196658],[-41.8096618,-20.4196508],[-41.8096649,-20.4196318],[-41.8096622,-20.4196203],[-41.8096636,-20.4196023],[-41.8096406,-20.4195901],[-41.8096351,-20.4195865],[-41.8096218,-20.4195775],[-41.809606,-20.4195724],[-41.8095878,-20.4195721],[-41.8095707,-20.4195724],[-41.8095543,-20.4195711],[-41.8095413,-20.4195688],[-41.8095313,-20.419575],[-41.8094768,-20.4195997],[-41.8094412,-20.4196138],[-41.8094131,-20.4196292],[-41.8093912,-20.4196453],[-41.8093617,-20.4196614],[-41.8093343,-20.4196729],[-41.8093035,-20.4196845],[-41.8092719,-20.4196928],[-41.8092589,-20.4196947],[-41.8092301,-20.4197012],[-41.8092,-20.4197076],[-41.8091678,-20.4197127],[-41.8091513,-20.4197134],[-41.8091366,-20.4197127],[-41.8091205,-20.4197175],[-41.8091095,-20.4197249],[-41.8091006,-20.4197297],[-41.8090856,-20.4197301],[-41.8090777,-20.4197265],[-41.809065,-20.4197313],[-41.809054,-20.4197407],[-41.8090455,-20.4197452],[-41.8090287,-20.4197493],[-41.8090088,-20.4197516],[-41.8089787,-20.4197419],[-41.808955,-20.4197355],[-41.8089286,-20.4197262],[-41.8089156,-20.4197143],[-41.808894,-20.4197037],[-41.8088742,-20.419698],[-41.8088577,-20.4196854],[-41.8088433,-20.419679],[-41.8088276,-20.4196726],[-41.8088142,-20.4196626],[-41.8087971,-20.4196517],[-41.8087813,-20.4196562],[-41.8087649,-20.4196639],[-41.8087556,-20.4196604],[-41.8087471,-20.4196559],[-41.8087299,-20.4196546],[-41.8087166,-20.4196553],[-41.8086984,-20.4196601],[-41.8086885,-20.4196662],[-41.8086607,-20.4196719],[-41.8086402,-20.4196726],[-41.808608,-20.4196723],[-41.8085877,-20.4196678],[-41.8085754,-20.419661],[-41.8085627,-20.4196479],[-41.8085542,-20.4196392],[-41.8085449,-20.4196337],[-41.808525,-20.4196308],[-41.8084856,-20.4196299],[-41.8084641,-20.4196308],[-41.8084325,-20.4196341],[-41.8084017,-20.419635],[-41.8083455,-20.4196386],[-41.8083051,-20.4196392],[-41.8082811,-20.4196453],[-41.8082605,-20.4196524],[-41.8082352,-20.4196649],[-41.808217,-20.4196755],[-41.8081879,-20.4196883],[-41.8081663,-20.4197005],[-41.8081416,-20.4197015],[-41.8081211,-20.4196967],[-41.8080899,-20.4196938],[-41.8080409,-20.4196793],[-41.8079909,-20.4196614],[-41.8079673,-20.4196498],[-41.8079566,-20.4196386],[-41.8079422,-20.4196302],[-41.8079001,-20.419619],[-41.8078741,-20.4196074],[-41.8078398,-20.4195901],[-41.8078028,-20.4195785],[-41.8077535,-20.4195605],[-41.8077274,-20.4195464],[-41.8077048,-20.4195368],[-41.8076781,-20.4195297],[-41.8076548,-20.4195233],[-41.8076055,-20.4195104],[-41.807587,-20.4195027],[-41.8075643,-20.4195008],[-41.8075458,-20.4195085],[-41.807528,-20.4195181],[-41.8075102,-20.4195323],[-41.8074986,-20.4195483],[-41.8074855,-20.4195586],[-41.8074739,-20.4195663],[-41.8074561,-20.4195772],[-41.807441,-20.4195843],[-41.8074211,-20.4195907],[-41.8074061,-20.4195933],[-41.8073855,-20.4195907],[-41.8073711,-20.4195798],[-41.8073512,-20.4195663],[-41.8073286,-20.4195612],[-41.807295,-20.4195567],[-41.8072752,-20.4195509],[-41.8072491,-20.4195445],[-41.8072087,-20.4195419],[-41.8071786,-20.4195361],[-41.8071621,-20.4195271],[-41.8071381,-20.4195072],[-41.8071189,-20.4195008],[-41.8070984,-20.419497],[-41.8070422,-20.4194925],[-41.8069963,-20.4194931],[-41.8069696,-20.4195034],[-41.8069356,-20.4195191],[-41.8069199,-20.4195242],[-41.8068952,-20.4195275],[-41.8068894,-20.4195393],[-41.8068791,-20.4195467],[-41.8068561,-20.4195499],[-41.8068435,-20.4195519],[-41.8068209,-20.4195541],[-41.8067976,-20.419556],[-41.8067808,-20.4195564],[-41.8067636,-20.4195548],[-41.8067465,-20.419556],[-41.8067379,-20.419556],[-41.8067174,-20.4195573],[-41.8066722,-20.4195689],[-41.8066427,-20.4195817],[-41.8066173,-20.4195894],[-41.8065954,-20.419601],[-41.8065797,-20.4196145],[-41.8065536,-20.4196389],[-41.8065289,-20.4196716],[-41.8065132,-20.4196947],[-41.8064844,-20.4197262],[-41.8064625,-20.4197371],[-41.8064248,-20.4197365],[-41.8064049,-20.4197224],[-41.8063919,-20.4197095],[-41.80637,-20.4197012],[-41.8063378,-20.4196941],[-41.8062973,-20.4196909],[-41.8062699,-20.4196838],[-41.8062254,-20.4196864],[-41.8062014,-20.4196864],[-41.8061644,-20.4196896],[-41.8061404,-20.4196947],[-41.8061144,-20.4197069],[-41.8060993,-20.4197159],[-41.8060877,-20.419732],[-41.8060733,-20.4197558],[-41.8060575,-20.4197757],[-41.8060397,-20.4197904],[-41.8060219,-20.4197949],[-41.8060027,-20.4197898],[-41.8059794,-20.4197975],[-41.8059581,-20.4198039],[-41.8059383,-20.4198213],[-41.8059246,-20.4198302],[-41.8058937,-20.4198357],[-41.8058732,-20.4198322],[-41.8058615,-20.4198302],[-41.8058393,-20.4198347],[-41.805828,-20.4198383],[-41.8057927,-20.4198508],[-41.8057704,-20.4198607],[-41.8057515,-20.4198701],[-41.8057269,-20.4198768],[-41.8057094,-20.4198784],[-41.8056906,-20.4198774],[-41.8056703,-20.4198784],[-41.8056467,-20.4198826],[-41.8056258,-20.4199002],[-41.8056214,-20.4199092],[-41.8056097,-20.4199259],[-41.8055977,-20.4199288],[-41.8055874,-20.419925],[-41.8055713,-20.4199253],[-41.8055559,-20.4199333],[-41.8055487,-20.4199378],[-41.8055312,-20.4199417],[-41.8055213,-20.4199397],[-41.8054922,-20.4199304],[-41.805474,-20.4199275],[-41.8054579,-20.4199304],[-41.805436,-20.4199372],[-41.8054086,-20.4199458],[-41.8053709,-20.4199503],[-41.805338,-20.4199606],[-41.8053127,-20.4199638],[-41.8052852,-20.4199638],[-41.8052537,-20.419969],[-41.8052332,-20.4199786],[-41.8052208,-20.4199799],[-41.8051921,-20.4199812],[-41.8051612,-20.4199857],[-41.8051283,-20.4199876],[-41.8050965,-20.4199946],[-41.8050759,-20.4200052],[-41.8050509,-20.4200113],[-41.8050303,-20.4200133],[-41.805019,-20.4200165],[-41.8050046,-20.4200268],[-41.8049861,-20.4200399],[-41.8049738,-20.4200515],[-41.8049563,-20.4200669],[-41.8049437,-20.4200781],[-41.8049245,-20.4200894],[-41.8049132,-20.4200948],[-41.8049036,-20.420099],[-41.8048895,-20.4201025],[-41.804869,-20.4201038],[-41.8048532,-20.4201048],[-41.8048446,-20.4201125],[-41.8048378,-20.4201218],[-41.8048258,-20.4201382],[-41.8048155,-20.4201533],[-41.8047991,-20.4201735],[-41.8047843,-20.4201847],[-41.8047799,-20.4201966],[-41.8047765,-20.4202088],[-41.8047638,-20.4202236],[-41.804748,-20.420239],[-41.8047261,-20.4202608],[-41.8047038,-20.4202711],[-41.8046867,-20.4202772],[-41.8046651,-20.4202916],[-41.8046435,-20.4202945],[-41.8046233,-20.4202965],[-41.8046007,-20.4203035],[-41.8045808,-20.4203135],[-41.804564,-20.4203199],[-41.8045335,-20.4203344],[-41.8045195,-20.4203527],[-41.8045102,-20.42037],[-41.8045054,-20.4203921],[-41.8045079,-20.4204133],[-41.8045068,-20.4204275],[-41.8044948,-20.4204381],[-41.8044832,-20.4204422],[-41.8044674,-20.4204464],[-41.8044626,-20.4204528],[-41.8044513,-20.420467],[-41.80444,-20.420484],[-41.8044277,-20.4205],[-41.8044212,-20.4205206],[-41.8044198,-20.4205389],[-41.8044133,-20.4205591],[-41.8044061,-20.420597],[-41.8043938,-20.420631],[-41.804391,-20.4206542],[-41.8043855,-20.4206792],[-41.8043691,-20.4207075],[-41.8043526,-20.4207338],[-41.8043376,-20.4207601],[-41.8043156,-20.4207922],[-41.8042869,-20.4208494],[-41.8042642,-20.4208847],[-41.8042437,-20.4209059],[-41.804217,-20.4209316],[-41.804195,-20.4209566],[-41.8041642,-20.42099],[-41.8041515,-20.4210009],[-41.8041341,-20.4210292],[-41.804132,-20.4210574],[-41.8041334,-20.4210761],[-41.8041265,-20.4211082],[-41.8040909,-20.4211538],[-41.8040676,-20.4211685],[-41.8040525,-20.4211865],[-41.8040463,-20.4212116],[-41.8040546,-20.4212405],[-41.8040635,-20.4212661],[-41.8040696,-20.4212822],[-41.8040696,-20.4212995],[-41.8040703,-20.4213098],[-41.8040833,-20.421331],[-41.8040957,-20.421349],[-41.8041012,-20.4213618],[-41.8041101,-20.4213888],[-41.8040977,-20.4214119],[-41.8040785,-20.4214357],[-41.8040621,-20.4214511],[-41.804034,-20.4214646],[-41.8040224,-20.421471],[-41.8039854,-20.4214896],[-41.8039723,-20.421507],[-41.8039579,-20.4215217],[-41.8039436,-20.4215397],[-41.8039278,-20.421559],[-41.8039155,-20.4215904],[-41.8039155,-20.4216065],[-41.8039175,-20.4216296],[-41.8038976,-20.4216649],[-41.8038922,-20.4216797],[-41.8038949,-20.4216913],[-41.8039018,-20.4217426],[-41.8038983,-20.4217786],[-41.8038894,-20.4217972],[-41.8038757,-20.4218261],[-41.8038613,-20.4218441],[-41.803849,-20.4218698],[-41.8038408,-20.4218858],[-41.8038161,-20.4218987],[-41.8038058,-20.4219276],[-41.8037962,-20.4219475],[-41.8037962,-20.4219655],[-41.803799,-20.4219867],[-41.803814,-20.4220091],[-41.8038045,-20.4220361],[-41.8037921,-20.4220432],[-41.8037722,-20.422047],[-41.8037469,-20.4220611],[-41.8037174,-20.4220778],[-41.8037044,-20.4220958],[-41.8036989,-20.4221132],[-41.8036976,-20.4221363],[-41.8036866,-20.4221658],[-41.8036784,-20.4221928],[-41.8036722,-20.4222198],[-41.8036654,-20.422239],[-41.8036578,-20.4222641],[-41.8036475,-20.422302],[-41.8036393,-20.4223251],[-41.8036188,-20.4223501],[-41.8035982,-20.4223675],[-41.8035756,-20.4223803],[-41.8035475,-20.4224079],[-41.8035358,-20.4224259],[-41.8035413,-20.4224593],[-41.8035372,-20.4224882],[-41.8035153,-20.4225132],[-41.8034947,-20.4225293],[-41.8034892,-20.4225453],[-41.8034831,-20.4225871],[-41.8034913,-20.4226038],[-41.8034879,-20.422634],[-41.8034605,-20.4226712],[-41.803442,-20.4226937],[-41.8034406,-20.4227129],[-41.8034481,-20.4227268],[-41.8034593,-20.4227344],[-41.8034646,-20.4227547],[-41.8034667,-20.4227777],[-41.8034399,-20.4227984],[-41.8034077,-20.422842],[-41.8033926,-20.4228561],[-41.803368,-20.4228761],[-41.8033447,-20.4228895],[-41.8033083,-20.4229062],[-41.8032782,-20.4229274],[-41.8032583,-20.4229383],[-41.8032385,-20.4229531],[-41.8031836,-20.4230006],[-41.8031192,-20.4230392],[-41.8030795,-20.4230809],[-41.8030377,-20.4231137],[-41.8029952,-20.4231336],[-41.8029589,-20.4231515],[-41.8029219,-20.423174],[-41.8028753,-20.4232055],[-41.8028472,-20.4232376],[-41.8028328,-20.4232652],[-41.8028163,-20.4232877],[-41.8027855,-20.423314],[-41.8027437,-20.4233435],[-41.802719,-20.4233712],[-41.8026992,-20.4233949],[-41.802669,-20.4234386],[-41.8026471,-20.4234778],[-41.8026231,-20.4235163],[-41.8025957,-20.4235298],[-41.8025601,-20.4235394],[-41.8025299,-20.4235503],[-41.8024998,-20.4235664],[-41.8024614,-20.4235927],[-41.8024402,-20.4236113],[-41.8024299,-20.4236287],[-41.8024258,-20.4236396],[-41.8024155,-20.4236582],[-41.8023929,-20.4236826],[-41.8023675,-20.4237012],[-41.802347,-20.4237199],[-41.8023305,-20.4237346],[-41.8023202,-20.4237494],[-41.8023202,-20.423768],[-41.8023291,-20.4237834],[-41.8023435,-20.4237943],[-41.8023531,-20.4238104],[-41.8023531,-20.4238393],[-41.8023511,-20.4238541],[-41.8023524,-20.4238695],[-41.8023524,-20.4238875],[-41.8023483,-20.4239119],[-41.8023401,-20.4239234],[-41.8023223,-20.4239356],[-41.8022976,-20.4239453],[-41.8022757,-20.4239587],[-41.8022353,-20.4239864],[-41.8022092,-20.4240101],[-41.8021852,-20.4240262],[-41.802177,-20.42403],[-41.8021599,-20.4240255],[-41.8021455,-20.4240223],[-41.8021195,-20.424023],[-41.8020934,-20.4240358],[-41.8020783,-20.4240461],[-41.8020605,-20.4240608],[-41.8020441,-20.424084],[-41.8020311,-20.4241051],[-41.802016,-20.4241174],[-41.8020009,-20.4241328],[-41.8019927,-20.4241514],[-41.801979,-20.4241662],[-41.8019523,-20.4241848],[-41.8019173,-20.4242028],[-41.8018947,-20.4242156],[-41.8018748,-20.4242265],[-41.8018543,-20.4242484],[-41.8018392,-20.4242644],[-41.8018276,-20.4242715],[-41.8018159,-20.4242728],[-41.801794,-20.424265],[-41.8017775,-20.4242599],[-41.8017625,-20.4242708],[-41.8017549,-20.4242728],[-41.8017261,-20.4242708],[-41.8016939,-20.4242779],[-41.8016823,-20.4242805],[-41.8016576,-20.4242817],[-41.801635,-20.4242811],[-41.801585,-20.4242888],[-41.8015637,-20.4242792],[-41.8015418,-20.4242766],[-41.8015062,-20.424283],[-41.8014849,-20.4242914],[-41.8014726,-20.4242959],[-41.8014623,-20.4243094],[-41.8014659,-20.4243285],[-41.8014758,-20.4243478],[-41.8014704,-20.4243717],[-41.801459,-20.4243836],[-41.8014584,-20.4243943],[-41.8014644,-20.4244062],[-41.8014611,-20.4244402],[-41.8014537,-20.4244747],[-41.801445,-20.424503],[-41.8014336,-20.4245332],[-41.8014222,-20.4245564],[-41.8014094,-20.4245803],[-41.80139,-20.4246004],[-41.8013719,-20.4246168],[-41.8013585,-20.4246538],[-41.8013518,-20.4246746],[-41.8013363,-20.4246991],[-41.8013216,-20.4247135],[-41.8013082,-20.4247217],[-41.8012907,-20.4247393],[-41.8012867,-20.4247625],[-41.801276,-20.4248015],[-41.8012659,-20.4248449],[-41.8012599,-20.4248757],[-41.8012572,-20.4248995],[-41.8012592,-20.4249247],[-41.8012632,-20.4249467],[-41.8012679,-20.4249649],[-41.801274,-20.4249925],[-41.8012699,-20.4250133],[-41.8012626,-20.425034],[-41.8012579,-20.4250478],[-41.8012612,-20.4250598],[-41.8012572,-20.4250711],[-41.8012472,-20.4250799],[-41.8012438,-20.4250874],[-41.8012465,-20.4250987],[-41.8012498,-20.4251082],[-41.8012478,-20.4251176],[-41.8012478,-20.4251283],[-41.8012545,-20.4251333],[-41.8012706,-20.4251383],[-41.801287,-20.4251481],[-41.8012907,-20.4251569],[-41.8012911,-20.4251669],[-41.8012867,-20.4251741],[-41.8012763,-20.4251924],[-41.8012689,-20.4252065],[-41.8012629,-20.4252191],[-41.8012592,-20.4252367],[-41.8012592,-20.4252486],[-41.8012622,-20.4252577],[-41.801274,-20.4252662],[-41.8012904,-20.4252706],[-41.8013025,-20.4252731],[-41.8013082,-20.4252803],[-41.8013092,-20.4252885],[-41.8013048,-20.4252964],[-41.8012998,-20.4253039],[-41.8012981,-20.4253121],[-41.8013021,-20.4253224],[-41.8013095,-20.4253344],[-41.8013115,-20.4253448],[-41.8013145,-20.4253564],[-41.80133,-20.4253696],[-41.8013628,-20.4253862],[-41.8014007,-20.4254142],[-41.8014255,-20.4254308],[-41.801449,-20.4254472],[-41.8014607,-20.4254679],[-41.8014741,-20.4254865],[-41.8015197,-20.4255455],[-41.8015529,-20.4255927],[-41.8015774,-20.4256363],[-41.8015945,-20.4256734],[-41.8016143,-20.4257199],[-41.8016206,-20.425741],[-41.8016267,-20.4257598],[-41.8016237,-20.4257824],[-41.801619,-20.4258013],[-41.8016183,-20.425817],[-41.8016183,-20.4258336],[-41.8016253,-20.4258619],[-41.8016394,-20.4258877],[-41.8016719,-20.4259307],[-41.8017031,-20.4259665],[-41.8017729,-20.4260401],[-41.8017903,-20.4260652],[-41.8018044,-20.4260746],[-41.8018262,-20.4260891],[-41.8018493,-20.4261126],[-41.8018688,-20.42614],[-41.8018855,-20.4261651],[-41.8019103,-20.4261887],[-41.8019435,-20.4262166],[-41.8019663,-20.4262405],[-41.8019817,-20.4262587],[-41.8019958,-20.4262861],[-41.8020109,-20.4263115],[-41.8020307,-20.4263323],[-41.8020803,-20.4263709],[-41.8021038,-20.4263876],[-41.8021169,-20.4263898],[-41.8021319,-20.4263904],[-41.8021447,-20.4263926],[-41.8021554,-20.4263983],[-41.8021705,-20.4264089],[-41.8021836,-20.4264158],[-41.8022044,-20.4264284],[-41.8022228,-20.426429],[-41.8022526,-20.4264328],[-41.8023425,-20.4264526],[-41.8023564,-20.4264532],[-41.8023583,-20.4264699],[-41.8023609,-20.4264799],[-41.8023603,-20.4264957],[-41.8023549,-20.426512],[-41.8023549,-20.4265252],[-41.8023569,-20.4265334],[-41.8023643,-20.4265472],[-41.8023703,-20.4265623],[-41.802375,-20.4265817],[-41.8023817,-20.4265962],[-41.8023884,-20.4266056],[-41.8023992,-20.426622],[-41.8024085,-20.4266364],[-41.8024099,-20.4266509],[-41.8024052,-20.4266622],[-41.8024032,-20.4266773],[-41.8024085,-20.4266942],[-41.8024159,-20.4267087],[-41.802426,-20.4267244],[-41.8024327,-20.4267414],[-41.8024327,-20.4267583],[-41.8024307,-20.4267734],[-41.8024354,-20.4267885],[-41.8024468,-20.4268023],[-41.8024575,-20.4268136],[-41.8024608,-20.4268287],[-41.8024615,-20.4268463],[-41.8024712,-20.4268708],[-41.8024508,-20.4268736],[-41.802428,-20.4268827],[-41.8024136,-20.4268937],[-41.8023931,-20.4269233],[-41.8023693,-20.4269475],[-41.8023452,-20.4269776],[-41.8023241,-20.4270024],[-41.8023036,-20.4270251],[-41.8022949,-20.4270383],[-41.8022868,-20.4270621],[-41.8022811,-20.4270829],[-41.8022764,-20.427125],[-41.8022667,-20.4271485],[-41.8022607,-20.4271608],[-41.8022593,-20.4271894],[-41.8022681,-20.4272133],[-41.8022815,-20.4272353],[-41.8022865,-20.4272566],[-41.8022868,-20.4272824],[-41.8022821,-20.4273063],[-41.8022674,-20.4273336],[-41.8022577,-20.4273609],[-41.8022506,-20.4273858],[-41.8022349,-20.4274411],[-41.8022208,-20.4274967],[-41.8022047,-20.4275457],[-41.8021913,-20.4275721],[-41.8021725,-20.4276142],[-41.802149,-20.4276481],[-41.8020806,-20.4277179],[-41.8020565,-20.4277383],[-41.8020361,-20.427749],[-41.8020169,-20.42776],[-41.8020035,-20.4277728],[-41.8019982,-20.4277832],[-41.8020002,-20.427797],[-41.8020052,-20.4278049],[-41.8020183,-20.4278165],[-41.8020334,-20.4278319],[-41.8020887,-20.4278831],[-41.8021189,-20.4279189],[-41.8021313,-20.4279334],[-41.802143,-20.42795],[-41.8021497,-20.427968],[-41.802145,-20.427984],[-41.8021356,-20.4279909],[-41.8021145,-20.4279931],[-41.8020971,-20.42799],[-41.8020776,-20.42799],[-41.8020622,-20.4279931],[-41.8020407,-20.4280044],[-41.8020149,-20.4280311],[-41.8019995,-20.4280613],[-41.8019834,-20.4280814],[-41.8019646,-20.4281128],[-41.8019599,-20.4281335],[-41.8019576,-20.4281514],[-41.8019593,-20.4281722],[-41.8019579,-20.428181],[-41.8019395,-20.4282014],[-41.80192,-20.4282215],[-41.801914,-20.42823],[-41.8018278,-20.4282969],[-41.8018118,-20.4283107],[-41.8017843,-20.4283258],[-41.8017588,-20.4283481],[-41.8017484,-20.4283717],[-41.8016937,-20.4284304],[-41.8016267,-20.4285033],[-41.8015972,-20.4285643],[-41.8015771,-20.4286007],[-41.8015449,-20.4286372],[-41.8015033,-20.4286868],[-41.8014396,-20.4287421],[-41.8013833,-20.428788],[-41.8013598,-20.4288251],[-41.801331,-20.4288659],[-41.8013041,-20.4288973],[-41.8012954,-20.428925],[-41.8013001,-20.428947],[-41.8013055,-20.4289614],[-41.8013125,-20.4289775],[-41.8013139,-20.428995],[-41.8013058,-20.4290067],[-41.8012807,-20.4290192],[-41.8012498,-20.4290224],[-41.8012183,-20.4290312],[-41.8011834,-20.4290469],[-41.8011694,-20.4290538],[-41.8011412,-20.4290717],[-41.8011254,-20.4290868],[-41.8011077,-20.429099],[-41.8010879,-20.4291066],[-41.8010705,-20.4291085],[-41.8010517,-20.42911],[-41.8010399,-20.429116],[-41.8010306,-20.429127],[-41.8010319,-20.4291433],[-41.8010383,-20.4291622],[-41.801045,-20.4291779],[-41.8010456,-20.4291933],[-41.8010423,-20.4292206],[-41.8010349,-20.4292335],[-41.8010312,-20.4292417],[-41.8010269,-20.429253],[-41.8010208,-20.429259],[-41.8010182,-20.4292722],[-41.8010208,-20.4292882],[-41.8010205,-20.4292992],[-41.8010185,-20.4293183],[-41.8010185,-20.4293306],[-41.8010229,-20.4293388],[-41.8010316,-20.4293507],[-41.8010356,-20.4293648],[-41.8010363,-20.4293806],[-41.8010363,-20.4293878],[-41.801041,-20.4293947],[-41.8010507,-20.4294022],[-41.8010661,-20.4294095],[-41.8010731,-20.4294126],[-41.8010902,-20.4294227],[-41.8010939,-20.4294346],[-41.8010936,-20.4294547],[-41.8010916,-20.4294723],[-41.8010822,-20.4294924],[-41.8010634,-20.4295087],[-41.801048,-20.4295232],[-41.8010332,-20.4295395],[-41.8010245,-20.4295578],[-41.8010198,-20.4295697],[-41.8010074,-20.4295788],[-41.800994,-20.4295835],[-41.8009819,-20.429586],[-41.8009675,-20.4295917],[-41.8009568,-20.4296002],[-41.8009488,-20.4296093],[-41.800936,-20.4296234],[-41.8009112,-20.4296401],[-41.8008971,-20.4296492],[-41.8008891,-20.429668],[-41.8008863,-20.4296865],[-41.8008767,-20.4297161],[-41.8008676,-20.4297287],[-41.8008569,-20.4297356],[-41.8008431,-20.4297384],[-41.8008247,-20.4297456],[-41.800818,-20.4297576],[-41.8008167,-20.4297727],[-41.8008153,-20.4297906],[-41.8008076,-20.4298047],[-41.8007898,-20.4298317],[-41.8007711,-20.4298496],[-41.800756,-20.4298575],[-41.8007405,-20.4298597],[-41.8007261,-20.4298666],[-41.8007084,-20.4298801],[-41.800701,-20.4298958],[-41.8006782,-20.429921],[-41.8006691,-20.4299386],[-41.8006644,-20.4299615],[-41.8006604,-20.4299769],[-41.8006527,-20.4299873],[-41.8006497,-20.4299895],[-41.800638,-20.429991],[-41.8006239,-20.4299973],[-41.8006168,-20.4300102],[-41.8006027,-20.430041],[-41.8005779,-20.4300674],[-41.8005538,-20.4300925],[-41.8005303,-20.4301082],[-41.8005169,-20.4301132],[-41.8005035,-20.4301158],[-41.8004968,-20.4301101],[-41.8004841,-20.4300994],[-41.800479,-20.4300969],[-41.8004683,-20.4300966],[-41.8004579,-20.4301022],[-41.8004468,-20.4301101],[-41.8004385,-20.4301114],[-41.8004308,-20.4301224],[-41.8004277,-20.4301302],[-41.8004093,-20.4301333],[-41.8003942,-20.4301371],[-41.8003778,-20.4301472],[-41.800364,-20.4301613],[-41.8003526,-20.4301676],[-41.80035,-20.4301786],[-41.8003523,-20.4301905],[-41.800358,-20.4302034],[-41.8003533,-20.4302135],[-41.8003365,-20.4302282],[-41.8003168,-20.4302443],[-41.8003033,-20.4302559],[-41.8002799,-20.43027],[-41.8002678,-20.4302776],[-41.8002433,-20.4303043],[-41.8002309,-20.4303137],[-41.8002256,-20.4303253],[-41.8002195,-20.4303307],[-41.8002125,-20.4303316],[-41.8002024,-20.4303316],[-41.800183,-20.4303357],[-41.8001736,-20.4303404],[-41.8001598,-20.4303457],[-41.8001444,-20.4303564],[-41.800132,-20.4303643],[-41.8001119,-20.430386],[-41.8000998,-20.4304086],[-41.8000884,-20.4304274],[-41.8000744,-20.4304394],[-41.8000589,-20.4304538],[-41.8000495,-20.4304626],[-41.8000469,-20.4304746],[-41.8000472,-20.43049],[-41.8000516,-20.4305057],[-41.8000547,-20.430521],[-41.8000512,-20.4305311],[-41.8000405,-20.4305449],[-41.8000006,-20.4305883],[-41.7999731,-20.4306266],[-41.7999577,-20.4306518],[-41.7999356,-20.430692],[-41.7999228,-20.4307209],[-41.7998879,-20.430763],[-41.7998685,-20.4307925],[-41.7998604,-20.430812],[-41.7998568,-20.4308246],[-41.7998517,-20.4308343],[-41.7998397,-20.430844],[-41.7998249,-20.4308547],[-41.7998119,-20.4308696],[-41.7998065,-20.4308789],[-41.7998014,-20.4308896],[-41.7997957,-20.4308943],[-41.7997843,-20.4309003],[-41.799776,-20.4309042],[-41.7997652,-20.4309069],[-41.7997558,-20.4309166],[-41.7997505,-20.4309251],[-41.7997461,-20.4309377],[-41.7997428,-20.4309531],[-41.7997361,-20.4309697],[-41.7997267,-20.4309895],[-41.7997176,-20.431008],[-41.7997133,-20.4310247],[-41.7997129,-20.4310391],[-41.7997163,-20.4310594],[-41.799723,-20.4310753],[-41.799726,-20.431091],[-41.799726,-20.4311051],[-41.799724,-20.4311183],[-41.7997206,-20.4311318],[-41.7997156,-20.4311381],[-41.799711,-20.4311417],[-41.7997009,-20.4311592],[-41.7996935,-20.4311777],[-41.7996838,-20.431195],[-41.7996797,-20.431205],[-41.7996786,-20.431213],[-41.7996772,-20.4312201],[-41.7996732,-20.4312286],[-41.799665,-20.4312385],[-41.7996545,-20.4312442],[-41.7996469,-20.4312478],[-41.7996345,-20.4312559],[-41.7996288,-20.4312685],[-41.7996281,-20.431277],[-41.7996231,-20.4312842],[-41.799607,-20.4312896],[-41.7996009,-20.4312977],[-41.7995875,-20.4313141],[-41.7995805,-20.4313285],[-41.7995728,-20.4313386],[-41.7995537,-20.4313634],[-41.7995436,-20.4313794],[-41.7995222,-20.4314121],[-41.7995007,-20.4314479],[-41.7994796,-20.4314809],[-41.7994631,-20.4315051],[-41.7994467,-20.4315299],[-41.7994353,-20.4315478],[-41.7994279,-20.4315557],[-41.7994222,-20.4315613],[-41.7994212,-20.4315676],[-41.7994175,-20.431577],[-41.7994142,-20.431583],[-41.7994078,-20.4315896],[-41.7994048,-20.4315971],[-41.7994025,-20.4316097],[-41.7994025,-20.4316172],[-41.7994003,-20.4316248],[-41.7993939,-20.4316363],[-41.7993808,-20.4316562],[-41.7993718,-20.431667],[-41.7993622,-20.4316744],[-41.7993599,-20.4316795],[-41.7993549,-20.4316887],[-41.7993533,-20.4316983],[-41.7993498,-20.4317129],[-41.799345,-20.4317285],[-41.7993433,-20.431733],[-41.7993403,-20.4317385],[-41.7993347,-20.4317437],[-41.7993205,-20.431755],[-41.7993134,-20.4317611],[-41.7993036,-20.4317679],[-41.7992948,-20.4317734],[-41.7992901,-20.4317786],[-41.7992826,-20.4317872],[-41.7992787,-20.4317976],[-41.7992653,-20.4318133],[-41.799258,-20.431821],[-41.7992487,-20.4318288],[-41.799242,-20.4318323],[-41.79923,-20.4318435],[-41.799208,-20.4318639],[-41.7991932,-20.4318758],[-41.7991818,-20.4318922],[-41.7991718,-20.4319135],[-41.7991477,-20.4319399],[-41.7991128,-20.4319751],[-41.7990779,-20.4320134],[-41.7990544,-20.4320373],[-41.7990343,-20.4320662],[-41.7990088,-20.4320983],[-41.7989928,-20.4321077],[-41.7989693,-20.4321115],[-41.7989442,-20.4321129],[-41.7989237,-20.4321159],[-41.7989056,-20.4321272],[-41.7988687,-20.4321542],[-41.7988446,-20.4321869],[-41.7988144,-20.4322183],[-41.7987802,-20.432244],[-41.7987547,-20.4322591],[-41.7987245,-20.4322729],[-41.7987024,-20.4322792],[-41.7986675,-20.4322792],[-41.7986461,-20.4322767],[-41.7986206,-20.4322729],[-41.7985991,-20.4322761],[-41.7985844,-20.4322943],[-41.7985817,-20.4323106],[-41.7985844,-20.4323339],[-41.7985911,-20.432359],[-41.7985918,-20.4323861],[-41.7985817,-20.4324269],[-41.7985616,-20.4324621],[-41.7985515,-20.4324941],[-41.7985066,-20.4325984],[-41.7984972,-20.4326223],[-41.7984798,-20.4326431],[-41.7984697,-20.4326764],[-41.7984536,-20.4327046],[-41.7984315,-20.432726],[-41.7984121,-20.4327392],[-41.7983792,-20.432765],[-41.7983624,-20.4327869],[-41.7983557,-20.4328184],[-41.7983577,-20.4328441],[-41.7983598,-20.4328674],[-41.7983584,-20.4328847],[-41.7983514,-20.4328979],[-41.7983343,-20.4329082],[-41.7983249,-20.4329246],[-41.7983162,-20.4329374],[-41.7983048,-20.4329462],[-41.7982877,-20.4329563],[-41.7982726,-20.4329673],[-41.7982692,-20.432978],[-41.7982733,-20.4329934],[-41.7982793,-20.4329996],[-41.79829,-20.4330072],[-41.798293,-20.4330216],[-41.7982957,-20.4330408],[-41.7982964,-20.4330534],[-41.7982947,-20.4330612],[-41.7982857,-20.4330735],[-41.7982776,-20.4330876],[-41.7982756,-20.433103],[-41.7982759,-20.4331162],[-41.7982789,-20.4331297],[-41.798282,-20.4331464],[-41.7982873,-20.4331539],[-41.7982964,-20.433164],[-41.7983051,-20.433185],[-41.7983135,-20.4331926],[-41.7983245,-20.433201],[-41.7983333,-20.4332083],[-41.7983437,-20.4332133],[-41.7983527,-20.4332186],[-41.7983614,-20.4332268],[-41.7983671,-20.4332359],[-41.7983675,-20.4332457],[-41.7983628,-20.4332554],[-41.798351,-20.4332604],[-41.7983403,-20.4332617],[-41.7983259,-20.4332639],[-41.7983041,-20.433272],[-41.7982944,-20.4332856],[-41.7982907,-20.4332928],[-41.798281,-20.4333038],[-41.7982729,-20.4333082],[-41.7982672,-20.4333097],[-41.7982582,-20.4333116],[-41.7982521,-20.4333182],[-41.7982505,-20.4333308],[-41.7982391,-20.4333462],[-41.7982313,-20.4333556],[-41.798223,-20.4333638],[-41.7982112,-20.4333732],[-41.7982042,-20.4333817],[-41.7981931,-20.4333861],[-41.7981831,-20.4333883],[-41.7981717,-20.4333883],[-41.7981619,-20.4333943],[-41.7981472,-20.4334015],[-41.7981361,-20.4334046],[-41.7981271,-20.4334181],[-41.798123,-20.4334326],[-41.798114,-20.4334445],[-41.7981039,-20.4334524],[-41.7980922,-20.4334568],[-41.7980744,-20.4334615],[-41.798063,-20.4334687],[-41.7980506,-20.4334775],[-41.7980335,-20.4334888],[-41.7980181,-20.4335017],[-41.7980057,-20.433524],[-41.798005,-20.4335347],[-41.7980023,-20.4335466],[-41.7979936,-20.4335573],[-41.7979916,-20.4335724],[-41.7979923,-20.4335862],[-41.7979963,-20.4335944],[-41.7979983,-20.4336145],[-41.7979889,-20.4336503],[-41.7979822,-20.4336717],[-41.7979648,-20.4336899],[-41.7979494,-20.4337025],[-41.7979205,-20.4337201],[-41.7979078,-20.4337351],[-41.7978823,-20.4337697],[-41.7978548,-20.4338074],[-41.7978267,-20.433836],[-41.7977972,-20.4338482],[-41.7977784,-20.4338548],[-41.7977593,-20.433864],[-41.7977207,-20.4338875],[-41.7977029,-20.4338988],[-41.7976915,-20.433907],[-41.7976858,-20.4339161],[-41.7976798,-20.433934],[-41.7976761,-20.4339469],[-41.7976644,-20.4339658],[-41.79765,-20.4339837],[-41.7976396,-20.4339943],[-41.7976335,-20.4340016],[-41.7976178,-20.4340091],[-41.7976111,-20.4340138],[-41.7976071,-20.4340214],[-41.7976087,-20.434033],[-41.7976074,-20.4340402],[-41.7976004,-20.4340503],[-41.7975893,-20.4340515],[-41.7975762,-20.4340531],[-41.7975695,-20.4340609],[-41.7975631,-20.4340738],[-41.7975531,-20.4340861],[-41.7975377,-20.4340999],[-41.7975159,-20.4341147],[-41.7975011,-20.4341197],[-41.7974843,-20.4341213],[-41.7974669,-20.4341291],[-41.7974609,-20.4341301],[-41.7974508,-20.4341326],[-41.7974455,-20.4341423],[-41.7974307,-20.4341464],[-41.7974176,-20.4341502],[-41.7973868,-20.4341546],[-41.797368,-20.4341565],[-41.7973613,-20.4341599],[-41.7973586,-20.43417],[-41.797362,-20.4341806],[-41.7973626,-20.4341879],[-41.7973606,-20.4341957],[-41.7973566,-20.434197],[-41.7973482,-20.434196],[-41.7973397,-20.4341935],[-41.7973311,-20.434191],[-41.7973217,-20.4341866],[-41.797312,-20.4341841],[-41.797302,-20.4341806],[-41.7972956,-20.4341753],[-41.7972768,-20.4341646],[-41.7972678,-20.4341599],[-41.797255,-20.4341539],[-41.7972497,-20.4341533],[-41.7972366,-20.4341508],[-41.7972279,-20.4341467],[-41.7972173,-20.4341392],[-41.7972037,-20.4341332],[-41.7971938,-20.4341337],[-41.7971851,-20.4341338],[-41.7971751,-20.4341329],[-41.7971717,-20.4341302],[-41.7971665,-20.4341225],[-41.7971618,-20.4341136],[-41.7971561,-20.434106],[-41.7971526,-20.4341026],[-41.7971492,-20.434104],[-41.7971457,-20.4341096],[-41.7971457,-20.4341166],[-41.7971444,-20.4341233],[-41.797136,-20.4341335],[-41.797131,-20.4341442],[-41.7971176,-20.4341574],[-41.7973184,-20.4342679],[-41.7973479,-20.4342795],[-41.797774,-20.434513],[-41.797866,-20.434598],[-41.798042,-20.434842],[-41.798157,-20.435115],[-41.797847,-20.435503]]}}]}
