{"type":"FeatureCollection","peaks_destination_id":"d0ikgZGm7pfUKp0Pkl7I","peaks_trailhead_id":"draft-trailhead","peaks_source":"https://www.openstreetmap.org/","peaks_retrieval_source":"https://api.openstreetmap.org/api/0.6","peaks_license_name":"Open Data Commons Open Database License (ODbL) 1.0","peaks_license":"https://opendatacommons.org/licenses/odbl/1-0/","peaks_attribution":"© OpenStreetMap contributors","peaks_retrieved_at":"2026-07-30T19:55:23.497Z","features":[{"type":"Feature","properties":{"name":"Pratt Mountain OSM route candidate","trailhead_name":"Granite Mountain Trailhead","destination_name":"Pratt Mountain","distance_m":8470.693322192366,"trailhead_snap_m":13.141079884063577,"summit_snap_m":351.32149100646274,"osm_way_ids":[1113558323,1316020357,795192403,75497920],"osm_way_urls":["https://www.openstreetmap.org/way/1113558323","https://www.openstreetmap.org/way/1316020357","https://www.openstreetmap.org/way/795192403","https://www.openstreetmap.org/way/75497920"],"osm_way_names":["Pratt Lake Trail","Mount Defiance Trail"],"osm_foot_access_override_way_ids":[]},"geometry":{"type":"LineString","coordinates":[[-121.486496,47.39768],[-121.486482,47.3977978],[-121.4864884,47.3978437],[-121.4865088,47.3978824],[-121.4865462,47.3979076],[-121.4866139,47.3979216],[-121.486693,47.3979352],[-121.4867628,47.3979707],[-121.486803,47.3980015],[-121.4868361,47.3980437],[-121.4868499,47.3981014],[-121.4868612,47.3981662],[-121.4868257,47.3983313],[-121.4867976,47.3984019],[-121.4867491,47.3984619],[-121.4867038,47.3985126],[-121.4866206,47.398563],[-121.4865589,47.3986306],[-121.4865246,47.398706],[-121.4865525,47.3987936],[-121.486616,47.3988622],[-121.4867145,47.3989347],[-121.4868441,47.3989894],[-121.487017,47.3990586],[-121.4872249,47.3991101],[-121.4875396,47.3991854],[-121.4878113,47.3992898],[-121.4880595,47.3993677],[-121.4878424,47.3994212],[-121.4875553,47.3994994],[-121.4872737,47.3995788],[-121.4869825,47.3996564],[-121.4866461,47.3997348],[-121.4863905,47.3998234],[-121.4862666,47.3998906],[-121.486188,47.3999251],[-121.4860991,47.3999381],[-121.4859898,47.3999397],[-121.4858725,47.3999523],[-121.4856765,47.3999487],[-121.4853815,47.3999594],[-121.485199,47.3999759],[-121.4850811,47.400008],[-121.4849661,47.4000395],[-121.4848334,47.4000527],[-121.4847404,47.4000994],[-121.4846438,47.4001593],[-121.4845312,47.400192],[-121.4843944,47.4001884],[-121.4842061,47.4001762],[-121.4840591,47.4001974],[-121.4839464,47.4002283],[-121.4838268,47.4002726],[-121.4835736,47.4003372],[-121.4833379,47.400403],[-121.4831767,47.4004679],[-121.4830828,47.4004861],[-121.4829835,47.4004825],[-121.4828645,47.4004733],[-121.4826823,47.4004984],[-121.4824099,47.4005256],[-121.4821897,47.4005541],[-121.4820448,47.4005678],[-121.481908,47.4005623],[-121.4817388,47.4005424],[-121.4814895,47.4005406],[-121.4812911,47.4005297],[-121.4811435,47.400497],[-121.4810121,47.4004334],[-121.480876,47.4003868],[-121.4806708,47.4002807],[-121.4805239,47.4002165],[-121.4803684,47.4001738],[-121.4802445,47.4001683],[-121.4800854,47.4001802],[-121.4798884,47.4002053],[-121.479777,47.4002228],[-121.4797005,47.4002401],[-121.479664,47.4002692],[-121.4796697,47.4002964],[-121.4796898,47.4003154],[-121.4797863,47.400339],[-121.4798901,47.4003618],[-121.4799985,47.4004189],[-121.4801271,47.4005342],[-121.4802845,47.4006735],[-121.4805934,47.4009425],[-121.48076,47.4010925],[-121.4809826,47.4012409],[-121.481157,47.4013592],[-121.4813635,47.4014447],[-121.4815512,47.4015082],[-121.4816585,47.4015409],[-121.4817229,47.4015935],[-121.4817551,47.4016226],[-121.4818329,47.4016389],[-121.4819988,47.4016421],[-121.4822754,47.4016625],[-121.4823758,47.401688],[-121.4824578,47.401746],[-121.4825222,47.4017878],[-121.4825866,47.4017969],[-121.482726,47.4017896],[-121.482887,47.4017969],[-121.4832621,47.4019015],[-121.4838108,47.4020259],[-121.4840591,47.4020837],[-121.4841878,47.4021345],[-121.4842272,47.4021738],[-121.4842629,47.4022544],[-121.4843,47.402307],[-121.4843729,47.4023379],[-121.4845017,47.402347],[-121.4847478,47.4023393],[-121.4848611,47.4023578],[-121.4849201,47.4023851],[-121.4850435,47.4024867],[-121.48514,47.4025557],[-121.485217,47.4025757],[-121.4853303,47.4025633],[-121.4854753,47.4025303],[-121.4855719,47.4025339],[-121.4857167,47.4025703],[-121.4863662,47.402752],[-121.4868067,47.4030575],[-121.4869204,47.403046],[-121.4870659,47.4030314],[-121.4871946,47.4029951],[-121.4873019,47.4029914],[-121.4874145,47.4030187],[-121.4876871,47.4031081],[-121.4880341,47.403173],[-121.4883358,47.4032611],[-121.4887315,47.4033872],[-121.4890909,47.4035578],[-121.4894728,47.4037021],[-121.4897668,47.4037993],[-121.4900832,47.4038486],[-121.4903274,47.4038774],[-121.49056,47.4038852],[-121.4908183,47.4039064],[-121.4909416,47.4039409],[-121.4910365,47.4039869],[-121.4910731,47.4040498],[-121.491099,47.4041829],[-121.491183,47.4042786],[-121.491277,47.4043356],[-121.4914244,47.4043621],[-121.4915183,47.4044038],[-121.491625,47.4045091],[-121.491631,47.4045146],[-121.491749,47.4046307],[-121.4918375,47.4046471],[-121.491899,47.4046311],[-121.4919367,47.4045944],[-121.4919502,47.404549],[-121.4919743,47.4044655],[-121.4920185,47.4043511],[-121.4920521,47.4043203],[-121.4920896,47.4043012],[-121.4921379,47.404294],[-121.4921916,47.4043022],[-121.4924309,47.4043761],[-121.4927736,47.404471],[-121.4931783,47.4045708],[-121.4930794,47.4046053],[-121.4929909,47.4046217],[-121.4928594,47.4046217],[-121.4927387,47.404638],[-121.4926475,47.4046707],[-121.4925939,47.4047306],[-121.4925724,47.4047723],[-121.4925268,47.4048105],[-121.4923793,47.4049041],[-121.4926016,47.4048996],[-121.4931008,47.4049212],[-121.4934972,47.4049542],[-121.4931759,47.4050828],[-121.4928862,47.4051953],[-121.4927159,47.4052969],[-121.4932071,47.4053211],[-121.4935702,47.4053333],[-121.49395,47.4053776],[-121.4940503,47.4053796],[-121.4940973,47.4053669],[-121.4941147,47.4053514],[-121.4941791,47.4052906],[-121.49423,47.4052815],[-121.4943481,47.4052802],[-121.4946349,47.4053265],[-121.4947718,47.4053351],[-121.4948381,47.4053291],[-121.4948979,47.4053169],[-121.4950519,47.4052318],[-121.4951447,47.4052044],[-121.4952305,47.405208],[-121.4953217,47.4052262],[-121.4954451,47.4052861],[-121.4956784,47.4054023],[-121.4959145,47.4055057],[-121.4962918,47.4056242],[-121.496408,47.4057236],[-121.4965101,47.4058409],[-121.4966038,47.4060467],[-121.4966735,47.4062555],[-121.4966699,47.4064359],[-121.4967574,47.4065812],[-121.496918,47.4065901],[-121.4970828,47.4063614],[-121.4971778,47.4062881],[-121.4973149,47.406211],[-121.4974058,47.406172],[-121.4975265,47.4061629],[-121.4976992,47.4061812],[-121.4979555,47.40625],[-121.4985618,47.406466],[-121.4986798,47.4065114],[-121.4987402,47.4065441],[-121.4987613,47.4065856],[-121.4987656,47.4066476],[-121.4987939,47.4066885],[-121.4987992,47.4066957],[-121.4988568,47.4067184],[-121.4989279,47.4067202],[-121.4990342,47.406728],[-121.4991546,47.4067283],[-121.4992109,47.4067193],[-121.4992699,47.4067029],[-121.4993276,47.4066875],[-121.4994416,47.4066821],[-121.4998039,47.4066911],[-121.5003794,47.4067173],[-121.5009168,47.4067438],[-121.5014329,47.4068259],[-121.5020177,47.4068928],[-121.50266,47.4069515],[-121.5031859,47.407007],[-121.5035185,47.4070578],[-121.5037922,47.4071329],[-121.5040818,47.4071831],[-121.5045581,47.4073224],[-121.5060453,47.4077023],[-121.5068998,47.4079667],[-121.5070134,47.4080326],[-121.50711,47.4081379],[-121.507233,47.4082377],[-121.5073409,47.4082702],[-121.5075123,47.4082777],[-121.5077189,47.4082849],[-121.5079341,47.408319],[-121.5082647,47.4084174],[-121.5084028,47.4084882],[-121.5085271,47.4085859],[-121.5085584,47.4086453],[-121.5085772,47.4087424],[-121.5085651,47.4088422],[-121.5085386,47.4090256],[-121.5085369,47.4093323],[-121.5085585,47.4096644],[-121.5086228,47.4100021],[-121.5086612,47.410267],[-121.5087247,47.4104505],[-121.508899,47.4107391],[-121.5091086,47.4110233],[-121.5092075,47.4112165],[-121.5092424,47.4113943],[-121.5092906,47.4115087],[-121.5093929,47.4116092],[-121.5095803,47.4118191],[-121.5097064,47.4120094],[-121.5098566,47.4121821],[-121.5100578,47.4123654],[-121.5101976,47.4125077],[-121.5102294,47.4125814],[-121.5102348,47.4126522],[-121.510208,47.4127303],[-121.5101436,47.4128555],[-121.5099666,47.4131259],[-121.5098834,47.4132875],[-121.5098527,47.4134],[-121.5098459,47.4135888],[-121.50985,47.4138525],[-121.5098083,47.4139935],[-121.5097681,47.414097],[-121.5097699,47.4141128],[-121.5097772,47.4141728],[-121.5098727,47.4142894],[-121.5099585,47.4144146],[-121.5100166,47.4145306],[-121.5100712,47.4147232],[-121.5100723,47.4149608],[-121.5100604,47.4153893],[-121.5100604,47.4158368],[-121.5100658,47.4163149],[-121.5100846,47.4164964],[-121.5101156,47.416626],[-121.5102455,47.4168921],[-121.5104144,47.4171323],[-121.5106427,47.4176144],[-121.5108195,47.4179647],[-121.5108651,47.4180917],[-121.510876,47.4182651],[-121.5108651,47.4184892],[-121.5108168,47.4186562],[-121.5107334,47.4188226],[-121.5106022,47.419001],[-121.5105084,47.4190682],[-121.5103769,47.4191752],[-121.5103206,47.4192478],[-121.5102992,47.4193367],[-121.5102991,47.4194366],[-121.510334,47.41956],[-121.5103474,47.4196326],[-121.5103233,47.4196834],[-121.5102844,47.4197188],[-121.5102321,47.4197342],[-121.5101399,47.4197402],[-121.510051,47.4197396],[-121.5099853,47.4197514],[-121.5099451,47.4197741],[-121.5098995,47.4198222],[-121.5098432,47.4198603],[-121.5096125,47.4199837],[-121.5093496,47.420128],[-121.508999,47.4202889],[-121.5087006,47.4204474],[-121.5082367,47.4206979],[-121.5079656,47.4208884],[-121.5077511,47.4211008],[-121.5074195,47.4214452],[-121.5071663,47.4217305],[-121.5070077,47.4218832],[-121.5068257,47.4220027],[-121.5066626,47.4220818],[-121.5065092,47.4221225],[-121.5063858,47.4221352],[-121.5061257,47.4221245],[-121.5059513,47.4221352],[-121.5058735,47.4221624],[-121.5057224,47.4222486],[-121.5056888,47.4222999],[-121.5057005,47.4223557],[-121.5057533,47.4224354],[-121.505887,47.4226731],[-121.5060218,47.4229108],[-121.5060344,47.423019],[-121.5060264,47.4231006],[-121.5059578,47.4231713],[-121.5058574,47.423264],[-121.5056705,47.423412],[-121.5055409,47.4235561],[-121.5054148,47.4237176],[-121.5053375,47.423834],[-121.5052968,47.4239626],[-121.5052788,47.4241432],[-121.5052846,47.4242802],[-121.505283,47.4244348],[-121.5052919,47.4246137],[-121.5053772,47.4248492],[-121.505616,47.4254271],[-121.5057654,47.425634],[-121.5059459,47.4257954],[-121.5060356,47.4258475],[-121.5061283,47.4259007],[-121.5063778,47.4259914],[-121.5066458,47.4260554],[-121.5067348,47.4260764],[-121.5069813,47.4261275],[-121.5072012,47.426142],[-121.5076979,47.4261382],[-121.507912,47.4261239],[-121.508266,47.4260749],[-121.5087082,47.4260542],[-121.5090315,47.4260272],[-121.5095615,47.4259805],[-121.5099478,47.425917],[-121.5103947,47.4257988],[-121.5114802,47.42546],[-121.5121601,47.4252318],[-121.512728,47.425055],[-121.5129298,47.4249851],[-121.5133898,47.4245949],[-121.5136898,47.4243568],[-121.5138319,47.4241966],[-121.5139853,47.4240577],[-121.514098,47.4239952],[-121.514173,47.423937],[-121.514335,47.423815],[-121.514893,47.423356],[-121.514987,47.423215],[-121.515052,47.4230625],[-121.5152612,47.4226959],[-121.5154259,47.4224388],[-121.5156904,47.4220789],[-121.5158728,47.421863],[-121.515993,47.421717],[-121.516321,47.421413],[-121.516544,47.421251],[-121.516795,47.421156],[-121.516983,47.42112],[-121.51727,47.421103],[-121.517447,47.421135],[-121.517773,47.421224],[-121.518248,47.421432],[-121.518496,47.421513],[-121.518944,47.421608],[-121.519578,47.421711],[-121.520123,47.421855],[-121.520519,47.421914],[-121.520744,47.421917],[-121.52211,47.422044],[-121.522235,47.42207],[-121.522621,47.422203],[-121.522804,47.422251],[-121.52328,47.4222937],[-121.523571,47.4223395],[-121.5236792,47.4223822],[-121.5237988,47.4223929],[-121.5237852,47.4225058],[-121.523889,47.4225043],[-121.524235,47.422678],[-121.5243671,47.4227301],[-121.524507,47.4227423],[-121.524737,47.422695],[-121.524986,47.4227],[-121.525202,47.422737],[-121.525495,47.422837],[-121.525624,47.422912],[-121.525858,47.4230842],[-121.52584,47.4231818],[-121.5259437,47.4231757],[-121.5260632,47.4231727],[-121.5260926,47.4232017],[-121.5260723,47.4232276],[-121.526052,47.4232642],[-121.5260993,47.4232871],[-121.5262527,47.4233237],[-121.526679,47.42345],[-121.5270782,47.4235526],[-121.5272812,47.4235984],[-121.5273489,47.4236045],[-121.5274932,47.4235862],[-121.5276105,47.4235679],[-121.5277977,47.4236061],[-121.5280751,47.4236839],[-121.528215,47.4237388],[-121.528281,47.423782],[-121.528562,47.424007],[-121.528929,47.424195],[-121.526743,47.426987]]}}]}
