{"type":"FeatureCollection","peaks_destination_id":"JaS7MGINw63MT31HY6yb","peaks_trailhead_id":"draft-trailhead","peaks_source":"https://www.openstreetmap.org/","peaks_retrieval_source":"https://api.openstreetmap.org/api/0.6","peaks_license_name":"Open Data Commons Open Database License (ODbL) 1.0","peaks_license":"https://opendatacommons.org/licenses/odbl/1-0/","peaks_attribution":"© OpenStreetMap contributors","peaks_retrieved_at":"2026-07-30T21:14:51.431Z","features":[{"type":"Feature","properties":{"name":"Ras Dashen OSM route candidate","trailhead_name":"Ambiko Camp Route Start","destination_name":"Ras Dashen","distance_m":13142.216435521037,"trailhead_snap_m":18.466821364690645,"summit_snap_m":7.705639888075441,"osm_way_ids":[1006821537,319376442,489633620,45735310,1006821535,1006821532],"osm_way_urls":["https://www.openstreetmap.org/way/1006821537","https://www.openstreetmap.org/way/319376442","https://www.openstreetmap.org/way/489633620","https://www.openstreetmap.org/way/45735310","https://www.openstreetmap.org/way/1006821535","https://www.openstreetmap.org/way/1006821532"],"osm_way_names":[],"osm_foot_access_override_way_ids":[]},"geometry":{"type":"LineString","coordinates":[[38.307338,13.238458],[38.3074701,13.2383529],[38.3077061,13.2384077],[38.3078985,13.2384045],[38.3080521,13.2383555],[38.3082598,13.2383381],[38.308397,13.2383824],[38.3085912,13.2384051],[38.3088621,13.2383894],[38.3090721,13.2383979],[38.3092269,13.2384442],[38.3093798,13.2385043],[38.3096193,13.238583],[38.3097202,13.2386659],[38.3098469,13.2387579],[38.3100342,13.2388698],[38.3101657,13.2388985],[38.3103339,13.2389125],[38.3104205,13.2390186],[38.310548,13.2391112],[38.3106157,13.2390968],[38.3109462,13.2389481],[38.3111612,13.2389052],[38.3113727,13.2389638],[38.3114681,13.2390323],[38.3115926,13.2389873],[38.311716,13.2388933],[38.3118711,13.2388686],[38.3120271,13.2388646],[38.3123143,13.2388861],[38.3126084,13.2388545],[38.3128828,13.2388124],[38.3130022,13.2387332],[38.3131832,13.2385696],[38.3133678,13.2384781],[38.3134889,13.2384547],[38.3136391,13.238392],[38.3137656,13.2383208],[38.3140234,13.2381929],[38.3142009,13.2381197],[38.3143496,13.2380955],[38.314486,13.2381135],[38.3146262,13.2380918],[38.3148249,13.2380237],[38.3149591,13.237961],[38.315102,13.2379213],[38.3156111,13.2379641],[38.3158029,13.2379146],[38.3161759,13.2377026],[38.3163551,13.2376614],[38.3165279,13.2376818],[38.3167612,13.2376322],[38.3170362,13.2374665],[38.3175088,13.2371008],[38.3177892,13.2369228],[38.3181019,13.2367017],[38.3183812,13.2364999],[38.3184671,13.2364808],[38.318502,13.2364965],[38.3185208,13.2365382],[38.3184912,13.2367158],[38.3182074,13.2373215],[38.3182364,13.2373734],[38.3182713,13.2373894],[38.318325,13.2373633],[38.3184215,13.2371962],[38.318561,13.2370787],[38.3188449,13.2369665],[38.3190432,13.2369177],[38.3192148,13.2368828],[38.3193648,13.236862],[38.3196902,13.2368072],[38.3198806,13.2368072],[38.3199718,13.2368568],[38.3200416,13.2369038],[38.3200577,13.2369691],[38.3200318,13.2370559],[38.3199613,13.2372569],[38.3199838,13.237342],[38.320049,13.2373945],[38.3201326,13.2374093],[38.3203253,13.2374057],[38.3206777,13.2373448],[38.3209688,13.2373483],[38.3216642,13.2373772],[38.3221748,13.2374103],[38.3225943,13.2374641],[38.322835,13.237481],[38.3230012,13.2375015],[38.3231322,13.2375654],[38.3232455,13.2376871],[38.3233117,13.2377996],[38.3233081,13.2379074],[38.3232025,13.2380939],[38.3229152,13.2384624],[38.322644,13.2388842],[38.3225438,13.2390346],[38.3225044,13.2391155],[38.3225428,13.239183],[38.3226527,13.2391831],[38.3230094,13.2391154],[38.3233408,13.2391041],[38.3237441,13.2391673],[38.3240663,13.2392801],[38.324254,13.2394155],[38.3243189,13.2394335],[38.3244904,13.2394177],[38.324641,13.2394403],[38.3252483,13.2396478],[38.3256747,13.2398712],[38.326129,13.2400381],[38.3263491,13.2400404],[38.3264303,13.2399682],[38.3264581,13.2398441],[38.3264326,13.2396478],[38.3264442,13.2394471],[38.3264094,13.2393388],[38.3261915,13.2390658],[38.3261011,13.2388988],[38.3260919,13.2387815],[38.3261591,13.238662],[38.3262935,13.2385717],[38.3266133,13.2384251],[38.3267061,13.2383078],[38.3269471,13.2381656],[38.3270514,13.2380077],[38.3271835,13.2378633],[38.3272553,13.2378475],[38.3273086,13.2378723],[38.3273133,13.2379581],[38.3272669,13.2380754],[38.3272414,13.2383416],[38.3270931,13.2390568],[38.3271858,13.2395441],[38.3272831,13.2397516],[38.3274083,13.2399005],[38.327654,13.2400517],[38.327756,13.2401509],[38.3277907,13.2402841],[38.3278116,13.2405615],[38.327895,13.2407826],[38.3279924,13.2411323],[38.3279924,13.2412677],[38.3280225,13.2414978],[38.3280178,13.2417189],[38.3279599,13.2418475],[38.3278046,13.2420889],[38.3275659,13.2422761],[38.3273619,13.2423438],[38.327107,13.2423416],[38.3268799,13.2423641],[38.3265508,13.2425311],[38.3260502,13.2429123],[38.3259644,13.2429981],[38.3259922,13.243086],[38.3262935,13.2432665],[38.3269355,13.2435057],[38.3275288,13.2435508],[38.3282288,13.2435395],[38.3288752,13.2434219],[38.3298992,13.2430477],[38.3307695,13.2427573],[38.3309632,13.2427244],[38.3310739,13.2427663],[38.3311662,13.2428412],[38.3312922,13.2432542],[38.3313138,13.2434368],[38.3312892,13.2437601],[38.3312338,13.2441133],[38.3312154,13.2444127],[38.3312676,13.24473],[38.3314042,13.2455964],[38.3313854,13.2461728],[38.3314042,13.2465388],[38.3315123,13.2468133],[38.3317003,13.2469826],[38.3319024,13.2470238],[38.3320998,13.246946],[38.332135,13.2468953],[38.332224,13.2469959],[38.3323593,13.2470857],[38.3326761,13.246972],[38.3331404,13.2467774],[38.3333695,13.2467868],[38.3337677,13.2471456],[38.334269,13.247424],[38.3346595,13.2473551],[38.3351147,13.2470738],[38.3352254,13.2471606],[38.335539,13.2467146],[38.3357666,13.2466098],[38.3361233,13.2466397],[38.3365538,13.2462955],[38.3366,13.2457567],[38.3370028,13.2454544],[38.3372734,13.2450622],[38.3374231,13.2449675],[38.3380005,13.2448261],[38.3382803,13.2447606],[38.3384114,13.2446744],[38.3396583,13.2453709],[38.3399239,13.2456191],[38.3402392,13.2451985],[38.3402782,13.2448433],[38.3399771,13.2433848],[38.3400798,13.242971],[38.3407103,13.2419746],[38.341022,13.2417263],[38.3409901,13.2415263],[38.3408803,13.2411919],[38.3405934,13.2413539],[38.3402512,13.240987],[38.3407525,13.2402665],[38.3411849,13.2390404],[38.3414669,13.2384731],[38.3418805,13.2381162],[38.3422424,13.2379881],[38.3425197,13.2379927],[38.3428722,13.2381802],[38.3431025,13.2385371],[38.3433469,13.2387842],[38.3435255,13.2388116],[38.3436195,13.2387018],[38.343961,13.2372469],[38.3439972,13.2371434],[38.3440598,13.2370723],[38.3441672,13.2370148],[38.3443514,13.2369884],[38.3444702,13.2369637],[38.3446461,13.2368666],[38.3447654,13.2368327],[38.3449375,13.2368394],[38.3450214,13.2368647],[38.3452363,13.2370959],[38.34557,13.2373567],[38.345711,13.2373796],[38.3460682,13.2371966],[38.3462092,13.2370136],[38.3464019,13.2368044],[38.3464809,13.2367463],[38.3465683,13.2367285],[38.3466151,13.2367253],[38.3466624,13.2367393],[38.3466966,13.2367753],[38.3467836,13.2368174],[38.3471304,13.2370731],[38.3474829,13.2374665],[38.3475758,13.2374896],[38.347707,13.2374753],[38.3479605,13.2373524],[38.3483135,13.2372042],[38.3484618,13.2371019],[38.3486938,13.2368184],[38.3488405,13.2367144],[38.3491517,13.2366115],[38.3494186,13.2364944],[38.3495251,13.2364976],[38.3496584,13.2365528],[38.3497811,13.2366362],[38.3498535,13.2367159],[38.3500373,13.2369998],[38.3501626,13.2371297],[38.3502745,13.2372401],[38.3504475,13.2373854],[38.3505231,13.2374461],[38.350615,13.2374627],[38.3506589,13.237435],[38.3506494,13.2372935],[38.3505958,13.2371131],[38.3506023,13.2370574],[38.3506907,13.2369311],[38.3509918,13.2361901],[38.3510607,13.2361],[38.3511218,13.2360758],[38.3511836,13.2360908],[38.3513777,13.2362808],[38.3515611,13.2363754],[38.3517216,13.2365021],[38.3519563,13.2367169],[38.352055,13.2367912],[38.352222,13.2368551],[38.3523624,13.236835],[38.3525251,13.2367605],[38.3528433,13.2365069],[38.3531163,13.2361154],[38.3531812,13.2360402],[38.3532436,13.2360118],[38.3534945,13.235916],[38.3536521,13.2358991],[38.353778,13.2359166],[38.3539432,13.2360062],[38.3540965,13.2361597],[38.3544384,13.2367131],[38.3545423,13.2367482],[38.3549201,13.2367205],[38.3550179,13.2367637],[38.3551312,13.2369913],[38.3552889,13.2371575],[38.3554949,13.2373095],[38.3556719,13.2374252],[38.3557297,13.2374259],[38.3557829,13.2373993],[38.3557461,13.2373028],[38.3556498,13.2370988],[38.3556203,13.2367681],[38.3556238,13.2363184],[38.3555528,13.2362473],[38.3553697,13.2361807],[38.3552639,13.2361336],[38.3550971,13.2359824],[38.3549777,13.2357824],[38.3549629,13.2356588],[38.3549952,13.2356197],[38.3550555,13.2356125],[38.3551663,13.2357046],[38.3553822,13.235799],[38.3557726,13.2358804],[38.3559124,13.2359389],[38.3560009,13.2360156],[38.3562304,13.2364242],[38.3563127,13.2365335],[38.3564211,13.2366062],[38.3564886,13.2366433],[38.3565374,13.2366031],[38.3564238,13.2363858],[38.3561553,13.2358095],[38.3560993,13.2357592],[38.355651,13.2356185],[38.3556216,13.235576],[38.3556566,13.2355319],[38.3559232,13.2355274],[38.3560169,13.2354901],[38.356201,13.2353086],[38.356277,13.2352876],[38.3563716,13.2353075],[38.3567285,13.2359999],[38.3567804,13.2360269],[38.3568175,13.235983],[38.3568125,13.2355286],[38.356758,13.2353598],[38.3568005,13.235314],[38.3568898,13.2353183],[38.3573682,13.2354268],[38.3574869,13.2354265],[38.3575822,13.2353853],[38.3576193,13.2353581],[38.3576496,13.2353172],[38.3576518,13.2352627],[38.3572953,13.2348256],[38.3570604,13.2346114],[38.3569697,13.2344999],[38.3568527,13.2342344],[38.3567685,13.2341213],[38.3564014,13.2337683],[38.356299,13.2335904],[38.3563077,13.2335295],[38.3563792,13.2335417],[38.3567346,13.2337079],[38.3570288,13.2338101],[38.3573387,13.2338535],[38.3577932,13.2339537],[38.3579704,13.233939],[38.3585665,13.2337275],[38.3586765,13.2336624],[38.3589873,13.2334154],[38.3591372,13.2333079],[38.3595398,13.2331101],[38.3597809,13.2329179],[38.3598952,13.2327745],[38.3600105,13.2325996],[38.3600704,13.232528],[38.3601393,13.2324534],[38.3602473,13.2323237],[38.3604303,13.2321257],[38.3605805,13.2319847],[38.3606167,13.2319507],[38.3606435,13.2319299],[38.3606757,13.231909],[38.3607012,13.2318907],[38.3607165,13.2318635],[38.3607173,13.2318385],[38.3606985,13.2318111],[38.3606691,13.2317982],[38.3606328,13.231798],[38.3604209,13.2318476],[38.3603442,13.2318658],[38.3601969,13.2319011],[38.3601352,13.2319201],[38.3600655,13.2319351],[38.3599998,13.2319442],[38.3597651,13.2319742],[38.3596793,13.2319804],[38.3599022,13.2316513],[38.360531,13.2313365],[38.3611718,13.230736],[38.3618186,13.230427],[38.3627469,13.2303571],[38.3634057,13.2298324],[38.3648011,13.2293427],[38.3657773,13.2291911],[38.3668673,13.2291794],[38.3677177,13.2289929],[38.3683944,13.2289112],[38.3687538,13.2292027],[38.3688795,13.2296108],[38.3690772,13.229675],[38.369185,13.2299781],[38.3694724,13.2302696],[38.3698497,13.2311266],[38.3699935,13.2314123],[38.370245,13.2319078],[38.3706343,13.2323509],[38.3709277,13.232998],[38.3711853,13.2334119],[38.3715206,13.2338842],[38.3716284,13.2341757],[38.3718201,13.2342281],[38.3717961,13.2343214],[38.3720896,13.2348169],[38.3723471,13.2350093],[38.3725807,13.2354641],[38.3728622,13.2360004],[38.3726945,13.2362278],[38.3725987,13.2365309],[38.3725028,13.2367408],[38.3725747,13.2368924],[38.37264,13.23692]]}}]}
