{"type":"FeatureCollection","peaks_destination_id":"l80J4acfizACBOfxJRxd","peaks_trailhead_id":"7320611F1D58B7CF23C8","peaks_source":"https://api.openstreetmap.org/api/0.6","peaks_license_name":"Open Data Commons Open Database License (ODbL) 1.0","peaks_license":"https://opendatacommons.org/licenses/odbl/1-0/","peaks_attribution":"© OpenStreetMap contributors","peaks_retrieved_at":"2026-07-30T16:15:54.662Z","features":[{"type":"Feature","properties":{"name":"San Luis Peak OSM route candidate","trailhead_name":"Stewart Creek Trailhead","destination_name":"San Luis Peak","distance_m":10351.261807903873,"trailhead_snap_m":0,"summit_snap_m":1.6279038989960737,"osm_way_ids":[17142087,885315344],"osm_way_urls":["https://www.openstreetmap.org/way/17142087","https://www.openstreetmap.org/way/885315344"],"osm_way_names":["San Luis Peak"],"osm_foot_access_override_way_ids":[]},"geometry":{"type":"LineString","coordinates":[[-106.84139,38.024792],[-106.84139,38.024792],[-106.841535,38.024632],[-106.8419948,38.0245964],[-106.8426683,38.0246321],[-106.8431532,38.0247409],[-106.8438005,38.0247994],[-106.8445449,38.0246593],[-106.8454551,38.0244719],[-106.8461937,38.0243198],[-106.8465441,38.0242295],[-106.8467448,38.0241324],[-106.8469145,38.0240206],[-106.8470782,38.0239127],[-106.847553,38.0237435],[-106.8477384,38.0237284],[-106.8479138,38.0236149],[-106.8482489,38.0234954],[-106.8484138,38.0233938],[-106.8491977,38.0229787],[-106.8500726,38.022611],[-106.8507737,38.02242],[-106.8525078,38.0215721],[-106.8529097,38.0212762],[-106.8530555,38.0211478],[-106.8537558,38.0209524],[-106.8540415,38.0207661],[-106.8542075,38.0207015],[-106.8544985,38.0204959],[-106.8548124,38.0203041],[-106.8552862,38.0201435],[-106.8557231,38.0199511],[-106.8559087,38.0197633],[-106.8561446,38.0197338],[-106.856597,38.0195191],[-106.8571266,38.0192081],[-106.8574427,38.0190578],[-106.8580199,38.018994],[-106.8584471,38.0189061],[-106.858847,38.018698],[-106.8590836,38.0186286],[-106.8599078,38.0183859],[-106.8607553,38.0181339],[-106.8612982,38.017914],[-106.8620764,38.0177636],[-106.8628589,38.0175004],[-106.8635891,38.0172841],[-106.864414,38.016889],[-106.8662041,38.0166655],[-106.8667489,38.0165879],[-106.8673461,38.0166092],[-106.8677225,38.0164716],[-106.8681979,38.0164469],[-106.8689346,38.0162958],[-106.8691793,38.0163432],[-106.8695168,38.0161764],[-106.8697899,38.0161203],[-106.8700669,38.0160187],[-106.8704937,38.0159352],[-106.8708065,38.0158429],[-106.8717129,38.0156755],[-106.8720862,38.0155957],[-106.8724588,38.0155807],[-106.8733087,38.0154123],[-106.8738545,38.015232],[-106.874272,38.015123],[-106.874768,38.015099],[-106.8750071,38.0150716],[-106.8751699,38.0148809],[-106.875599,38.014723],[-106.876776,38.014141],[-106.8793823,38.0133198],[-106.880682,38.013228],[-106.8814929,38.0135223],[-106.8819874,38.0134688],[-106.8823612,38.0136303],[-106.8830396,38.0133855],[-106.883871,38.0133071],[-106.8843153,38.0132401],[-106.8846097,38.0133064],[-106.8850372,38.0132245],[-106.887942,38.01275],[-106.890922,38.012248],[-106.893207,38.011425],[-106.8952864,38.0108754],[-106.8964057,38.0101753],[-106.8970757,38.0097657],[-106.8974016,38.0094329],[-106.8973297,38.0091868],[-106.8973534,38.0091536],[-106.897693,38.00868],[-106.898303,38.0085594],[-106.8992391,38.0078884],[-106.900182,38.0075626],[-106.9009496,38.0070247],[-106.9011896,38.0069229],[-106.901969,38.0065923],[-106.9023768,38.0060674],[-106.9033005,38.0055334],[-106.9041391,38.0046861],[-106.9044777,38.0041077],[-106.9051394,38.0038649],[-106.9058559,38.0038746],[-106.9061312,38.003976],[-106.906438,38.0039062],[-106.9066949,38.0038477],[-106.9070862,38.0033877],[-106.9076464,38.003012],[-106.9078484,38.0026888],[-106.9084936,38.0021055],[-106.9089099,38.0016873],[-106.9094873,38.0013848],[-106.9098119,38.0013051],[-106.9099076,38.0012985],[-106.9100175,38.0012435],[-106.9104629,38.0010561],[-106.9107344,38.0009252],[-106.9112504,38.0007867],[-106.9113939,38.0008818],[-106.9114281,38.0008795],[-106.9114877,38.0008756],[-106.9114543,38.0007404],[-106.9115265,38.0005086],[-106.9123642,38.0001746],[-106.9137564,37.9998711],[-106.914987,37.9994837],[-106.9152312,37.9990892],[-106.9156939,37.9986851],[-106.9156728,37.9985147],[-106.9161654,37.9980771],[-106.9162444,37.9976919],[-106.9162178,37.9976233],[-106.9162485,37.997588],[-106.9162488,37.997545],[-106.9162496,37.9974446],[-106.9161904,37.9974112],[-106.9161675,37.9973404],[-106.9160853,37.9972362],[-106.9159429,37.997129],[-106.9157038,37.9970669],[-106.9154744,37.996912],[-106.9158841,37.9960816],[-106.9157239,37.9958263],[-106.9165203,37.9952383],[-106.9167678,37.9950817],[-106.9169095,37.9951193],[-106.9170471,37.9950953],[-106.9172053,37.9951153],[-106.9174149,37.9951287],[-106.9175881,37.9950764],[-106.9177512,37.9949205],[-106.9178446,37.9947092],[-106.9178427,37.9946454],[-106.9177408,37.9946007],[-106.9173274,37.9945488],[-106.9173176,37.9944893],[-106.9176881,37.9942232],[-106.9179103,37.9939313],[-106.9175015,37.9939117],[-106.9169845,37.9937774],[-106.9162012,37.9934533],[-106.9162878,37.9934027],[-106.9167215,37.9933438],[-106.9166076,37.9932252],[-106.9162622,37.9930291],[-106.9163782,37.9929877],[-106.9163112,37.9929455],[-106.9165226,37.9929133],[-106.9166749,37.992939],[-106.9168165,37.9928309],[-106.9170149,37.9927997],[-106.9172215,37.9926176],[-106.9174027,37.9925504],[-106.9175437,37.9925325],[-106.9176795,37.9924461],[-106.9177192,37.9923985],[-106.9178844,37.9923664],[-106.918245,37.9921869],[-106.9184251,37.9920512],[-106.9185844,37.9919752],[-106.9186532,37.9919173],[-106.9188982,37.9917071],[-106.9189409,37.9916122],[-106.9190163,37.9915346],[-106.9191177,37.9914847],[-106.9192483,37.9914205],[-106.919298,37.9913857],[-106.9193881,37.9913718],[-106.9194985,37.9913334],[-106.9197084,37.9913048],[-106.9199475,37.9913403],[-106.9200815,37.9913302],[-106.9202927,37.9913389],[-106.9204097,37.9913184],[-106.9205593,37.9913371],[-106.9208352,37.9913272],[-106.9211335,37.9913885],[-106.9213282,37.9914537],[-106.9216437,37.9914497],[-106.9217649,37.9914639],[-106.9218644,37.9914849],[-106.922109,37.9914864],[-106.9222533,37.9915302],[-106.9226442,37.9915871],[-106.9228039,37.9915998],[-106.9228889,37.9915824],[-106.9229969,37.9915995],[-106.9230358,37.9916199],[-106.9231558,37.9916027],[-106.9232962,37.9915539],[-106.9233623,37.9915414],[-106.9234459,37.9915117],[-106.9237082,37.9914497],[-106.9238879,37.991398],[-106.923939,37.9913712],[-106.9240257,37.9913873],[-106.9242827,37.9913667],[-106.9253599,37.9914487],[-106.9256708,37.991385],[-106.9260116,37.9913549],[-106.9264103,37.991352],[-106.9268115,37.9912457],[-106.927075,37.9912085],[-106.9273085,37.991226],[-106.9274848,37.9912393],[-106.927686,37.9912544],[-106.9279149,37.991193],[-106.9280758,37.9911015],[-106.928301,37.9910326],[-106.9285116,37.9909357],[-106.9287021,37.9907765],[-106.9292101,37.9904258],[-106.9294325,37.9903318],[-106.929732,37.9902051],[-106.9301228,37.9898785],[-106.9301671,37.9898415],[-106.9302294,37.9897808],[-106.9303019,37.9897507],[-106.9303669,37.9897157],[-106.9304286,37.9896815],[-106.9304763,37.9896694],[-106.9307633,37.9894912],[-106.9308404,37.9894527],[-106.9308802,37.989408],[-106.9308896,37.9893745],[-106.9308931,37.9892929],[-106.9309119,37.9892345],[-106.930978,37.9891627],[-106.9310003,37.9891566],[-106.9310169,37.989143],[-106.9310874,37.9890902],[-106.931133,37.9890713],[-106.9311551,37.9890484],[-106.9311974,37.9889815],[-106.9312516,37.9889337],[-106.9312602,37.9889082],[-106.9312901,37.9888655],[-106.9313075,37.9888692],[-106.9314588,37.988725],[-106.9315262,37.9886832],[-106.9315075,37.9886574],[-106.9315584,37.9886262],[-106.9316249,37.9885455],[-106.9316944,37.98845],[-106.9317535,37.9883481],[-106.9317718,37.9883269],[-106.9317391,37.9883084],[-106.9317709,37.9882852],[-106.931746,37.9882566],[-106.931776,37.9882169],[-106.9317389,37.9881953],[-106.9317809,37.9880661],[-106.9317519,37.9880436],[-106.9316744,37.987701],[-106.9316051,37.9876195],[-106.9314956,37.9876255],[-106.9313958,37.9875878],[-106.9313723,37.9875336],[-106.931422,37.9874238],[-106.9313541,37.9873537],[-106.9313196,37.9871603],[-106.9314002,37.9870321],[-106.9312841,37.9870052],[-106.9312589,37.9869329],[-106.9312611,37.9868853],[-106.9313159,37.9868449],[-106.931283,37.9868041],[-106.931266,37.98681]]}}]}
