{"type":"FeatureCollection","peaks_destination_id":"8x778CaN63PwigSuqAYe","peaks_trailhead_id":"draft-trailhead","peaks_source":"https://www.openstreetmap.org/","peaks_retrieval_source":"https://overpass-api.de/api/interpreter","peaks_license_name":"Open Data Commons Open Database License (ODbL) 1.0","peaks_license":"https://opendatacommons.org/licenses/odbl/1-0/","peaks_attribution":"© OpenStreetMap contributors","peaks_retrieved_at":"2026-07-31T06:07:11.863Z","features":[{"type":"Feature","properties":{"name":"Sapitwa Peak OSM route candidate","trailhead_name":"Likhubula Forest Office","destination_name":"Sapitwa Peak","distance_m":17064.88485447074,"trailhead_snap_m":19.119265147904688,"summit_snap_m":47.48741804054339,"osm_way_ids":[28485147,668184540,338108473,607702132,44061220,44061174,28952519,342605116,488334434],"osm_way_urls":["https://www.openstreetmap.org/way/28485147","https://www.openstreetmap.org/way/668184540","https://www.openstreetmap.org/way/338108473","https://www.openstreetmap.org/way/607702132","https://www.openstreetmap.org/way/44061220","https://www.openstreetmap.org/way/44061174","https://www.openstreetmap.org/way/28952519","https://www.openstreetmap.org/way/342605116","https://www.openstreetmap.org/way/488334434"],"osm_way_names":["Milk Run","Chambe - Chisepo"],"osm_foot_access_override_way_ids":[]},"geometry":{"type":"LineString","coordinates":[[35.50343,-15.939363],[35.5035161,-15.9392123],[35.5032049,-15.9392757],[35.5028952,-15.93945],[35.5026049,-15.9394648],[35.5025506,-15.9394676],[35.5024473,-15.9394729],[35.502064,-15.9394638],[35.5021336,-15.9397151],[35.5021336,-15.9398802],[35.5020478,-15.9401897],[35.5020478,-15.940396],[35.5022409,-15.9405611],[35.5023482,-15.9406848],[35.5023268,-15.9408912],[35.502434,-15.9410356],[35.5025842,-15.9413245],[35.502949,-15.9416133],[35.5031891,-15.9416288],[35.5033708,-15.9416544],[35.5035539,-15.9416623],[35.5039222,-15.9416311],[35.5040831,-15.9416169],[35.5042331,-15.9415912],[35.5043669,-15.9415736],[35.5047078,-15.9415284],[35.5051021,-15.9414857],[35.5053955,-15.9414768],[35.5055849,-15.941465],[35.5058075,-15.9414418],[35.5060945,-15.941415],[35.5063279,-15.9414171],[35.5065327,-15.941416],[35.506808,-15.941416],[35.5070064,-15.9414299],[35.5072838,-15.9414459],[35.5075455,-15.9415243],[35.507736,-15.9416094],[35.5079677,-15.9417332],[35.508251,-15.9418405],[35.5086201,-15.9419561],[35.5088261,-15.9420386],[35.5090835,-15.9421211],[35.5093239,-15.9421459],[35.5094784,-15.9421706],[35.5098217,-15.9422037],[35.5100963,-15.9422532],[35.510437,-15.9422501],[35.51068,-15.9422037],[35.5109375,-15.9421459],[35.511401,-15.9419808],[35.5120018,-15.941791],[35.5122743,-15.9417384],[35.5125854,-15.9417332],[35.5129116,-15.941758],[35.5132292,-15.9418405],[35.5139759,-15.9420881],[35.5143879,-15.9421706],[35.5149887,-15.9422697],[35.5153572,-15.9422929],[35.5155654,-15.942298],[35.5158481,-15.9422707],[35.5160643,-15.9422217],[35.5161971,-15.9422012],[35.5163459,-15.9422078],[35.5165996,-15.9422532],[35.5169424,-15.9423522],[35.5173437,-15.9424889],[35.5177568,-15.9425467],[35.5180947,-15.9425431],[35.5185211,-15.9425637],[35.5188645,-15.9426127],[35.519107,-15.9426488],[35.5193633,-15.9426746],[35.5194989,-15.9426551],[35.5196171,-15.9425936],[35.5198124,-15.942476],[35.5202137,-15.942214],[35.5212372,-15.9419231],[35.5216663,-15.941857],[35.5217814,-15.9418504],[35.5218981,-15.9418983],[35.5220697,-15.9420221],[35.52222,-15.942182],[35.5223701,-15.94228],[35.5226169,-15.9423558],[35.5229881,-15.9424182],[35.5233572,-15.9424512],[35.5234471,-15.942472],[35.5235219,-15.9425379],[35.5235546,-15.9426823],[35.5235906,-15.9428422],[35.5236348,-15.9429311],[35.5237419,-15.9430062],[35.5238937,-15.9430356],[35.5240867,-15.9429712],[35.5243013,-15.9428474],[35.5243872,-15.9427814],[35.5245588,-15.9426823],[35.5246648,-15.942668],[35.5247734,-15.9426988],[35.5249451,-15.9428474],[35.5252454,-15.9429929],[35.5253649,-15.9430162],[35.5254644,-15.9430109],[35.5256489,-15.9429959],[35.5259804,-15.9429196],[35.5260891,-15.9428511],[35.5261639,-15.9427742],[35.5262071,-15.9426603],[35.5262336,-15.9425456],[35.5262849,-15.9424101],[35.5263117,-15.9423379],[35.526372,-15.942281],[35.5264753,-15.9422192],[35.5265973,-15.9421934],[35.5269744,-15.9422928],[35.5272796,-15.9423099],[35.5275371,-15.9422862],[35.5279196,-15.942196],[35.5282187,-15.9420413],[35.5284561,-15.9418658],[35.5286288,-15.9417008],[35.5288236,-15.9414315],[35.5288973,-15.9413295],[35.5290166,-15.9412396],[35.5291602,-15.9411928],[35.5293321,-15.9411725],[35.5296657,-15.9412055],[35.5300482,-15.9412649],[35.5304811,-15.9414031],[35.5307386,-15.9415269],[35.5310219,-15.9416755],[35.531274,-15.9417859],[35.5315111,-15.9418405],[35.5317686,-15.9418735],[35.5320518,-15.9418735],[35.5323533,-15.9419044],[35.5327653,-15.9419706],[35.5330389,-15.9419912],[35.5333135,-15.9419808],[35.533571,-15.9420386],[35.5339144,-15.9421872],[35.5342577,-15.9424182],[35.5344293,-15.9425173],[35.5346268,-15.9427814],[35.5347845,-15.943029],[35.5348328,-15.9432435],[35.5348864,-15.9434509],[35.5350301,-15.9435964],[35.5351922,-15.943683],[35.5353735,-15.9437439],[35.535454,-15.9437899],[35.535513,-15.943848],[35.5355398,-15.9439175],[35.5355274,-15.9439899],[35.5354741,-15.9440632],[35.5353772,-15.9441263],[35.5352099,-15.9442762],[35.5351268,-15.9443484],[35.5350559,-15.9445145],[35.5350559,-15.9447621],[35.5349872,-15.9450096],[35.535013,-15.945152],[35.5351417,-15.9453233],[35.5353477,-15.9455708],[35.5355881,-15.9458184],[35.535631,-15.945967],[35.5356444,-15.9462146],[35.5357597,-15.9464126],[35.5359743,-15.9465447],[35.5362318,-15.9466024],[35.5364893,-15.9466272],[35.536618,-15.9466602],[35.5371502,-15.94685],[35.5373114,-15.9468666],[35.5374495,-15.9468629],[35.5375421,-15.9468408],[35.5376131,-15.9467892],[35.5377499,-15.946653],[35.5378184,-15.9466062],[35.5378801,-15.9465907],[35.5379994,-15.9466422],[35.53806,-15.946685],[35.5382649,-15.9468448],[35.5383894,-15.9469109],[35.5385385,-15.9469274],[35.5387062,-15.9469027],[35.5388835,-15.94688],[35.5390642,-15.9468748],[35.5392932,-15.9468511],[35.5394703,-15.9467856],[35.5396342,-15.9466294],[35.5397294,-15.9464931],[35.5400073,-15.9461949],[35.5403152,-15.9458173],[35.5405458,-15.9456214],[35.5410222,-15.9452655],[35.5412969,-15.9449611],[35.5415479,-15.9446991],[35.5416834,-15.9445558],[35.5417773,-15.9444785],[35.5419138,-15.9444371],[35.5420348,-15.9444295],[35.5421794,-15.9444593],[35.5424706,-15.9446244],[35.5426948,-15.9447456],[35.5429078,-15.9448523],[35.5430648,-15.9449504],[35.5431653,-15.9450834],[35.5432752,-15.945363],[35.543412,-15.9455925],[35.5436632,-15.9458715],[35.5438937,-15.9460609],[35.5440532,-15.9462682],[35.54425,-15.9463306],[35.5445574,-15.9464621],[35.5450294,-15.9465777],[35.5451582,-15.9466602],[35.5452494,-15.946782],[35.5455069,-15.9468769],[35.545759,-15.9469078],[35.5461388,-15.9468758],[35.5464456,-15.9469573],[35.5468319,-15.9471224],[35.5472439,-15.9472049],[35.5474756,-15.9472874],[35.547776,-15.947469],[35.5481365,-15.9477578],[35.5484627,-15.9480054],[35.5485657,-15.9481952],[35.5485914,-15.9483458],[35.5485163,-15.9485067],[35.5483618,-15.9486708],[35.5480764,-15.9490535],[35.5480163,-15.9492433],[35.5480507,-15.9495322],[35.5480764,-15.9496807],[35.5480335,-15.9499283],[35.5479648,-15.9502584],[35.5479648,-15.9504399],[35.5479906,-15.95077],[35.5480507,-15.9513312],[35.5481022,-15.9517604],[35.5481461,-15.952009],[35.5481924,-15.952096],[35.548407,-15.9524777],[35.548466,-15.9528129],[35.5486484,-15.9530296],[35.548981,-15.9531688],[35.5493619,-15.9533029],[35.5496569,-15.953437],[35.5500378,-15.953664],[35.5501802,-15.9539046],[35.5502016,-15.9537292],[35.550399,-15.9535642],[35.5506737,-15.9534404],[35.5509741,-15.9532176],[35.5512573,-15.953003],[35.551473,-15.9528689],[35.5517332,-15.9528555],[35.551929,-15.952708],[35.5523474,-15.952511],[35.5527508,-15.9522025],[35.5529965,-15.9519085],[35.5531671,-15.9518817],[35.55399,-15.9521447],[35.5543655,-15.9521004],[35.5550618,-15.9519756],[35.5559083,-15.9517332],[35.5564415,-15.951402],[35.5568106,-15.9511544],[35.5570146,-15.9510112],[35.5572923,-15.9506097],[35.5576796,-15.9502735],[35.5579264,-15.9499991],[35.5582697,-15.9493141],[35.5585873,-15.9487777],[35.5589821,-15.9483238],[35.5596001,-15.9476883],[35.5599005,-15.9475398],[35.5599262,-15.9472509],[35.5598576,-15.9470034],[35.5598147,-15.946698],[35.5598747,-15.9461203],[35.5599606,-15.9456251],[35.5601312,-15.9452342],[35.5604251,-15.9449701],[35.5605335,-15.9446101],[35.5607524,-15.9442593],[35.5610646,-15.9438157],[35.5616879,-15.9432586],[35.5620999,-15.9430925],[35.5623477,-15.9431183],[35.5625398,-15.9431761],[35.5627114,-15.9428965],[35.5629217,-15.9426954],[35.5629732,-15.9425881],[35.5630934,-15.9423487],[35.5631277,-15.9421837],[35.5630591,-15.9420186],[35.5630076,-15.9418618],[35.5629217,-15.9417463],[35.5628187,-15.9416225],[35.5627329,-15.9414657],[35.5626922,-15.9412728],[35.562571,-15.9410726],[35.5625066,-15.9409932],[35.5624229,-15.9407198],[35.5625698,-15.9407724],[35.5625956,-15.9406569],[35.562484,-15.9403433],[35.562484,-15.9401452],[35.5625441,-15.9399224],[35.5626042,-15.9397573],[35.5627157,-15.9395427],[35.5627672,-15.9393694],[35.5628187,-15.9391383],[35.5629132,-15.9389898],[35.5629389,-15.9388742],[35.5628359,-15.9387752],[35.5627157,-15.9385606],[35.56269,-15.9384038],[35.5625698,-15.9382717],[35.5622694,-15.9378756],[35.5621664,-15.9377435],[35.5620119,-15.9374959],[35.561969,-15.9373887],[35.5620205,-15.9372318],[35.5620119,-15.937108],[35.5620634,-15.9369677],[35.5620634,-15.9368522],[35.5620205,-15.9367614],[35.5619347,-15.9365881],[35.5617201,-15.9364313],[35.5615399,-15.9363488],[35.5613339,-15.9361589],[35.5611965,-15.9359443],[35.5612051,-15.935771],[35.5612738,-15.9356472],[35.5614283,-15.9354409],[35.5614969,-15.9353584],[35.561512,-15.9352552],[35.5615152,-15.9351427],[35.5613167,-15.9349209],[35.561291,-15.9347064],[35.5613081,-15.9344918],[35.5614025,-15.9342112],[35.5614197,-15.9339966],[35.5614798,-15.933716],[35.5615484,-15.9335344],[35.5615828,-15.9333446],[35.5616514,-15.9331465],[35.5617974,-15.9329814],[35.5618918,-15.9327173],[35.561969,-15.9325027],[35.5619948,-15.9323872],[35.5619347,-15.9322056],[35.5619604,-15.9321148],[35.5620806,-15.931859],[35.5622265,-15.9316939],[35.5623896,-15.9316031],[35.5626213,-15.9315123],[35.562793,-15.9313638],[35.5629647,-15.9311079],[35.5630934,-15.9307943],[35.5631621,-15.930654],[35.5632307,-15.9304641],[35.5632822,-15.9303238],[35.5632479,-15.9301588],[35.5631106,-15.9299277],[35.5629046,-15.929614],[35.5627672,-15.9292839],[35.5627415,-15.9290363],[35.5627672,-15.9288134],[35.5630059,-15.9289475],[35.5632715,-15.929143],[35.5634367,-15.9292839],[35.5635869,-15.9293762],[35.5639785,-15.9295552],[35.5641232,-15.9296313],[35.564529,-15.9297421],[35.5647343,-15.9297672],[35.5649114,-15.9298059],[35.5650616,-15.9298575],[35.5651823,-15.9299142],[35.5652681,-15.9299813],[35.5654022,-15.9301902],[35.5655352,-15.9303474],[35.5655873,-15.9304017],[35.5656812,-15.9304533],[35.5658394,-15.9304662],[35.5660862,-15.9304481],[35.5662337,-15.9304791],[35.5664114,-15.9305479],[35.567199,-15.9306813],[35.5673978,-15.9306519],[35.5675212,-15.9305977],[35.567615,-15.9305358],[35.5677813,-15.9304713],[35.5679748,-15.9304115],[35.5683195,-15.930325],[35.5685561,-15.9302724],[35.5688126,-15.9301872],[35.5689588,-15.9301618],[35.5691624,-15.9301769],[35.5693316,-15.9302366],[35.5694745,-15.9303145],[35.5696065,-15.9304029],[35.5696884,-15.930443],[35.5698064,-15.9304687],[35.5698949,-15.9304533],[35.5699713,-15.9304143],[35.5700961,-15.9303475],[35.5702122,-15.9302785],[35.5704373,-15.9301908],[35.5706834,-15.9300958],[35.5708672,-15.930071],[35.5710268,-15.9300225],[35.5711099,-15.9299735],[35.5711696,-15.9299008],[35.5712199,-15.9297672],[35.5712544,-15.9296278],[35.5713312,-15.9294281],[35.571406,-15.9292585],[35.5714238,-15.9291508],[35.5714238,-15.9291043],[35.5714425,-15.9290566],[35.5714667,-15.929027],[35.5715081,-15.9290044],[35.5716088,-15.9289986],[35.5717,-15.9290038],[35.5717963,-15.928998],[35.5719119,-15.9289754],[35.5720055,-15.9289725],[35.572156,-15.9290295],[35.5722949,-15.9290898],[35.5724807,-15.929217],[35.5727939,-15.9294006],[35.5730965,-15.9294861],[35.573419,-15.9296544],[35.5737801,-15.929778],[35.5738887,-15.9298291],[35.5739686,-15.9298998],[35.5740657,-15.9299968],[35.5741967,-15.930088],[35.5745367,-15.9302334],[35.5749222,-15.9304502],[35.5750594,-15.930519],[35.5751333,-15.9305461],[35.575254,-15.9305487],[35.5753699,-15.9305303],[35.5754685,-15.9305177],[35.5755851,-15.9305327],[35.575767,-15.9306255],[35.5759986,-15.9308053],[35.5761618,-15.9309309],[35.5762987,-15.9310761],[35.5764174,-15.9312266],[35.5766509,-15.9314756],[35.5767935,-15.9315984],[35.5769979,-15.9316931],[35.5773897,-15.9318601],[35.5777188,-15.9319897],[35.5782451,-15.9322126],[35.5784954,-15.9322929],[35.578604,-15.9323283],[35.5787569,-15.932349],[35.5789205,-15.932349],[35.5790246,-15.9323115],[35.5791432,-15.9322303],[35.579241,-15.9321603],[35.5793014,-15.9321014],[35.5793894,-15.9320933],[35.5794597,-15.9321117],[35.5795263,-15.9321758],[35.5796233,-15.9322484],[35.5796689,-15.9322561],[35.5797145,-15.9322432],[35.5798352,-15.93222],[35.5799341,-15.9321895],[35.579976,-15.9321852],[35.5800176,-15.9321891],[35.5800578,-15.9322161],[35.580094,-15.9322626],[35.5801403,-15.9323453],[35.5801691,-15.932389],[35.5801919,-15.9324135],[35.5802308,-15.932438],[35.5803336,-15.9324505],[35.58076,-15.9325192],[35.5811571,-15.9325843],[35.5813098,-15.9328293],[35.5814576,-15.9331146],[35.5815664,-15.933374],[35.581664,-15.9336263],[35.5817342,-15.9337211],[35.5818039,-15.9337649],[35.5819001,-15.9338033],[35.5819809,-15.9338191],[35.582089,-15.9338383],[35.5821928,-15.9338397],[35.5823615,-15.9338456],[35.5824798,-15.9338114],[35.5825871,-15.9337649],[35.5827874,-15.9336752],[35.5828724,-15.9336397],[35.5829483,-15.9336194],[35.582888,-15.9338467],[35.5828715,-15.9339833],[35.5827827,-15.9341636],[35.5826771,-15.9341974],[35.5825847,-15.9344763],[35.5826738,-15.9353172],[35.5827399,-15.935517],[35.5827243,-15.9357112],[35.5827173,-15.9358315],[35.5827664,-15.9359707],[35.5827899,-15.9360808],[35.5827528,-15.9362083],[35.5826358,-15.9363883],[35.5825971,-15.9365254],[35.5826083,-15.9366585],[35.5825967,-15.9368506],[35.5825957,-15.9370545],[35.5825884,-15.9372262],[35.5826351,-15.9373593],[35.5826603,-15.9375127],[35.5827093,-15.9375999],[35.5826685,-15.9376988],[35.5826781,-15.9378428],[35.5826924,-15.9379692],[35.5826185,-15.9381038],[35.582646,-15.9382679],[35.5826108,-15.9384509],[35.5826386,-15.9386363],[35.5827744,-15.9387862],[35.5829805,-15.938852],[35.5830087,-15.9390202],[35.5830083,-15.9392189],[35.5829824,-15.9394122],[35.5828211,-15.9395136],[35.5826647,-15.9396767],[35.5826183,-15.9398796],[35.5825709,-15.9399553],[35.5825704,-15.9401785],[35.5824587,-15.9403152],[35.5823123,-15.9405242],[35.5822347,-15.9406572],[35.5822433,-15.9408871],[35.5822394,-15.9411033],[35.5822835,-15.9413402],[35.5823124,-15.9415459],[35.5823542,-15.9417216],[35.582287,-15.9419282],[35.5822317,-15.9421937],[35.582227,-15.9423025],[35.5823279,-15.9424647],[35.5824169,-15.9425553],[35.5823691,-15.9426477],[35.5823893,-15.9428953],[35.5825041,-15.9430086],[35.5823893,-15.9431545],[35.582424,-15.9432795],[35.5824924,-15.9433638],[35.5824859,-15.9435069],[35.5824559,-15.9435767],[35.5825354,-15.9436972],[35.5826614,-15.9438467],[35.5827586,-15.9439002],[35.5827615,-15.9440479],[35.5827356,-15.9441738],[35.5826909,-15.9443578],[35.5827032,-15.9444275],[35.5828611,-15.9444973],[35.5829995,-15.9446314],[35.5829724,-15.9447447],[35.5829824,-15.9448289],[35.5829541,-15.9449667],[35.5829736,-15.9450926],[35.5829476,-15.9452068],[35.5829335,-15.9452802],[35.5829388,-15.9454414],[35.5829706,-15.9455493],[35.5829877,-15.9456707],[35.5829041,-15.9457232],[35.5827792,-15.945764],[35.5825519,-15.9458057],[35.5823959,-15.9459473],[35.5823362,-15.9461809],[35.5822179,-15.9464337],[35.5820933,-15.9466141],[35.5821004,-15.9469324],[35.582181,-15.9471933],[35.5822983,-15.947375],[35.5822491,-15.9476456],[35.5820951,-15.9478647],[35.5818282,-15.9481401],[35.58167,-15.9484009],[35.5815549,-15.9487376],[35.5817216,-15.9488996],[35.5819677,-15.9491283],[35.5820965,-15.9493441],[35.5822692,-15.9494907],[35.582533,-15.9497983],[35.5826304,-15.9500399],[35.5826974,-15.9503588],[35.5825477,-15.9505811],[35.5827993,-15.9508759],[35.58322,-15.9511845],[35.5838543,-15.9515965],[35.5843671,-15.9519101],[35.5850675,-15.9522787],[35.5853911,-15.9524905],[35.5857944,-15.952704],[35.5862314,-15.9529375],[35.5866531,-15.9528942],[35.5871421,-15.9527924],[35.5874739,-15.9527257],[35.5876663,-15.9526778],[35.5880241,-15.9525177],[35.5884448,-15.9523959],[35.588756,-15.9523275],[35.5890227,-15.9522057],[35.589261,-15.9519849],[35.5896801,-15.9515728],[35.5899966,-15.9512811],[35.5902106,-15.9510603],[35.5903529,-15.9508336],[35.5906156,-15.9506443],[35.590745,-15.9504018],[35.591009,-15.9502165],[35.5911525,-15.9500075],[35.5911897,-15.9498045],[35.5913063,-15.9495777],[35.5915575,-15.9493372],[35.5914934,-15.9491342],[35.5914876,-15.9488138],[35.5915741,-15.9487083],[35.5916446,-15.9485743],[35.5919483,-15.9486413],[35.5922313,-15.9488557],[35.592471,-15.9490627],[35.59289,-15.948921]]}}]}
