{"type":"FeatureCollection","peaks_destination_id":"8x778CaN63PwigSuqAYe","peaks_trailhead_id":"draft-trailhead","peaks_source":"https://www.openstreetmap.org/","peaks_retrieval_source":"https://api.openstreetmap.org/api/0.6","peaks_license_name":"Open Data Commons Open Database License (ODbL) 1.0","peaks_license":"https://opendatacommons.org/licenses/odbl/1-0/","peaks_attribution":"© OpenStreetMap contributors","peaks_retrieved_at":"2026-07-31T06:16:07.334Z","features":[{"type":"Feature","properties":{"name":"Sapitwa Peak OSM route candidate","trailhead_name":"Skyline Path","destination_name":"Sapitwa Peak","distance_m":19391.992931523706,"trailhead_snap_m":0,"summit_snap_m":47.48741804054339,"osm_way_ids":[28485165,319850251,319849359,319859911,28485179,28485219,44187585,28952532,28952519,342605116,488334434],"osm_way_urls":["https://www.openstreetmap.org/way/28485165","https://www.openstreetmap.org/way/319850251","https://www.openstreetmap.org/way/319849359","https://www.openstreetmap.org/way/319859911","https://www.openstreetmap.org/way/28485179","https://www.openstreetmap.org/way/28485219","https://www.openstreetmap.org/way/44187585","https://www.openstreetmap.org/way/28952532","https://www.openstreetmap.org/way/28952519","https://www.openstreetmap.org/way/342605116","https://www.openstreetmap.org/way/488334434"],"osm_way_names":["Skyline","Chambe - Chisepo"],"osm_foot_access_override_way_ids":[]},"geometry":{"type":"LineString","coordinates":[[35.5042227,-15.9362655],[35.5042227,-15.9362655],[35.5044588,-15.9362607],[35.5045437,-15.9362651],[35.504717,-15.936278],[35.5048567,-15.9362925],[35.5049908,-15.9362822],[35.5051404,-15.9362362],[35.5053717,-15.9361352],[35.5055653,-15.9360412],[35.5057065,-15.9359648],[35.505777,-15.9358838],[35.5060548,-15.9359007],[35.5061801,-15.9359494],[35.5063024,-15.9360346],[35.5064017,-15.9361249],[35.5064929,-15.93621],[35.5065599,-15.9362935],[35.5069272,-15.9365681],[35.5069891,-15.9366136],[35.5070776,-15.9366549],[35.5071728,-15.9367],[35.5072655,-15.9367403],[35.5073686,-15.9367709],[35.5075067,-15.9367916],[35.5076516,-15.9367967],[35.5077849,-15.9367893],[35.5080255,-15.9367852],[35.5081907,-15.9367606],[35.5083315,-15.9367335],[35.5086282,-15.9366814],[35.508703,-15.9366587],[35.5087723,-15.9366255],[35.5090065,-15.9365027],[35.5091724,-15.9363957],[35.5093231,-15.9362886],[35.5094245,-15.9362241],[35.5095651,-15.9361685],[35.509682,-15.936139],[35.509745,-15.9361236],[35.5098201,-15.9361135],[35.5100247,-15.9360679],[35.5101675,-15.9360346],[35.5102847,-15.9360116],[35.5103599,-15.9360036],[35.5104062,-15.9360152],[35.5104612,-15.9360449],[35.5104948,-15.9360835],[35.510504,-15.9361678],[35.5104628,-15.9364204],[35.5104424,-15.9365246],[35.5104427,-15.9366266],[35.5104477,-15.936751],[35.5104692,-15.9368161],[35.5105085,-15.9368717],[35.5106167,-15.9369526],[35.510744,-15.9369953],[35.5109695,-15.9370697],[35.5110419,-15.9370907],[35.5111076,-15.9371191],[35.5111948,-15.9371746],[35.5112573,-15.9372403],[35.5113172,-15.9373309],[35.5113758,-15.9373886],[35.5114254,-15.9374299],[35.511497,-15.937461],[35.5115595,-15.9374776],[35.5116239,-15.937475],[35.5117325,-15.9374568],[35.5118626,-15.9374221],[35.5119675,-15.937396],[35.512173,-15.937354],[35.5122945,-15.9373409],[35.5123989,-15.9373324],[35.5124755,-15.9373435],[35.5125233,-15.9373663],[35.5125667,-15.9374144],[35.5125968,-15.9374949],[35.5126083,-15.9375614],[35.5126243,-15.9376257],[35.5126388,-15.9376612],[35.5126727,-15.9376917],[35.5127358,-15.9377163],[35.5128162,-15.9377252],[35.5128886,-15.9377446],[35.51298,-15.937821],[35.5130549,-15.9378787],[35.5131374,-15.9379366],[35.5131903,-15.9379844],[35.513266,-15.9380188],[35.51337,-15.9380463],[35.5134633,-15.9380543],[35.5135551,-15.9380824],[35.5136296,-15.9381174],[35.5139184,-15.9382445],[35.5140352,-15.9382707],[35.514148,-15.9383147],[35.5142069,-15.9383442],[35.5142659,-15.9383751],[35.5143744,-15.9384326],[35.5144885,-15.9384602],[35.514641,-15.9384802],[35.5147514,-15.9384835],[35.5148557,-15.938487],[35.5149321,-15.9384701],[35.5149753,-15.9384409],[35.5149905,-15.9384107],[35.5151219,-15.938415],[35.5154986,-15.9383225],[35.5159286,-15.9381793],[35.5160134,-15.9381511],[35.5163409,-15.9379546],[35.5166344,-15.9378997],[35.5169429,-15.9377957],[35.5171953,-15.9376223],[35.5175048,-15.9374798],[35.5179659,-15.9372736],[35.5180424,-15.9372713],[35.5181053,-15.9372586],[35.5182087,-15.9372377],[35.5182905,-15.9372068],[35.5183549,-15.9371726],[35.5184461,-15.9371243],[35.5185231,-15.937074],[35.5186178,-15.9369914],[35.5186927,-15.9369],[35.5187627,-15.9368151],[35.5188132,-15.9367522],[35.5189193,-15.9366184],[35.5191032,-15.9363726],[35.5192761,-15.9361232],[35.5193648,-15.9359856],[35.5194221,-15.9358515],[35.5194069,-15.9358023],[35.5193822,-15.9357573],[35.5193351,-15.9357149],[35.5192816,-15.935689],[35.5192174,-15.9356666],[35.5191448,-15.9356438],[35.519054,-15.9356272],[35.5187275,-15.9356386],[35.5183772,-15.9356399],[35.5180037,-15.9356181],[35.5176455,-15.9355711],[35.5173113,-15.9354869],[35.5170983,-15.9354156],[35.5169451,-15.9353389],[35.5167524,-15.9352211],[35.516696,-15.9351873],[35.5166264,-15.9351638],[35.5165632,-15.9351757],[35.516527,-15.9352054],[35.5165119,-15.9352536],[35.5165082,-15.9353021],[35.5165043,-15.9353533],[35.5165032,-15.9355097],[35.5164684,-15.9356557],[35.5164371,-15.9357057],[35.5164023,-15.9357212],[35.516362,-15.9357253],[35.5163084,-15.9356851],[35.5162823,-15.9356412],[35.5161996,-15.9355357],[35.5161652,-15.9354307],[35.5162489,-15.9353641],[35.5163531,-15.9352559],[35.5165526,-15.935115],[35.5168214,-15.9349593],[35.5170226,-15.9348226],[35.5171428,-15.9347324],[35.5172866,-15.9346447],[35.5174287,-15.9345662],[35.5176019,-15.9343945],[35.5177436,-15.9342655],[35.5178981,-15.9340839],[35.5182242,-15.9337951],[35.5184131,-15.93363],[35.5185675,-15.9334402],[35.5185675,-15.9332504],[35.5185675,-15.9331101],[35.5186276,-15.9329202],[35.5187336,-15.9327195],[35.5188479,-15.9325205],[35.5189182,-15.9324496],[35.5189691,-15.9324096],[35.5190461,-15.9323889],[35.5192375,-15.9323579],[35.5194229,-15.9323221],[35.5195332,-15.9322885],[35.5196833,-15.9322434],[35.5198601,-15.9322434],[35.5200398,-15.9322498],[35.520156,-15.9322419],[35.5202571,-15.9322177],[35.5203773,-15.9321633],[35.5204703,-15.932099],[35.5206229,-15.9319558],[35.5207045,-15.9318873],[35.5207681,-15.9318166],[35.5208252,-15.9317364],[35.5208514,-15.9316579],[35.5208708,-15.9315494],[35.5209057,-15.9314785],[35.5209695,-15.931423],[35.5210412,-15.9313611],[35.5211379,-15.9313191],[35.5212115,-15.9312876],[35.5212978,-15.9312801],[35.5213965,-15.9312644],[35.5214623,-15.9312412],[35.5215333,-15.9311987],[35.521566,-15.9311447],[35.5215928,-15.9309319],[35.5215825,-15.9307875],[35.5215856,-15.9306744],[35.521598,-15.9305534],[35.5216232,-15.9304726],[35.5216602,-15.9303868],[35.5216809,-15.9303346],[35.5217033,-15.930323],[35.5217336,-15.9303171],[35.5217543,-15.9303224],[35.521766,-15.9303311],[35.5217814,-15.9303488],[35.5217989,-15.9303901],[35.5218141,-15.9304713],[35.5218606,-15.930559],[35.5218968,-15.9306029],[35.521933,-15.9306299],[35.5219907,-15.9306364],[35.5220436,-15.9306224],[35.5221529,-15.9305913],[35.5222508,-15.9305603],[35.5223098,-15.9305319],[35.5223293,-15.9304945],[35.5223045,-15.930461],[35.5222441,-15.9304404],[35.5222312,-15.9303941],[35.5222663,-15.930317],[35.5222964,-15.9302534],[35.522328,-15.9301917],[35.5223675,-15.930158],[35.5224267,-15.9301336],[35.5225258,-15.9301064],[35.5225767,-15.9300844],[35.5226257,-15.9300475],[35.5226974,-15.9299774],[35.5227189,-15.9299561],[35.5227408,-15.9299366],[35.5229259,-15.9297365],[35.5230307,-15.9295363],[35.5231055,-15.9293921],[35.5231547,-15.9293429],[35.5232339,-15.9292913],[35.5233036,-15.9292617],[35.5233902,-15.9292361],[35.5237362,-15.9291858],[35.5240272,-15.9291536],[35.5241814,-15.9291433],[35.5242544,-15.9291172],[35.5242947,-15.9290863],[35.5243139,-15.9290556],[35.5243488,-15.9289449],[35.5243823,-15.9288131],[35.524402,-15.9287471],[35.5244248,-15.9286994],[35.5244721,-15.9286581],[35.5245347,-15.9286504],[35.52461,-15.9286532],[35.5247846,-15.9286829],[35.5249791,-15.9286945],[35.5252366,-15.928711],[35.5254512,-15.9287357],[35.525636,-15.9287512],[35.5257203,-15.9287626],[35.5258291,-15.9287639],[35.5259201,-15.9287549],[35.5259986,-15.9287447],[35.526077,-15.9287239],[35.5261266,-15.928671],[35.5261644,-15.9285993],[35.5262004,-15.9285098],[35.5262666,-15.9284056],[35.5263405,-15.9283412],[35.5264176,-15.9283203],[35.5264929,-15.9283163],[35.526622,-15.9283253],[35.5267215,-15.9282983],[35.5268073,-15.9282818],[35.5269221,-15.9282635],[35.5270363,-15.9282468],[35.5272064,-15.9281977],[35.52728,-15.9281642],[35.5273365,-15.9281268],[35.5273685,-15.928083],[35.5274092,-15.9280406],[35.5275113,-15.9279617],[35.5276186,-15.9278938],[35.5276796,-15.9278534],[35.5277386,-15.927825],[35.527771,-15.9278044],[35.5278097,-15.9277619],[35.5278301,-15.9277129],[35.5278593,-15.927629],[35.5278754,-15.92758],[35.5279121,-15.9275336],[35.5280015,-15.9274536],[35.5281212,-15.9273621],[35.5282594,-15.9272798],[35.5283046,-15.9272666],[35.5283569,-15.9272654],[35.5284335,-15.9273004],[35.5285064,-15.9273519],[35.5285513,-15.9273608],[35.5285859,-15.9273481],[35.5286184,-15.9273079],[35.5286363,-15.9272681],[35.5286956,-15.9272153],[35.5287814,-15.9271263],[35.5288509,-15.9270744],[35.5289081,-15.9270294],[35.5289349,-15.9269907],[35.5289416,-15.9269533],[35.5289512,-15.9268787],[35.5289684,-15.9268282],[35.5289832,-15.926765],[35.5290387,-15.9266914],[35.5291066,-15.9266515],[35.5291481,-15.9266296],[35.5291674,-15.926603],[35.5291924,-15.9265225],[35.5292114,-15.9264417],[35.5292259,-15.9263729],[35.529234,-15.9263072],[35.5292302,-15.926217],[35.5291714,-15.9261501],[35.5291253,-15.9260787],[35.5290851,-15.9260196],[35.5290717,-15.9259551],[35.5290757,-15.92591],[35.5290994,-15.9258796],[35.5291656,-15.9258377],[35.5292527,-15.9258155],[35.5293848,-15.9258021],[35.5294083,-15.9257694],[35.5294378,-15.9257165],[35.5294499,-15.9256623],[35.5294447,-15.9256084],[35.529415,-15.9255553],[35.5293879,-15.9254838],[35.5293269,-15.9253399],[35.5291766,-15.9252516],[35.5288801,-15.925014],[35.5288169,-15.9249221],[35.5287937,-15.9248226],[35.5287713,-15.9247686],[35.5287418,-15.9247145],[35.5286817,-15.9246107],[35.528648,-15.9244456],[35.5286345,-15.9243766],[35.5285974,-15.9243121],[35.5284896,-15.9242192],[35.5284282,-15.9241348],[35.5284092,-15.9240439],[35.5284092,-15.923955],[35.5284253,-15.9238556],[35.5284761,-15.9237493],[35.5285165,-15.9236595],[35.5285326,-15.9235589],[35.5285516,-15.9234733],[35.5285774,-15.9231196],[35.5285857,-15.922845],[35.5285567,-15.922651],[35.5284951,-15.9224339],[35.5284597,-15.9223162],[35.5281837,-15.9219312],[35.5275263,-15.9210334],[35.5266513,-15.919692],[35.5259342,-15.918419],[35.5258557,-15.9182584],[35.5258085,-15.918137],[35.5257565,-15.9179953],[35.5257377,-15.9179154],[35.5256921,-15.9178328],[35.5255871,-15.9176748],[35.5254713,-15.9174445],[35.5252409,-15.9170314],[35.525212,-15.9169481],[35.5252013,-15.9168527],[35.5252361,-15.9167701],[35.5253046,-15.9166597],[35.5255137,-15.9163967],[35.5256224,-15.916164],[35.5256894,-15.9160299],[35.5257311,-15.9158732],[35.5256626,-15.9154934],[35.5255378,-15.9151392],[35.5254802,-15.9150084],[35.5254531,-15.9148768],[35.5254775,-15.9147892],[35.5255312,-15.9147041],[35.5255929,-15.9146305],[35.5256774,-15.9145996],[35.5257883,-15.914577],[35.5258798,-15.9145583],[35.5259107,-15.9145467],[35.5259335,-15.9145326],[35.5259523,-15.9145074],[35.5259597,-15.9144842],[35.525959,-15.9144642],[35.5259556,-15.9143997],[35.5259489,-15.9143462],[35.5259408,-15.9142928],[35.5259006,-15.9142037],[35.5258251,-15.9140689],[35.5257437,-15.9139593],[35.5256211,-15.9137827],[35.5256116,-15.9137387],[35.5256277,-15.9136871],[35.5256546,-15.913651],[35.5256774,-15.9136265],[35.5257067,-15.9136054],[35.5257645,-15.9135665],[35.5258175,-15.9135414],[35.5258745,-15.9135298],[35.5259999,-15.9135336],[35.526122,-15.9135491],[35.52625,-15.9135756],[35.5263608,-15.9136118],[35.5264854,-15.9136594],[35.5265437,-15.9136768],[35.5266146,-15.9136928],[35.526706,-15.9136884],[35.5268059,-15.9136529],[35.5269179,-15.9136155],[35.5269742,-15.9135898],[35.5270124,-15.9135594],[35.5270739,-15.9134468],[35.5271217,-15.9132132],[35.527151,-15.913056],[35.527231,-15.9124588],[35.5273739,-15.9120885],[35.527564,-15.9117221],[35.5276541,-15.9115894],[35.5277802,-15.9114514],[35.5280323,-15.9111839],[35.5281664,-15.9110335],[35.5283084,-15.910877],[35.5284803,-15.9107459],[35.528609,-15.910666],[35.5287474,-15.9105814],[35.5291233,-15.9103739],[35.5295227,-15.9100887],[35.5297854,-15.9098564],[35.52993,-15.9096858],[35.5300038,-15.9095684],[35.5300413,-15.9095039],[35.5301109,-15.9094357],[35.5302988,-15.909295],[35.5303927,-15.9092215],[35.5304697,-15.9091475],[35.5305536,-15.9090319],[35.5305979,-15.908948],[35.53063,-15.9088648],[35.5307613,-15.9085586],[35.5308501,-15.9083364],[35.5308594,-15.9082413],[35.5308889,-15.9081381],[35.5309224,-15.9080478],[35.5309862,-15.9079662],[35.5310726,-15.9079124],[35.5311759,-15.9078763],[35.5312523,-15.9078118],[35.5313064,-15.9077276],[35.5313784,-15.9075667],[35.5314756,-15.9073944],[35.531538,-15.9072868],[35.5316012,-15.9072301],[35.5316667,-15.9071953],[35.5317754,-15.9071643],[35.53188,-15.9071192],[35.5319591,-15.907065],[35.5321379,-15.9069484],[35.5324432,-15.9067826],[35.5325961,-15.9067232],[35.5326605,-15.9066923],[35.5327007,-15.9066536],[35.5327437,-15.9065884],[35.5328416,-15.9063993],[35.5331205,-15.9061563],[35.5333558,-15.9062024],[35.533639,-15.9060997],[35.5338176,-15.9062694],[35.5343797,-15.9061228],[35.534578,-15.9061605],[35.5347414,-15.9061353],[35.5348939,-15.9060892],[35.5350377,-15.9059489],[35.5356433,-15.905071],[35.5357217,-15.9049013],[35.5357479,-15.9046624],[35.5357762,-15.9044424],[35.5357196,-15.9043607],[35.5353645,-15.9043607],[35.5352773,-15.904258],[35.5353035,-15.9040548],[35.5354102,-15.9039689],[35.5363252,-15.9035834],[35.536554,-15.9034702],[35.5369745,-15.9032167],[35.5373644,-15.9030323],[35.5374843,-15.9024959],[35.5376128,-15.9021355],[35.5376825,-15.9021292],[35.5377762,-15.9021732],[35.5378416,-15.9022696],[35.5377893,-15.9025609],[35.5381095,-15.9027997],[35.5382599,-15.9029045],[35.5385496,-15.9030197],[35.5387217,-15.9031999],[35.5387283,-15.9031203],[35.5386869,-15.9030218],[35.5385213,-15.9028731],[35.5383405,-15.9028102],[35.5382359,-15.9025022],[35.5381313,-15.9024247],[35.5383317,-15.9020622],[35.5383012,-15.9019281],[35.5383579,-15.9018988],[35.5385975,-15.9019491],[35.5387195,-15.9018673],[35.538872,-15.9016976],[35.5390158,-15.9016117],[35.5391161,-15.9016159],[35.5393644,-15.9016557],[35.539689,-15.9016012],[35.5397805,-15.901838],[35.5398808,-15.9019302],[35.540079,-15.9020329],[35.5406542,-15.9026384],[35.5407478,-15.9028333],[35.5408154,-15.9030533],[35.5408328,-15.9033885],[35.5408829,-15.9037405],[35.5409221,-15.9041554],[35.5410529,-15.9046352],[35.5411509,-15.9049557],[35.5412533,-15.9052072],[35.5413971,-15.9053161],[35.5418873,-15.9053664],[35.5421313,-15.9053182],[35.5422533,-15.9054753],[35.5422925,-15.9058965],[35.5423448,-15.9061416],[35.5423295,-15.9064224],[35.5422467,-15.9067115],[35.541823,-15.9068612],[35.5416835,-15.9069953],[35.5416191,-15.9071759],[35.5419035,-15.9071527],[35.5421931,-15.907212],[35.5422548,-15.9072585],[35.5424265,-15.9073152],[35.5427165,-15.9075344],[35.5427825,-15.9075481],[35.5429387,-15.9076544],[35.543105,-15.9077628],[35.5431808,-15.9078118],[35.5432418,-15.9078608],[35.5432767,-15.9079117],[35.543282,-15.9079614],[35.5432713,-15.907993],[35.5432498,-15.9080207],[35.5432224,-15.9080452],[35.5431855,-15.9080671],[35.5431379,-15.9080878],[35.5430934,-15.9081062],[35.5430701,-15.9081355],[35.5430594,-15.9081652],[35.5430675,-15.9082168],[35.5430955,-15.9082556],[35.5434458,-15.9084834],[35.5437911,-15.9087109],[35.545063,-15.9093775],[35.5461021,-15.9099079],[35.5462244,-15.9099966],[35.5462968,-15.9101023],[35.5463285,-15.9101979],[35.5464428,-15.9107951],[35.54649,-15.9109278],[35.546557,-15.911049],[35.5466544,-15.9113184],[35.546726,-15.9114359],[35.5468347,-15.911548],[35.547038,-15.9117858],[35.5471954,-15.9119879],[35.5473241,-15.9122046],[35.5474448,-15.9124987],[35.5475578,-15.9127912],[35.5477388,-15.9131417],[35.5478793,-15.9135356],[35.5479721,-15.9139207],[35.548059,-15.9140515],[35.5481904,-15.9141633],[35.5483765,-15.914344],[35.549036,-15.9148983],[35.5491668,-15.9150703],[35.5492918,-15.9152434],[35.5494565,-15.9154001],[35.5495933,-15.9155578],[35.5496954,-15.9157483],[35.5497354,-15.915937],[35.5497622,-15.9161201],[35.5497837,-15.9163213],[35.5498338,-15.9165082],[35.5499018,-15.9167358],[35.5499366,-15.9168604],[35.5499312,-15.9170023],[35.5499017,-15.9171493],[35.5498755,-15.9172902],[35.549805,-15.9180174],[35.549773,-15.9183255],[35.5497882,-15.918742],[35.5498159,-15.9189652],[35.5499031,-15.9192003],[35.5500948,-15.9194707],[35.550178,-15.9195842],[35.5502387,-15.9197074],[35.5503684,-15.9200176],[35.5504589,-15.9202495],[35.5505696,-15.9204457],[35.5507244,-15.9206356],[35.5509675,-15.9208655],[35.5512938,-15.9210777],[35.5515003,-15.9211757],[35.5516755,-15.9212827],[35.5519268,-15.9214955],[35.5520582,-15.9215909],[35.5522185,-15.9216661],[35.5526737,-15.9218722],[35.5528665,-15.9220541],[35.5530612,-15.922196],[35.5532135,-15.9222012],[35.5534188,-15.9222325],[35.5536249,-15.9223385],[35.5538118,-15.9225657],[35.5538419,-15.9225917],[35.5538955,-15.9226123],[35.5539894,-15.9226407],[35.554102,-15.9226304],[35.5542442,-15.9226252],[35.5543543,-15.9226113],[35.5544749,-15.9226304],[35.5545786,-15.922685],[35.5546771,-15.9227708],[35.5548399,-15.9229185],[35.555045,-15.9231648],[35.5552808,-15.9234151],[35.5555596,-15.9236266],[35.5557811,-15.9237808],[35.5560233,-15.9239286],[35.5566183,-15.9241842],[35.5568138,-15.9242192],[35.5570583,-15.9242273],[35.5576578,-15.9241456],[35.5578867,-15.9241083],[35.5581103,-15.9241111],[35.5584178,-15.9241743],[35.5585653,-15.9242012],[35.5587424,-15.9242196],[35.5589159,-15.9242134],[35.5590302,-15.9242304],[35.5592723,-15.9243165],[35.5593914,-15.9243302],[35.5595025,-15.9242997],[35.5597431,-15.9241749],[35.5598205,-15.9241393],[35.5598849,-15.9241264],[35.5599868,-15.9241161],[35.5601156,-15.9241316],[35.5602046,-15.9241794],[35.5603918,-15.9243637],[35.5605458,-15.924511],[35.5608681,-15.9247967],[35.5610704,-15.9249053],[35.5613534,-15.9250211],[35.5614755,-15.9250936],[35.5615767,-15.9252043],[35.5616498,-15.9253902],[35.5616827,-15.9255858],[35.5617184,-15.9257889],[35.5617375,-15.925931],[35.5617728,-15.9261544],[35.5618402,-15.9264297],[35.5619374,-15.9267006],[35.5621562,-15.9270663],[35.5622673,-15.9272236],[35.5623257,-15.9273892],[35.5623606,-15.9275563],[35.5623987,-15.9277777],[35.5624497,-15.9279633],[35.5624626,-15.928064],[35.5624717,-15.9282192],[35.5625269,-15.9284008],[35.5626395,-15.9286618],[35.5627672,-15.9288134],[35.5630059,-15.9289475],[35.5632715,-15.929143],[35.5634367,-15.9292839],[35.5635869,-15.9293762],[35.5639785,-15.9295552],[35.5641232,-15.9296313],[35.564529,-15.9297421],[35.5647343,-15.9297672],[35.5649114,-15.9298059],[35.5650616,-15.9298575],[35.5651823,-15.9299142],[35.5652681,-15.9299813],[35.5654022,-15.9301902],[35.5655352,-15.9303474],[35.5655873,-15.9304017],[35.5656812,-15.9304533],[35.5658394,-15.9304662],[35.5660862,-15.9304481],[35.5662337,-15.9304791],[35.5664114,-15.9305479],[35.567199,-15.9306813],[35.5673978,-15.9306519],[35.5675212,-15.9305977],[35.567615,-15.9305358],[35.5677813,-15.9304713],[35.5679748,-15.9304115],[35.5683195,-15.930325],[35.5685561,-15.9302724],[35.5688126,-15.9301872],[35.5689588,-15.9301618],[35.5691624,-15.9301769],[35.5693316,-15.9302366],[35.5694745,-15.9303145],[35.5696065,-15.9304029],[35.5696884,-15.930443],[35.5698064,-15.9304687],[35.5698949,-15.9304533],[35.5699713,-15.9304143],[35.5700961,-15.9303475],[35.5702122,-15.9302785],[35.5704373,-15.9301908],[35.5706834,-15.9300958],[35.5708672,-15.930071],[35.5710268,-15.9300225],[35.5711099,-15.9299735],[35.5711696,-15.9299008],[35.5712199,-15.9297672],[35.5712544,-15.9296278],[35.5713312,-15.9294281],[35.571406,-15.9292585],[35.5714238,-15.9291508],[35.5714238,-15.9291043],[35.5714425,-15.9290566],[35.5714667,-15.929027],[35.5715081,-15.9290044],[35.5716088,-15.9289986],[35.5717,-15.9290038],[35.5717963,-15.928998],[35.5719119,-15.9289754],[35.5720055,-15.9289725],[35.572156,-15.9290295],[35.5722949,-15.9290898],[35.5724807,-15.929217],[35.5727939,-15.9294006],[35.5730965,-15.9294861],[35.573419,-15.9296544],[35.5737801,-15.929778],[35.5738887,-15.9298291],[35.5739686,-15.9298998],[35.5740657,-15.9299968],[35.5741967,-15.930088],[35.5745367,-15.9302334],[35.5749222,-15.9304502],[35.5750594,-15.930519],[35.5751333,-15.9305461],[35.575254,-15.9305487],[35.5753699,-15.9305303],[35.5754685,-15.9305177],[35.5755851,-15.9305327],[35.575767,-15.9306255],[35.5759986,-15.9308053],[35.5761618,-15.9309309],[35.5762987,-15.9310761],[35.5764174,-15.9312266],[35.5766509,-15.9314756],[35.5767935,-15.9315984],[35.5769979,-15.9316931],[35.5773897,-15.9318601],[35.5777188,-15.9319897],[35.5782451,-15.9322126],[35.5784954,-15.9322929],[35.578604,-15.9323283],[35.5787569,-15.932349],[35.5789205,-15.932349],[35.5790246,-15.9323115],[35.5791432,-15.9322303],[35.579241,-15.9321603],[35.5793014,-15.9321014],[35.5793894,-15.9320933],[35.5794597,-15.9321117],[35.5795263,-15.9321758],[35.5796233,-15.9322484],[35.5796689,-15.9322561],[35.5797145,-15.9322432],[35.5798352,-15.93222],[35.5799341,-15.9321895],[35.579976,-15.9321852],[35.5800176,-15.9321891],[35.5800578,-15.9322161],[35.580094,-15.9322626],[35.5801403,-15.9323453],[35.5801691,-15.932389],[35.5801919,-15.9324135],[35.5802308,-15.932438],[35.5803336,-15.9324505],[35.58076,-15.9325192],[35.5811571,-15.9325843],[35.5813098,-15.9328293],[35.5814576,-15.9331146],[35.5815664,-15.933374],[35.581664,-15.9336263],[35.5817342,-15.9337211],[35.5818039,-15.9337649],[35.5819001,-15.9338033],[35.5819809,-15.9338191],[35.582089,-15.9338383],[35.5821928,-15.9338397],[35.5823615,-15.9338456],[35.5824798,-15.9338114],[35.5825871,-15.9337649],[35.5827874,-15.9336752],[35.5828724,-15.9336397],[35.5829483,-15.9336194],[35.582888,-15.9338467],[35.5828715,-15.9339833],[35.5827827,-15.9341636],[35.5826771,-15.9341974],[35.5825847,-15.9344763],[35.5826738,-15.9353172],[35.5827399,-15.935517],[35.5827243,-15.9357112],[35.5827173,-15.9358315],[35.5827664,-15.9359707],[35.5827899,-15.9360808],[35.5827528,-15.9362083],[35.5826358,-15.9363883],[35.5825971,-15.9365254],[35.5826083,-15.9366585],[35.5825967,-15.9368506],[35.5825957,-15.9370545],[35.5825884,-15.9372262],[35.5826351,-15.9373593],[35.5826603,-15.9375127],[35.5827093,-15.9375999],[35.5826685,-15.9376988],[35.5826781,-15.9378428],[35.5826924,-15.9379692],[35.5826185,-15.9381038],[35.582646,-15.9382679],[35.5826108,-15.9384509],[35.5826386,-15.9386363],[35.5827744,-15.9387862],[35.5829805,-15.938852],[35.5830087,-15.9390202],[35.5830083,-15.9392189],[35.5829824,-15.9394122],[35.5828211,-15.9395136],[35.5826647,-15.9396767],[35.5826183,-15.9398796],[35.5825709,-15.9399553],[35.5825704,-15.9401785],[35.5824587,-15.9403152],[35.5823123,-15.9405242],[35.5822347,-15.9406572],[35.5822433,-15.9408871],[35.5822394,-15.9411033],[35.5822835,-15.9413402],[35.5823124,-15.9415459],[35.5823542,-15.9417216],[35.582287,-15.9419282],[35.5822317,-15.9421937],[35.582227,-15.9423025],[35.5823279,-15.9424647],[35.5824169,-15.9425553],[35.5823691,-15.9426477],[35.5823893,-15.9428953],[35.5825041,-15.9430086],[35.5823893,-15.9431545],[35.582424,-15.9432795],[35.5824924,-15.9433638],[35.5824859,-15.9435069],[35.5824559,-15.9435767],[35.5825354,-15.9436972],[35.5826614,-15.9438467],[35.5827586,-15.9439002],[35.5827615,-15.9440479],[35.5827356,-15.9441738],[35.5826909,-15.9443578],[35.5827032,-15.9444275],[35.5828611,-15.9444973],[35.5829995,-15.9446314],[35.5829724,-15.9447447],[35.5829824,-15.9448289],[35.5829541,-15.9449667],[35.5829736,-15.9450926],[35.5829476,-15.9452068],[35.5829335,-15.9452802],[35.5829388,-15.9454414],[35.5829706,-15.9455493],[35.5829877,-15.9456707],[35.5829041,-15.9457232],[35.5827792,-15.945764],[35.5825519,-15.9458057],[35.5823959,-15.9459473],[35.5823362,-15.9461809],[35.5822179,-15.9464337],[35.5820933,-15.9466141],[35.5821004,-15.9469324],[35.582181,-15.9471933],[35.5822983,-15.947375],[35.5822491,-15.9476456],[35.5820951,-15.9478647],[35.5818282,-15.9481401],[35.58167,-15.9484009],[35.5815549,-15.9487376],[35.5817216,-15.9488996],[35.5819677,-15.9491283],[35.5820965,-15.9493441],[35.5822692,-15.9494907],[35.582533,-15.9497983],[35.5826304,-15.9500399],[35.5826974,-15.9503588],[35.5825477,-15.9505811],[35.5827993,-15.9508759],[35.58322,-15.9511845],[35.5838543,-15.9515965],[35.5843671,-15.9519101],[35.5850675,-15.9522787],[35.5853911,-15.9524905],[35.5857944,-15.952704],[35.5862314,-15.9529375],[35.5866531,-15.9528942],[35.5871421,-15.9527924],[35.5874739,-15.9527257],[35.5876663,-15.9526778],[35.5880241,-15.9525177],[35.5884448,-15.9523959],[35.588756,-15.9523275],[35.5890227,-15.9522057],[35.589261,-15.9519849],[35.5896801,-15.9515728],[35.5899966,-15.9512811],[35.5902106,-15.9510603],[35.5903529,-15.9508336],[35.5906156,-15.9506443],[35.590745,-15.9504018],[35.591009,-15.9502165],[35.5911525,-15.9500075],[35.5911897,-15.9498045],[35.5913063,-15.9495777],[35.5915575,-15.9493372],[35.5914934,-15.9491342],[35.5914876,-15.9488138],[35.5915741,-15.9487083],[35.5916446,-15.9485743],[35.5919483,-15.9486413],[35.5922313,-15.9488557],[35.592471,-15.9490627],[35.59289,-15.948921]]}}]}
