{"type":"FeatureCollection","peaks_destination_id":"PeW9Gqn7bHixjXl3NkEy","peaks_trailhead_id":"draft-trailhead","peaks_source":"https://www.openstreetmap.org/","peaks_retrieval_source":"https://overpass-api.de/api/interpreter","peaks_license_name":"Open Data Commons Open Database License (ODbL) 1.0","peaks_license":"https://opendatacommons.org/licenses/odbl/1-0/","peaks_attribution":"© OpenStreetMap contributors","peaks_retrieved_at":"2026-07-31T09:08:30.815Z","features":[{"type":"Feature","properties":{"name":"She Devil OSM route candidate","trailhead_name":"Windy Saddle Trailhead","destination_name":"She Devil","distance_m":9096.560017007805,"trailhead_snap_m":6.240795437138427,"summit_snap_m":11.473555620716976,"osm_way_ids":[777511603,579467546,966306907,777511605,282194549,282189281,777511602,966306912,966306914],"osm_way_urls":["https://www.openstreetmap.org/way/777511603","https://www.openstreetmap.org/way/579467546","https://www.openstreetmap.org/way/966306907","https://www.openstreetmap.org/way/777511605","https://www.openstreetmap.org/way/282194549","https://www.openstreetmap.org/way/282189281","https://www.openstreetmap.org/way/777511602","https://www.openstreetmap.org/way/966306912","https://www.openstreetmap.org/way/966306914"],"osm_way_names":["South Boise Trail","Cannon Lakes Trail"],"osm_foot_access_override_way_ids":[]},"geometry":{"type":"LineString","coordinates":[[-116.51252,45.349216],[-116.5125931,45.3492386],[-116.5124439,45.3491425],[-116.5123956,45.3491076],[-116.5122395,45.3491337],[-116.5121032,45.3491387],[-116.5118479,45.3491111],[-116.5116441,45.3490432],[-116.5113919,45.3486511],[-116.5110218,45.3485342],[-116.5111256,45.3484733],[-116.5114854,45.348414],[-116.5115008,45.3483835],[-116.5113082,45.3482624],[-116.5111631,45.3482245],[-116.5106731,45.3482044],[-116.5106535,45.3481717],[-116.5107742,45.3479983],[-116.5107715,45.3479351],[-116.5107268,45.3478971],[-116.5106521,45.3478767],[-116.5105551,45.3478971],[-116.510281,45.3480287],[-116.5100186,45.3479951],[-116.5097684,45.3478889],[-116.5094846,45.3476784],[-116.5093863,45.3476007],[-116.509292,45.3475454],[-116.509156,45.3475267],[-116.5090585,45.3474808],[-116.5089965,45.3474193],[-116.5089687,45.3473668],[-116.5088664,45.3473447],[-116.5086577,45.3472793],[-116.5085715,45.3472193],[-116.5084622,45.3471558],[-116.508369,45.3470819],[-116.5083265,45.347024],[-116.5083153,45.3469919],[-116.5083009,45.3468951],[-116.5083034,45.346794],[-116.5082975,45.3466982],[-116.5082835,45.3466404],[-116.5083308,45.3464473],[-116.5082051,45.3464233],[-116.5079506,45.3463257],[-116.5077702,45.3463194],[-116.5075991,45.3463721],[-116.5074134,45.3464503],[-116.5071485,45.3465545],[-116.5070552,45.346525],[-116.5069982,45.3463761],[-116.5067874,45.3461114],[-116.5066763,45.3459702],[-116.5067041,45.3457858],[-116.5067305,45.3455635],[-116.5067403,45.3454404],[-116.5066562,45.3454056],[-116.5065217,45.3454648],[-116.5062623,45.3455523],[-116.5060878,45.3456003],[-116.5060093,45.3456275],[-116.5059475,45.345647],[-116.505902,45.3455976],[-116.5059473,45.3454328],[-116.5059095,45.3450921],[-116.5058602,45.3449298],[-116.5058043,45.3447681],[-116.5056362,45.3445972],[-116.5054013,45.3444646],[-116.5052571,45.344262],[-116.5052397,45.3441175],[-116.5053482,45.3439367],[-116.5054482,45.3436895],[-116.5055093,45.3435308],[-116.5056734,45.3433539],[-116.5057129,45.3432232],[-116.5056842,45.343173],[-116.5055924,45.3431292],[-116.5052676,45.3432327],[-116.5049779,45.343293],[-116.5045791,45.3433879],[-116.5043127,45.3433533],[-116.5040749,45.3433803],[-116.5038353,45.3434287],[-116.5035385,45.3435387],[-116.5033525,45.34367],[-116.5031843,45.343878],[-116.5029985,45.3439867],[-116.502929,45.3439907],[-116.5027284,45.3440024],[-116.5022957,45.343949],[-116.5019828,45.3440062],[-116.5016717,45.3440477],[-116.5012746,45.3439836],[-116.5010619,45.3439038],[-116.5009013,45.343757],[-116.5006578,45.3434972],[-116.5005737,45.3433118],[-116.5005611,45.343124],[-116.5006918,45.3430064],[-116.5008455,45.3429278],[-116.5011558,45.3428349],[-116.5014463,45.3426658],[-116.5016931,45.3424924],[-116.5021088,45.3422011],[-116.502399,45.3419807],[-116.502767,45.3418022],[-116.503281,45.3416119],[-116.5034437,45.3414115],[-116.503561,45.341196],[-116.5037759,45.3411678],[-116.5039524,45.3411039],[-116.5040011,45.3409437],[-116.5041495,45.3408147],[-116.5046273,45.3405719],[-116.5046724,45.340413],[-116.5046703,45.3403243],[-116.5046275,45.3402497],[-116.5045112,45.340073],[-116.5044397,45.3399869],[-116.5043431,45.3398586],[-116.5041246,45.3395717],[-116.5040054,45.3394656],[-116.5038271,45.3395002],[-116.5037166,45.3394877],[-116.5036003,45.3394355],[-116.503365,45.3392346],[-116.5030324,45.3389158],[-116.5027981,45.3383881],[-116.5027023,45.3382921],[-116.5023945,45.3381831],[-116.501856,45.338098],[-116.501519,45.3380766],[-116.5012764,45.3380652],[-116.5010249,45.3380129],[-116.5002232,45.3378828],[-116.4996545,45.3377587],[-116.4992216,45.3376992],[-116.4988314,45.3377405],[-116.4981742,45.3377315],[-116.4974135,45.3376282],[-116.4969196,45.3376151],[-116.4965325,45.3375283],[-116.4961374,45.3374372],[-116.4958137,45.3373096],[-116.4955044,45.3371959],[-116.4952311,45.3370189],[-116.4953899,45.3368835],[-116.4962103,45.3365806],[-116.4968703,45.3362926],[-116.4976126,45.3359025],[-116.4982062,45.3355411],[-116.4987372,45.3351602],[-116.4991468,45.3346882],[-116.4993702,45.3344173],[-116.4993971,45.3342099],[-116.4993435,45.3339082],[-116.4987211,45.3329127],[-116.498666,45.3326794],[-116.498822,45.3324645],[-116.4989533,45.3320808],[-116.4990132,45.3313729],[-116.4990286,45.3312266],[-116.4988997,45.3311062],[-116.4989317,45.3309037],[-116.498859,45.3308399],[-116.4987176,45.3308075],[-116.4985887,45.3307275],[-116.4985539,45.3306474],[-116.498692,45.3303993],[-116.4986533,45.3301176],[-116.4984959,45.3298919],[-116.498428,45.3295481],[-116.4983886,45.329315],[-116.4981329,45.3289749],[-116.4979648,45.3286813],[-116.4979023,45.3284959],[-116.4978521,45.3281006],[-116.4976054,45.3276819],[-116.497575,45.3274663],[-116.4974874,45.3273161],[-116.4972621,45.327037],[-116.4966505,45.3264184],[-116.4965271,45.3261318],[-116.4965478,45.3257936],[-116.496701,45.3254328],[-116.4971785,45.3251949],[-116.4975732,45.3251738],[-116.4981955,45.3253398],[-116.4985817,45.3253662],[-116.4987266,45.3254265],[-116.4992684,45.3255133],[-116.4998048,45.3255548],[-116.5002689,45.3255472],[-116.5016716,45.3250531],[-116.5018187,45.3248672],[-116.5019144,45.3248617],[-116.5020416,45.3248506],[-116.5022073,45.3248992],[-116.5023554,45.3249034],[-116.5024629,45.3249434],[-116.5024825,45.325003],[-116.5024497,45.3251518],[-116.5023847,45.3252905],[-116.5023138,45.3254132],[-116.502292,45.3254838],[-116.5022093,45.3256219],[-116.5022169,45.3256659],[-116.5022583,45.325662],[-116.5023923,45.3255881],[-116.5025326,45.3254972],[-116.5025988,45.3254655],[-116.5026224,45.3254944],[-116.5026211,45.3255519],[-116.5025933,45.325776],[-116.5026133,45.3258139],[-116.5026474,45.3258139],[-116.5026808,45.3257863],[-116.5028731,45.3256473],[-116.5030932,45.3255133],[-116.5031406,45.3255089],[-116.5031724,45.3255368],[-116.5032367,45.3256439],[-116.5032754,45.3256631],[-116.5033158,45.325651],[-116.503551,45.3254863],[-116.5037329,45.3254455],[-116.504008,45.3253568],[-116.5042465,45.3253699],[-116.5044254,45.3254146],[-116.5045319,45.3254543],[-116.5046456,45.3255012],[-116.5049992,45.3255135],[-116.5053239,45.3256132],[-116.5055451,45.3256323],[-116.5056884,45.3256775],[-116.5058187,45.3256896],[-116.5059857,45.3256634],[-116.5061453,45.3256626],[-116.5063331,45.3256552],[-116.50667,45.3256354],[-116.5069234,45.3255906],[-116.5072667,45.3255812],[-116.5075832,45.3255812],[-116.5077495,45.3255095],[-116.5078838,45.325413],[-116.5078979,45.3253517],[-116.5078675,45.3252983],[-116.5077658,45.3252168],[-116.5077753,45.325096],[-116.5076914,45.3250044],[-116.5076081,45.3248875],[-116.5075945,45.3248064],[-116.5077334,45.3247589],[-116.5079197,45.3247845],[-116.5080878,45.3248031],[-116.5082525,45.3248455],[-116.5083248,45.3248403],[-116.5084375,45.3247562],[-116.5086409,45.3247213],[-116.5088438,45.3246797],[-116.5090852,45.3246496],[-116.5091228,45.3246118],[-116.5091228,45.3245402],[-116.5089377,45.324395],[-116.5091146,45.3242369],[-116.5095057,45.3243203],[-116.5098224,45.324395],[-116.5099666,45.324415],[-116.5100406,45.3245069],[-116.5103484,45.3245468],[-116.5105954,45.3245483],[-116.5108089,45.324488],[-116.5110552,45.3244831],[-116.5113042,45.3245242],[-116.511602,45.3246002],[-116.511868,45.324693],[-116.5121138,45.3247871],[-116.5123587,45.3247998],[-116.5125906,45.3247788],[-116.5127939,45.3248384],[-116.5129175,45.3248402],[-116.5131912,45.3248967],[-116.5134764,45.324939],[-116.5136846,45.3248901],[-116.5138216,45.324853],[-116.5141364,45.3248729],[-116.514378,45.3248757],[-116.5147367,45.3250638],[-116.5150513,45.3251345],[-116.5154523,45.3251107],[-116.515741,45.3251642],[-116.5159934,45.3252521],[-116.516391,45.3251868],[-116.5165282,45.3250702],[-116.5167987,45.3247488],[-116.5170974,45.3246591],[-116.5174395,45.324781],[-116.5178901,45.3250374],[-116.5184051,45.3250299],[-116.5185928,45.3249733],[-116.5187426,45.3248083],[-116.5190556,45.324803],[-116.5196892,45.3247296],[-116.5200779,45.3247336],[-116.5202525,45.324771],[-116.5203088,45.3248229],[-116.5203885,45.3248693],[-116.5204705,45.3249108],[-116.5208435,45.3249245],[-116.5215593,45.3248403],[-116.5218931,45.324863],[-116.5221415,45.3248323],[-116.5223578,45.324795],[-116.5227921,45.3247416],[-116.5230539,45.3246936],[-116.5232758,45.3246377],[-116.5235564,45.3245003],[-116.5240345,45.3243376],[-116.5244498,45.3242816],[-116.5248177,45.3242882],[-116.5250814,45.3242736],[-116.5252521,45.3242136],[-116.5254076,45.3241789],[-116.5256827,45.3241175],[-116.5258306,45.3240202],[-116.5259919,45.3239735],[-116.5262574,45.3238868],[-116.5265229,45.3238268],[-116.5268245,45.3236321],[-116.5269995,45.3234809],[-116.5270591,45.3233672],[-116.5273061,45.3232474],[-116.5273223,45.3233446],[-116.5272286,45.3234105],[-116.5272797,45.3234763],[-116.5273819,45.3234404],[-116.5274585,45.3233746],[-116.5275863,45.3234644],[-116.5276288,45.3235841],[-116.5278162,45.3236619],[-116.5280461,45.3236979],[-116.5281483,45.3238116],[-116.5281653,45.3239673],[-116.5280461,45.3242128],[-116.5280716,45.3243505],[-116.5281994,45.3244642],[-116.5284208,45.3244942],[-116.5285485,45.3245959],[-116.5285059,45.3247277],[-116.5285996,45.3248115],[-116.5288551,45.3248235],[-116.5289317,45.3249193],[-116.5290765,45.3249731],[-116.5293575,45.3249791],[-116.5295107,45.3249312],[-116.5296725,45.3249133],[-116.5298429,45.3249791],[-116.5300217,45.3248833],[-116.5301068,45.3249312],[-116.5302857,45.325021],[-116.5303027,45.3251587],[-116.5305411,45.3252186],[-116.5307114,45.3253683],[-116.5307966,45.325506],[-116.5308051,45.3256377],[-116.5309158,45.3257095],[-116.5309414,45.3258233],[-116.5310776,45.3258532],[-116.5310691,45.325961],[-116.5310606,45.3260628],[-116.5312224,45.3261286],[-116.5313416,45.3262184],[-116.5312479,45.3262843],[-116.5313671,45.3263681],[-116.5315034,45.326404],[-116.5316481,45.326416],[-116.5317588,45.3265357],[-116.531844,45.326404],[-116.5320484,45.32641],[-116.5321676,45.3263142],[-116.5324145,45.3262424],[-116.5325423,45.3263262],[-116.5327551,45.3261705],[-116.532951,45.3261705],[-116.532968,45.3260089],[-116.5331383,45.325961],[-116.5331724,45.3257934],[-116.5334194,45.3256976],[-116.5333683,45.3255958],[-116.5334194,45.325494],[-116.5336237,45.3253623],[-116.5338366,45.3251947],[-116.534058,45.3250749],[-116.5342624,45.3250629],[-116.5344838,45.3250989],[-116.5347393,45.3250929],[-116.534884,45.325045],[-116.5350288,45.325039],[-116.5352076,45.3250749],[-116.5353609,45.3249911],[-116.5355993,45.325021],[-116.535957,45.3250929],[-116.536238,45.3251168],[-116.5365616,45.3250091],[-116.5367489,45.3248714],[-116.5367659,45.3246738],[-116.5369363,45.3244882],[-116.5372513,45.3243445],[-116.5376005,45.3243445],[-116.5378474,45.3243086],[-116.5380092,45.3242128],[-116.5382817,45.324087],[-116.5384861,45.3240751],[-116.5387415,45.3240691],[-116.5390396,45.3241409],[-116.5392695,45.3242427],[-116.5396101,45.3243265],[-116.5397975,45.3243385],[-116.5400614,45.3243385],[-116.5402658,45.3243026],[-116.5404361,45.3242008],[-116.5405128,45.324081],[-116.540596,45.323996]]}}]}
