{"type":"FeatureCollection","peaks_destination_id":"5Gutf9wHcrv6nY5QSH3O","peaks_trailhead_id":"BE26C53F8339934849AD","peaks_source_kind":"usgs-national-map","peaks_source":"https://partnerships.nationalmap.gov/arcgis/rest/services/USGSTrails/MapServer/0/query?where=objectid%3D2509666&outFields=*&returnGeometry=true&outSR=4326&f=geojson","peaks_license_name":"Public domain","peaks_license":"https://www.usgs.gov/faqs/what-are-terms-uselicensing-map-services-and-data-national-map","peaks_attribution":"Bureau of Land Management via U.S. Geological Survey, The National Map","peaks_retrieved_at":"2026-07-30T16:28:37.559Z","features":[{"type":"Feature","properties":{"name":"Sunshine Peak USGS route candidate","trailhead_name":"Silver Creek Trailhead","destination_name":"Sunshine Peak","distance_m":9464.539533281464,"trailhead_snap_m":27.784674193754498,"summit_snap_m":9.136362031843111,"osm_way_ids":[],"osm_way_urls":[],"usgs_object_id":2509666,"usgs_name":"Silver Creek Trail","usgs_originator":"Bureau of Land Management","usgs_source_feature_id":"13843","usgs_source_dataset_id":"{C5CD0108-C397-4893-A655-75DCB9F9C54C}"},"geometry":{"type":"LineString","coordinates":[[-107.4606919,37.9367867],[-107.46084376177339,37.937005997894076],[-107.46054024400996,37.93710959896966],[-107.4602115835227,37.937116475033804],[-107.45991405637,37.93707060213038],[-107.45964939380768,37.93702404172476],[-107.45941846354701,37.937002825070394],[-107.45915727495463,37.93706038447029],[-107.45896181450141,37.93711656469902],[-107.45876375195614,37.93709465845903],[-107.45870149049534,37.937200151185735],[-107.4584801050583,37.937465257486075],[-107.4584533134049,37.93764814917924],[-107.45833138945036,37.937937224226324],[-107.45817053005167,37.93804477633478],[-107.45810913317708,37.93817629614821],[-107.45778393936807,37.93828728472619],[-107.45752274035908,37.93834483787611],[-107.4571320121452,37.938305632688085],[-107.4570225100515,37.938434075420986],[-107.45692378191653,37.938544271275674],[-107.45679154231802,37.938673190051766],[-107.45668234126697,37.938810637994195],[-107.45647410791337,37.93904927554008],[-107.45624373601525,37.939306396423284],[-107.45621942355118,37.939700498561535],[-107.45596342143459,37.93991422777386],[-107.45557681408432,37.940156729915365],[-107.45531820883403,37.94029236849231],[-107.45499300044172,37.94040334873695],[-107.45476552644267,37.94048624147143],[-107.45463405766445,37.9404889852304],[-107.45438064409821,37.94078079778647],[-107.45419210033494,37.94104520929292],[-107.45333486262227,37.94079087077305],[-107.45293301985116,37.94102453333099],[-107.45265235730214,37.94113851669813],[-107.45239323642065,37.94121601151725],[-107.45215475928698,37.94122999590981],[-107.45176936962461,37.941274078232716],[-107.45148630810917,37.941316023048564],[-107.451019229881,37.94129872828519],[-107.45070116002194,37.94131436789147],[-107.45024784430419,37.941368870011914],[-107.44985287652037,37.941467209634396],[-107.44956083167725,37.941581428419],[-107.44925891704506,37.94174090450201],[-107.44904766076468,37.9418894816193],[-107.44882533469126,37.94204730040521],[-107.44862634820805,37.94222265460864],[-107.44843843047627,37.94238876922676],[-107.44830587108504,37.942508673418374],[-107.44810807418916,37.94272004429323],[-107.44799885022152,37.94285748494396],[-107.44783546583398,37.9430771506094],[-107.44762569914201,37.943270751690996],[-107.44750510433857,37.94340842671752],[-107.44733902410867,37.94354705174718],[-107.44713644282169,37.943614344477865],[-107.44681027817956,37.943729265348104],[-107.44637159893367,37.94388256956431],[-107.44610347909943,37.944032324810465],[-107.44601490200459,37.944106256076246],[-107.4458925134451,37.94418990192894],[-107.44578178947242,37.94428231549032],[-107.44566148737826,37.944428995726376],[-107.44560761862614,37.94452022595063],[-107.44546547173847,37.9446943905668],[-107.44534427380798,37.94481405725759],[-107.44527873317742,37.94489651873135],[-107.44515693941159,37.94499817291979],[-107.44485678936873,37.945211671926664],[-107.44477957894297,37.94528536465002],[-107.44465748205116,37.94537801467057],[-107.44457069246238,37.94550597198522],[-107.44447312891478,37.94565217930307],[-107.44438514557197,37.94574411786291],[-107.44422982888413,37.94586448976443],[-107.4440954684452,37.94593036165711],[-107.44392728716656,37.94600594813668],[-107.44376988401342,37.94606328461312],[-107.44353407251383,37.94615829609976],[-107.44306096096791,37.94630329406706],[-107.44270733175583,37.946603395172495],[-107.44240960254643,37.94681315147038],[-107.44219600355873,37.94697592338137],[-107.44202071708007,37.94714543591577],[-107.44185091499493,37.94748071097227],[-107.44168414101493,37.947619888085384],[-107.44152737953867,37.94777393707479],[-107.44132204617378,37.947898835021874],[-107.44119133157024,37.94797694649932],[-107.44089134714497,37.94811888820483],[-107.44066647835649,37.94821831531634],[-107.44037767206608,37.94843156432246],[-107.4401882314126,37.94855264039296],[-107.44007540951617,37.94858201540432],[-107.43988358447969,37.94863104979853],[-107.43969264382294,37.9487243227403],[-107.43932380729244,37.948799833191394],[-107.4391557020543,37.94886397904442],[-107.43913582705079,37.948871831130084],[-107.43888458013988,37.94905021450404],[-107.43854174676201,37.949336293731854],[-107.43778423205758,37.949751605296015],[-107.43676905479543,37.950149632499745],[-107.43658019645619,37.950485296099195],[-107.43593036925444,37.9507023305462],[-107.43548010980311,37.95090768997849],[-107.43498905345935,37.95103095461067],[-107.43443251375534,37.95103285464745],[-107.43430980331986,37.95110748383225],[-107.43418530537829,37.95112808488485],[-107.43406051160244,37.95113967760296],[-107.43392404907306,37.951142502612264],[-107.43359366775017,37.95113132034075],[-107.43337641353304,37.95109977243409],[-107.4331376009817,37.95110471411706],[-107.43295594573523,37.95111748496401],[-107.43278566549124,37.95113002039354],[-107.4325707873238,37.95117051103811],[-107.43221855287399,37.951186806896715],[-107.43194473510393,37.95116543816178],[-107.43155838398013,37.951182441314415],[-107.43133064851358,37.95117813924545],[-107.43101282448879,37.95120273301963],[-107.43042623062769,37.95135903724588],[-107.429806706555,37.95155206335428],[-107.4293119700082,37.951733496744595],[-107.42888368867835,37.951859491581395],[-107.42867058343363,37.951954004108124],[-107.42848051986145,37.95205705100957],[-107.42825693128397,37.952178812499],[-107.42794770208,37.952464544849576],[-107.42773963539403,37.95271213968839],[-107.42749478223335,37.95287939389374],[-107.42734868120623,37.95332183250487],[-107.42696062384553,37.953468101300075],[-107.42661391231988,37.9535443877915],[-107.42618222682484,37.95369155450634],[-107.42540269438362,37.95388046083302],[-107.42501462764795,37.95402672441989],[-107.42467132342551,37.95420662759179],[-107.42423622437725,37.954250162001195],[-107.42388950868487,37.95432644015926],[-107.4234544065116,37.954369973527],[-107.42306065850663,37.95434352250754],[-107.42284254283472,37.954348018355816],[-107.42249695735457,37.954458831935135],[-107.42208865415184,37.95456352468436],[-107.42201145101681,37.95462791948983],[-107.42175803532963,37.95455986637224],[-107.42161340092572,37.95458377888495],[-107.42144151335796,37.95429280594019],[-107.4213242393631,37.9541870871836],[-107.42125205079105,37.95404690696104],[-107.42075569024357,37.95382684029713],[-107.42038835054727,37.953509906945015],[-107.42013288068647,37.95337909027734],[-107.41995324312263,37.953142030882056],[-107.41957116179373,37.95318129549576],[-107.41930128361368,37.953215637184755],[-107.41903295125118,37.953095545519446],[-107.41884044910235,37.95286921945979],[-107.41860934694851,37.95267508924033],[-107.41834307394696,37.95241625901443],[-107.41776438316357,37.95210366526011],[-107.4173476497176,37.951892413175486],[-107.41684994541545,37.95163048713098],[-107.41678115060022,37.95154816004102],[-107.41672384953199,37.95141325898484],[-107.41675593805648,37.95118231207652],[-107.41651541297492,37.95090201413769],[-107.4159640055756,37.95101802043953],[-107.41587221701634,37.95104084440697],[-107.41575161073497,37.95099098086645],[-107.41530847207497,37.95078026524196],[-107.41510757202298,37.95070065170272],[-107.41454916351594,37.950199207921465],[-107.4143038436474,37.94997395790709],[-107.41435258320708,37.94964584327616],[-107.41449104675661,37.949433649488334],[-107.41469863845592,37.94931424529191],[-107.41494072285455,37.949037113988545],[-107.41563503027696,37.94884490454198],[-107.41568444381826,37.94873921285782],[-107.41551941355367,37.94854372013382],[-107.41499170821295,37.948373990978766],[-107.41469834980775,37.9482962774458],[-107.41452559351735,37.948268421203394],[-107.41441453619643,37.94821964932904],[-107.41428767991353,37.94816818683038],[-107.4142882944909,37.9481101586975],[-107.41431338406859,37.94800408888982],[-107.41440532678646,37.9479041847036],[-107.414505797628,37.94777394613776],[-107.41489464353077,37.94763017005114],[-107.41479600807321,37.94744377940738],[-107.41472824763653,37.947392831488266],[-107.4148016820087,37.94721337625081],[-107.41483411740936,37.94699288976052],[-107.41494649449608,37.94679169701761],[-107.41501821636247,37.946559936564846],[-107.41504189552548,37.946475710510256],[-107.41518206220586,37.94631581568777],[-107.41525618095538,37.9461572812864],[-107.41458783184359,37.9460779688195],[-107.41457941100833,37.946076969861565],[-107.4160444904231,37.94540573946641],[-107.41629444151529,37.94536920090339],[-107.41656463946708,37.94514382898019],[-107.41676826971569,37.94510562271167],[-107.41765675742182,37.945231225795425],[-107.4183074200686,37.94528329242654],[-107.41903632856634,37.94534161321995],[-107.41848068048532,37.94492387257481],[-107.41899515559376,37.94489235378685],[-107.41830604706298,37.94443548710351],[-107.41824531994146,37.94419597874177],[-107.41842012623891,37.94428659436759],[-107.41846815748394,37.94413905892782],[-107.41861757836254,37.94426159747625],[-107.4186395356447,37.94412506620635],[-107.4189884649039,37.94428537141348],[-107.41899069195271,37.94395036303467],[-107.41945249832146,37.94412666198663],[-107.41946021809729,37.94395902342173],[-107.41967568169842,37.94408020050735],[-107.41967019001306,37.943912830693385],[-107.41999510364978,37.94414689945378],[-107.4200515369646,37.94385264524362],[-107.42025619640445,37.944047317131535],[-107.42031400264062,37.94379490563524],[-107.42072382772984,37.943796937900316],[-107.42096056111079,37.94376066183822],[-107.42122027573578,37.94361923471879],[-107.42143092679947,37.94339246071594],[-107.42166044453097,37.94313651274958],[-107.42161291949556,37.942896737720254],[-107.42181395700601,37.94257856891401],[-107.42210539036263,37.94219573342643],[-107.4219872184089,37.941687858365476],[-107.42175162139847,37.94088148848009],[-107.42152585253292,37.940244995700375],[-107.42106953149433,37.9392285674677],[-107.42102200539622,37.93878729032777],[-107.4213943929214,37.93825362564784],[-107.42170673355668,37.93770287971944],[-107.42204926900223,37.937266655679636],[-107.4223657148388,37.93663993057411],[-107.42250000858272,37.93630220343628],[-107.4223931283055,37.93586476380068],[-107.42243496682116,37.93552893979416],[-107.4224461032543,37.93526440538266],[-107.42216855836034,37.93486188451302],[-107.4220942770681,37.93461219177574],[-107.42190113325033,37.93436494800491],[-107.42187539676763,37.93418491048224],[-107.4217769227269,37.93360075311795],[-107.42183040492704,37.93261307902243],[-107.42194804759376,37.93196951746925],[-107.42229878929625,37.93158284239393],[-107.42238933093428,37.93112040274205],[-107.42254633714596,37.93042644638785],[-107.42291675588778,37.92957754833198],[-107.42355112989037,37.92868114712743],[-107.42423724139438,37.92769136257348],[-107.42444182679392,37.9271011864385],[-107.42505929769857,37.926499567566644],[-107.42568225607974,37.92566122782905],[-107.42586688415665,37.92481615374419],[-107.42563901522375,37.92353791921106],[-107.42550001097395,37.92303025560976],[-107.42550496824046,37.92277892953375],[-107.425609,37.922783]]}}]}
