{"type":"FeatureCollection","peaks_destination_id":"7FqoDdqPnf090rhSpRhA","peaks_trailhead_id":"7AE748046571E2278918","peaks_source":"https://www.openstreetmap.org/","peaks_retrieval_source":"https://overpass-api.de/api/interpreter","peaks_license_name":"Open Data Commons Open Database License (ODbL) 1.0","peaks_license":"https://opendatacommons.org/licenses/odbl/1-0/","peaks_attribution":"© OpenStreetMap contributors","peaks_retrieved_at":"2026-07-30T17:56:49.379Z","features":[{"type":"Feature","properties":{"name":"Volcán Tajumulco OSM route candidate","trailhead_name":"Llano de la Guardia Trailhead","destination_name":"Volcán Tajumulco","distance_m":6197.530317153623,"trailhead_snap_m":0,"summit_snap_m":2.3095757342292633,"osm_way_ids":[126263507,878651834,1120225708,1120225709,878651835,878651836,878651837,878651838,1120225562],"osm_way_urls":["https://www.openstreetmap.org/way/126263507","https://www.openstreetmap.org/way/878651834","https://www.openstreetmap.org/way/1120225708","https://www.openstreetmap.org/way/1120225709","https://www.openstreetmap.org/way/878651835","https://www.openstreetmap.org/way/878651836","https://www.openstreetmap.org/way/878651837","https://www.openstreetmap.org/way/878651838","https://www.openstreetmap.org/way/1120225562"],"osm_way_names":["Sendero Volcán Tajumulco"],"osm_foot_access_override_way_ids":[]},"geometry":{"type":"LineString","coordinates":[[-91.8703957,15.0735586],[-91.8703957,15.0735586],[-91.870636,15.073478],[-91.8708943,15.0734187],[-91.8710276,15.0733381],[-91.8711625,15.0731908],[-91.8713387,15.073162],[-91.8719127,15.0732915],[-91.8721863,15.0732397],[-91.8723695,15.072994],[-91.8723258,15.0728461],[-91.8722354,15.0728282],[-91.8719618,15.0728075],[-91.8713709,15.0724472],[-91.8711688,15.0722013],[-91.8711296,15.0718499],[-91.8711331,15.0716068],[-91.8710917,15.0711949],[-91.8710205,15.070782],[-91.871038,15.0706875],[-91.8710882,15.0705891],[-91.871155,15.0704984],[-91.871273,15.0704253],[-91.8714601,15.0703532],[-91.8715572,15.070227],[-91.8717349,15.0700535],[-91.8718416,15.0699558],[-91.8719863,15.0698757],[-91.872125,15.0697684],[-91.872289,15.0695881],[-91.8726543,15.0692516],[-91.8732265,15.0686894],[-91.8735435,15.0682826],[-91.8739037,15.0679124],[-91.8746601,15.0669075],[-91.8748211,15.0668039],[-91.8750195,15.0666382],[-91.8753213,15.0661772],[-91.8755868,15.0658275],[-91.8756155,15.0656498],[-91.8752287,15.0654105],[-91.8749812,15.0651176],[-91.8748524,15.0649285],[-91.8748534,15.0648327],[-91.8750304,15.0647473],[-91.8758081,15.0639497],[-91.8758395,15.0638692],[-91.8757912,15.0638122],[-91.8755122,15.0635117],[-91.8755015,15.0634444],[-91.8757223,15.0632038],[-91.8760014,15.062955],[-91.8759799,15.0626131],[-91.8760014,15.0622712],[-91.8764949,15.0609865],[-91.8768489,15.0608518],[-91.8770743,15.0600334],[-91.8773854,15.0586554],[-91.8784314,15.0571583],[-91.878748,15.0567906],[-91.8797565,15.056314],[-91.8798959,15.0556302],[-91.8803895,15.0551122],[-91.8807542,15.0547495],[-91.8813658,15.0543351],[-91.8817628,15.0542833],[-91.8825674,15.0547599],[-91.8830395,15.0552158],[-91.884166,15.0555059],[-91.8843162,15.0548842],[-91.8845523,15.0545423],[-91.8852711,15.0537446],[-91.8859685,15.0533094],[-91.8861938,15.0532265],[-91.8864727,15.0525945],[-91.8876743,15.0512062],[-91.8885434,15.0506467],[-91.889348,15.0499732],[-91.8900883,15.0488957],[-91.8906033,15.0487403],[-91.8912792,15.0481912],[-91.8933928,15.0472172],[-91.8936932,15.0468857],[-91.8938138,15.0468494],[-91.894294,15.0468028],[-91.8945107,15.0466486],[-91.8949056,15.0463676],[-91.8961609,15.0457563],[-91.8967992,15.0453212],[-91.8972713,15.0453471],[-91.8976253,15.0449585],[-91.8981028,15.044684],[-91.8983388,15.044741],[-91.8983978,15.0445752],[-91.8990791,15.0443783],[-91.8998408,15.0443006],[-91.9000983,15.0443887],[-91.9005275,15.0446218],[-91.9010586,15.0444664],[-91.9017828,15.0446322],[-91.9023407,15.0449741],[-91.9026464,15.0449119],[-91.902861,15.0446425],[-91.9030541,15.0446218],[-91.9033867,15.0443628],[-91.9041753,15.0442695],[-91.9044918,15.0440209],[-91.9043362,15.0437204],[-91.9041377,15.0436582],[-91.9037032,15.0432956],[-91.9036335,15.0431246],[-91.9036275,15.043072],[-91.9036488,15.0430335],[-91.90367,15.04303]]}}]}
