{"type":"FeatureCollection","peaks_destination_id":"7FqoDdqPnf090rhSpRhA","peaks_trailhead_id":"draft-trailhead","peaks_source":"https://www.openstreetmap.org/","peaks_retrieval_source":"https://overpass-api.de/api/interpreter","peaks_license_name":"Open Data Commons Open Database License (ODbL) 1.0","peaks_license":"https://opendatacommons.org/licenses/odbl/1-0/","peaks_attribution":"© OpenStreetMap contributors","peaks_retrieved_at":"2026-07-30T17:48:34.199Z","features":[{"type":"Feature","properties":{"name":"Volcán Tajumulco OSM route candidate","trailhead_name":"Llano de la Guardia Trailhead","destination_name":"Volcán Tajumulco","distance_m":11426.283875266297,"trailhead_snap_m":16.348389025180097,"summit_snap_m":2.3095757342292633,"osm_way_ids":[494279891,494279892,494279896,1329910606,494279897,1329911375,1329911376,1329912098,1337813166,389983279,1329292784,995648300,995648630,995649002,995649001,1111786315,1329242471,126263507,878651834,1120225708,1120225709,878651835,878651836,878651837,878651838,1120225562],"osm_way_urls":["https://www.openstreetmap.org/way/494279891","https://www.openstreetmap.org/way/494279892","https://www.openstreetmap.org/way/494279896","https://www.openstreetmap.org/way/1329910606","https://www.openstreetmap.org/way/494279897","https://www.openstreetmap.org/way/1329911375","https://www.openstreetmap.org/way/1329911376","https://www.openstreetmap.org/way/1329912098","https://www.openstreetmap.org/way/1337813166","https://www.openstreetmap.org/way/389983279","https://www.openstreetmap.org/way/1329292784","https://www.openstreetmap.org/way/995648300","https://www.openstreetmap.org/way/995648630","https://www.openstreetmap.org/way/995649002","https://www.openstreetmap.org/way/995649001","https://www.openstreetmap.org/way/1111786315","https://www.openstreetmap.org/way/1329242471","https://www.openstreetmap.org/way/126263507","https://www.openstreetmap.org/way/878651834","https://www.openstreetmap.org/way/1120225708","https://www.openstreetmap.org/way/1120225709","https://www.openstreetmap.org/way/878651835","https://www.openstreetmap.org/way/878651836","https://www.openstreetmap.org/way/878651837","https://www.openstreetmap.org/way/878651838","https://www.openstreetmap.org/way/1120225562"],"osm_way_names":["Sendero Volcán Tajumulco"],"osm_foot_access_override_way_ids":[]},"geometry":{"type":"LineString","coordinates":[[-91.8436,15.0714],[-91.843676,15.0715274],[-91.8436128,15.0718187],[-91.843598,15.0719454],[-91.8435922,15.0720842],[-91.8435795,15.0724031],[-91.8435877,15.0727389],[-91.8436048,15.0729029],[-91.8436316,15.0730458],[-91.8437647,15.0735979],[-91.8438094,15.0736961],[-91.8438827,15.0735687],[-91.8440179,15.0734054],[-91.8441375,15.0732758],[-91.8442554,15.0731792],[-91.8444409,15.073076],[-91.844604,15.0729365],[-91.8447179,15.072806],[-91.8447665,15.0727206],[-91.8447921,15.072633],[-91.8448215,15.0724537],[-91.8448625,15.0723666],[-91.8449843,15.0722517],[-91.8450753,15.0721802],[-91.8451747,15.0721041],[-91.8452852,15.0720365],[-91.8456711,15.0718585],[-91.8457359,15.0718137],[-91.8457764,15.0717694],[-91.8458237,15.0716909],[-91.8459147,15.0715953],[-91.8462115,15.0714196],[-91.8465113,15.0712706],[-91.846713,15.0711847],[-91.8467867,15.0712002],[-91.846859,15.071202],[-91.8469519,15.0711633],[-91.8470568,15.0711052],[-91.8473151,15.0709866],[-91.8474326,15.0709745],[-91.8476728,15.0708865],[-91.8478487,15.0707649],[-91.8480166,15.0706992],[-91.8484504,15.0704853],[-91.8486631,15.0703891],[-91.8486315,15.0703085],[-91.8485769,15.0702784],[-91.8486256,15.0702717],[-91.8486984,15.0702647],[-91.8488511,15.0702436],[-91.8489821,15.0702366],[-91.8491041,15.0702339],[-91.8491866,15.0702574],[-91.8492695,15.0703189],[-91.8494076,15.070432],[-91.8495183,15.0705061],[-91.8497183,15.0705813],[-91.8499599,15.070682],[-91.8501108,15.070751],[-91.8503112,15.0708411],[-91.8504786,15.0709365],[-91.8505939,15.0709945],[-91.8506464,15.0710604],[-91.8506227,15.0711347],[-91.8505503,15.0711982],[-91.8504374,15.0712432],[-91.8503774,15.0712751],[-91.8502346,15.0713546],[-91.8500453,15.0714315],[-91.8498888,15.0714765],[-91.8497701,15.0715144],[-91.849696,15.0715489],[-91.8496109,15.0716363],[-91.8495149,15.0717609],[-91.849427,15.0718324],[-91.8493419,15.0718987],[-91.8492505,15.0719839],[-91.8491946,15.0720528],[-91.8491691,15.0721078],[-91.8491883,15.0721625],[-91.8492542,15.072223],[-91.849303,15.0722513],[-91.8495273,15.0722248],[-91.849817,15.0722165],[-91.8500415,15.0721993],[-91.8503362,15.0721523],[-91.8505165,15.0720922],[-91.8508298,15.0720715],[-91.8511023,15.0720611],[-91.8513297,15.0721129],[-91.8514349,15.072202],[-91.8514692,15.072318],[-91.8515507,15.0724507],[-91.8516291,15.0725331],[-91.8516858,15.0725229],[-91.851727,15.0724729],[-91.8518418,15.0724584],[-91.8520929,15.0724708],[-91.8523375,15.0724532],[-91.8525768,15.0723973],[-91.8527838,15.0724087],[-91.8529748,15.0724087],[-91.853184,15.0723962],[-91.8533782,15.072333],[-91.853399,15.0722986],[-91.8535038,15.0723244],[-91.8536291,15.0723417],[-91.8537152,15.0722914],[-91.8537949,15.0722114],[-91.8539283,15.0721768],[-91.8541332,15.0721595],[-91.8542925,15.0721611],[-91.8544405,15.07218],[-91.8545966,15.0722805],[-91.8546519,15.0723668],[-91.8547511,15.0724343],[-91.854878,15.0724893],[-91.854904,15.0725285],[-91.8549999,15.0725658],[-91.8550395,15.0725972],[-91.8551259,15.0726916],[-91.8552208,15.0727831],[-91.8553073,15.0728581],[-91.855889,15.0734215],[-91.8558196,15.0735774],[-91.8557941,15.0737305],[-91.8558437,15.0738227],[-91.8558787,15.0738083],[-91.8561085,15.0737135],[-91.856434,15.0734865],[-91.8567884,15.0732629],[-91.8570131,15.0731235],[-91.8571727,15.0729797],[-91.8573324,15.0729196],[-91.8574488,15.0728987],[-91.8576545,15.0729301],[-91.8577485,15.0729189],[-91.8577774,15.0729155],[-91.8581028,15.0727714],[-91.858409,15.0726864],[-91.8586995,15.0726629],[-91.8587545,15.072581],[-91.8589161,15.0725463],[-91.8591029,15.0725215],[-91.8593364,15.0724403],[-91.8593878,15.0723614],[-91.8596493,15.0722307],[-91.8600323,15.0721112],[-91.8602424,15.072057],[-91.8605833,15.0718879],[-91.8608799,15.0717639],[-91.860992,15.0716715],[-91.8612558,15.0715362],[-91.8613936,15.0714686],[-91.8614823,15.071455],[-91.8616504,15.0713333],[-91.8617228,15.0712679],[-91.8617438,15.0712341],[-91.8616925,15.0711529],[-91.8616785,15.0710785],[-91.8617415,15.0710154],[-91.8619563,15.0709139],[-91.862568,15.0706618],[-91.862464,15.0705425],[-91.8624188,15.0704433],[-91.8624476,15.0703043],[-91.8624846,15.0701494],[-91.8625175,15.0700302],[-91.8624969,15.069923],[-91.8624105,15.0699667],[-91.8621967,15.0701216],[-91.8619047,15.0701891],[-91.8616661,15.0702884],[-91.8613865,15.0703678],[-91.861333,15.0703082],[-91.8612437,15.0702161],[-91.861221,15.0701927],[-91.8610735,15.0700853],[-91.8608321,15.0700127],[-91.8606471,15.0699894],[-91.8605129,15.0699894],[-91.8604164,15.0699558],[-91.8603668,15.0699104],[-91.8603413,15.0698781],[-91.8603306,15.0698146],[-91.8603426,15.0696501],[-91.8604204,15.0695297],[-91.8605116,15.0694222],[-91.8605518,15.0693601],[-91.8605438,15.0693134],[-91.86047,15.0692772],[-91.8603681,15.0692513],[-91.8600985,15.0692021],[-91.8599001,15.0691943],[-91.8596882,15.0691788],[-91.8596023,15.0691218],[-91.859597,15.0690674],[-91.8594575,15.0689819],[-91.8592845,15.068943],[-91.8591933,15.0689677],[-91.859086,15.068969],[-91.8590029,15.0689249],[-91.8588955,15.0687825],[-91.8588204,15.068552],[-91.8587521,15.0684277],[-91.8586716,15.0683526],[-91.8583873,15.0681155],[-91.8582827,15.0680495],[-91.8582223,15.0679925],[-91.8584355,15.0679032],[-91.8587869,15.0677478],[-91.8589049,15.0676986],[-91.8590672,15.0676623],[-91.8592402,15.0675069],[-91.8593716,15.067424],[-91.8594387,15.0673451],[-91.8595138,15.0672026],[-91.8596185,15.0669177],[-91.8596318,15.066783],[-91.859723,15.0665551],[-91.8600342,15.0661251],[-91.8602863,15.0658946],[-91.8604258,15.0658092],[-91.8606068,15.0656965],[-91.8612223,15.0655165],[-91.8619286,15.0653343],[-91.8620581,15.0653187],[-91.8623536,15.0652832],[-91.8630238,15.0652375],[-91.863075,15.0652326],[-91.8633843,15.0652033],[-91.8635778,15.0652012],[-91.8639072,15.0651284],[-91.864323,15.0649881],[-91.864677,15.0648568],[-91.8649332,15.0646877],[-91.8650097,15.0645802],[-91.865074,15.0644649],[-91.8651424,15.0644365],[-91.8652954,15.0642992],[-91.8654777,15.0641581],[-91.8655635,15.0641477],[-91.8656869,15.0641684],[-91.8659095,15.0642798],[-91.8661885,15.064509],[-91.8663079,15.0645608],[-91.8666082,15.0646229],[-91.8669046,15.0646967],[-91.8670763,15.0648521],[-91.8673043,15.064935],[-91.8675323,15.064961],[-91.8677509,15.0649467],[-91.8681157,15.0648665],[-91.8681709,15.06482],[-91.8684939,15.064724],[-91.8689176,15.0645737],[-91.8690249,15.0645038],[-91.8691349,15.0645194],[-91.8694192,15.0645996],[-91.8697572,15.0646074],[-91.869902,15.0646178],[-91.8699557,15.064711],[-91.8699718,15.0649648],[-91.869843,15.0653223],[-91.8696445,15.0655191],[-91.8695775,15.065659],[-91.8695909,15.0657315],[-91.8696982,15.0658662],[-91.8700388,15.0661096],[-91.8706745,15.0664645],[-91.8707764,15.0665085],[-91.8708757,15.0666717],[-91.8709803,15.0668814],[-91.8711224,15.0670446],[-91.8716937,15.0675756],[-91.8719164,15.0680967],[-91.8721824,15.0685981],[-91.8722168,15.0688827],[-91.872289,15.0695881],[-91.8726543,15.0692516],[-91.8732265,15.0686894],[-91.8735435,15.0682826],[-91.8739037,15.0679124],[-91.8746601,15.0669075],[-91.8748211,15.0668039],[-91.8750195,15.0666382],[-91.8753213,15.0661772],[-91.8755868,15.0658275],[-91.8756155,15.0656498],[-91.8752287,15.0654105],[-91.8749812,15.0651176],[-91.8748524,15.0649285],[-91.8748534,15.0648327],[-91.8750304,15.0647473],[-91.8758081,15.0639497],[-91.8758395,15.0638692],[-91.8757912,15.0638122],[-91.8755122,15.0635117],[-91.8755015,15.0634444],[-91.8757223,15.0632038],[-91.8760014,15.062955],[-91.8759799,15.0626131],[-91.8760014,15.0622712],[-91.8764949,15.0609865],[-91.8768489,15.0608518],[-91.8770743,15.0600334],[-91.8773854,15.0586554],[-91.8784314,15.0571583],[-91.878748,15.0567906],[-91.8797565,15.056314],[-91.8798959,15.0556302],[-91.8803895,15.0551122],[-91.8807542,15.0547495],[-91.8813658,15.0543351],[-91.8817628,15.0542833],[-91.8825674,15.0547599],[-91.8830395,15.0552158],[-91.884166,15.0555059],[-91.8843162,15.0548842],[-91.8845523,15.0545423],[-91.8852711,15.0537446],[-91.8859685,15.0533094],[-91.8861938,15.0532265],[-91.8864727,15.0525945],[-91.8876743,15.0512062],[-91.8885434,15.0506467],[-91.889348,15.0499732],[-91.8900883,15.0488957],[-91.8906033,15.0487403],[-91.8912792,15.0481912],[-91.8933928,15.0472172],[-91.8936932,15.0468857],[-91.8938138,15.0468494],[-91.894294,15.0468028],[-91.8945107,15.0466486],[-91.8949056,15.0463676],[-91.8961609,15.0457563],[-91.8967992,15.0453212],[-91.8972713,15.0453471],[-91.8976253,15.0449585],[-91.8981028,15.044684],[-91.8983388,15.044741],[-91.8983978,15.0445752],[-91.8990791,15.0443783],[-91.8998408,15.0443006],[-91.9000983,15.0443887],[-91.9005275,15.0446218],[-91.9010586,15.0444664],[-91.9017828,15.0446322],[-91.9023407,15.0449741],[-91.9026464,15.0449119],[-91.902861,15.0446425],[-91.9030541,15.0446218],[-91.9033867,15.0443628],[-91.9041753,15.0442695],[-91.9044918,15.0440209],[-91.9043362,15.0437204],[-91.9041377,15.0436582],[-91.9037032,15.0432956],[-91.9036335,15.0431246],[-91.9036275,15.043072],[-91.9036488,15.0430335],[-91.90367,15.04303]]}}]}
