{"type":"FeatureCollection","peaks_destination_id":"t8zOBqL7Otn3fKQ9NAqB","peaks_trailhead_id":"6FA871F2C3930D12AF08","peaks_source":"https://api.openstreetmap.org/api/0.6","peaks_license_name":"Open Data Commons Open Database License (ODbL) 1.0","peaks_license":"https://opendatacommons.org/licenses/odbl/1-0/","peaks_attribution":"© OpenStreetMap contributors","peaks_retrieved_at":"2026-07-30T16:15:59.358Z","features":[{"type":"Feature","properties":{"name":"Wetterhorn Peak OSM route candidate","trailhead_name":"Matterhorn Creek Trailhead","destination_name":"Wetterhorn Peak","distance_m":4825.437017111141,"trailhead_snap_m":0,"summit_snap_m":5.4467619517321655,"osm_way_ids":[383797267,885314791,1318325614],"osm_way_urls":["https://www.openstreetmap.org/way/383797267","https://www.openstreetmap.org/way/885314791","https://www.openstreetmap.org/way/1318325614"],"osm_way_names":["Ridge Stock Driveway Trail 233","Wetterhorn Peak Climber's Route"],"osm_foot_access_override_way_ids":[885314791,1318325614]},"geometry":{"type":"LineString","coordinates":[[-107.4912806,38.0306545],[-107.4912806,38.0306545],[-107.4912169,38.0306879],[-107.4911786,38.0307838],[-107.4911664,38.0309676],[-107.4912186,38.0311828],[-107.4912935,38.0313857],[-107.4914083,38.0315585],[-107.4915006,38.0317902],[-107.4915093,38.0320082],[-107.4915284,38.0321288],[-107.4917042,38.032292],[-107.4917843,38.032462],[-107.491833,38.0326429],[-107.4919601,38.0331502],[-107.4919323,38.0333339],[-107.4919114,38.0334628],[-107.4917756,38.0339947],[-107.4916823,38.0343972],[-107.4916474,38.0347299],[-107.491761,38.0350488],[-107.4919095,38.0352255],[-107.4920299,38.0353506],[-107.49223,38.0354824],[-107.4923494,38.0356889],[-107.492329,38.0359321],[-107.4923261,38.0362373],[-107.492262,38.0366067],[-107.4922533,38.0367466],[-107.4923378,38.0368705],[-107.4925824,38.0371848],[-107.4927805,38.0375015],[-107.4928971,38.0376483],[-107.4929349,38.0378984],[-107.4931055,38.0381755],[-107.4932278,38.0385449],[-107.4933211,38.0388569],[-107.4932563,38.0390418],[-107.4931142,38.0391635],[-107.4928835,38.0392381],[-107.4927516,38.0392348],[-107.4922779,38.0391991],[-107.4920369,38.0391667],[-107.4919421,38.0391213],[-107.4917094,38.0389509],[-107.491627,38.0389055],[-107.491592,38.0389023],[-107.4915611,38.0389428],[-107.4916126,38.0390385],[-107.4918206,38.0395836],[-107.4919896,38.0398452],[-107.4922372,38.0402283],[-107.4922459,38.0403063],[-107.4921935,38.0405151],[-107.4922634,38.0407216],[-107.4929596,38.0415498],[-107.49328,38.041715],[-107.4937374,38.0420614],[-107.4939296,38.0422105],[-107.4941539,38.0425478],[-107.4943579,38.0428575],[-107.4945594,38.0432546],[-107.4946298,38.0434111],[-107.4947234,38.0439753],[-107.494793,38.0442034],[-107.4947748,38.0443143],[-107.4947019,38.0444253],[-107.4946714,38.0445399],[-107.4947273,38.044629],[-107.4948408,38.0447838],[-107.4948699,38.0448652],[-107.494851,38.0449157],[-107.4947548,38.0450143],[-107.4937551,38.0456796],[-107.493321,38.0459021],[-107.4931521,38.0462164],[-107.4930938,38.0464091],[-107.4931317,38.0467005],[-107.4933298,38.0470675],[-107.4933144,38.0474533],[-107.493189,38.0479877],[-107.4931909,38.048483],[-107.4929678,38.0488633],[-107.4927783,38.0494794],[-107.4927783,38.0498789],[-107.492786,38.04998],[-107.4929035,38.0499809],[-107.4933688,38.049814],[-107.4948741,38.0496625],[-107.4949705,38.0497459],[-107.4965748,38.0507095],[-107.4968107,38.0508567],[-107.4969548,38.0508406],[-107.4984971,38.0510045],[-107.4996965,38.0521382],[-107.5002461,38.0526726],[-107.5015265,38.0541956],[-107.5021184,38.0555967],[-107.50218,38.0556416],[-107.5026402,38.0556862],[-107.5037793,38.0555891],[-107.5053034,38.0553976],[-107.5065443,38.0557326],[-107.5071757,38.056101],[-107.5084983,38.0568219],[-107.5087308,38.0571645],[-107.5093287,38.0576715],[-107.5107097,38.0594372],[-107.5107901,38.0595975],[-107.5109731,38.0604284],[-107.5109709,38.0606675],[-107.510915,38.060689]]}}]}
