{"type":"FeatureCollection","peaks_destination_id":"i6txA8Zm2g849hxUyogx","peaks_trailhead_id":"C5A6710FC6BA42003B7E","peaks_source":"https://www.openstreetmap.org/","peaks_retrieval_source":"https://api.openstreetmap.org/api/0.6","peaks_license_name":"Open Data Commons Open Database License (ODbL) 1.0","peaks_license":"https://opendatacommons.org/licenses/odbl/1-0/","peaks_attribution":"© OpenStreetMap contributors","peaks_retrieved_at":"2026-07-30T20:06:09.029Z","features":[{"type":"Feature","properties":{"name":"Aconcagua OSM route candidate","trailhead_name":"Horcones Entrance Trailhead","destination_name":"Aconcagua","distance_m":34230.57126656475,"trailhead_snap_m":0,"summit_snap_m":11.912218448983763,"osm_way_ids":[781919445,781919442,345632096,134586076,345632085,297120948,345632088,297120950,345632079,785164816,137187346,137187347,137187351,120463754,553087879,553087880,345634341,345634339,785951905,785951942,345629275,785937028,785937029,785937030,137187345,785936965,785936967,785936966,785958694,553085287,553085289,553085288,137187348,785937039,553085284,553085283,785937040,553085282],"osm_way_urls":["https://www.openstreetmap.org/way/781919445","https://www.openstreetmap.org/way/781919442","https://www.openstreetmap.org/way/345632096","https://www.openstreetmap.org/way/134586076","https://www.openstreetmap.org/way/345632085","https://www.openstreetmap.org/way/297120948","https://www.openstreetmap.org/way/345632088","https://www.openstreetmap.org/way/297120950","https://www.openstreetmap.org/way/345632079","https://www.openstreetmap.org/way/785164816","https://www.openstreetmap.org/way/137187346","https://www.openstreetmap.org/way/137187347","https://www.openstreetmap.org/way/137187351","https://www.openstreetmap.org/way/120463754","https://www.openstreetmap.org/way/553087879","https://www.openstreetmap.org/way/553087880","https://www.openstreetmap.org/way/345634341","https://www.openstreetmap.org/way/345634339","https://www.openstreetmap.org/way/785951905","https://www.openstreetmap.org/way/785951942","https://www.openstreetmap.org/way/345629275","https://www.openstreetmap.org/way/785937028","https://www.openstreetmap.org/way/785937029","https://www.openstreetmap.org/way/785937030","https://www.openstreetmap.org/way/137187345","https://www.openstreetmap.org/way/785936965","https://www.openstreetmap.org/way/785936967","https://www.openstreetmap.org/way/785936966","https://www.openstreetmap.org/way/785958694","https://www.openstreetmap.org/way/553085287","https://www.openstreetmap.org/way/553085289","https://www.openstreetmap.org/way/553085288","https://www.openstreetmap.org/way/137187348","https://www.openstreetmap.org/way/785937039","https://www.openstreetmap.org/way/553085284","https://www.openstreetmap.org/way/553085283","https://www.openstreetmap.org/way/785937040","https://www.openstreetmap.org/way/553085282"],"osm_way_names":["Travesía","Canaleta","Filo del Guanaco"],"osm_foot_access_override_way_ids":[]},"geometry":{"type":"LineString","coordinates":[[-69.9423552,-32.823593],[-69.9423552,-32.823593],[-69.942321,-32.823602],[-69.9422707,-32.823598],[-69.9422412,-32.8235817],[-69.9422217,-32.8235349],[-69.9422298,-32.8234735],[-69.9422432,-32.8234126],[-69.9422573,-32.8233676],[-69.9422896,-32.823325],[-69.9422656,-32.8233147],[-69.9421834,-32.8231858],[-69.9421475,-32.8229708],[-69.9421538,-32.822611],[-69.9421433,-32.8223406],[-69.9421218,-32.8221647],[-69.9420467,-32.8216868],[-69.9420521,-32.8214615],[-69.942095,-32.8208709],[-69.9421352,-32.8204291],[-69.9421809,-32.8200211],[-69.9421916,-32.8197507],[-69.9422184,-32.8192344],[-69.9422613,-32.8187025],[-69.9423043,-32.8181029],[-69.9423552,-32.8177558],[-69.942449,-32.8174875],[-69.9425376,-32.8172576],[-69.9425886,-32.8171133],[-69.9426234,-32.8169218],[-69.9426287,-32.8167211],[-69.9426178,-32.8164867],[-69.9425295,-32.8162748],[-69.9423495,-32.8159637],[-69.9422506,-32.8157608],[-69.9421835,-32.8155602],[-69.9421782,-32.8154407],[-69.9421698,-32.815328],[-69.9422237,-32.8151409],[-69.9422962,-32.8148163],[-69.9423176,-32.8146225],[-69.9423227,-32.8143768],[-69.9422962,-32.8141536],[-69.9422317,-32.8138087],[-69.9421862,-32.813545],[-69.9421621,-32.8132361],[-69.942213,-32.8129386],[-69.9422961,-32.812747],[-69.9424088,-32.8125147],[-69.9425242,-32.8121789],[-69.9425443,-32.8119004],[-69.9425507,-32.8118047],[-69.9425456,-32.8115747],[-69.9425176,-32.8110676],[-69.9425028,-32.8110194],[-69.9424521,-32.8109624],[-69.9425961,-32.81077],[-69.9427616,-32.8106048],[-69.9428322,-32.8105078],[-69.9429118,-32.8104109],[-69.9429547,-32.8103049],[-69.9428268,-32.8100312],[-69.9428186,-32.8099205],[-69.942835,-32.8098072],[-69.9427878,-32.8090054],[-69.9427253,-32.8087379],[-69.942957,-32.8083741],[-69.9431639,-32.8065378],[-69.9428291,-32.8061054],[-69.9425441,-32.805929],[-69.9425121,-32.8058847],[-69.9425225,-32.8058081],[-69.9425459,-32.8057296],[-69.9425643,-32.8056682],[-69.9425625,-32.8056067],[-69.9427181,-32.8050106],[-69.9427474,-32.8047539],[-69.9428521,-32.80445],[-69.9430176,-32.8042641],[-69.9431279,-32.8041507],[-69.9431432,-32.8039539],[-69.9430547,-32.8038011],[-69.943084,-32.8034545],[-69.9430543,-32.8031079],[-69.9431118,-32.8028537],[-69.9430834,-32.8025951],[-69.9432273,-32.8023509],[-69.9432532,-32.8022421],[-69.9431654,-32.8021597],[-69.9431525,-32.8019687],[-69.9432814,-32.8017153],[-69.9434266,-32.8015123],[-69.9435102,-32.8013794],[-69.9435338,-32.8009149],[-69.9436886,-32.8004986],[-69.943779,-32.8003776],[-69.9439362,-32.799986],[-69.9441472,-32.7994788],[-69.9444414,-32.7990235],[-69.9448054,-32.7982688],[-69.9450331,-32.797703],[-69.945183,-32.7975997],[-69.9454306,-32.7969483],[-69.9456674,-32.7966171],[-69.9458925,-32.795577],[-69.9459816,-32.7951656],[-69.945867,-32.7949307],[-69.945919,-32.7946526],[-69.9458618,-32.7943584],[-69.9458156,-32.7942073],[-69.9457709,-32.7940622],[-69.9458228,-32.7939104],[-69.9459531,-32.793743],[-69.9463014,-32.7935451],[-69.946318,-32.7934956],[-69.9462901,-32.7934686],[-69.9460678,-32.7934921],[-69.9461804,-32.7932993],[-69.946196,-32.7931163],[-69.9462426,-32.7930085],[-69.9462465,-32.7928745],[-69.9463398,-32.7927405],[-69.9463437,-32.7926228],[-69.9463709,-32.7925575],[-69.9464604,-32.7924627],[-69.9464806,-32.7922381],[-69.9465653,-32.7920411],[-69.9467208,-32.7917829],[-69.9468841,-32.7916783],[-69.946958,-32.7915247],[-69.9470668,-32.7914659],[-69.9472379,-32.7913613],[-69.9475354,-32.7910902],[-69.9478981,-32.7904226],[-69.9482073,-32.7899534],[-69.9482458,-32.7897371],[-69.9482866,-32.7893304],[-69.9482705,-32.7891103],[-69.9479238,-32.7888886],[-69.9478122,-32.7887531],[-69.9478805,-32.7885688],[-69.9480509,-32.788387],[-69.9482906,-32.7881653],[-69.9485886,-32.7876173],[-69.9488139,-32.787491],[-69.9487442,-32.787279],[-69.9489266,-32.7871257],[-69.9490691,-32.7869843],[-69.9497098,-32.786589],[-69.9498063,-32.7864086],[-69.9503052,-32.7862012],[-69.9506435,-32.785872],[-69.9506208,-32.7855296],[-69.9509275,-32.7849655],[-69.951254,-32.7844367],[-69.9513771,-32.7844121],[-69.9518031,-32.7838609],[-69.9523688,-32.7831973],[-69.95328,-32.7822514],[-69.9535346,-32.7818942],[-69.9538404,-32.7814251],[-69.9538297,-32.7812177],[-69.9540995,-32.780644],[-69.9544412,-32.7797428],[-69.9544627,-32.779373],[-69.9545968,-32.7792287],[-69.9546182,-32.7790212],[-69.954747,-32.7788634],[-69.9547738,-32.7787055],[-69.9547577,-32.778471],[-69.9549669,-32.7782725],[-69.9549831,-32.7780581],[-69.9548918,-32.777808],[-69.9549347,-32.7776321],[-69.9548489,-32.7773975],[-69.9548918,-32.7772216],[-69.9548703,-32.7770322],[-69.9548003,-32.7769129],[-69.9549264,-32.7766018],[-69.9551151,-32.776414],[-69.9554765,-32.7761707],[-69.9555355,-32.7759677],[-69.9556731,-32.7758011],[-69.9556053,-32.7756204],[-69.9557072,-32.7753814],[-69.9557072,-32.7751694],[-69.955744,-32.7748378],[-69.9557812,-32.7745923],[-69.9559806,-32.7742841],[-69.9559317,-32.7741799],[-69.955954,-32.7738884],[-69.9560988,-32.7738478],[-69.9561417,-32.7735592],[-69.9562168,-32.7732615],[-69.9565762,-32.7727518],[-69.9567533,-32.7722556],[-69.9567893,-32.771869],[-69.9568069,-32.7713445],[-69.9571663,-32.7708709],[-69.9575257,-32.7700454],[-69.9578959,-32.7693373],[-69.9581095,-32.7687162],[-69.9580836,-32.7684261],[-69.957872,-32.7680882],[-69.9578825,-32.7678983],[-69.9578956,-32.7677929],[-69.9579623,-32.7677517],[-69.9579961,-32.7677309],[-69.958075,-32.7676946],[-69.9582045,-32.7676423],[-69.9584322,-32.7675331],[-69.9586713,-32.7671197],[-69.958824,-32.766721],[-69.9590219,-32.7666059],[-69.959296,-32.7665541],[-69.9595213,-32.7663827],[-69.9597949,-32.7662023],[-69.960337,-32.7659324],[-69.9605157,-32.7657323],[-69.9606156,-32.7656204],[-69.9610072,-32.7651738],[-69.9611521,-32.764849],[-69.961549,-32.7644836],[-69.9619728,-32.7639468],[-69.962237,-32.7634145],[-69.9625737,-32.7628912],[-69.9626683,-32.762654],[-69.9630457,-32.7622822],[-69.9634407,-32.7618828],[-69.9639738,-32.7614116],[-69.9643202,-32.7611231],[-69.9645209,-32.760956],[-69.9648374,-32.7608161],[-69.96517,-32.7604417],[-69.9653587,-32.7603593],[-69.965449,-32.7603199],[-69.9656346,-32.7600578],[-69.9657333,-32.7599184],[-69.9658031,-32.7598736],[-69.9660546,-32.7597122],[-69.9666485,-32.7593667],[-69.9668866,-32.7592282],[-69.9671125,-32.759174],[-69.9680249,-32.7589551],[-69.968713,-32.7587208],[-69.9691826,-32.7583214],[-69.9695303,-32.7580958],[-69.9703377,-32.7572383],[-69.9708831,-32.7570447],[-69.9713492,-32.7567361],[-69.9725075,-32.7560606],[-69.972752,-32.7561032],[-69.9728984,-32.7559992],[-69.973054,-32.7559569],[-69.9731227,-32.7558568],[-69.9732782,-32.7558992],[-69.9734553,-32.7557769],[-69.9736217,-32.7557049],[-69.9737518,-32.7557401],[-69.9738339,-32.7557714],[-69.9739596,-32.7555176],[-69.9740884,-32.7554116],[-69.9741769,-32.7554748],[-69.9740125,-32.7557867],[-69.974102,-32.7558722],[-69.9741523,-32.75603],[-69.9743537,-32.7558414],[-69.974404,-32.7559723],[-69.9745322,-32.7558799],[-69.9746294,-32.7557866],[-69.9748206,-32.7556146],[-69.9749225,-32.7553575],[-69.9751324,-32.7548282],[-69.9753099,-32.7545647],[-69.9753624,-32.7543199],[-69.9755597,-32.7540303],[-69.9756479,-32.7537115],[-69.9757803,-32.7531551],[-69.9759373,-32.7526888],[-69.9760896,-32.7520155],[-69.9762869,-32.7516943],[-69.9764078,-32.7514588],[-69.9766496,-32.7511805],[-69.9768321,-32.7508951],[-69.9769858,-32.7509143],[-69.9771085,-32.7510264],[-69.9772836,-32.7510823],[-69.9774896,-32.7509504],[-69.977636,-32.7507738],[-69.9776638,-32.750591],[-69.977936,-32.7503948],[-69.9781226,-32.7503042],[-69.9783075,-32.7502053],[-69.9784378,-32.7500887],[-69.9785382,-32.7499391],[-69.9786227,-32.7498186],[-69.978742,-32.7496549],[-69.9789287,-32.7495066],[-69.9791819,-32.7493797],[-69.9794581,-32.7493032],[-69.979615,-32.7490986],[-69.9801941,-32.74874],[-69.980856,-32.7483332],[-69.9811932,-32.7481994],[-69.9818296,-32.7479372],[-69.9822305,-32.7477552],[-69.983161,-32.7469889],[-69.9835646,-32.746663],[-69.9837859,-32.7465741],[-69.9838938,-32.7464825],[-69.9842074,-32.7464566],[-69.9845254,-32.7464612],[-69.9849808,-32.7463297],[-69.9853083,-32.746176],[-69.9855718,-32.7460938],[-69.9858177,-32.7458514],[-69.9859947,-32.7457747],[-69.9861543,-32.7455231],[-69.9863805,-32.745294],[-69.9866438,-32.7452604],[-69.9870477,-32.7450156],[-69.9875794,-32.7449002],[-69.9876729,-32.7449195],[-69.9878496,-32.744956],[-69.9887023,-32.7448061],[-69.9895758,-32.744538],[-69.9904205,-32.7443458],[-69.9909168,-32.7442709],[-69.9911205,-32.7441103],[-69.9917696,-32.743939],[-69.9919859,-32.7438748],[-69.9923805,-32.743757],[-69.9930041,-32.7436607],[-69.9935789,-32.7435255],[-69.9946264,-32.7432883],[-69.9948829,-32.743163],[-69.9950914,-32.7430612],[-69.9955867,-32.7429498],[-69.996135,-32.7425902],[-69.996795,-32.7423613],[-69.9973052,-32.742246],[-69.9978313,-32.7419328],[-69.9982073,-32.7415631],[-69.9984516,-32.7413277],[-69.9992099,-32.7408882],[-69.9999304,-32.7404584],[-70.0001543,-32.7402574],[-70.0005126,-32.74004],[-70.0010753,-32.7396384],[-70.0016894,-32.7392873],[-70.0019251,-32.739044],[-70.0024604,-32.7387577],[-70.0029186,-32.7384794],[-70.0036823,-32.7380512],[-70.0044332,-32.73773],[-70.0047895,-32.7376015],[-70.005515,-32.7373018],[-70.0062532,-32.7368307],[-70.0069404,-32.7363383],[-70.0075513,-32.7360599],[-70.0079841,-32.7358244],[-70.0083536,-32.7356994],[-70.0090521,-32.7354504],[-70.0094587,-32.7352253],[-70.0095801,-32.7350496],[-70.0102588,-32.7344563],[-70.010671,-32.7341919],[-70.01105,-32.7340321],[-70.0116729,-32.7335525],[-70.0119209,-32.7334068],[-70.0120376,-32.7334056],[-70.0125217,-32.7331225],[-70.0131011,-32.7326486],[-70.0139294,-32.7321751],[-70.0148575,-32.7317385],[-70.015488,-32.7313654],[-70.0158738,-32.7311332],[-70.0164604,-32.7308996],[-70.0171345,-32.7302941],[-70.0173283,-32.7300178],[-70.0177866,-32.7295195],[-70.0180847,-32.7292601],[-70.0182509,-32.7289302],[-70.01825,-32.728753],[-70.0184977,-32.728321],[-70.0188056,-32.7278492],[-70.019179,-32.7276531],[-70.0194848,-32.7274455],[-70.0197476,-32.7275448],[-70.0203055,-32.727098],[-70.0209707,-32.7267144],[-70.0215769,-32.72657],[-70.0222904,-32.7262947],[-70.0226927,-32.7260555],[-70.0229372,-32.7257648],[-70.0236004,-32.725664],[-70.0246695,-32.7253963],[-70.0253695,-32.7250751],[-70.0262349,-32.7247753],[-70.0267695,-32.7245612],[-70.0271004,-32.7243899],[-70.0274822,-32.7242078],[-70.0281949,-32.7238973],[-70.0287931,-32.7233084],[-70.0293022,-32.7228694],[-70.0297604,-32.7225268],[-70.0301676,-32.7222163],[-70.0323084,-32.7211731],[-70.0330313,-32.7206958],[-70.0340447,-32.7195606],[-70.0349785,-32.7188541],[-70.0366585,-32.7175584],[-70.0373076,-32.7170658],[-70.0376433,-32.7165238],[-70.038185,-32.7160519],[-70.0390012,-32.7150852],[-70.0404114,-32.7140504],[-70.0412589,-32.7134637],[-70.0420349,-32.7126787],[-70.0426022,-32.7122042],[-70.0430409,-32.7119056],[-70.0439145,-32.7110391],[-70.044178,-32.7107925],[-70.0444526,-32.7105354],[-70.0449973,-32.7101503],[-70.0457195,-32.7097952],[-70.0464115,-32.7092569],[-70.0467214,-32.7086207],[-70.0467589,-32.7085438],[-70.0469828,-32.7083226],[-70.0472552,-32.7081936],[-70.0473744,-32.7079841],[-70.04755,-32.7076268],[-70.0478047,-32.7069346],[-70.0485277,-32.7057633],[-70.048914,-32.7051539],[-70.049268,-32.7044],[-70.0496703,-32.7038448],[-70.0522828,-32.7004818],[-70.0530767,-32.6998349],[-70.0532886,-32.6997212],[-70.0535538,-32.6996488],[-70.0537263,-32.6995295],[-70.054099,-32.6992058],[-70.0542435,-32.698947],[-70.0543353,-32.6987023],[-70.0543164,-32.698398],[-70.0544339,-32.6980261],[-70.0545791,-32.6977759],[-70.0546485,-32.6974888],[-70.0545824,-32.6971428],[-70.0547022,-32.6969426],[-70.0547075,-32.6967891],[-70.0547612,-32.6966717],[-70.0547558,-32.6965769],[-70.0548738,-32.6964776],[-70.0549221,-32.6963332],[-70.0548937,-32.6962345],[-70.0549382,-32.6960442],[-70.0548524,-32.6958411],[-70.0548712,-32.69554],[-70.0548148,-32.6953219],[-70.0546221,-32.6951472],[-70.0543213,-32.6949788],[-70.0541054,-32.6946167],[-70.0539093,-32.6944307],[-70.0537902,-32.6941256],[-70.0537003,-32.6938585],[-70.0536071,-32.6936028],[-70.0536239,-32.693304],[-70.0537949,-32.6928922],[-70.0535005,-32.6927035],[-70.053404,-32.6924552],[-70.0533179,-32.6921003],[-70.0534201,-32.6918999],[-70.0533769,-32.6917862],[-70.0531364,-32.6915315],[-70.0530338,-32.6914349],[-70.052985,-32.6912325],[-70.0531733,-32.6911505],[-70.0534996,-32.6911599],[-70.053758,-32.6910873],[-70.053977,-32.6909514],[-70.0540126,-32.6906948],[-70.0539676,-32.6902702],[-70.0538546,-32.690067],[-70.0539619,-32.6898006],[-70.0537956,-32.6895478],[-70.0536776,-32.6894168],[-70.0536872,-32.6894107],[-70.0537512,-32.6893697],[-70.053876,-32.6894123],[-70.0540396,-32.6893846],[-70.0541711,-32.6892001],[-70.0541711,-32.6891098],[-70.0542985,-32.6888671],[-70.0544359,-32.6884498],[-70.0544339,-32.6881843],[-70.0545359,-32.6878412],[-70.0545573,-32.687638],[-70.0546002,-32.6874529],[-70.0545734,-32.6873084],[-70.054634,-32.687161],[-70.0549044,-32.6870456],[-70.0550562,-32.6865725],[-70.0551876,-32.6863362],[-70.0552021,-32.6860071],[-70.0553674,-32.685665],[-70.0555734,-32.6854075],[-70.0558003,-32.6853108],[-70.0560421,-32.6850006],[-70.0562115,-32.6848186],[-70.0565636,-32.6843873],[-70.0565754,-32.6842235],[-70.0566334,-32.6841209],[-70.0566029,-32.6839177],[-70.0565491,-32.6836065],[-70.0565529,-32.6833127],[-70.0567514,-32.6829379],[-70.0568761,-32.6827455],[-70.0569111,-32.682729],[-70.0570144,-32.6826802],[-70.0570732,-32.6824413],[-70.057044,-32.6822647],[-70.0570679,-32.6819491],[-70.0570518,-32.6814163],[-70.0571007,-32.6812066],[-70.0571115,-32.6809515],[-70.0573254,-32.6806307],[-70.0574709,-32.6802687],[-70.0575721,-32.6799895],[-70.0575399,-32.6797277],[-70.0577102,-32.6795215],[-70.0577813,-32.6792671],[-70.0579635,-32.6791099],[-70.0579906,-32.6790865],[-70.0582071,-32.6789276],[-70.0583446,-32.6787298],[-70.0583661,-32.6785898],[-70.058409,-32.6784227],[-70.0584429,-32.678065],[-70.0585045,-32.6779073],[-70.0586665,-32.6777229],[-70.0587624,-32.6775291],[-70.0589454,-32.6772849],[-70.0590634,-32.6772668],[-70.0592081,-32.6769331],[-70.0592244,-32.6766979],[-70.0593209,-32.6764766],[-70.0593808,-32.6761752],[-70.0594926,-32.675867],[-70.0594604,-32.6757361],[-70.059528,-32.6755737],[-70.0596482,-32.6751762],[-70.0596766,-32.6749117],[-70.0597608,-32.6745395],[-70.0597394,-32.6741466],[-70.0596151,-32.6736603],[-70.0596213,-32.6734151],[-70.0594711,-32.6731713],[-70.0594383,-32.6729117],[-70.0595134,-32.6726316],[-70.0596321,-32.6724533],[-70.0597405,-32.6721664],[-70.0598091,-32.6719927],[-70.0599057,-32.6718572],[-70.0599378,-32.6716947],[-70.0600344,-32.6714915],[-70.0600505,-32.6713154],[-70.0601637,-32.6709902],[-70.0601846,-32.670778],[-70.0602865,-32.6704122],[-70.0603187,-32.6701864],[-70.0604689,-32.6698297],[-70.0605172,-32.6695317],[-70.0604365,-32.6693337],[-70.0603187,-32.6692652],[-70.0602002,-32.6691403],[-70.059852,-32.668773],[-70.0596519,-32.668529],[-70.0595365,-32.6684895],[-70.059269,-32.6678977],[-70.0588918,-32.6671834],[-70.0586682,-32.6668287],[-70.0585038,-32.6664603],[-70.0584318,-32.6661087],[-70.0585521,-32.6657087],[-70.0585619,-32.6654426],[-70.0586562,-32.6649292],[-70.0587228,-32.6647674],[-70.0585914,-32.6644016],[-70.0586048,-32.6642007],[-70.0584519,-32.6639274],[-70.0583178,-32.6637423],[-70.0583352,-32.66373],[-70.0584653,-32.6636383],[-70.058645,-32.6634081],[-70.0585967,-32.6632094],[-70.0585611,-32.6630353],[-70.0586826,-32.6628707],[-70.0587428,-32.6626552],[-70.0586532,-32.6622797],[-70.0585018,-32.6620528],[-70.0583232,-32.6615791],[-70.0581408,-32.6614752],[-70.0578951,-32.6612669],[-70.0579577,-32.6612181],[-70.0580577,-32.6611402],[-70.0582494,-32.6609125],[-70.0583178,-32.6606171],[-70.0582886,-32.6601022],[-70.0581295,-32.6598722],[-70.0579423,-32.6596235],[-70.0578323,-32.6593258],[-70.057829,-32.658923],[-70.0580972,-32.6584684],[-70.0583609,-32.6580237],[-70.0584916,-32.657786],[-70.0585412,-32.6576652],[-70.0584199,-32.6577214],[-70.0584217,-32.6576768],[-70.0583264,-32.6577162],[-70.0583188,-32.6576655],[-70.058253,-32.657712],[-70.0582078,-32.657646],[-70.0581677,-32.6576992],[-70.0580864,-32.6576313],[-70.058006,-32.6576419],[-70.05793,-32.6575934],[-70.0578522,-32.6575499],[-70.0574864,-32.6575614],[-70.0574353,-32.6574309],[-70.0574685,-32.6572525],[-70.0573817,-32.6572367],[-70.0571832,-32.6570696],[-70.0571641,-32.6569119],[-70.0568712,-32.6565408],[-70.0568047,-32.6564884],[-70.0567111,-32.6564147],[-70.0566865,-32.6563038],[-70.0566816,-32.6562815],[-70.0568506,-32.656085],[-70.0571599,-32.6560849],[-70.0572288,-32.6560489],[-70.057233,-32.6560329],[-70.057395,-32.6558189],[-70.0575962,-32.655616],[-70.0575937,-32.6554604],[-70.0575399,-32.6553194],[-70.0575238,-32.6550778],[-70.0576633,-32.6549222],[-70.0576177,-32.6548046],[-70.0576311,-32.6547052],[-70.0578213,-32.6544324],[-70.0577558,-32.6540843],[-70.0578243,-32.6539848],[-70.0578596,-32.6536558],[-70.057881,-32.6533998],[-70.0577504,-32.6533042],[-70.0572923,-32.6532079],[-70.0569176,-32.6532148],[-70.0566606,-32.6530386],[-70.0565842,-32.6526494],[-70.0565923,-32.652179],[-70.0567551,-32.6518095],[-70.0568153,-32.6516575],[-70.0568185,-32.6514763],[-70.0569324,-32.6509259],[-70.0571403,-32.6502244],[-70.0574659,-32.6497609],[-70.0575867,-32.6492776],[-70.0578145,-32.648957],[-70.0581703,-32.648235],[-70.0580415,-32.6481538],[-70.0579357,-32.648055],[-70.057894,-32.648016],[-70.0577089,-32.6479686],[-70.0577626,-32.6476908],[-70.0576177,-32.6476614],[-70.0575011,-32.6475954],[-70.0573999,-32.6475997],[-70.0572576,-32.6477689],[-70.0571715,-32.6477212],[-70.0570863,-32.6477741],[-70.0568667,-32.647743],[-70.056838,-32.6474991],[-70.0566119,-32.6474469],[-70.0563182,-32.6475227],[-70.0558265,-32.6476457],[-70.0553127,-32.6478228],[-70.054854,-32.6478594],[-70.0545273,-32.6478538],[-70.0540727,-32.647887],[-70.0539351,-32.6477744],[-70.053632,-32.6477224],[-70.053404,-32.6475417],[-70.0535654,-32.6474608],[-70.0535604,-32.6473324],[-70.053463,-32.647343],[-70.0533331,-32.647094],[-70.0532794,-32.6469434],[-70.0530254,-32.647113],[-70.0529078,-32.6468507],[-70.0527816,-32.6468678],[-70.0527048,-32.6467814],[-70.0525682,-32.6468894],[-70.0524422,-32.6470334],[-70.0523473,-32.64707],[-70.0522211,-32.6469884],[-70.0521146,-32.6470406],[-70.0520303,-32.6469204],[-70.0517625,-32.647072],[-70.0514594,-32.6469184],[-70.0510597,-32.6468687],[-70.050813,-32.6465187],[-70.0507055,-32.6464293],[-70.0505447,-32.6464735],[-70.0504857,-32.6465638],[-70.0503966,-32.6465955],[-70.0503493,-32.6464982],[-70.0500343,-32.6465928],[-70.0499158,-32.6465119],[-70.0499185,-32.6463191],[-70.0499372,-32.6461822],[-70.0499046,-32.6460579],[-70.0498262,-32.6459971],[-70.0497786,-32.6459637],[-70.0497173,-32.6459891],[-70.0495049,-32.6462185],[-70.0493869,-32.6459733],[-70.0492995,-32.646124],[-70.0492013,-32.6461517],[-70.0487968,-32.6463146],[-70.0486453,-32.6463999],[-70.0485676,-32.6462335],[-70.0483727,-32.6462106],[-70.0483614,-32.646067],[-70.0482614,-32.6460887],[-70.0480507,-32.6463582],[-70.0476723,-32.6465184],[-70.0475855,-32.6465616],[-70.0475568,-32.6462454],[-70.0474721,-32.6461627],[-70.0472145,-32.6463224],[-70.0471571,-32.6458953],[-70.0470922,-32.6458425],[-70.0469891,-32.6455417],[-70.0466274,-32.6449174],[-70.046502,-32.6448405],[-70.0462034,-32.6444254],[-70.0459891,-32.6441627],[-70.0458256,-32.6440864],[-70.045721,-32.6439543],[-70.0452471,-32.6436706],[-70.0450796,-32.6440606],[-70.0448134,-32.6439112],[-70.0447318,-32.6442587],[-70.0444917,-32.6440591],[-70.0443105,-32.6439603],[-70.0441956,-32.6438353],[-70.0440645,-32.6439417],[-70.0437888,-32.6437871],[-70.0435306,-32.6437295],[-70.0433136,-32.643749],[-70.0433252,-32.6438975],[-70.0433024,-32.6440366],[-70.0432873,-32.6442081],[-70.043284,-32.6443889],[-70.0432018,-32.6445552],[-70.0432139,-32.6446535],[-70.0432987,-32.6448875],[-70.0433789,-32.6450675],[-70.0427677,-32.6448358],[-70.0422637,-32.6447979],[-70.0419397,-32.6446009],[-70.0417867,-32.6444873],[-70.0411748,-32.6442978],[-70.0410897,-32.6442126],[-70.0408418,-32.6439644],[-70.0405538,-32.6434415],[-70.0403558,-32.6430778],[-70.0401848,-32.6428049],[-70.0400523,-32.6426972],[-70.0399494,-32.6426499],[-70.0399205,-32.6423901],[-70.0398186,-32.6422772],[-70.0396094,-32.6418458],[-70.0393707,-32.6415589],[-70.039191,-32.6413286],[-70.0388852,-32.641245],[-70.0386062,-32.6409898],[-70.038389,-32.6409107],[-70.0380719,-32.6406824],[-70.0380621,-32.6405634],[-70.0380456,-32.6403642],[-70.038051,-32.6401902],[-70.0378659,-32.6401541],[-70.0377694,-32.6399824],[-70.0374824,-32.639804],[-70.0372088,-32.6397588],[-70.0369701,-32.6398718],[-70.0367904,-32.6397408],[-70.036498,-32.6397679],[-70.0363666,-32.6396436],[-70.036152,-32.6395736],[-70.0359803,-32.6396301],[-70.0359213,-32.639551],[-70.0358006,-32.6395759],[-70.0353742,-32.63921],[-70.0351408,-32.6390677],[-70.0346178,-32.6387808],[-70.0340545,-32.6384714],[-70.0337192,-32.6384285],[-70.0331908,-32.6382839],[-70.0326839,-32.6382523],[-70.0318337,-32.6382207],[-70.0315762,-32.637839],[-70.0314018,-32.6376538],[-70.0311282,-32.6375273],[-70.0308386,-32.6374776],[-70.0304201,-32.6372133],[-70.0298703,-32.6369649],[-70.0292592,-32.6368481],[-70.0286821,-32.6365899],[-70.0277353,-32.6365021],[-70.0274596,-32.6362454],[-70.0270325,-32.6360049],[-70.0266542,-32.6358561],[-70.0259437,-32.6356456],[-70.0254956,-32.6355825],[-70.0252928,-32.6354389],[-70.0245163,-32.6352466],[-70.0239372,-32.6350805],[-70.0236699,-32.6350376],[-70.0234217,-32.6349518],[-70.0229636,-32.6347589],[-70.0230399,-32.635327],[-70.0231672,-32.6355092],[-70.0232372,-32.6356163],[-70.0229826,-32.635611],[-70.0231736,-32.6358039],[-70.023269,-32.6359861],[-70.0233206,-32.6360764],[-70.0232054,-32.636104],[-70.0232499,-32.636179],[-70.0230272,-32.6361469],[-70.0230717,-32.6363023],[-70.0230208,-32.6364684],[-70.0227345,-32.6363934],[-70.0227663,-32.6366881],[-70.0224371,-32.6366345],[-70.0224444,-32.636797],[-70.0224724,-32.6369653],[-70.0220147,-32.6369532],[-70.021729,-32.6369293],[-70.0214045,-32.6367471],[-70.0212772,-32.6365595],[-70.0209432,-32.6363198],[-70.0207316,-32.6361877],[-70.0206592,-32.6366023],[-70.0206408,-32.6369078],[-70.0200722,-32.6370733],[-70.0199469,-32.6370321],[-70.0197389,-32.6370795],[-70.0196678,-32.6371701],[-70.0195125,-32.6372004],[-70.0193618,-32.6371533],[-70.0193108,-32.6371817],[-70.0192008,-32.6372679],[-70.0189939,-32.6373111],[-70.0188495,-32.637331],[-70.0188102,-32.6374595],[-70.0186618,-32.6374906],[-70.0185527,-32.637429],[-70.0184655,-32.6373466],[-70.0183334,-32.6373361],[-70.0181852,-32.6374256],[-70.0181912,-32.6376177],[-70.018143,-32.6377799],[-70.0180425,-32.6379718],[-70.0179412,-32.6381697],[-70.0182241,-32.6383878],[-70.018197,-32.6384753],[-70.0183234,-32.6386092],[-70.0183082,-32.6387101],[-70.0181084,-32.6389552],[-70.0179666,-32.6391919],[-70.0179332,-32.639469],[-70.0180036,-32.6395962],[-70.0178236,-32.639971],[-70.0179531,-32.6400859],[-70.018159,-32.6401926],[-70.0182885,-32.6403235],[-70.0184209,-32.6404192],[-70.0182487,-32.6404785],[-70.0180669,-32.6405791],[-70.0179872,-32.6408358],[-70.0178382,-32.6409108],[-70.0177106,-32.6411462],[-70.0172936,-32.6412913],[-70.0169818,-32.641302],[-70.0168079,-32.6413263],[-70.016759,-32.6414038],[-70.0164727,-32.6414467],[-70.0161863,-32.6414949],[-70.015997,-32.6416124],[-70.0158969,-32.6418471],[-70.0157904,-32.6420646],[-70.0156765,-32.6422865],[-70.0156103,-32.6425014],[-70.0155754,-32.6426684],[-70.0155426,-32.6428375],[-70.0154438,-32.6431102],[-70.0154802,-32.6432032],[-70.0154802,-32.6433748],[-70.0155108,-32.6434541],[-70.0154927,-32.6436544],[-70.0155365,-32.643743],[-70.0155607,-32.6438175],[-70.0157431,-32.6440366],[-70.0157645,-32.6441382],[-70.0159308,-32.6443708],[-70.0160247,-32.644809],[-70.0162138,-32.6451433],[-70.0162782,-32.6452212],[-70.016314,-32.6453189],[-70.016419,-32.6453465],[-70.0164233,-32.6454191],[-70.016392,-32.6455881],[-70.0163449,-32.6456709],[-70.0162552,-32.64577],[-70.0161695,-32.6458366],[-70.0160119,-32.6459423],[-70.0159496,-32.6459797],[-70.0159087,-32.6460218],[-70.0155906,-32.6461958],[-70.015672,-32.6462591],[-70.0156902,-32.6463168],[-70.0157448,-32.6464002],[-70.0157324,-32.6464735],[-70.0158343,-32.6464735],[-70.0158316,-32.646548],[-70.015931,-32.6465886],[-70.0160123,-32.6466368],[-70.0162936,-32.6466751],[-70.0162306,-32.6468479],[-70.0161584,-32.6469413],[-70.0161213,-32.6470378],[-70.0159699,-32.6471426],[-70.0157854,-32.6472857],[-70.0157023,-32.647407],[-70.0156129,-32.6475613],[-70.0155665,-32.6476891],[-70.015604,-32.6478847],[-70.0157206,-32.6481455],[-70.0158449,-32.6485604],[-70.0159351,-32.6489017],[-70.0159858,-32.6491091],[-70.0159604,-32.6492805],[-70.0159487,-32.6494105],[-70.0159394,-32.6496202],[-70.0158675,-32.6498687],[-70.0157822,-32.650103],[-70.0157758,-32.6503173],[-70.0158237,-32.6503998],[-70.015927,-32.6508031],[-70.0161004,-32.651295],[-70.0161258,-32.6517954],[-70.0160435,-32.6519649],[-70.0158624,-32.65243],[-70.0158648,-32.6525845],[-70.0158238,-32.6527015],[-70.015808,-32.6528045],[-70.0158507,-32.6530369],[-70.0160999,-32.6533323],[-70.0161699,-32.6533885],[-70.0161464,-32.6535047],[-70.0159487,-32.6537045],[-70.0158707,-32.6538029],[-70.0156578,-32.6539207],[-70.0154537,-32.6540614],[-70.0152794,-32.6541171],[-70.0151086,-32.6541249],[-70.0149426,-32.6541245],[-70.0147072,-32.6541741],[-70.0145404,-32.6541739],[-70.014424,-32.6542314],[-70.0145101,-32.6543555],[-70.0143161,-32.6544478],[-70.0138542,-32.6546538],[-70.0136845,-32.6545979],[-70.0134952,-32.6545826],[-70.0132755,-32.6544417],[-70.0130974,-32.6543664],[-70.0129616,-32.6543055],[-70.0127919,-32.6542093],[-70.0126232,-32.6540786],[-70.0124902,-32.6539169],[-70.0123762,-32.6538042],[-70.0122632,-32.6536397],[-70.012218,-32.653517],[-70.0121375,-32.6533963],[-70.0120722,-32.6532053],[-70.012088,-32.653099]]}}]}
