{"type":"FeatureCollection","peaks_destination_id":"l8vfhxIz6oIUdqQxDDUA","peaks_trailhead_id":"0AFD34ECA465755224F1","peaks_source":"https://www.openstreetmap.org/","peaks_retrieval_source":"https://api.openstreetmap.org/api/0.6","peaks_license_name":"Open Data Commons Open Database License (ODbL) 1.0","peaks_license":"https://opendatacommons.org/licenses/odbl/1-0/","peaks_attribution":"© OpenStreetMap contributors","peaks_retrieved_at":"2026-07-31T12:29:54.237Z","features":[{"type":"Feature","properties":{"name":"Alam Kuh OSM route candidate","trailhead_name":"Tang-e Galu Trailhead","destination_name":"Alam Kuh","distance_m":7109.15370740034,"trailhead_snap_m":0,"summit_snap_m":9.866349658187536,"osm_way_ids":[195542134,601257117,479207253,479207259,479207260,195637267,479207262,601264096],"osm_way_urls":["https://www.openstreetmap.org/way/195542134","https://www.openstreetmap.org/way/601257117","https://www.openstreetmap.org/way/479207253","https://www.openstreetmap.org/way/479207259","https://www.openstreetmap.org/way/479207260","https://www.openstreetmap.org/way/195637267","https://www.openstreetmap.org/way/479207262","https://www.openstreetmap.org/way/601264096"],"osm_way_names":["تنگ گلو-حصارچال","به طرف قله علم کوه"],"osm_foot_access_override_way_ids":[]},"geometry":{"type":"LineString","coordinates":[[51.008694,36.357567],[51.008694,36.357567],[51.008659,36.357533],[51.00861,36.357475],[51.008583,36.357437],[51.008553,36.357368],[51.008507,36.357292],[51.008537,36.357224],[51.008514,36.357124],[51.00853,36.357086],[51.008484,36.356995],[51.008446,36.356972],[51.008335,36.35696],[51.008289,36.356972],[51.008213,36.356968],[51.008163,36.356949],[51.0081327,36.3569105],[51.008091,36.356869],[51.008057,36.356861],[51.008022,36.356861],[51.007999,36.356846],[51.007965,36.356873],[51.007912,36.35685],[51.007889,36.356838],[51.007889,36.356831],[51.007923,36.356758],[51.007931,36.356674],[51.007893,36.356644],[51.007809,36.356659],[51.007759,36.356663],[51.007694,36.356663],[51.007675,36.356625],[51.007713,36.356548],[51.007736,36.356506],[51.00774,36.356483],[51.007736,36.356461],[51.007671,36.356499],[51.007629,36.356514],[51.007587,36.356503],[51.007603,36.356453],[51.007622,36.356415],[51.007614,36.3564],[51.007584,36.356419],[51.007504,36.356422],[51.007446,36.356419],[51.007477,36.356373],[51.007523,36.356354],[51.007584,36.356323],[51.00758,36.356293],[51.007557,36.356308],[51.007538,36.356281],[51.007488,36.356281],[51.00745,36.35627],[51.00742,36.356255],[51.007389,36.356228],[51.007366,36.356216],[51.007355,36.356194],[51.00729,36.356159],[51.007271,36.356136],[51.007244,36.356129],[51.007187,36.356155],[51.007187,36.356125],[51.007183,36.356087],[51.007179,36.356079],[51.007175,36.356056],[51.00716,36.356037],[51.00716,36.356033],[51.007145,36.356026],[51.007111,36.356022],[51.007023,36.356018],[51.006947,36.356014],[51.006889,36.356026],[51.00684,36.35603],[51.006821,36.356003],[51.006824,36.355991],[51.006809,36.355911],[51.006802,36.355907],[51.006786,36.355904],[51.006756,36.355873],[51.006748,36.355869],[51.006741,36.355865],[51.006733,36.355862],[51.006611,36.355801],[51.006565,36.355797],[51.006542,36.355793],[51.006516,36.355782],[51.006493,36.355766],[51.006489,36.355762],[51.006428,36.355705],[51.006321,36.355625],[51.006233,36.355583],[51.006073,36.355518],[51.005211,36.355125],[51.005142,36.355125],[51.005058,36.355106],[51.005016,36.355103],[51.004963,36.355072],[51.004955,36.355034],[51.004951,36.355019],[51.004948,36.355015],[51.004852,36.355019],[51.004799,36.355057],[51.004738,36.355042],[51.004681,36.355045],[51.004665,36.35508],[51.004635,36.35508],[51.004627,36.355072],[51.004601,36.355083],[51.004562,36.355083],[51.004509,36.355087],[51.004478,36.355083],[51.004463,36.355076],[51.00444,36.355064],[51.004433,36.355068],[51.004368,36.355103],[51.004314,36.355099],[51.004284,36.355095],[51.00425,36.355072],[51.004219,36.355068],[51.004204,36.355061],[51.004177,36.355042],[51.004147,36.355034],[51.004074,36.355007],[51.00404,36.354988],[51.003944,36.355007],[51.003902,36.355015],[51.003868,36.355015],[51.003864,36.355015],[51.00383,36.355011],[51.003819,36.355007],[51.003788,36.354992],[51.00375,36.354969],[51.003708,36.354969],[51.003674,36.354977],[51.00362,36.354939],[51.003601,36.354935],[51.003567,36.35495],[51.00351,36.354988],[51.003494,36.354984],[51.003471,36.354969],[51.00346,36.354973],[51.003437,36.354977],[51.003414,36.354988],[51.003384,36.355],[51.003342,36.355007],[51.003281,36.355011],[51.003269,36.355011],[51.003235,36.355015],[51.003181,36.355015],[51.003155,36.355003],[51.003128,36.354992],[51.003094,36.354961],[51.003063,36.354965],[51.003052,36.354973],[51.003033,36.354973],[51.003021,36.35498],[51.00301,36.354996],[51.003006,36.354996],[51.00293,36.355003],[51.0029267,36.3550325],[51.002914,36.355049],[51.002911,36.355053],[51.002907,36.355057],[51.002865,36.355038],[51.002808,36.355034],[51.002808,36.355038],[51.002735,36.355038],[51.002716,36.355026],[51.002605,36.355022],[51.002594,36.355022],[51.002575,36.35503],[51.002563,36.35503],[51.002544,36.355045],[51.002537,36.355049],[51.002533,36.355053],[51.002529,36.355045],[51.002533,36.355045],[51.002525,36.355042],[51.00251,36.355045],[51.002487,36.355045],[51.002453,36.35503],[51.002415,36.355045],[51.002354,36.355072],[51.002346,36.355068],[51.002327,36.35508],[51.002274,36.355091],[51.002224,36.355072],[51.002216,36.355072],[51.002201,36.355076],[51.00219,36.35508],[51.002087,36.355103],[51.002064,36.355106],[51.002048,36.355099],[51.001972,36.355061],[51.001953,36.355061],[51.001926,36.355057],[51.001888,36.355045],[51.001801,36.355015],[51.001629,36.355026],[51.001465,36.355011],[51.001289,36.354996],[51.001255,36.354992],[51.00119,36.354984],[51.001129,36.354992],[51.001083,36.354988],[51.001102,36.354965],[51.001099,36.354965],[51.001095,36.354961],[51.001087,36.354961],[51.001068,36.354969],[51.001038,36.354984],[51.00098,36.354942],[51.000973,36.354923],[51.000965,36.354935],[51.000961,36.354931],[51.00095,36.354935],[51.000923,36.354927],[51.000874,36.354912],[51.000824,36.354866],[51.000767,36.354855],[51.000702,36.354843],[51.000679,36.354782],[51.000637,36.35479],[51.000576,36.354782],[51.000595,36.354839],[51.000576,36.354816],[51.000523,36.354763],[51.000496,36.354752],[51.000484,36.354771],[51.000492,36.354828],[51.000473,36.354855],[51.000465,36.354847],[51.000446,36.354794],[51.000401,36.354759],[51.000381,36.354717],[51.000317,36.354675],[51.000278,36.354603],[51.00024,36.354595],[51.000198,36.354595],[51.000141,36.354561],[51.00013,36.354553],[51.000057,36.354473],[50.999992,36.354443],[50.999935,36.354401],[50.999916,36.354382],[50.999882,36.354332],[50.999825,36.354321],[50.99976,36.354252],[50.999706,36.354248],[50.999699,36.354256],[50.999657,36.354225],[50.999645,36.354225],[50.999615,36.354198],[50.999599,36.35416],[50.999561,36.354176],[50.999454,36.354118],[50.999397,36.354099],[50.999367,36.35408],[50.999352,36.354069],[50.999336,36.354042],[50.9993264,36.3540435],[50.999283,36.35405],[50.999187,36.354038],[50.999161,36.354038],[50.999123,36.354042],[50.999107,36.354038],[50.999104,36.354042],[50.999073,36.354061],[50.999062,36.354057],[50.999046,36.354061],[50.998993,36.354069],[50.998981,36.354069],[50.998951,36.354076],[50.998901,36.354065],[50.998821,36.354023],[50.998764,36.353966],[50.998718,36.353947],[50.99868,36.353928],[50.998623,36.35392],[50.998596,36.35392],[50.998508,36.353863],[50.998489,36.353836],[50.998486,36.35384],[50.998489,36.353855],[50.998493,36.353874],[50.998486,36.353882],[50.998455,36.353874],[50.998402,36.353882],[50.998375,36.35387],[50.998325,36.353848],[50.99828,36.353794],[50.998211,36.353714],[50.998192,36.35368],[50.998146,36.353638],[50.998108,36.3536],[50.9981,36.353588],[50.998089,36.353565],[50.998077,36.353561],[50.99807,36.353561],[50.997993,36.353539],[50.99799,36.353539],[50.997974,36.353535],[50.997963,36.353535],[50.997944,36.353523],[50.99791,36.353523],[50.997868,36.353504],[50.997833,36.353485],[50.997829,36.353485],[50.99773,36.353474],[50.997658,36.353413],[50.997639,36.353405],[50.997528,36.353359],[50.997494,36.353352],[50.997437,36.353333],[50.997349,36.35331],[50.997269,36.353291],[50.997208,36.353271],[50.997196,36.353264],[50.997108,36.353237],[50.997074,36.35321],[50.997036,36.35321],[50.996971,36.35318],[50.996891,36.353138],[50.996853,36.353123],[50.996788,36.353104],[50.996758,36.353111],[50.996742,36.353115],[50.996708,36.353111],[50.99667,36.353111],[50.996597,36.353085],[50.99654,36.353069],[50.996506,36.353062],[50.996452,36.35302],[50.996433,36.353004],[50.996342,36.352947],[50.996281,36.352886],[50.996239,36.352856],[50.99622,36.352821],[50.996155,36.352787],[50.996101,36.35276],[50.996037,36.352703],[50.995995,36.352688],[50.995964,36.352684],[50.995899,36.352661],[50.995884,36.352657],[50.995853,36.352642],[50.995842,36.352634],[50.995792,36.352623],[50.995777,36.352619],[50.995762,36.352596],[50.995705,36.352531],[50.995682,36.352493],[50.995674,36.352486],[50.995674,36.35247],[50.995667,36.352455],[50.995647,36.352413],[50.995632,36.352379],[50.995564,36.352283],[50.995525,36.352196],[50.995502,36.352146],[50.995472,36.352077],[50.995461,36.352009],[50.995426,36.351948],[50.99538,36.35186],[50.995335,36.35183],[50.995293,36.351814],[50.995193,36.351765],[50.995155,36.351727],[50.995136,36.351704],[50.995121,36.351688],[50.995087,36.351669],[50.995029,36.351624],[50.994987,36.351585],[50.994961,36.35154],[50.994946,36.351528],[50.994911,36.351513],[50.994877,36.351501],[50.994854,36.351486],[50.99485,36.351486],[50.994801,36.351479],[50.994698,36.351463],[50.994701,36.35149],[50.994705,36.351532],[50.99472,36.351604],[50.99472,36.351662],[50.994694,36.351692],[50.994686,36.351692],[50.994595,36.351639],[50.994541,36.35162],[50.994473,36.35162],[50.994453,36.351608],[50.994419,36.351604],[50.994373,36.351593],[50.994335,36.351593],[50.994301,36.351604],[50.994286,36.351601],[50.994267,36.351585],[50.994209,36.351582],[50.994209,36.351601],[50.994221,36.351627],[50.994232,36.35165],[50.994213,36.351681],[50.994228,36.351711],[50.994251,36.351753],[50.994267,36.351803],[50.994251,36.351837],[50.994255,36.351868],[50.994244,36.351894],[50.994175,36.351902],[50.994152,36.351883],[50.994129,36.351875],[50.99411,36.351868],[50.99411,36.351887],[50.99408,36.35191],[50.99403,36.351868],[50.993988,36.351868],[50.993946,36.351879],[50.993912,36.351887],[50.993851,36.351887],[50.99379,36.351871],[50.993721,36.351837],[50.993713,36.351833],[50.993641,36.351837],[50.993622,36.3518281],[50.993599,36.351822],[50.993576,36.351814],[50.993553,36.351799],[50.993488,36.351761],[50.993446,36.351738],[50.993446,36.351688],[50.993385,36.351646],[50.993263,36.351624],[50.993221,36.351616],[50.993149,36.351604],[50.993084,36.351604],[50.9930587,36.3515731],[50.993053,36.351543],[50.993046,36.35154],[50.993011,36.351475],[50.992947,36.351467],[50.992905,36.351471],[50.9928942,36.351466],[50.992886,36.3514677],[50.9928198,36.3514729],[50.9927738,36.3514649],[50.9927548,36.3514859],[50.9927318,36.3514959],[50.9926528,36.3514919],[50.9925648,36.3514749],[50.9925338,36.3514779],[50.9925118,36.3514869],[50.9924898,36.3514829],[50.9924438,36.3514829],[50.9924128,36.3514959],[50.9923578,36.3515089],[50.9923498,36.3515119],[50.9923028,36.3515179],[50.9922878,36.3515199],[50.9922508,36.3515339],[50.9921908,36.3515559],[50.9921678,36.3515609],[50.9921258,36.3515619],[50.9920918,36.3515749],[50.9920698,36.3515839],[50.9920478,36.3515949],[50.9920448,36.3515959],[50.9920378,36.3515919],[50.9920048,36.3515969],[50.9919908,36.3515929],[50.9919798,36.3516009],[50.9919718,36.3516169],[50.9919594,36.3516212],[50.9919478,36.3516209],[50.9919328,36.3516029],[50.9919158,36.3516049],[50.9919038,36.3516189],[50.9918348,36.3515859],[50.9917948,36.3515459],[50.9917468,36.3515139],[50.9917058,36.3514899],[50.9916768,36.3514809],[50.9916488,36.3514839],[50.9916118,36.3514699],[50.9915468,36.3514529],[50.9915208,36.3514599],[50.9914528,36.3514539],[50.9914118,36.3514419],[50.9913728,36.3514219],[50.9913538,36.3514129],[50.9913188,36.3513979],[50.9912628,36.3513859],[50.9912148,36.3513949],[50.9911948,36.3513869],[50.9911628,36.3513659],[50.9910728,36.3513309],[50.9910328,36.3513309],[50.9909658,36.3513089],[50.9909368,36.3513009],[50.9909248,36.3513009],[50.9908548,36.3513129],[50.9908168,36.3513249],[50.9907458,36.3513319],[50.9907178,36.3513269],[50.9906318,36.3513249],[50.9906178,36.3513409],[50.9905808,36.3513619],[50.9905698,36.3513789],[50.9905658,36.3514139],[50.9905638,36.3514229],[50.9905098,36.3514409],[50.9904368,36.3514489],[50.9904158,36.3514519],[50.9904068,36.3514499],[50.9903678,36.3514579],[50.9902958,36.3514629],[50.9902318,36.3514639],[50.9902168,36.3514649],[50.9901718,36.3515039],[50.9901628,36.3515069],[50.9901088,36.3515189],[50.9900488,36.3515109],[50.9900218,36.3515189],[50.9900028,36.3515479],[50.9900128,36.3515559],[50.9899818,36.3515799],[50.9899258,36.3515839],[50.9898508,36.3515929],[50.9897818,36.3516019],[50.9897168,36.3516299],[50.9896928,36.3516329],[50.9896838,36.3516369],[50.9896898,36.3516478],[50.9897038,36.3516669],[50.9897168,36.3516999],[50.9897148,36.3517189],[50.9897198,36.3517399],[50.9897298,36.3517589],[50.9896958,36.3517929],[50.9896848,36.3518549],[50.9896878,36.3518809],[50.9896668,36.3519299],[50.9896288,36.3519569],[50.9896008,36.3519689],[50.9895718,36.3519969],[50.9895188,36.3520219],[50.9894498,36.3520679],[50.9894338,36.3520789],[50.9894258,36.3520899],[50.9894038,36.3521269],[50.9893188,36.3521559],[50.9892328,36.3521889],[50.9891488,36.3522379],[50.9890288,36.3522689],[50.9889788,36.3522799],[50.9889548,36.3522839],[50.9888428,36.3523149],[50.9888218,36.3523269],[50.9887848,36.3523319],[50.9887398,36.3523199],[50.9886408,36.3523239],[50.9885628,36.3523319],[50.9884468,36.3523289],[50.9884338,36.3523309],[50.9883368,36.3523399],[50.9881888,36.3523329],[50.9881518,36.3523289],[50.9881108,36.3523349],[50.9879838,36.3523019],[50.9878838,36.3523019],[50.9878308,36.3523059],[50.9877878,36.3523019],[50.9876678,36.3522949],[50.9876138,36.3522909],[50.9875228,36.3523399],[50.9875088,36.3523579],[50.9874178,36.3524289],[50.9873318,36.3524489],[50.9872928,36.3524589],[50.9872018,36.3524709],[50.9871878,36.3524759],[50.9870808,36.3524889],[50.9870578,36.3524919],[50.9869578,36.3525129],[50.9868948,36.3525429],[50.9868098,36.3525619],[50.9867338,36.3525659],[50.9867058,36.3525879],[50.9866838,36.3526039],[50.9865948,36.3526069],[50.9865098,36.3526379],[50.9864388,36.3526519],[50.9864118,36.3526649],[50.9863508,36.3526899],[50.9863408,36.3527069],[50.9863218,36.3527299],[50.9862908,36.3527239],[50.9862768,36.3527209],[50.9862643,36.3527124],[50.9862458,36.3527119],[50.9861998,36.3527129],[50.9861898,36.3527139],[50.9861138,36.3527189],[50.9860598,36.3527219],[50.9859728,36.3527199],[50.9859618,36.3527209],[50.9859018,36.3527329],[50.9858788,36.3527549],[50.9858488,36.3527599],[50.9858308,36.3527679],[50.9858168,36.3527719],[50.9858078,36.3527689],[50.9857768,36.3527649],[50.9857458,36.3527709],[50.9856938,36.3527819],[50.9856688,36.3527839],[50.9856368,36.3527829],[50.9856138,36.3527869],[50.9855378,36.3528169],[50.9854238,36.3528529],[50.9853388,36.3528689],[50.9852448,36.3528859],[50.9851498,36.3528989],[50.9850148,36.3529249],[50.9849508,36.3529339],[50.9848698,36.3529519],[50.9848108,36.3529879],[50.9847898,36.3530009],[50.9847378,36.3530339],[50.9847178,36.3530479],[50.9846298,36.3530999],[50.9845668,36.3531429],[50.9844828,36.3531529],[50.9844718,36.3531499],[50.9844028,36.3531449],[50.9843938,36.3531499],[50.9843578,36.3531789],[50.9843258,36.3531939],[50.9842728,36.3532149],[50.9841618,36.3532379],[50.9840928,36.3532869],[50.9840208,36.3533299],[50.9838838,36.3533669],[50.9838558,36.3534009],[50.9838428,36.3534279],[50.9837498,36.3534569],[50.9836628,36.3534439],[50.9836418,36.3534449],[50.9835798,36.3534869],[50.9835538,36.3534999],[50.9834828,36.3535369],[50.9834078,36.3535759],[50.9833918,36.3535829],[50.9833248,36.3536489],[50.9832958,36.3536869],[50.9832408,36.3537509],[50.9832058,36.3537889],[50.9831678,36.3538409],[50.9830888,36.3538689],[50.9830748,36.3538819],[50.9830078,36.3539209],[50.9829588,36.3539659],[50.9829328,36.3539889],[50.9828548,36.3540139],[50.9827998,36.3540199],[50.9827438,36.3540309],[50.9826898,36.3540369],[50.9826368,36.3540499],[50.9825768,36.3540959],[50.9825258,36.3541329],[50.9824778,36.3541769],[50.9824208,36.3542169],[50.9823738,36.3542499],[50.9823348,36.3542789],[50.9822728,36.3543119],[50.9822448,36.3543419],[50.9822008,36.3543729],[50.9821618,36.3543999],[50.9820978,36.3544139],[50.9820188,36.3544389],[50.9819178,36.3544319],[50.9818858,36.3544519],[50.9818368,36.3545139],[50.9818028,36.3545469],[50.9817548,36.3545749],[50.9817438,36.3545789],[50.9817058,36.3545939],[50.9816918,36.3545989],[50.9816438,36.3546419],[50.9815998,36.3546629],[50.9815228,36.3546789],[50.9814958,36.3546839],[50.9814158,36.3547209],[50.9813548,36.3547489],[50.9812798,36.3547839],[50.9812228,36.3548269],[50.9812048,36.3548339],[50.9811823,36.3548349],[50.9811328,36.3548369],[50.9811098,36.3548369],[50.9810698,36.3548489],[50.9809978,36.3548429],[50.9809468,36.3548459],[50.9808758,36.3548739],[50.9808398,36.3548809],[50.9807928,36.3548849],[50.9807448,36.3549069],[50.9807368,36.3549089],[50.9806668,36.3549439],[50.9806108,36.3549469],[50.9805878,36.3549459],[50.9805298,36.3549449],[50.9805058,36.3549559],[50.9804538,36.3549859],[50.9803538,36.3549799],[50.9803048,36.3549789],[50.9802718,36.3550009],[50.9802508,36.3550049],[50.9802178,36.3550189],[50.9802068,36.3550319],[50.9801438,36.3550499],[50.9801328,36.3550529],[50.9800738,36.3550529],[50.9799888,36.3550549],[50.9799478,36.3550759],[50.9799308,36.3551329],[50.9799048,36.3551749],[50.9798868,36.3551879],[50.9798748,36.3552069],[50.9798048,36.3552199],[50.9797868,36.3552569],[50.9797298,36.3552769],[50.9796768,36.3553139],[50.9796118,36.3553489],[50.9795358,36.3553689],[50.9794878,36.3553799],[50.9794728,36.3553879],[50.9794008,36.3554059],[50.9793668,36.3554059],[50.9793428,36.3554129],[50.9792668,36.3554539],[50.9792338,36.3554869],[50.9791718,36.3555059],[50.9791498,36.3555299],[50.9790968,36.3555529],[50.9790888,36.3555569],[50.9790738,36.3555729],[50.9790538,36.3555189],[50.9790688,36.3555039],[50.9790038,36.3554959],[50.9789788,36.3554979],[50.9789138,36.3554819],[50.9788648,36.3554799],[50.9788658,36.3554949],[50.9787968,36.3555199],[50.9787428,36.3555199],[50.9786508,36.3555249],[50.9786418,36.3555359],[50.9786268,36.3555469],[50.9785958,36.3555489],[50.9785628,36.3555419],[50.9785248,36.3555419],[50.9785138,36.3555429],[50.9785038,36.3555229],[50.9785068,36.3555159],[50.9784798,36.3555379],[50.9784088,36.3555599],[50.9784028,36.3555649],[50.9783258,36.3555739],[50.9782998,36.3555659],[50.9782458,36.3555419],[50.9781898,36.3555729],[50.9781618,36.3555889],[50.9780848,36.3555699],[50.9780898,36.3555639],[50.9780438,36.3555759],[50.9780008,36.3555789],[50.9779918,36.3555599],[50.9779808,36.3555579],[50.9779618,36.3555199],[50.9779028,36.3555389],[50.9778238,36.3555769],[50.9777488,36.3555939],[50.9776758,36.3556199],[50.9776708,36.3556259],[50.9776258,36.3556429],[50.9775558,36.3556589],[50.9775152,36.3556761],[50.9774891,36.3556865],[50.977455,36.355732],[50.977386,36.355793],[50.977337,36.355843],[50.977291,36.355896],[50.977242,36.355938],[50.977165,36.355984],[50.977108,36.35603],[50.977032,36.356083],[50.976997,36.356133],[50.976944,36.356178],[50.976879,36.356213],[50.976845,36.356266],[50.976818,36.356308],[50.976818,36.356312],[50.97681,36.356308],[50.976807,36.356308],[50.976757,36.356358],[50.976727,36.3564],[50.976688,36.356449],[50.976715,36.356472],[50.97673,36.356525],[50.976707,36.356541],[50.976646,36.356556],[50.976574,36.356586],[50.976494,36.356625],[50.97644,36.356644],[50.976368,36.356659],[50.976315,36.356686],[50.976276,36.356705],[50.976219,36.356739],[50.9762,36.356747],[50.976166,36.356762],[50.976147,36.356785],[50.976147,36.356789],[50.976166,36.356831],[50.976166,36.356853],[50.976177,36.356888],[50.976177,36.356907],[50.976196,36.356964],[50.9762,36.356987],[50.976128,36.356998],[50.976089,36.357025],[50.976032,36.357033],[50.97596,36.35709],[50.975929,36.357124],[50.975876,36.357166],[50.975819,36.357193],[50.975758,36.357208],[50.975693,36.357212],[50.975624,36.357239],[50.975533,36.357273],[50.975449,36.357277],[50.975368,36.357281],[50.975342,36.357296],[50.975311,36.357327],[50.975277,36.357372],[50.975189,36.357372],[50.975121,36.357437],[50.975002,36.357498],[50.974957,36.357555],[50.974964,36.357574],[50.974957,36.357597],[50.974895,36.357666],[50.97485,36.357689],[50.974762,36.357719],[50.974689,36.35775],[50.974659,36.357784],[50.974533,36.357853],[50.974483,36.357899],[50.974407,36.357952],[50.974342,36.357971],[50.974289,36.357994],[50.974236,36.358025],[50.974182,36.358047],[50.974121,36.358089],[50.974102,36.358078],[50.974094,36.358112],[50.974018,36.35815],[50.973942,36.358227],[50.973881,36.358315],[50.97385,36.358391],[50.973812,36.358418],[50.97374,36.358486],[50.973686,36.358524],[50.973671,36.358532],[50.973602,36.358578],[50.973557,36.358635],[50.973557,36.358639],[50.973526,36.358673],[50.973526,36.358677],[50.973511,36.358681],[50.973488,36.3587],[50.973473,36.358704],[50.973465,36.358711],[50.973454,36.358715],[50.973434,36.358738],[50.973324,36.358826],[50.973251,36.358875],[50.973125,36.358967],[50.973015,36.359009],[50.972977,36.359032],[50.972939,36.359028],[50.972862,36.359039],[50.97282,36.359066],[50.972809,36.359066],[50.972702,36.359108],[50.972546,36.359184],[50.972439,36.359226],[50.972328,36.359276],[50.972229,36.359367],[50.972141,36.35939],[50.972118,36.359398],[50.97205,36.359421],[50.971954,36.359444],[50.971874,36.359455],[50.97179,36.359482],[50.971718,36.359497],[50.971634,36.359497],[50.971569,36.359501],[50.971493,36.359509],[50.971432,36.35952],[50.971367,36.359524],[50.971336,36.359531],[50.971252,36.359505],[50.971199,36.359554],[50.971146,36.359562],[50.971073,36.3596],[50.971012,36.359631],[50.970936,36.359623],[50.970905,36.359638],[50.970833,36.359676],[50.97076,36.359715],[50.970684,36.359737],[50.97065,36.359791],[50.970615,36.359821],[50.970531,36.359844],[50.970455,36.359844],[50.970387,36.359863],[50.970329,36.35989],[50.970261,36.359943],[50.970184,36.35997],[50.970142,36.359997],[50.970078,36.360065],[50.97002,36.360107],[50.969978,36.360172],[50.969944,36.360252],[50.969898,36.360321],[50.969852,36.360363],[50.969769,36.360374],[50.969681,36.360371],[50.969601,36.360367],[50.969532,36.36034],[50.969444,36.360332],[50.96933,36.360317],[50.969246,36.360294],[50.96917,36.36031],[50.969086,36.360317],[50.969006,36.360332],[50.968929,36.360352],[50.968857,36.360378],[50.968788,36.360401],[50.968746,36.360428],[50.968655,36.360462],[50.968578,36.360504],[50.96851,36.360546],[50.968456,36.360561],[50.968349,36.360607],[50.96825,36.360649],[50.968151,36.360676],[50.96806,36.360714],[50.968021,36.360725],[50.967968,36.360752],[50.96785,36.360779],[50.967842,36.360779],[50.967735,36.360844],[50.967674,36.360863],[50.967556,36.360901],[50.967445,36.360909],[50.967369,36.360931],[50.967285,36.360947],[50.967186,36.36095],[50.967117,36.360958],[50.967037,36.360992],[50.96701,36.361023],[50.966957,36.361061],[50.966885,36.361061],[50.966812,36.36108],[50.966713,36.361103],[50.966637,36.361115],[50.966537,36.361095],[50.966465,36.361095],[50.96645,36.361115],[50.966457,36.361115],[50.966442,36.36113],[50.966377,36.361168],[50.96629,36.361225],[50.966202,36.361233],[50.966198,36.361233],[50.966141,36.361275],[50.966099,36.361294],[50.96603,36.361328],[50.965984,36.36137],[50.965935,36.361404],[50.965878,36.36145],[50.965843,36.361477],[50.965771,36.361504],[50.965752,36.361515],[50.965714,36.36153],[50.965679,36.36158],[50.965652,36.36161],[50.965595,36.361622],[50.965515,36.361641],[50.965473,36.361683],[50.965431,36.361725],[50.96542,36.361759],[50.965374,36.361794],[50.965324,36.361801],[50.965309,36.361801],[50.965286,36.36182],[50.965286,36.361828],[50.965282,36.361832],[50.965279,36.361835],[50.965271,36.361839],[50.965267,36.361843],[50.965263,36.361847],[50.965248,36.361839],[50.965202,36.361855],[50.965183,36.361874],[50.965137,36.361931],[50.965069,36.361958],[50.964993,36.361977],[50.964993,36.361984],[50.96505,36.362022],[50.965065,36.362041],[50.965023,36.362057],[50.964947,36.362083],[50.964928,36.362099],[50.964916,36.362106],[50.964874,36.362114],[50.964851,36.362133],[50.964832,36.362156],[50.964806,36.362164],[50.964787,36.362175],[50.96476,36.362186],[50.964741,36.36224],[50.964695,36.362251],[50.964668,36.362278],[50.964653,36.362286],[50.964645,36.362312],[50.964672,36.362347],[50.964684,36.362343],[50.964691,36.362354],[50.96471,36.362408],[50.964725,36.362423],[50.964699,36.362453],[50.964706,36.362488],[50.964695,36.362495],[50.964695,36.362518],[50.964718,36.362534],[50.964706,36.36256],[50.964676,36.362579],[50.964691,36.362625],[50.964672,36.362648],[50.964664,36.362667],[50.964684,36.362682],[50.964687,36.362682],[50.964703,36.362705],[50.964706,36.362705],[50.964706,36.362709],[50.964737,36.362736],[50.964729,36.362743],[50.964729,36.362751],[50.964714,36.362785],[50.964729,36.362797],[50.964699,36.362835],[50.964664,36.362865],[50.9645939,36.3628849],[50.964584,36.3629],[50.964569,36.362934],[50.964569,36.362957],[50.964565,36.362968],[50.964561,36.362972],[50.964573,36.36298],[50.964588,36.362999],[50.964622,36.363003],[50.964588,36.363041],[50.964504,36.363079],[50.964489,36.363083],[50.964561,36.363121],[50.964634,36.363129],[50.964634,36.363136],[50.964558,36.363178],[50.964478,36.363205],[50.964394,36.363228],[50.964367,36.363247],[50.964275,36.363266],[50.964211,36.36327],[50.964172,36.363297],[50.964104,36.363297],[50.964119,36.363338],[50.964138,36.363354],[50.964161,36.363369],[50.964146,36.363392],[50.964123,36.363407],[50.964157,36.363441],[50.964161,36.363464],[50.964188,36.363483],[50.964195,36.363495],[50.964203,36.363522],[50.964191,36.363529],[50.964169,36.363533],[50.964161,36.363571],[50.964157,36.363579],[50.964149,36.363586],[50.964119,36.363602],[50.964108,36.363613],[50.9641,36.363647],[50.964088,36.363659],[50.964054,36.363667],[50.964035,36.363697],[50.964054,36.363724],[50.964108,36.363735],[50.964138,36.36375],[50.964142,36.363785],[50.96413,36.363796],[50.964134,36.363808],[50.964062,36.363827],[50.963966,36.363842],[50.963871,36.363869],[50.963768,36.363888],[50.96376,36.363895],[50.963673,36.363918],[50.963615,36.363945],[50.963558,36.363972],[50.963528,36.363995],[50.963451,36.364037],[50.963428,36.364059],[50.963467,36.364079],[50.963524,36.36409],[50.963589,36.364098],[50.963566,36.36412],[50.963501,36.364162],[50.963451,36.3641848],[50.963432,36.364201],[50.963425,36.364201],[50.963345,36.364227],[50.963322,36.364227],[50.9632811,36.3642501],[50.963261,36.364262],[50.963215,36.364277],[50.9632,36.364292],[50.963104,36.364315],[50.963013,36.364323],[50.962944,36.364361],[50.962818,36.364422],[50.962791,36.364456],[50.96273,36.364521],[50.962711,36.364532],[50.962696,36.364544],[50.9627,36.364544],[50.962673,36.364555],[50.962669,36.364563],[50.962677,36.364567],[50.962677,36.364571],[50.962635,36.364635],[50.962624,36.364647],[50.962532,36.364803],[50.962521,36.364834],[50.962509,36.364857],[50.962456,36.364922],[50.962395,36.364975],[50.962311,36.365032],[50.962299,36.365059],[50.962265,36.365093],[50.962234,36.365158],[50.962227,36.365288],[50.962212,36.365417],[50.962212,36.365448],[50.962215,36.365456],[50.962204,36.365532],[50.962208,36.36565],[50.962234,36.365795],[50.962242,36.365814],[50.962242,36.365837],[50.962261,36.365875],[50.962303,36.365921],[50.962322,36.36602],[50.962372,36.366127],[50.962383,36.366146],[50.962402,36.366165],[50.962433,36.366177],[50.962444,36.366138],[50.96246,36.366146],[50.962509,36.366146],[50.96254,36.366184],[50.962543,36.366207],[50.962559,36.366253],[50.962563,36.366295],[50.962574,36.366306],[50.962582,36.366329],[50.962589,36.366379],[50.962616,36.366421],[50.962612,36.366425],[50.962616,36.366428],[50.962612,36.366467],[50.96262,36.366486],[50.962666,36.366573],[50.962742,36.366707],[50.962791,36.366787],[50.962845,36.366859],[50.962864,36.366894],[50.962864,36.366905],[50.962883,36.366974],[50.962952,36.367092],[50.962982,36.367157],[50.962997,36.367226],[50.963039,36.367317],[50.963058,36.367336],[50.963093,36.367405],[50.963131,36.367462],[50.963146,36.367516],[50.963158,36.367611],[50.963192,36.367672],[50.963223,36.367702],[50.96323,36.367718],[50.963264,36.367748],[50.963287,36.367783],[50.963314,36.367813],[50.963337,36.367855],[50.963367,36.367901],[50.963379,36.367912],[50.96339,36.367935],[50.963421,36.367981],[50.963444,36.368004],[50.96349,36.368057],[50.963497,36.368095],[50.963505,36.368118],[50.963512,36.36813],[50.963581,36.368355],[50.963619,36.368404],[50.963676,36.368465],[50.963745,36.368484],[50.963753,36.368496],[50.963772,36.368507],[50.96376,36.368507],[50.963772,36.368523],[50.963768,36.368523],[50.963768,36.368538],[50.963776,36.368553],[50.963768,36.368553],[50.963772,36.368557],[50.963776,36.368568],[50.963791,36.368587],[50.963787,36.368599],[50.963787,36.368614],[50.963825,36.368633],[50.963844,36.368664],[50.963867,36.368675],[50.963856,36.368664],[50.963871,36.368668],[50.96389,36.368702],[50.96389,36.368729],[50.963886,36.368748],[50.963871,36.368778],[50.963863,36.368786],[50.96386,36.368847],[50.96384,36.368881],[50.96384,36.368927],[50.963909,36.368996],[50.963921,36.368999],[50.963913,36.369007],[50.963909,36.369015],[50.963936,36.36908],[50.963943,36.369106],[50.96397,36.36916],[50.964104,36.369259],[50.964115,36.369278],[50.964123,36.369286],[50.964149,36.369411],[50.964207,36.369499],[50.964226,36.369534],[50.964256,36.369698],[50.964252,36.369713],[50.964249,36.369774],[50.96426,36.369793],[50.964256,36.369835],[50.964291,36.369884],[50.964306,36.3699],[50.96434,36.369968],[50.964424,36.370068],[50.964443,36.370102],[50.964455,36.370132],[50.964462,36.370228],[50.964466,36.370335],[50.964474,36.370369],[50.964478,36.370571],[50.964481,36.370613],[50.964481,36.370697],[50.964485,36.370743],[50.964451,36.370861],[50.964451,36.371071],[50.964409,36.371193],[50.964401,36.371223],[50.964394,36.371273],[50.964375,36.371311],[50.964386,36.37159],[50.964298,36.371773],[50.964233,36.371845],[50.964188,36.371899],[50.964172,36.371922],[50.964085,36.372013],[50.964062,36.372028],[50.964035,36.372173],[50.96397,36.372253],[50.963963,36.372307],[50.963963,36.372334],[50.963936,36.372341],[50.963924,36.372341],[50.963921,36.372345],[50.963894,36.372356],[50.963829,36.372395],[50.963757,36.372459],[50.963665,36.372486],[50.963619,36.372505],[50.963558,36.372551],[50.963478,36.372593],[50.96347,36.372593],[50.963451,36.372608],[50.963394,36.372635],[50.96336,36.372658],[50.963417,36.372746],[50.963402,36.372761],[50.96339,36.372799],[50.963402,36.372807],[50.96339,36.372879],[50.963375,36.372902],[50.963379,36.372929],[50.963375,36.372967],[50.963371,36.372978],[50.963364,36.373028],[50.963371,36.373066],[50.963371,36.373096],[50.963394,36.373131],[50.963409,36.373142],[50.963406,36.373177],[50.963417,36.373203],[50.963409,36.373226],[50.963432,36.373264],[50.963444,36.37326],[50.963448,36.373295],[50.963444,36.373314],[50.963448,36.373344],[50.96349,36.373405],[50.963474,36.373432],[50.963474,36.373451],[50.963482,36.373482],[50.963486,36.373489],[50.963482,36.373493],[50.963478,36.37352],[50.963478,36.373524],[50.963482,36.373524],[50.963482,36.373554],[50.963474,36.373562],[50.963467,36.373585],[50.963467,36.3736],[50.963448,36.373611],[50.963448,36.373615],[50.963417,36.373653],[50.963413,36.373665],[50.963352,36.373707],[50.963322,36.373741],[50.963303,36.373768],[50.963299,36.373768],[50.963291,36.373802],[50.963295,36.373829],[50.96328,36.373848],[50.96328,36.373859],[50.963261,36.373882],[50.963242,36.373913],[50.963245,36.373928],[50.963242,36.374016],[50.963226,36.374035],[50.963223,36.374084],[50.96323,36.374104],[50.963238,36.374107],[50.963242,36.374123],[50.963242,36.374149],[50.963234,36.374157],[50.963245,36.374187],[50.963264,36.374222],[50.963264,36.374241],[50.963268,36.374256],[50.963276,36.374271],[50.963276,36.37429],[50.96328,36.374302],[50.963303,36.374325],[50.963295,36.37434],[50.963287,36.374348],[50.963284,36.374355],[50.963287,36.374355],[50.963276,36.374367],[50.963272,36.374382],[50.96328,36.374428],[50.963272,36.374466],[50.963261,36.374493],[50.963264,36.374523],[50.963257,36.374561],[50.963245,36.374573],[50.963245,36.374577],[50.963253,36.374607],[50.963264,36.374615],[50.963291,36.374622],[50.963322,36.374638],[50.963356,36.374664],[50.963352,36.374664],[50.963352,36.374672],[50.963371,36.374687],[50.963371,36.374691],[50.963375,36.374691],[50.963402,36.37471],[50.963406,36.374718],[50.963413,36.374722],[50.963409,36.374722],[50.963406,36.374744],[50.963417,36.374771],[50.963409,36.374783],[50.963406,36.374798],[50.963417,36.374817],[50.963417,36.374832],[50.963428,36.374851],[50.963425,36.374855],[50.963459,36.374882],[50.963478,36.374901],[50.963486,36.374897],[50.963516,36.374912],[50.96352,36.374908],[50.963547,36.374924],[50.963547,36.374939],[50.963551,36.374943],[50.963547,36.374947],[50.963554,36.374958],[50.963566,36.374989],[50.96352,36.375008],[50.963486,36.375031],[50.963467,36.375046],[50.963436,36.375061],[50.963406,36.375072],[50.963402,36.375072],[50.963383,36.375088],[50.963356,36.375111],[50.963322,36.375114],[50.963287,36.375118],[50.963268,36.375114],[50.963261,36.375111],[50.963253,36.375118],[50.963242,36.375141],[50.963226,36.375145],[50.963223,36.375153],[50.963196,36.375168],[50.963207,36.375183],[50.963192,36.375202],[50.963181,36.375214],[50.963177,36.375217],[50.963177,36.375237],[50.963169,36.375267],[50.963139,36.375282],[50.963112,36.375313],[50.96312,36.375328],[50.9631,36.375351],[50.963089,36.375378],[50.963097,36.375389],[50.963093,36.375393],[50.963081,36.375408],[50.963013,36.375427],[50.962959,36.375458],[50.962936,36.375465],[50.962914,36.375477],[50.962921,36.375492],[50.962883,36.375511],[50.962852,36.375519],[50.962761,36.375553],[50.962719,36.375584],[50.962704,36.375591],[50.962662,36.375603],[50.962643,36.375607],[50.962635,36.375607],[50.962593,36.375622],[50.962536,36.375648],[50.962479,36.375683],[50.962475,36.37569],[50.962463,36.375694],[50.9624638,36.3757021],[50.9624617,36.3757039],[50.96246,36.375706],[50.962429,36.375725],[50.96241,36.375721],[50.962391,36.375725],[50.962379,36.375721],[50.962376,36.375721],[50.962368,36.375725],[50.962368,36.375729],[50.9623551,36.3757386],[50.9623471,36.3757477],[50.9623377,36.3757607],[50.9623102,36.3757621],[50.9622942,36.3757621],[50.9622762,36.3757621],[50.9622612,36.3757551],[50.9622582,36.3757521],[50.9622362,36.3757431],[50.9622152,36.3757491],[50.9622032,36.3757521],[50.9621982,36.3757531],[50.9621792,36.3757491],[50.9621732,36.3757411],[50.9621322,36.3757281],[50.9621272,36.3757261],[50.9620952,36.3757351],[50.9620842,36.3757411],[50.9620532,36.3757451],[50.9620462,36.3757441],[50.9620062,36.3757451],[50.9619682,36.3757561],[50.9619692,36.3757641],[50.9619342,36.3757571],[50.9619272,36.3757571],[50.9618882,36.3757671],[50.9618632,36.3757701],[50.961832,36.375685]]}}]}
