{"type":"FeatureCollection","peaks_destination_id":"FD2AFAD0E92F8F2B0181","peaks_trailhead_id":"BBF6ABB37744B902E07B","peaks_source":"https://www.openstreetmap.org/","peaks_retrieval_source":"https://api.openstreetmap.org/api/0.6","peaks_license_name":"Open Data Commons Open Database License (ODbL) 1.0","peaks_license":"https://opendatacommons.org/licenses/odbl/1-0/","peaks_attribution":"© OpenStreetMap contributors","peaks_retrieved_at":"2026-07-31T09:45:09.201Z","features":[{"type":"Feature","properties":{"name":"Antelao OSM route candidate","trailhead_name":"Rifugio Scotter-Palatini","destination_name":"Antelao","distance_m":5291.3455671133015,"trailhead_snap_m":16.04866223909264,"summit_snap_m":7.179652268244009,"osm_way_ids":[39117342,1420393789,514720217,863888632,39117344,369442193,446339533],"osm_way_urls":["https://www.openstreetmap.org/way/39117342","https://www.openstreetmap.org/way/1420393789","https://www.openstreetmap.org/way/514720217","https://www.openstreetmap.org/way/863888632","https://www.openstreetmap.org/way/39117344","https://www.openstreetmap.org/way/369442193","https://www.openstreetmap.org/way/446339533"],"osm_way_names":[],"osm_foot_access_override_way_ids":[]},"geometry":{"type":"LineString","coordinates":[[12.2358726,46.4721332],[12.2356631,46.4721296],[12.2356395,46.4721438],[12.2356811,46.4722532],[12.2356758,46.4723434],[12.2356878,46.4724493],[12.2367203,46.4720642],[12.2369347,46.4719889],[12.2371428,46.4718767],[12.2377014,46.4716588],[12.2380767,46.4715395],[12.2384722,46.4714262],[12.2387345,46.4713518],[12.2388314,46.4713375],[12.2389076,46.4713613],[12.2389492,46.4714018],[12.238963,46.4714472],[12.2389388,46.4714853],[12.2389596,46.4715426],[12.2390115,46.4715926],[12.2391154,46.471626],[12.2391812,46.4716713],[12.2391812,46.4717047],[12.2391535,46.4717405],[12.2393751,46.4719218],[12.2394374,46.4719981],[12.2395309,46.4720338],[12.2396071,46.4720792],[12.239621,46.4721125],[12.2395933,46.4721746],[12.2396106,46.4722318],[12.2396521,46.4722366],[12.2397214,46.4722342],[12.2398183,46.4722771],[12.2398772,46.4723129],[12.2399742,46.472332],[12.24004,46.472351],[12.2400657,46.4724014],[12.2401595,46.4724128],[12.2402405,46.4724363],[12.2403926,46.472442],[12.2404221,46.4724524],[12.2404146,46.4724702],[12.2403654,46.4724947],[12.2403858,46.4725228],[12.2404993,46.4725285],[12.2405372,46.4725291],[12.2405441,46.4726015],[12.2406299,46.4726774],[12.2407919,46.4727346],[12.2409105,46.4728229],[12.2409511,46.4728356],[12.2409456,46.4728738],[12.2409885,46.4728917],[12.2411535,46.4729801],[12.2412234,46.4731014],[12.2413176,46.4730986],[12.241548,46.4733253],[12.241838,46.4733461],[12.2420587,46.4734058],[12.2422115,46.4734929],[12.2423245,46.473569],[12.2424102,46.4736461],[12.242458,46.4737329],[12.2425895,46.4737467],[12.2426981,46.4737133],[12.2428265,46.4737543],[12.2428662,46.4738151],[12.2428707,46.4739669],[12.2429753,46.4739518],[12.2430491,46.473993],[12.2429868,46.4740811],[12.2430186,46.4741109],[12.243206,46.4741046],[12.2432679,46.4741578],[12.2431889,46.4741805],[12.2431701,46.4742867],[12.2433067,46.4742904],[12.2435238,46.4741904],[12.2436486,46.4740909],[12.2437133,46.4741156],[12.2437259,46.4741805],[12.2436883,46.4743197],[12.2435902,46.4744847],[12.2436768,46.4745105],[12.2439077,46.4744071],[12.2440492,46.4743515],[12.2440232,46.4744648],[12.2439077,46.474596],[12.2438789,46.4746636],[12.2441041,46.474596],[12.2444765,46.4744191],[12.244514,46.4744807],[12.2444563,46.474602],[12.2445977,46.474604],[12.2448287,46.4745344],[12.2449471,46.4745244],[12.2451434,46.4745384],[12.245178,46.4743793],[12.2453166,46.4741149],[12.2454783,46.4737987],[12.2458507,46.4732758],[12.2464685,46.4726754],[12.2475009,46.4721103],[12.2483379,46.471185],[12.2492519,46.4709271],[12.2491969,46.4714429],[12.2501893,46.4710274],[12.2505131,46.470957],[12.2505827,46.4710217],[12.250598,46.4710445],[12.2506395,46.471078],[12.2507996,46.4711984],[12.2514834,46.4707814],[12.2514778,46.4714533],[12.2522728,46.470863],[12.2523302,46.47095],[12.2524248,46.4708634],[12.2525106,46.4710263],[12.2525386,46.4711495],[12.2525505,46.4713073],[12.252781,46.4709815],[12.252996,46.4706987],[12.2531511,46.4706117],[12.2533929,46.4703458],[12.2533465,46.4701519],[12.253064,46.4699242],[12.2532377,46.4697269],[12.2535565,46.4696275],[12.2539174,46.4695596],[12.254721,46.4694212],[12.2548303,46.4694167],[12.2549999,46.4693551],[12.2553739,46.4693391],[12.2556803,46.4694058],[12.2559569,46.4693542],[12.2561069,46.4693339],[12.2562693,46.4693234],[12.2563589,46.4691663],[12.2563388,46.4690268],[12.256323,46.4688613],[12.2563482,46.4687784],[12.2563368,46.4687273],[12.2563812,46.468597],[12.2562809,46.4685013],[12.2563929,46.4683548],[12.2565036,46.4682655],[12.2565038,46.4681521],[12.2564614,46.4679834],[12.2562978,46.4677949],[12.2562543,46.4674889],[12.2567216,46.467176],[12.2569737,46.4668417],[12.2575954,46.4664137],[12.2579125,46.4662394],[12.2581887,46.4661581],[12.258296,46.4659475],[12.2584543,46.4658514],[12.2585723,46.4656556],[12.2589419,46.4652775],[12.259363,46.4651611],[12.2593726,46.4647898],[12.2595278,46.4645389],[12.25943,46.4642687],[12.2595427,46.46372],[12.2592155,46.4633173],[12.2589157,46.4629977],[12.2587756,46.4628092],[12.2585467,46.4627026],[12.2585826,46.4625314],[12.2584886,46.4623251],[12.2582007,46.4619644],[12.2576652,46.4618595],[12.2575481,46.4618429],[12.2571849,46.4620085],[12.2570429,46.4623602],[12.2569088,46.4623214],[12.2569115,46.4617505],[12.2567237,46.4612498],[12.2564796,46.46149],[12.256426,46.4614549],[12.2565386,46.461102],[12.2563046,46.4610404],[12.2563234,46.4607662],[12.2561384,46.460522],[12.2564168,46.4603782],[12.2564462,46.4601593],[12.2568015,46.460132],[12.2568573,46.4600066],[12.2569959,46.45975],[12.2571396,46.459751],[12.257186,46.459664],[12.2574171,46.4596479],[12.2578339,46.4592571],[12.2578333,46.4591461],[12.2580272,46.4590899],[12.258207,46.459066],[12.2583868,46.4589934],[12.258431,46.4588111],[12.2584531,46.4583882],[12.2587391,46.4581458],[12.2589633,46.4578242],[12.2596841,46.457115],[12.2599109,46.4569334],[12.2600901,46.4566348],[12.2601323,46.4564161],[12.2603716,46.4561262],[12.2604412,46.455799],[12.2606125,46.4555449],[12.2606042,46.4553056],[12.2607494,46.4548702],[12.260674,46.454802],[12.2606041,46.4543331],[12.2605892,46.453821],[12.2604909,46.4532166],[12.2605265,46.4529639],[12.2606023,46.4527461],[12.2605838,46.4525445],[12.26063,46.4525169],[12.2607871,46.4525975],[12.2609751,46.4526697],[12.2611538,46.4527758],[12.2612893,46.4528056],[12.2613787,46.4527015],[12.2613818,46.4525614],[12.2614552,46.4522894],[12.2617489,46.4519407],[12.2618005,46.4518868]]}}]}
