{"type":"FeatureCollection","peaks_destination_id":"t8cuBTzVTeDlAyS6Erfp","peaks_trailhead_id":"1E736DA6B08EF71E92C9","peaks_source":"https://www.openstreetmap.org/","peaks_retrieval_source":"https://api.openstreetmap.org/api/0.6","peaks_license_name":"Open Data Commons Open Database License (ODbL) 1.0","peaks_license":"https://opendatacommons.org/licenses/odbl/1-0/","peaks_attribution":"© OpenStreetMap contributors","peaks_retrieved_at":"2026-07-30T17:23:20.259Z","features":[{"type":"Feature","properties":{"name":"Arc Dome OSM route candidate","trailhead_name":"Columbine Campground","destination_name":"Arc Dome","distance_m":10507.84580537311,"trailhead_snap_m":50.92800810466105,"summit_snap_m":5.713121131432768,"osm_way_ids":[413183875,1206740478,413178896,413178898],"osm_way_urls":["https://www.openstreetmap.org/way/413183875","https://www.openstreetmap.org/way/1206740478","https://www.openstreetmap.org/way/413178896","https://www.openstreetmap.org/way/413178898"],"osm_way_names":["096","Toiyabe Crest Trail","Arc Dome Trail","Arc Dome Summit Trail"],"osm_foot_access_override_way_ids":[]},"geometry":{"type":"LineString","coordinates":[[-117.3760942,38.9000864],[-117.3766596,38.9002135],[-117.376671,38.8998441],[-117.3765852,38.8995874],[-117.3763814,38.8994392],[-117.3761775,38.8992617],[-117.3761845,38.8990369],[-117.3760863,38.8988296],[-117.3759946,38.898458],[-117.3759254,38.8981825],[-117.3759246,38.8978151],[-117.3758019,38.897406],[-117.3756357,38.8972264],[-117.375507,38.8969843],[-117.3755499,38.8967004],[-117.3755906,38.8964699],[-117.3755633,38.8963998],[-117.375523,38.8963631],[-117.375489,38.8963322],[-117.3754064,38.8963154],[-117.3752527,38.8963068],[-117.3751136,38.8962961],[-117.3749707,38.8963424],[-117.3748377,38.8963852],[-117.3747683,38.8963404],[-117.3745937,38.8960346],[-117.3744544,38.8958458],[-117.3741999,38.8957024],[-117.3740842,38.8956217],[-117.3735057,38.895254],[-117.3730896,38.8950661],[-117.3729739,38.8949944],[-117.372673,38.8947881],[-117.3725341,38.8946804],[-117.3723258,38.8945278],[-117.3720714,38.8943935],[-117.3718633,38.894286],[-117.3717246,38.8942324],[-117.3714474,38.8941341],[-117.3712391,38.8939906],[-117.3710885,38.8938559],[-117.3708334,38.8935954],[-117.3705672,38.893407],[-117.3703705,38.8932724],[-117.3701741,38.8932009],[-117.3699429,38.8930845],[-117.3696773,38.8930043],[-117.3694458,38.8928338],[-117.3692838,38.8927171],[-117.3690869,38.8925555],[-117.3688437,38.892349],[-117.368682,38.8922955],[-117.3683703,38.8922244],[-117.3681508,38.892153],[-117.3676777,38.8920733],[-117.3674699,38.8920199],[-117.3671699,38.8919938],[-117.3666851,38.8918872],[-117.366408,38.891825],[-117.3659004,38.8917725],[-117.3656927,38.8917371],[-117.365404,38.8916479],[-117.3651729,38.8915585],[-117.3649995,38.8914689],[-117.3647798,38.8913435],[-117.3646064,38.8912539],[-117.3643749,38.8910834],[-117.3640048,38.8908682],[-117.3637736,38.8907428],[-117.3635537,38.8905813],[-117.3632411,38.8903389],[-117.3630677,38.8902403],[-117.3628825,38.8901057],[-117.3626857,38.8899532],[-117.362547,38.8898815],[-117.3621426,38.8897115],[-117.3619691,38.8896129],[-117.3618071,38.8894963],[-117.3615637,38.8892537],[-117.361239,38.8888852],[-117.3610074,38.8886877],[-117.3608337,38.888544],[-117.3606486,38.8884184],[-117.3604061,38.8883291],[-117.3602327,38.8882575],[-117.3600595,38.888204],[-117.3598168,38.8880786],[-117.3597243,38.8880248],[-117.3593544,38.8878457],[-117.3591809,38.8877291],[-117.3588224,38.8875229],[-117.358649,38.8874423],[-117.3584871,38.8873437],[-117.358071,38.8871287],[-117.3579205,38.887012],[-117.3577817,38.8869133],[-117.3575735,38.8867878],[-117.3573768,38.8866532],[-117.3572033,38.8865456],[-117.3571804,38.8865637],[-117.3570888,38.8866901],[-117.3571129,38.8868973],[-117.3570328,38.8870237],[-117.3570098,38.8870328],[-117.356744,38.8869074],[-117.3564665,38.8867551],[-117.3563161,38.8866564],[-117.3558655,38.8864685],[-117.3557267,38.8863879],[-117.355484,38.8862534],[-117.3552531,38.886191],[-117.3550796,38.8860924],[-117.3547218,38.8860214],[-117.3544103,38.8859683],[-117.3542833,38.8859417],[-117.3540754,38.8858612],[-117.3539942,38.8857713],[-117.3539245,38.8856634],[-117.353773,38.8853394],[-117.3536677,38.8850243],[-117.3536556,38.8848982],[-117.3536315,38.884691],[-117.3536308,38.8845468],[-117.3536525,38.8842854],[-117.3536636,38.8841862],[-117.3535589,38.8839973],[-117.3534779,38.8839435],[-117.353409,38.8839978],[-117.3533753,38.8841691],[-117.3533298,38.8843044],[-117.353273,38.8844668],[-117.3531931,38.8846292],[-117.353102,38.8848638],[-117.3530684,38.8850712],[-117.3530227,38.8851614],[-117.3528283,38.8844617],[-117.3526723,38.8827837],[-117.3526674,38.8826385],[-117.3526234,38.882082],[-117.3524656,38.881303],[-117.3523923,38.8802023],[-117.352297,38.8797923],[-117.3521682,38.8794624],[-117.3520536,38.8793427],[-117.351903,38.8793062],[-117.351666,38.8793213],[-117.3511688,38.8794347],[-117.3508931,38.879463],[-117.3506673,38.8793845],[-117.3508804,38.8793059],[-117.3511956,38.8790338],[-117.3514448,38.8788299],[-117.3519614,38.8784507],[-117.3520532,38.8783287],[-117.352411,38.8776928],[-117.352673,38.8775633],[-117.3526602,38.8774738],[-117.3525648,38.877425],[-117.3526462,38.8773544],[-117.3525333,38.8772902],[-117.3526941,38.8771271],[-117.3527743,38.8769584],[-117.3528412,38.8768869],[-117.3529207,38.8766636],[-117.3530889,38.8764761],[-117.3531909,38.8762243],[-117.3531087,38.8761796],[-117.353005,38.8761346],[-117.3528752,38.8759762],[-117.3528311,38.8758408],[-117.3528096,38.8757552],[-117.352815,38.8756926],[-117.3527345,38.8755819],[-117.352697,38.8754462],[-117.352705,38.8753898],[-117.3526621,38.8753042],[-117.3525897,38.8752499],[-117.352587,38.8751747],[-117.3525629,38.8751309],[-117.3525495,38.8750745],[-117.3524878,38.8749826],[-117.352461,38.8748991],[-117.3524556,38.8748364],[-117.3522625,38.8746924],[-117.3520506,38.8744418],[-117.3518655,38.8742476],[-117.3517985,38.8741578],[-117.3517099,38.8740304],[-117.3515651,38.8738675],[-117.3515275,38.8737569],[-117.3515249,38.8736963],[-117.3514846,38.8735606],[-117.3514846,38.8734854],[-117.3514095,38.8731513],[-117.3513693,38.8730239],[-117.3513505,38.8729132],[-117.3513251,38.8727381],[-117.3512822,38.8726755],[-117.3512339,38.8726107],[-117.3512339,38.872569],[-117.3512661,38.8725335],[-117.3512768,38.8724875],[-117.3512554,38.8724312],[-117.3511883,38.8722725],[-117.3511642,38.8721618],[-117.3511588,38.8719091],[-117.3511695,38.8717984],[-117.3512339,38.8716376],[-117.3512929,38.8714873],[-117.3512983,38.8714058],[-117.3513332,38.8713348],[-117.3513573,38.8712722],[-117.351368,38.8711887],[-117.3513653,38.8710926],[-117.3514029,38.8709506],[-117.3514351,38.8707543],[-117.3514619,38.8706624],[-117.3514646,38.8705517],[-117.3514753,38.8704828],[-117.3515102,38.870416],[-117.3515316,38.8703053],[-117.3515236,38.8701946],[-117.351537,38.8701362],[-117.3515316,38.8699983],[-117.3515638,38.8698772],[-117.3515692,38.8698083],[-117.351596,38.8697498],[-117.3516044,38.8696505],[-117.3516366,38.8695816],[-117.35165,38.8695043],[-117.3516661,38.8694229],[-117.3516447,38.8693707],[-117.3516769,38.8692767],[-117.3517439,38.8692036],[-117.3517627,38.869141],[-117.3517841,38.8691055],[-117.3518458,38.8690804],[-117.3519504,38.8689488],[-117.3520416,38.8688048],[-117.3520792,38.8687546],[-117.3522079,38.8686711],[-117.3522348,38.8686565],[-117.3522857,38.8686231],[-117.3523689,38.8685416],[-117.3524279,38.8683787],[-117.352444,38.8683558],[-117.3525057,38.8683871],[-117.3525432,38.8684017],[-117.3526039,38.8684658],[-117.3526398,38.8685082],[-117.3526666,38.8685333],[-117.3527122,38.8685291],[-117.3527685,38.8684664],[-117.3528275,38.8683244],[-117.3528678,38.8682639],[-117.3529321,38.8681929],[-117.3530716,38.8681177],[-117.3534766,38.8679089],[-117.3536295,38.8678817],[-117.3537636,38.8678253],[-117.3539621,38.8677251],[-117.3541391,38.8676227],[-117.3542223,38.8675789],[-117.3545119,38.8673701],[-117.3547482,38.8672265],[-117.3551473,38.8670211],[-117.3553752,38.8668987],[-117.3555979,38.866771],[-117.356511,38.8662171],[-117.3567322,38.8660729],[-117.356588,38.8655425],[-117.3565701,38.8653749],[-117.3565405,38.8653277],[-117.3564839,38.8651242],[-117.3564094,38.8648326],[-117.3563024,38.864596],[-117.3559118,38.864062],[-117.3557151,38.8638446],[-117.3555081,38.8635518],[-117.3550159,38.8628578],[-117.3547969,38.8624931],[-117.3545945,38.8616032],[-117.3546101,38.861295],[-117.3544822,38.8609137],[-117.3541308,38.8604677],[-117.3538889,38.8600284],[-117.3535906,38.8596802],[-117.3530435,38.8593114],[-117.3523375,38.8587841],[-117.3520231,38.8583614],[-117.3518261,38.8579885],[-117.3516493,38.8575489],[-117.3514601,38.8570832],[-117.3514288,38.8568383],[-117.3513868,38.8567106],[-117.3513785,38.8564611],[-117.3511933,38.8558235],[-117.3511433,38.8557748],[-117.3510966,38.8555499],[-117.350999,38.8553565],[-117.3509518,38.8550829],[-117.3507158,38.8548868],[-117.3505862,38.8546872],[-117.3503559,38.854089],[-117.3501192,38.8536061],[-117.3499853,38.8531004],[-117.3498417,38.8528699],[-117.3497394,38.8527939],[-117.3495667,38.8527555],[-117.3494601,38.852668],[-117.3496196,38.8523853],[-117.349552,38.8523446],[-117.3493614,38.852343],[-117.3489941,38.8522783],[-117.3489169,38.8522932],[-117.348773,38.8522482],[-117.3486206,38.85213],[-117.3482686,38.851936],[-117.348025,38.8517953],[-117.3476461,38.8514599],[-117.3474391,38.8512162],[-117.3474581,38.8510572],[-117.3474769,38.8509556],[-117.3474392,38.8508446],[-117.347445,38.8506944],[-117.3475744,38.850692],[-117.3476118,38.8504874],[-117.3478768,38.849955],[-117.3480679,38.8495843],[-117.3481749,38.8491251],[-117.3481855,38.8479588],[-117.3482622,38.8471565],[-117.3482791,38.84669],[-117.3483928,38.8463096],[-117.3485533,38.845565],[-117.3489584,38.8434056],[-117.3489936,38.8426497],[-117.3489511,38.8423309],[-117.3491866,38.8418705],[-117.3491916,38.8417218],[-117.3491374,38.8415332],[-117.3492034,38.8414039],[-117.3492609,38.8413398],[-117.3493115,38.8412362],[-117.3494116,38.8411198],[-117.3493922,38.8409915],[-117.349448,38.8409439],[-117.3496052,38.8407369],[-117.3495649,38.840681],[-117.3497144,38.8405939],[-117.3497516,38.8405423],[-117.349998,38.8404589],[-117.3504017,38.8403913],[-117.3507653,38.8402386],[-117.3512196,38.8398135],[-117.3513905,38.8395586],[-117.3514041,38.8394792],[-117.3517497,38.8389129],[-117.3519361,38.8385164],[-117.3521651,38.8383013],[-117.3522013,38.838179],[-117.3523693,38.8381547],[-117.3522971,38.8380533],[-117.352529,38.8380139],[-117.3524426,38.8379092],[-117.3527506,38.8378133],[-117.3525128,38.8377116],[-117.3525303,38.8376782],[-117.3528965,38.8376139],[-117.3527454,38.8374763],[-117.3529803,38.8374474],[-117.3528105,38.8373411],[-117.3530345,38.8373354],[-117.3532308,38.8372648],[-117.3529447,38.8370488],[-117.3531752,38.8369803],[-117.3531155,38.8369407],[-117.3529317,38.8367839],[-117.3532529,38.8367781],[-117.3531089,38.8366557],[-117.3534575,38.8365985],[-117.3532013,38.8364276],[-117.3533447,38.8364156],[-117.3534068,38.8363646],[-117.3535929,38.8363023],[-117.3538116,38.8361722],[-117.3534807,38.8360892],[-117.3534152,38.8360575],[-117.3536455,38.8359849],[-117.3538316,38.8358601],[-117.3541802,38.8355767],[-117.3542438,38.8354151],[-117.3542642,38.8353233],[-117.3542045,38.835107],[-117.3540622,38.8351578],[-117.3539388,38.8351783],[-117.3537884,38.835215],[-117.3537341,38.8352094],[-117.3537951,38.8351332],[-117.3538155,38.8349739],[-117.3537551,38.8348307],[-117.3536103,38.834885],[-117.35354,38.8348919],[-117.3535926,38.8348111],[-117.3535749,38.8347373],[-117.3534417,38.8347608],[-117.3534705,38.8344981],[-117.3534712,38.8343978],[-117.3535012,38.8341828],[-117.3533925,38.8342552],[-117.3533908,38.8340187],[-117.3532903,38.8339891],[-117.3533225,38.8338991],[-117.3532639,38.8338604],[-117.3533202,38.8338044],[-117.3533587,38.8336724],[-117.3533635,38.833619],[-117.3533337,38.8335772],[-117.353447,38.8334529],[-117.3534682,38.833312],[-117.3534565,38.8332125],[-117.3532599,38.8329321],[-117.3531879,38.832851],[-117.3531064,38.8327846],[-117.353049,38.832746],[-117.353057,38.832695]]}}]}
