{"type":"FeatureCollection","peaks_destination_id":"vu8QPH0SMY2b44orOZGL","peaks_trailhead_id":"C7CAD64B8DA6FEE13EA1","peaks_source":"https://www.openstreetmap.org/","peaks_retrieval_source":"https://overpass-api.de/api/interpreter","peaks_license_name":"Open Data Commons Open Database License (ODbL) 1.0","peaks_license":"https://opendatacommons.org/licenses/odbl/1-0/","peaks_attribution":"© OpenStreetMap contributors","peaks_retrieved_at":"2026-07-31T12:36:32.716Z","features":[{"type":"Feature","properties":{"name":"Aucanquilcha OSM route candidate","trailhead_name":"Aucanquilcha North Road Trailhead","destination_name":"Aucanquilcha","distance_m":8205.066392278168,"trailhead_snap_m":15.589663080724373,"summit_snap_m":13.917457400300407,"osm_way_ids":[307137739,865626202,561645606,561645605,561645603],"osm_way_urls":["https://www.openstreetmap.org/way/307137739","https://www.openstreetmap.org/way/865626202","https://www.openstreetmap.org/way/561645606","https://www.openstreetmap.org/way/561645605","https://www.openstreetmap.org/way/561645603"],"osm_way_names":[],"osm_foot_access_override_way_ids":[]},"geometry":{"type":"LineString","coordinates":[[-68.45543,-21.19356],[-68.455543,-21.1936525],[-68.4561125,-21.1941203],[-68.4564297,-21.1943562],[-68.4566148,-21.1944782],[-68.4568364,-21.1945799],[-68.4570561,-21.1946816],[-68.4572066,-21.194767],[-68.4575055,-21.1950395],[-68.4576479,-21.1951574],[-68.4578268,-21.1953018],[-68.4579407,-21.195432],[-68.4580241,-21.1955337],[-68.4582071,-21.195676],[-68.4584044,-21.1957797],[-68.4585976,-21.1959892],[-68.458746,-21.1961661],[-68.4588803,-21.1963512],[-68.4589596,-21.1965362],[-68.4589921,-21.1967172],[-68.4589738,-21.1968494],[-68.4590369,-21.1971626],[-68.459043,-21.1973538],[-68.4591227,-21.1975305],[-68.4592115,-21.1977035],[-68.4593091,-21.1978722],[-68.4594154,-21.1980363],[-68.4595274,-21.1981919],[-68.4596472,-21.1983423],[-68.4597745,-21.1984873],[-68.459909,-21.1986265],[-68.4614217,-21.1993767],[-68.4638035,-21.2001669],[-68.4643272,-21.2002457],[-68.4648493,-21.2003324],[-68.46537,-21.200427],[-68.4657674,-21.2005047],[-68.4661639,-21.200587],[-68.4664423,-21.2006493],[-68.4667218,-21.2007071],[-68.467027,-21.2007648],[-68.4671794,-21.2007948],[-68.4673333,-21.2008171],[-68.4674902,-21.2008318],[-68.4676477,-21.2008384],[-68.4678054,-21.2008371],[-68.4678976,-21.2008376],[-68.4679895,-21.200831],[-68.4680806,-21.2008175],[-68.4681702,-21.2007971],[-68.468261,-21.2007687],[-68.4683489,-21.2007332],[-68.4684333,-21.2006909],[-68.4685135,-21.200642],[-68.4685779,-21.200547],[-68.468712,-21.200382],[-68.4688836,-21.200382],[-68.4692377,-21.200482],[-68.4695971,-21.2008821],[-68.4701014,-21.2015773],[-68.4704286,-21.2019724],[-68.4706324,-21.2020824],[-68.4723759,-21.2020124],[-68.4726119,-21.2019374],[-68.4727085,-21.2020024],[-68.4726709,-21.2021574],[-68.4719735,-21.2032677],[-68.4711742,-21.204243],[-68.4712011,-21.204418],[-68.4714747,-21.204418],[-68.472451,-21.2037979],[-68.4725422,-21.2038029],[-68.4725475,-21.2038679],[-68.4717804,-21.2052732],[-68.4714478,-21.2055983],[-68.4714747,-21.2057033],[-68.4716517,-21.2056833],[-68.4728909,-21.2046131],[-68.4730357,-21.204358],[-68.4731323,-21.204293],[-68.4731698,-21.204413],[-68.4729606,-21.2049781],[-68.4724778,-21.2059834],[-68.4720111,-21.2065335],[-68.4719467,-21.2066635],[-68.4720433,-21.2067186],[-68.4721559,-21.2066535],[-68.4723598,-21.2066235],[-68.4731752,-21.2063685],[-68.4737277,-21.2059434],[-68.4738404,-21.2058484],[-68.4738994,-21.2059234],[-68.473717,-21.2070886],[-68.472805,-21.208784],[-68.4723383,-21.2092291],[-68.4723008,-21.2093391],[-68.4723866,-21.2093991],[-68.4729821,-21.2093141],[-68.474071,-21.208899],[-68.475396,-21.2076738],[-68.475793,-21.2073912],[-68.4758493,-21.2073487],[-68.4759432,-21.2073737],[-68.4759325,-21.2074737],[-68.475734,-21.2077138],[-68.4746718,-21.2108594],[-68.4744734,-21.2113445],[-68.4738135,-21.2116546],[-68.4734997,-21.2117121],[-68.4731457,-21.2118446],[-68.4730867,-21.2118922],[-68.4731108,-21.2119372],[-68.4732154,-21.2119547],[-68.473497,-21.2119297],[-68.4743393,-21.2121247],[-68.474991,-21.2121372],[-68.4756723,-21.2117046],[-68.4758037,-21.2114771],[-68.4758681,-21.2114646],[-68.4759003,-21.2115596],[-68.4753907,-21.2125798],[-68.4748167,-21.2130099],[-68.4741998,-21.2131399],[-68.4738269,-21.2131749],[-68.4736526,-21.2132324],[-68.4734246,-21.21356],[-68.473033,-21.2141226],[-68.4727487,-21.2146927],[-68.4723973,-21.2153203],[-68.4721988,-21.2155678],[-68.4720701,-21.2156228],[-68.4718099,-21.2155703],[-68.4715739,-21.2155753],[-68.471311,-21.2156428],[-68.4711011,-21.2157369],[-68.4710375,-21.2157654],[-68.4709355,-21.2158629],[-68.4710053,-21.2160679],[-68.4710911,-21.2162279],[-68.4710455,-21.2163154],[-68.4708497,-21.2162729],[-68.4702274,-21.2156578],[-68.4700665,-21.2155903],[-68.4698868,-21.2156403],[-68.4698144,-21.2157429],[-68.4698573,-21.2158479],[-68.4699351,-21.2159454],[-68.4700558,-21.2161654],[-68.4702998,-21.2166105],[-68.4704876,-21.216813],[-68.4711796,-21.2172506],[-68.4714693,-21.2175256],[-68.4721425,-21.2178307],[-68.4725609,-21.2179557],[-68.4726468,-21.2180507],[-68.4726682,-21.2181757],[-68.4725046,-21.2182533],[-68.4721667,-21.2181732],[-68.4714532,-21.2178982],[-68.4706888,-21.2175682],[-68.4705171,-21.2174956],[-68.470265,-21.2173756],[-68.4698653,-21.2171581],[-68.4697017,-21.2169881],[-68.4696105,-21.216918],[-68.4695783,-21.2169681],[-68.4696347,-21.2171306],[-68.4698975,-21.2174556],[-68.4703267,-21.2177982],[-68.4706271,-21.2179732],[-68.4711555,-21.2181432],[-68.4715202,-21.2182458],[-68.4716946,-21.2184533],[-68.4718502,-21.2187608],[-68.472003,-21.2193659],[-68.4719762,-21.2196035],[-68.4719414,-21.219706],[-68.4712628,-21.220016],[-68.4705667,-21.2201798],[-68.4702395,-21.2203086],[-68.4701175,-21.2203398],[-68.4699176,-21.2203361],[-68.4697393,-21.2203123],[-68.4695676,-21.2204011],[-68.4694912,-21.2204723],[-68.4694456,-21.2206761],[-68.469353,-21.2208561],[-68.4691224,-21.2209286],[-68.4685108,-21.2209274],[-68.468496,-21.220803]]}}]}
