{"type":"FeatureCollection","peaks_destination_id":"30FBA25F6A12506D101B","peaks_trailhead_id":"B60AD3BB339C44E7BB05","peaks_source":"https://www.openstreetmap.org/","peaks_retrieval_source":"https://overpass-api.de/api/interpreter","peaks_license_name":"Open Data Commons Open Database License (ODbL) 1.0","peaks_license":"https://opendatacommons.org/licenses/odbl/1-0/","peaks_attribution":"© OpenStreetMap contributors","peaks_retrieved_at":"2026-07-31T11:57:57.780Z","features":[{"type":"Feature","properties":{"name":"Barre des Écrins OSM route candidate","trailhead_name":"Pré de Madame Carle Trailhead","destination_name":"Barre des Écrins","distance_m":12093.932685796755,"trailhead_snap_m":4.026685565974666,"summit_snap_m":0,"osm_way_ids":[838508649,24745872,965194880,38961866,38961865,38737100,38737099,1313805812,616291646,182751180,245071718,25638106,1193685098,1193685099,1423016817,1082831957,1423016826,1197458987,25638107,1197459940,1227127134,25638108,1534329201],"osm_way_urls":["https://www.openstreetmap.org/way/838508649","https://www.openstreetmap.org/way/24745872","https://www.openstreetmap.org/way/965194880","https://www.openstreetmap.org/way/38961866","https://www.openstreetmap.org/way/38961865","https://www.openstreetmap.org/way/38737100","https://www.openstreetmap.org/way/38737099","https://www.openstreetmap.org/way/1313805812","https://www.openstreetmap.org/way/616291646","https://www.openstreetmap.org/way/182751180","https://www.openstreetmap.org/way/245071718","https://www.openstreetmap.org/way/25638106","https://www.openstreetmap.org/way/1193685098","https://www.openstreetmap.org/way/1193685099","https://www.openstreetmap.org/way/1423016817","https://www.openstreetmap.org/way/1082831957","https://www.openstreetmap.org/way/1423016826","https://www.openstreetmap.org/way/1197458987","https://www.openstreetmap.org/way/25638107","https://www.openstreetmap.org/way/1197459940","https://www.openstreetmap.org/way/1227127134","https://www.openstreetmap.org/way/25638108","https://www.openstreetmap.org/way/1534329201"],"osm_way_names":["Route de Cézanne"],"osm_foot_access_override_way_ids":[]},"geometry":{"type":"LineString","coordinates":[[6.415336,44.917122],[6.4153283,44.9171578],[6.4153615,44.9171562],[6.415396,44.9171545],[6.4154897,44.9171303],[6.4155528,44.9172118],[6.4156294,44.9172837],[6.4157059,44.9173334],[6.4157976,44.9173966],[6.415876,44.9174511],[6.4160211,44.9175277],[6.4158399,44.9177898],[6.4158306,44.9178724],[6.4158319,44.9179199],[6.4158037,44.9179852],[6.4157494,44.9180282],[6.4156978,44.9180666],[6.4156502,44.9181056],[6.4156032,44.9181621],[6.4155264,44.9182637],[6.4153826,44.918428],[6.415208,44.9185805],[6.4149159,44.9187927],[6.4145197,44.9190336],[6.4139741,44.9194262],[6.4139513,44.9194477],[6.4138975,44.9195093],[6.4138511,44.9195495],[6.413772,44.9196018],[6.413328,44.9198715],[6.4131483,44.9200177],[6.4129865,44.9201184],[6.4121711,44.9206348],[6.4117938,44.9208762],[6.4115815,44.9210342],[6.4113574,44.9211662],[6.4111165,44.921266],[6.4110455,44.9213073],[6.411022,44.921348],[6.4109838,44.9214098],[6.4109462,44.9214962],[6.4109007,44.9215694],[6.4108376,44.9216596],[6.4108276,44.9217137],[6.4108108,44.9217488],[6.4107659,44.9218381],[6.4107102,44.921915],[6.41067,44.9220204],[6.4105774,44.9221391],[6.4106096,44.9222189],[6.4105962,44.9222806],[6.4104903,44.9223898],[6.4104769,44.9225247],[6.4105037,44.922575],[6.4108458,44.9227811],[6.4108657,44.9229228],[6.41078,44.922857],[6.4106633,44.9228456],[6.4105251,44.9227858],[6.4104286,44.9227193],[6.4103709,44.9227165],[6.4103132,44.9227288],[6.4100075,44.9226766],[6.4097098,44.9226842],[6.409404,44.9227374],[6.4091572,44.9227402],[6.4089386,44.9227696],[6.4087374,44.9227611],[6.4087321,44.9227744],[6.4088903,44.9228276],[6.4090417,44.9229065],[6.409056,44.9229159],[6.4090616,44.9229303],[6.409058,44.9229593],[6.4090519,44.922967],[6.4090358,44.9229696],[6.4088085,44.9229372],[6.4086717,44.9229467],[6.4086174,44.922933],[6.4085879,44.9229453],[6.4085966,44.9229724],[6.4085658,44.92298],[6.4085665,44.9229933],[6.4087274,44.9230602],[6.4087535,44.9231006],[6.408893,44.9232065],[6.4089728,44.9232359],[6.4089796,44.9232515],[6.4089749,44.9232594],[6.4089639,44.9232676],[6.4089131,44.9232815],[6.408724,44.923263],[6.4085222,44.9231889],[6.4084417,44.923177],[6.4084377,44.9231917],[6.4084659,44.9232117],[6.4084592,44.9232202],[6.40837,44.9232084],[6.40825,44.9232027],[6.4082186,44.923209],[6.408218,44.9232298],[6.4082828,44.9232891],[6.4083257,44.9233375],[6.4084491,44.9234163],[6.4085915,44.9235054],[6.408596,44.9235222],[6.4085859,44.9235279],[6.4085712,44.923525],[6.4085296,44.9235103],[6.4084142,44.9235018],[6.4082131,44.923479],[6.4081286,44.9234771],[6.4080133,44.9234742],[6.4079112,44.9234792],[6.4078557,44.9234738],[6.4077893,44.9234676],[6.4076485,44.9234676],[6.4076069,44.9234752],[6.4075486,44.9234961],[6.4074882,44.9234927],[6.4074393,44.9234918],[6.4074044,44.9234842],[6.407393,44.9234704],[6.4073776,44.9234595],[6.4073514,44.923459],[6.4073109,44.9234707],[6.4072676,44.9234809],[6.4070866,44.9235317],[6.4070242,44.9235526],[6.4069866,44.9235535],[6.4069457,44.9235473],[6.4069117,44.9235567],[6.406874,44.9236043],[6.4068706,44.9236281],[6.4069048,44.9236589],[6.4069551,44.9236798],[6.4070725,44.9237501],[6.4072528,44.923874],[6.4072745,44.9238867],[6.407298,44.9238942],[6.4073561,44.9239072],[6.4074741,44.9239025],[6.4075546,44.9239091],[6.4076167,44.9239142],[6.4078,44.9239357],[6.408024,44.9239803],[6.4080796,44.9239955],[6.4081051,44.9240036],[6.4081105,44.9240131],[6.4081024,44.9240226],[6.408085,44.9240288],[6.4080555,44.9240302],[6.4078751,44.9240468],[6.4076961,44.9240701],[6.4075667,44.9240919],[6.4074017,44.9241427],[6.4073266,44.9241679],[6.4072549,44.9241779],[6.4071925,44.9241916],[6.4071355,44.9242097],[6.4071201,44.9242135],[6.4071147,44.9242201],[6.4071147,44.9242258],[6.4071321,44.924231],[6.4071549,44.9242329],[6.4073461,44.9242543],[6.4073595,44.9242581],[6.4073662,44.9242647],[6.4073642,44.9242738],[6.4073454,44.9242823],[6.4073139,44.9242856],[6.4072743,44.9242861],[6.4072482,44.9242928],[6.407224,44.9243084],[6.4072032,44.9243141],[6.4071838,44.924317],[6.4071523,44.9243198],[6.4071315,44.9243269],[6.4071154,44.9243374],[6.4071154,44.9243426],[6.4071248,44.9243502],[6.4071516,44.9243568],[6.4072421,44.9243701],[6.407446,44.9243796],[6.4075378,44.9243773],[6.4076002,44.9243735],[6.4076418,44.9243754],[6.4076894,44.9243858],[6.4077196,44.9243934],[6.4077631,44.9243948],[6.4078181,44.9244039],[6.4078631,44.9244176],[6.407908,44.9244399],[6.4080515,44.9246132],[6.4081091,44.9246968],[6.4081266,44.9247352],[6.4081413,44.9247533],[6.4081775,44.924769],[6.4082654,44.9247718],[6.4083666,44.9247803],[6.4085329,44.924806],[6.4086027,44.924815],[6.4086838,44.924844],[6.4087355,44.9248694],[6.4089138,44.9250158],[6.4089621,44.9250396],[6.4090104,44.9250533],[6.409054,44.9250533],[6.409121,44.9250491],[6.4091733,44.9250486],[6.4092236,44.9250562],[6.4093517,44.9250842],[6.4094184,44.9251096],[6.4094543,44.9251127],[6.4094918,44.9251103],[6.409516,44.9251041],[6.409526,44.9250875],[6.4095414,44.925069],[6.4095663,44.9250495],[6.4096507,44.9250244],[6.4097077,44.9250206],[6.40975,44.9250258],[6.4098028,44.9250295],[6.4099444,44.9250125],[6.4100135,44.9250063],[6.4100826,44.9249916],[6.4101423,44.9249688],[6.4101758,44.9249494],[6.4101946,44.9249152],[6.410214,44.924881],[6.4102341,44.9248672],[6.410263,44.9248634],[6.4103072,44.924863],[6.4103656,44.9248729],[6.4103997,44.9248744],[6.4104313,44.9248739],[6.4104521,44.9248772],[6.4104688,44.9248895],[6.410499,44.9249441],[6.4105426,44.9249864],[6.4105855,44.9250211],[6.4106056,44.9250424],[6.4106391,44.9251103],[6.4106559,44.925153],[6.4106747,44.9251796],[6.4106821,44.9251825],[6.4106921,44.925191],[6.4106968,44.9251996],[6.4106854,44.925211],[6.41067,44.9252157],[6.4106552,44.9252114],[6.4106304,44.9251977],[6.4105969,44.9251497],[6.410562,44.9251203],[6.4105158,44.9250994],[6.4104762,44.925088],[6.4104467,44.9250856],[6.4104239,44.9250918],[6.4104071,44.925107],[6.4103984,44.9251322],[6.4103743,44.9251792],[6.4103582,44.9252015],[6.4103367,44.9252214],[6.4103092,44.9252395],[6.410263,44.9252551],[6.4102127,44.9252727],[6.4101597,44.9252988],[6.4100967,44.9253377],[6.4100799,44.9253506],[6.4100356,44.9253605],[6.4099988,44.9253643],[6.4099585,44.9253676],[6.4099156,44.9253762],[6.4098881,44.9253881],[6.4098707,44.9254028],[6.4098499,44.925418],[6.4097895,44.9255091],[6.4097647,44.9255443],[6.4097486,44.9255547],[6.4097359,44.9255628],[6.4097339,44.925577],[6.4097439,44.9255827],[6.4097661,44.9255837],[6.4098173,44.925565],[6.409923,44.9255134],[6.4099478,44.9255067],[6.4099773,44.9255082],[6.4100095,44.9255186],[6.4101134,44.9255746],[6.4103243,44.9257054],[6.4103669,44.925724],[6.4103984,44.9257349],[6.4104286,44.9257475],[6.4104403,44.9257558],[6.4104464,44.9257626],[6.410447,44.925771],[6.410441,44.92578],[6.4104356,44.9257847],[6.4104239,44.9257869],[6.4104031,44.9257845],[6.4103689,44.925771],[6.4103186,44.925756],[6.4102677,44.9257498],[6.4102341,44.9257551],[6.4102066,44.9257617],[6.4101718,44.9257669],[6.4101436,44.9257636],[6.4101215,44.9257603],[6.4100879,44.9257636],[6.4100578,44.9257717],[6.4100219,44.9257959],[6.4099498,44.9258386],[6.4099216,44.9258552],[6.4098653,44.9258623],[6.4098271,44.9258714],[6.4097916,44.9258856],[6.4097469,44.9259057],[6.4096896,44.9259283],[6.4096695,44.9259364],[6.40963,44.9259345],[6.4095971,44.9259312],[6.4095734,44.9259314],[6.4095511,44.9259361],[6.4094271,44.9259804],[6.4093232,44.9260189],[6.4092907,44.9260271],[6.4092585,44.9260271],[6.4092401,44.9260212],[6.4091633,44.9259917],[6.4091344,44.9259882],[6.4091049,44.9259967],[6.4090848,44.9260105],[6.4089788,44.9261064],[6.4089507,44.9261197],[6.4089205,44.9261282],[6.4088863,44.9261344],[6.4088508,44.9261368],[6.4087053,44.9261182],[6.408431,44.9260921],[6.4082855,44.926067],[6.4082386,44.926058],[6.4082144,44.9260542],[6.408199,44.9260589],[6.4081997,44.9260703],[6.4082171,44.9260793],[6.4082506,44.9260907],[6.4083626,44.9261505],[6.408539,44.9262265],[6.4085718,44.926235],[6.4086067,44.9262388],[6.4086315,44.9262464],[6.4086416,44.926255],[6.4086429,44.9262645],[6.4086362,44.9262716],[6.40861,44.9262744],[6.4085826,44.9262749],[6.4085671,44.9262801],[6.4085671,44.9262896],[6.4085805,44.9262972],[6.4086121,44.9263039],[6.4086275,44.9263134],[6.4086328,44.9263248],[6.4086429,44.9263366],[6.4086556,44.9263414],[6.4086805,44.9263438],[6.4087073,44.9263537],[6.4087173,44.9263661],[6.4087261,44.9263827],[6.4087328,44.9263903],[6.408754,44.9263902],[6.408783,44.9263751],[6.4087965,44.926367],[6.4088132,44.9263656],[6.4088286,44.9263713],[6.4088293,44.9263817],[6.4088159,44.9263969],[6.4087991,44.9264283],[6.4087944,44.9264458],[6.4088159,44.9264558],[6.4088488,44.9264544],[6.4088628,44.9264587],[6.4088655,44.9264681],[6.4088628,44.9264772],[6.4088427,44.9264814],[6.4088112,44.9264843],[6.4087918,44.9264905],[6.4087904,44.9265004],[6.408826,44.9265185],[6.408834,44.9265242],[6.4088286,44.9265332],[6.4088152,44.9265403],[6.4088139,44.9265612],[6.4088189,44.9265714],[6.4088307,44.9265785],[6.4088474,44.9265849],[6.4088642,44.9265913],[6.4088995,44.9265997],[6.4089259,44.9265992],[6.408946,44.926594],[6.4089661,44.9265935],[6.4089822,44.9266001],[6.4089889,44.926612],[6.4089856,44.926622],[6.4089621,44.9266262],[6.4089413,44.9266353],[6.4089366,44.9266443],[6.4089433,44.9266552],[6.4089661,44.9266595],[6.4090291,44.9266713],[6.4091163,44.9266903],[6.4091619,44.9267017],[6.4091747,44.9267107],[6.4091787,44.9267236],[6.4091626,44.9267331],[6.4091265,44.9267423],[6.4090841,44.9267563],[6.409066,44.9267625],[6.4090513,44.9267563],[6.4090291,44.9267506],[6.409007,44.9267502],[6.4089802,44.9267525],[6.4089695,44.9267611],[6.4089695,44.9267744],[6.4089862,44.9267862],[6.4090271,44.9267929],[6.4091639,44.9268237],[6.4092417,44.9268555],[6.4093421,44.9268853],[6.4093751,44.9269063],[6.4094141,44.9269765],[6.4094617,44.927036],[6.4095207,44.9271057],[6.4095502,44.9272075],[6.4096006,44.9273189],[6.409664,44.9274222],[6.4096603,44.9275207],[6.4095989,44.9275642],[6.4095935,44.9275893],[6.4096197,44.927626],[6.4096388,44.9276751],[6.4096065,44.9277473],[6.4096096,44.9278339],[6.4095665,44.9278896],[6.4095301,44.9279943],[6.4095608,44.9281821],[6.4096638,44.928378],[6.4096868,44.9284923],[6.4096587,44.9286634],[6.4097206,44.9286935],[6.4097153,44.928748],[6.4097643,44.9287772],[6.4097755,44.9288803],[6.4097024,44.929029],[6.4096017,44.9291731],[6.4095808,44.9292844],[6.4094541,44.9294457],[6.409459,44.9294964],[6.4094898,44.9296267],[6.4095186,44.9296569],[6.4095641,44.929776],[6.4096723,44.9299777],[6.4097437,44.9301877],[6.4097728,44.93038],[6.4097875,44.9304508],[6.4097862,44.9304878],[6.4097808,44.9305367],[6.4097741,44.9305671],[6.4097768,44.930578],[6.4097875,44.9305918],[6.4098204,44.9305994],[6.4098526,44.9306022],[6.4098566,44.9306469],[6.4099458,44.9306715],[6.4100423,44.9307057],[6.4101215,44.9307665],[6.410161,44.9308002],[6.410206,44.9308268],[6.4102549,44.9308415],[6.4103025,44.9308448],[6.4104225,44.9308344],[6.4104614,44.9308362],[6.4104896,44.93084],[6.410522,44.9308583],[6.4105931,44.9309199],[6.4105996,44.9309355],[6.4105935,44.9309492],[6.410556,44.9310048],[6.410552,44.9310257],[6.4105553,44.931047],[6.4105647,44.9310594],[6.4105795,44.9310793],[6.4105848,44.9310983],[6.4105781,44.931123],[6.4105707,44.9311562],[6.4105734,44.931178],[6.4105828,44.9311928],[6.4106083,44.9312037],[6.4106472,44.9312094],[6.4106733,44.9312208],[6.41068,44.931236],[6.4106727,44.9312526],[6.4106539,44.9312711],[6.4105553,44.931432],[6.4105332,44.9314691],[6.4105238,44.9315051],[6.4105238,44.9315317],[6.4105211,44.9315488],[6.4105057,44.9315706],[6.4104849,44.9315977],[6.4104675,44.9316262],[6.4104728,44.9316466],[6.4104829,44.931668],[6.4104742,44.931686],[6.4104474,44.9317036],[6.4104024,44.9317259],[6.4103649,44.9317548],[6.4103287,44.9317833],[6.4102985,44.9318127],[6.4102663,44.9318602],[6.410265,44.931902],[6.4102462,44.9319352],[6.4102274,44.9319704],[6.4102274,44.932014],[6.410218,44.9320501],[6.4102006,44.932089],[6.4101952,44.9321223],[6.4101939,44.9321754],[6.4102073,44.9322115],[6.4102234,44.9322476],[6.4102247,44.9322704],[6.4102288,44.9323121],[6.4102314,44.9323454],[6.4102361,44.9323629],[6.4102549,44.9323881],[6.410277,44.9323985],[6.4103039,44.9323938],[6.4103481,44.9323459],[6.410391,44.9323088],[6.4104219,44.9322974],[6.4104521,44.9322989],[6.4104782,44.9323126],[6.4104795,44.9323473],[6.4104863,44.932372],[6.4105017,44.9323895],[6.4105398,44.932495],[6.4105739,44.9324911],[6.4106251,44.9324503],[6.4108954,44.9322956],[6.4109655,44.9323068],[6.4110323,44.9322848],[6.411037,44.9322255],[6.4110075,44.9321458],[6.410967,44.9321237],[6.4109369,44.9321147],[6.4109174,44.9320962],[6.4109181,44.9320691],[6.4109281,44.9320397],[6.4109395,44.9320245],[6.4109617,44.9320192],[6.4109851,44.9320207],[6.411012,44.9320321],[6.4110918,44.9320738],[6.4111132,44.9320938],[6.4111286,44.9321052],[6.4111635,44.9321085],[6.4112198,44.9321341],[6.4112668,44.9321721],[6.4112835,44.9321954],[6.4112986,44.9322068],[6.4113171,44.9322096],[6.4113318,44.9321987],[6.4113784,44.93214],[6.4114554,44.9320683],[6.4114944,44.9320504],[6.4115749,44.9319673],[6.4116873,44.9319103],[6.4119031,44.931826],[6.411936,44.9318246],[6.4119675,44.9318232],[6.4120004,44.9318142],[6.4120815,44.9317805],[6.4121023,44.9317762],[6.4121103,44.931789],[6.412107,44.9318014],[6.4120741,44.9319029],[6.4120708,44.9319324],[6.4120696,44.9319777],[6.4120466,44.9320316],[6.4120413,44.9320511],[6.4120486,44.932062],[6.4120755,44.9320563],[6.4121425,44.9320287],[6.4121687,44.9320188],[6.4121767,44.932015],[6.4121915,44.9320126],[6.4121982,44.9320202],[6.4121975,44.932043],[6.4121881,44.9321052],[6.4121707,44.9321797],[6.4121593,44.9322034],[6.4121412,44.9322248],[6.4121291,44.9322599],[6.4121251,44.9323345],[6.4121081,44.9324704],[6.4121009,44.9325353],[6.412107,44.9325609],[6.4121123,44.9325823],[6.4121056,44.9326022],[6.4120976,44.9326269],[6.4120909,44.9326558],[6.4120902,44.9326706],[6.4121009,44.9326786],[6.4121211,44.9326744],[6.4121465,44.9326492],[6.4121781,44.932624],[6.4122009,44.9326212],[6.4122196,44.9326212],[6.4122357,44.9326141],[6.4122597,44.9326129],[6.4122679,44.9326041],[6.4122853,44.9325965],[6.4122967,44.9325846],[6.4123008,44.9325709],[6.4123108,44.9325533],[6.4123236,44.9325391],[6.4123356,44.9325324],[6.412357,44.9325297],[6.4123779,44.9325419],[6.4123873,44.9325614],[6.4124067,44.932624],[6.4124054,44.932643],[6.4124027,44.9326558],[6.4124034,44.932671],[6.4124161,44.9326748],[6.4124335,44.9326644],[6.4124429,44.9326411],[6.4124644,44.9326183],[6.4125133,44.9325851],[6.412573,44.9325201],[6.4126186,44.9324641],[6.4126327,44.932455],[6.4126434,44.9324617],[6.4126521,44.9324806],[6.412687,44.932591],[6.4127304,44.9328092],[6.4127319,44.9328623],[6.4127199,44.932925],[6.4126776,44.9330128],[6.4126702,44.9330498],[6.4126508,44.9330854],[6.4126347,44.9331239],[6.412622,44.9331756],[6.4126079,44.9332264],[6.4126072,44.9332711],[6.4126153,44.9333005],[6.412624,44.9333256],[6.412629,44.9333648],[6.412625,44.9334287],[6.4126267,44.9334372],[6.4126298,44.9334498],[6.412647,44.9335031],[6.4126568,44.9335578],[6.4126528,44.9335991],[6.4126313,44.9336684],[6.4125864,44.9338041],[6.412563,44.9338587],[6.4125314,44.9339067],[6.4125073,44.9339494],[6.4124912,44.9339978],[6.4124711,44.9340795],[6.4124718,44.9341118],[6.4124878,44.9341597],[6.4124952,44.9341953],[6.4124805,44.9342921],[6.4124818,44.9343576],[6.4124905,44.9344127],[6.4125047,44.9344594],[6.4125282,44.9344909],[6.4125634,44.9345615],[6.4125925,44.934606],[6.4126427,44.9346646],[6.4126696,44.9347624],[6.412632,44.9348594],[6.412624,44.9348978],[6.4126226,44.9349235],[6.4126461,44.9349657],[6.4126575,44.9349956],[6.4126662,44.9350303],[6.4126649,44.9350706],[6.4126541,44.9351186],[6.4126521,44.9351789],[6.4126039,44.9353958],[6.4125817,44.9354433],[6.4125583,44.9354936],[6.4125068,44.9355746],[6.4123737,44.9356991],[6.4123162,44.9357551],[6.4121848,44.9359483],[6.4121479,44.9359925],[6.4121016,44.9360262],[6.4120527,44.9360713],[6.4120131,44.9361083],[6.4119232,44.9361871],[6.4118944,44.9362089],[6.411877,44.9362251],[6.4118703,44.9362478],[6.4118736,44.9362635],[6.4118783,44.936291],[6.411875,44.9363665],[6.411875,44.9363969],[6.411887,44.9364187],[6.4118978,44.9364401],[6.4119051,44.9364605],[6.4119051,44.9364857],[6.4119051,44.9365009],[6.4119219,44.9365146],[6.4119926,44.9365334],[6.4122481,44.9366251],[6.4122608,44.9366357],[6.4122692,44.9366497],[6.4122661,44.9366607],[6.4122498,44.9366696],[6.4120732,44.9366935],[6.4120639,44.9366955],[6.4120583,44.9367041],[6.412062,44.9367141],[6.4120789,44.9367214],[6.4122936,44.9367818],[6.4123049,44.9367871],[6.4123077,44.9367944],[6.4123011,44.9368024],[6.4122301,44.9368129],[6.4118308,44.9368732],[6.4117085,44.9368847],[6.4115921,44.9368852],[6.4115025,44.9369064],[6.411459,44.9369043],[6.4114115,44.9368783],[6.4113736,44.9368725],[6.4112743,44.9368924],[6.4111358,44.9369351],[6.4110811,44.936987],[6.4109728,44.9370471],[6.4109805,44.9370916],[6.4109725,44.937145],[6.4109869,44.9373274],[6.4109657,44.9374619],[6.4110368,44.9375466],[6.4109921,44.9376625],[6.4109975,44.9378281],[6.4110698,44.9380087],[6.4110979,44.9380417],[6.4111316,44.9380415],[6.4111386,44.9380112],[6.4111819,44.9379459],[6.4112705,44.9378798],[6.4113239,44.9377959],[6.4114071,44.9377265],[6.4114571,44.9378831],[6.411435,44.9380463],[6.4114578,44.9381198],[6.4114946,44.9381662],[6.4114809,44.9381975],[6.4114921,44.938234],[6.4114813,44.9382856],[6.4114693,44.9383321],[6.4114347,44.9383816],[6.4113995,44.9384086],[6.4113888,44.9384708],[6.4114081,44.9385121],[6.4114058,44.9386066],[6.4112935,44.9386581],[6.4110984,44.9386626],[6.4110248,44.9386875],[6.4109993,44.9387826],[6.4109097,44.9387781],[6.4108074,44.9387713],[6.410753,44.9388256],[6.4107978,44.938932],[6.4108725,44.9390106],[6.4109161,44.9391018],[6.4109182,44.9392393],[6.4109193,44.9393892],[6.4110025,44.9394685],[6.4109961,44.9395454],[6.4109321,44.9396586],[6.4108649,44.939765],[6.4108458,44.9398963],[6.4108633,44.9399848],[6.4107536,44.9400717],[6.4106026,44.9403415],[6.4102779,44.9405382],[6.4101041,44.9406251],[6.4097245,44.9410641],[6.4094867,44.9412379],[6.4092397,44.9413156],[6.4089928,44.9415763],[6.4086086,44.9421343],[6.408197,44.942834],[6.4079637,44.9432273],[6.407941,44.9432466],[6.4078757,44.943252],[6.407843,44.9432734],[6.4078372,44.9432435],[6.4078051,44.9432451],[6.407759,44.9432763],[6.4074191,44.9435804],[6.4073608,44.9435987],[6.4071703,44.9436559],[6.407057,44.9436595],[6.406871,44.9437188],[6.4067615,44.9437566],[6.4066975,44.9437793],[6.4066015,44.9437886],[6.4065637,44.9438118],[6.4065158,44.9438172],[6.4064197,44.9438219],[6.4062795,44.9438841],[6.4060191,44.9439901],[6.4059955,44.9440075],[6.405968,44.9440659],[6.4059098,44.9441358],[6.4058607,44.9441491],[6.4058164,44.9442298],[6.4054316,44.9444198],[6.4052819,44.9444273],[6.4050668,44.9444863],[6.404981,44.9445793],[6.4047503,44.9447388],[6.4045325,44.9449972],[6.404505,44.9451347],[6.4043963,44.9452551],[6.4042334,44.9454571],[6.4038545,44.9457183],[6.4031249,44.9460601],[6.4023241,44.9462685],[6.401462,44.9464929],[6.4007699,44.9466486],[6.4001691,44.9468422],[6.3997239,44.9469143],[6.3990426,44.9468688],[6.3981897,44.9468194],[6.3974976,44.9469219],[6.3974869,44.9470928],[6.3973743,44.9474155],[6.3966715,44.9475332],[6.3952446,44.9478255],[6.3946223,44.9480154],[6.3937802,44.9480969],[6.3921887,44.9478193],[6.3905402,44.9478535],[6.3889498,44.9477075],[6.3884708,44.9476226],[6.3865405,44.9469166],[6.3854212,44.9464669],[6.3846274,44.9464044],[6.3843238,44.9463948],[6.3840492,44.9464012],[6.3832873,44.9458968],[6.3823383,44.9455683],[6.3818249,44.9451557],[6.3814801,44.9451287],[6.3792449,44.9437349],[6.3779229,44.9431213],[6.3766062,44.942607],[6.3747852,44.9418363],[6.3728874,44.9408164],[6.3707019,44.9395871],[6.3700318,44.9391153],[6.3692808,44.9388039],[6.3662606,44.9370458],[6.3654989,44.9362825],[6.3652702,44.9362512],[6.3642201,44.9354744],[6.3638842,44.935242],[6.3636993,44.9351396],[6.3623178,44.9347901],[6.361084,44.9339926],[6.3603705,44.933123],[6.3591796,44.9316874],[6.3591091,44.9315373],[6.3590509,44.9315051],[6.3588745,44.9312914],[6.3588435,44.9310908],[6.3587688,44.9309653],[6.3587067,44.930838],[6.3587427,44.9306669],[6.3589257,44.9305558],[6.3591765,44.9303874],[6.3592216,44.9302598],[6.3592315,44.9299288],[6.3594032,44.9298736],[6.3594585,44.9297543],[6.3595417,44.9296347],[6.3595873,44.9295113],[6.359835,44.9292906],[6.359944,44.9291789],[6.3597949,44.9290629],[6.3597268,44.92901],[6.3595685,44.9287232],[6.3595616,44.928639],[6.3597123,44.9284718],[6.3596919,44.9283092],[6.3597804,44.9281288],[6.3597053,44.9280282],[6.3596892,44.9277262],[6.3600406,44.9274262],[6.3600513,44.9271546],[6.3601291,44.9270046],[6.3600674,44.9269097],[6.3599843,44.9268261],[6.3595605,44.9266286],[6.3595685,44.9265052],[6.3596731,44.9263172],[6.3596785,44.9261728],[6.3602847,44.9255082],[6.3600647,44.9253069],[6.3602096,44.9251853],[6.3607567,44.9250752],[6.3604081,44.9249309],[6.3597965,44.9249802],[6.3597456,44.9248929],[6.3598287,44.9248359],[6.3607997,44.9246954],[6.3608082,44.9246793],[6.3608828,44.9245377],[6.3611644,44.9243611],[6.3604671,44.9239319],[6.3602144,44.9237863],[6.3599112,44.9237838],[6.3592901,44.9237187],[6.35845,44.9234666],[6.3575722,44.9234969],[6.3568854,44.9236685],[6.3561321,44.9238003],[6.3555087,44.9238456],[6.3551536,44.9238579],[6.3553561,44.9236259],[6.3556661,44.9234405],[6.3561749,44.9232295],[6.3567318,44.9227606],[6.3571954,44.9225155],[6.3576641,44.9222662],[6.3580804,44.9222682],[6.3586586,44.9222009],[6.3592071,44.9221537],[6.359547,44.92216],[6.359547,44.92216]]}}]}
