{"type":"FeatureCollection","peaks_destination_id":"190E73FC2E4B3E4FD1D1","peaks_trailhead_id":"136548F626ECB807F628","peaks_source":"https://www.openstreetmap.org/","peaks_retrieval_source":"https://api.openstreetmap.org/api/0.6","peaks_license_name":"Open Data Commons Open Database License (ODbL) 1.0","peaks_license":"https://opendatacommons.org/licenses/odbl/1-0/","peaks_attribution":"© OpenStreetMap contributors","peaks_retrieved_at":"2026-07-31T12:09:12.472Z","features":[{"type":"Feature","properties":{"name":"Bashful Peak OSM route candidate","trailhead_name":"East Fork Trailhead","destination_name":"Bashful Peak","distance_m":6989.901577799892,"trailhead_snap_m":10.930791642028225,"summit_snap_m":0,"osm_way_ids":[1084310248,1084310250,1184520873],"osm_way_urls":["https://www.openstreetmap.org/way/1084310248","https://www.openstreetmap.org/way/1084310250","https://www.openstreetmap.org/way/1184520873"],"osm_way_names":["East Fork Eklutna River Trail","Bold Peak Bootpath","Bashful Peak Trail"],"osm_foot_access_override_way_ids":[]},"geometry":{"type":"LineString","coordinates":[[-148.971925,61.314959],[-148.9718551,61.3148666],[-148.9715339,61.3147998],[-148.9708703,61.3147998],[-148.9705813,61.3147587],[-148.9701959,61.3147895],[-148.9697143,61.3147073],[-148.9694788,61.3147484],[-148.9688365,61.3149334],[-148.9683548,61.3149796],[-148.967916,61.3149539],[-148.9672737,61.3148357],[-148.9668135,61.3146456],[-148.9661498,61.3145532],[-148.9657966,61.3144401],[-148.9651971,61.3144453],[-148.964563,61.3143951],[-148.9641179,61.3144533],[-148.9639089,61.3144404],[-148.9634975,61.3145375],[-148.963039,61.3145601],[-148.9626412,61.3145796],[-148.9624051,61.3145601],[-148.9619196,61.3146022],[-148.9614409,61.3145893],[-148.9609621,61.3144889],[-148.9607598,61.3143983],[-148.9603687,61.3142494],[-148.9600316,61.3140552],[-148.9595933,61.3139581],[-148.9593977,61.3138189],[-148.9591212,61.3137445],[-148.9589122,61.3136053],[-148.9586829,61.3134273],[-148.9583121,61.3133496],[-148.9581165,61.3132363],[-148.9579277,61.3130906],[-148.9576647,61.313],[-148.9571994,61.3129741],[-148.9567476,61.3128802],[-148.9563633,61.3128155],[-148.9560396,61.3127475],[-148.9556081,61.3127346],[-148.9553451,61.3126569],[-148.9550214,61.3126051],[-148.9547921,61.3125112],[-148.9544685,61.3124238],[-148.9542797,61.3122911],[-148.954219,61.3121875],[-148.954192,61.3120775],[-148.9539425,61.3120419],[-148.9537132,61.3119351],[-148.9533963,61.3117894],[-148.9532614,61.3117117],[-148.9530457,61.3115531],[-148.9528231,61.3115013],[-148.9526074,61.3113168],[-148.9522567,61.3111841],[-148.9518251,61.3109963],[-148.9513936,61.3107859],[-148.9511711,61.3106985],[-148.9510767,61.3106273],[-148.9509081,61.3105852],[-148.9507867,61.3105108],[-148.9504833,61.3104395],[-148.9503889,61.3103554],[-148.9501663,61.3102647],[-148.9499978,61.3101547],[-148.9498089,61.3100737],[-148.9497213,61.3099378],[-148.9495527,61.309886],[-148.9493369,61.3098536],[-148.9492156,61.3097209],[-148.9489863,61.3096432],[-148.9487907,61.3095526],[-148.9485817,61.3094813],[-148.9484064,61.3094036],[-148.9481434,61.3093875],[-148.9479344,61.3093292],[-148.9477118,61.3092224],[-148.9474286,61.3091641],[-148.9471859,61.3090993],[-148.9470038,61.308999],[-148.9468015,61.3088598],[-148.9466127,61.3087562],[-148.9464576,61.3086655],[-148.9462755,61.3086461],[-148.9462418,61.308536],[-148.9460598,61.3084066],[-148.9459316,61.3081605],[-148.9458575,61.3080634],[-148.9456956,61.3080245],[-148.9456215,61.3079404],[-148.9456012,61.3078368],[-148.9456147,61.3076911],[-148.9455203,61.3076134],[-148.945345,61.307581],[-148.9451359,61.3075001],[-148.945109,61.3074256],[-148.9450415,61.3072961],[-148.944819,61.3071958],[-148.9447718,61.3071245],[-148.9445358,61.3070792],[-148.9442889,61.3069865],[-148.9440124,61.3069509],[-148.9438506,61.3068893],[-148.9434556,61.3068558],[-148.9431252,61.3068655],[-148.9428866,61.3070279],[-148.9427672,61.3071795],[-148.9425879,61.3072697],[-148.9424428,61.3074131],[-148.9420758,61.3074172],[-148.941999,61.307536],[-148.9419904,61.3077122],[-148.941632,61.3078106],[-148.9415466,61.307913],[-148.9411199,61.307872],[-148.9407528,61.3079171],[-148.9405309,61.308163],[-148.9402749,61.3082449],[-148.940181,61.3083392],[-148.9401725,61.3084826],[-148.9398567,61.3085482],[-148.9395921,61.3086342],[-148.9394384,61.3087285],[-148.9391738,61.3086834],[-148.9389605,61.3087285],[-148.9388922,61.3088965],[-148.9385934,61.309044],[-148.938474,61.309253],[-148.9380216,61.3093964],[-148.9379362,61.3095111],[-148.9377997,61.3096135],[-148.9377607,61.309653],[-148.9373722,61.3097342],[-148.9370685,61.3096541],[-148.9367081,61.309675],[-148.9363911,61.309739],[-148.936261,61.3098335],[-148.9360508,61.3100578],[-148.9349964,61.3103173],[-148.9344091,61.3103109],[-148.9344091,61.3107867],[-148.9341421,61.3109228],[-148.933635,61.3109212],[-148.9332646,61.3109212],[-148.9332279,61.3110093],[-148.9328274,61.3110253],[-148.9325038,61.311107],[-148.9321201,61.3112352],[-148.9320967,61.3114706],[-148.9317163,61.3114995],[-148.9303249,61.3117125],[-148.9299244,61.3117622],[-148.929464,61.3119095],[-148.9291737,61.3120201],[-148.9289167,61.3121947],[-148.9286298,61.31231],[-148.9283094,61.3124237],[-148.9279424,61.3124718],[-148.927562,61.3124317],[-148.9273151,61.3124285],[-148.9268679,61.3124237],[-148.9265243,61.3124525],[-148.9261238,61.3123773],[-148.9257134,61.3122363],[-148.9242319,61.3115107],[-148.9239082,61.3111471],[-148.9232676,61.3106169],[-148.9219595,61.3100178],[-148.921786,61.3098448],[-148.9215591,61.3094795],[-148.9214023,61.3090246],[-148.9211854,61.3086481],[-148.9209151,61.3081499],[-148.9206081,61.3076965],[-148.9206615,61.3073056],[-148.9207917,61.307131],[-148.9205481,61.3068475],[-148.9206048,61.306636],[-148.9205114,61.3062723],[-148.9201744,61.3062307],[-148.9199441,61.3062291],[-148.9196338,61.3063813],[-148.9193101,61.306479],[-148.9187996,61.3064197],[-148.9183425,61.3062931],[-148.9179087,61.3061313],[-148.9175083,61.3060256],[-148.9172013,61.3060144],[-148.9166841,61.3061634],[-148.9163838,61.3061746],[-148.9161335,61.3061666],[-148.9158132,61.3061922],[-148.9155763,61.3062226],[-148.9150958,61.3062419],[-148.9148722,61.3063092],[-148.9144785,61.3063476],[-148.9140647,61.3063684],[-148.9136643,61.3064101],[-148.9132005,61.3064037],[-148.9128368,61.3063636],[-148.912393,61.3062771],[-148.9118457,61.3060512],[-148.9114053,61.3058381],[-148.9103509,61.3054713],[-148.9099905,61.305396],[-148.9095033,61.3052438],[-148.908906,61.3051524],[-148.9084322,61.3051556],[-148.9082153,61.3051957],[-148.9077582,61.3051572],[-148.9071642,61.3050996],[-148.9066971,61.3050803],[-148.9063901,61.3049666],[-148.9057694,61.3047551],[-148.9054691,61.3045997],[-148.9049886,61.3044427],[-148.9041778,61.3045116],[-148.9036306,61.3046061],[-148.9032101,61.3046958],[-148.9024327,61.3048432],[-148.9015784,61.3049313],[-148.900821,61.3050996],[-148.9004373,61.3051685],[-148.9001203,61.3052678],[-148.8997432,61.3053078],[-148.8990191,61.3052742],[-148.8979413,61.3052021],[-148.8975009,61.3051669],[-148.8967334,61.3051604],[-148.8961495,61.30513],[-148.8957958,61.3050339],[-148.8952085,61.3048977],[-148.8948114,61.3048689],[-148.8944911,61.3048865],[-148.8940807,61.3048913],[-148.8936469,61.3048961],[-148.8929095,61.3049281],[-148.8914146,61.3048064],[-148.8908974,61.3047359],[-148.8902434,61.3045308],[-148.8887685,61.3045084],[-148.8882647,61.3044923],[-148.8872403,61.304502],[-148.8869633,61.3045308],[-148.8865295,61.3046237],[-148.8862125,61.3046686],[-148.8859323,61.3046638],[-148.8853116,61.3046317],[-148.8847744,61.3045853],[-148.8842739,61.3045036],[-148.8838201,61.3045068],[-148.8834063,61.3045308],[-148.8831394,61.3046157],[-148.8823519,61.3047968],[-148.8818714,61.3048176],[-148.8812708,61.3047679],[-148.8809137,61.3046702],[-148.8806234,61.3045965],[-148.8803798,61.3046333],[-148.880213,61.3046686],[-148.8798927,61.3047791],[-148.8797092,61.3049153],[-148.8792153,61.3051108],[-148.8788549,61.3052293],[-148.8782777,61.3053094],[-148.8776904,61.3053591],[-148.8771532,61.3054168],[-148.8763123,61.3056795],[-148.875061,61.3061554],[-148.8744537,61.3062771],[-148.8738664,61.3063813],[-148.8732825,61.3064566],[-148.8725484,61.3064501],[-148.8717709,61.306487],[-148.8710168,61.3066921],[-148.870583,61.3068202],[-148.8701459,61.3070173],[-148.8699757,61.3071502],[-148.8700677,61.3072598],[-148.8700677,61.3072598]]}}]}
