{"type":"FeatureCollection","peaks_destination_id":"E76B57745511A983B759","peaks_trailhead_id":"B0A9F84A795CC32DC321","peaks_source":"https://www.openstreetmap.org/","peaks_retrieval_source":"https://api.openstreetmap.org/api/0.6","peaks_license_name":"Open Data Commons Open Database License (ODbL) 1.0","peaks_license":"https://opendatacommons.org/licenses/odbl/1-0/","peaks_attribution":"© OpenStreetMap contributors","peaks_retrieved_at":"2026-07-31T12:02:56.918Z","features":[{"type":"Feature","properties":{"name":"Bazardüzü OSM route candidate","trailhead_name":"Bazardüzü Camp 2","destination_name":"Bazardüzü","distance_m":4006.2700064576356,"trailhead_snap_m":34.153364523301974,"summit_snap_m":1.1196276204982338,"osm_way_ids":[1210142644,180751599],"osm_way_urls":["https://www.openstreetmap.org/way/1210142644","https://www.openstreetmap.org/way/180751599"],"osm_way_names":["Camp2 - Bazarduzu"],"osm_foot_access_override_way_ids":[]},"geometry":{"type":"LineString","coordinates":[[47.885309,41.195714],[47.8849525,41.1955644],[47.8844375,41.1957743],[47.8825063,41.1967753],[47.8803177,41.1981962],[47.8786225,41.1988258],[47.8778929,41.1988581],[47.8757546,41.1994666],[47.8753395,41.1995847],[47.8737302,41.2005372],[47.87152,41.2019741],[47.8699321,41.2043635],[47.8691811,41.2046379],[47.867722,41.2049769],[47.8671641,41.205768],[47.866456,41.2064137],[47.865941,41.207689],[47.8662843,41.2083348],[47.864911,41.2092388],[47.8642673,41.21074],[47.8643656,41.2116828],[47.86374,41.2124529],[47.8640527,41.2129676],[47.8630073,41.215097],[47.8632588,41.2169061],[47.8620426,41.218488],[47.8606381,41.2192052],[47.8586936,41.2195368],[47.8581812,41.2204076],[47.858149,41.2207546],[47.8581573,41.2207625]]}}]}
