{
  "type": "FeatureCollection",
  "peaks_destination_id": "23FA59371BF7F4527E53",
  "peaks_trailhead_id": "AF3E95C2D8B74106E219",
  "peaks_source": "https://www.openstreetmap.org/",
  "peaks_retrieval_source": "https://overpass-api.de/api/interpreter",
  "peaks_license_name": "Open Data Commons Open Database License (ODbL) 1.0",
  "peaks_license": "https://opendatacommons.org/licenses/odbl/1-0/",
  "peaks_attribution": "© OpenStreetMap contributors",
  "peaks_retrieved_at": "2026-07-31T09:26:18.820Z",
  "features": [
    {
      "type": "Feature",
      "properties": {
        "name": "Birnhorn OSM route candidate",
        "trailhead_name": "Ullachtal Trailhead",
        "destination_name": "Birnhorn",
        "distance_m": 6275.80990586253,
        "trailhead_snap_m": 7.723849819066085,
        "summit_snap_m": 0,
        "osm_way_ids": [
          38099831,
          1092972602,
          1416985767,
          27714695,
          957213720,
          957213719,
          957213717,
          957213718,
          957213716,
          957213715,
          957213714,
          957213713,
          957213712,
          957213711,
          957199174,
          957199173,
          957199172,
          957199171,
          957199170,
          957199169,
          1418046029,
          27715248,
          830316338,
          291493296,
          98616917
        ],
        "osm_way_urls": [
          "https://www.openstreetmap.org/way/38099831",
          "https://www.openstreetmap.org/way/1092972602",
          "https://www.openstreetmap.org/way/1416985767",
          "https://www.openstreetmap.org/way/27714695",
          "https://www.openstreetmap.org/way/957213720",
          "https://www.openstreetmap.org/way/957213719",
          "https://www.openstreetmap.org/way/957213717",
          "https://www.openstreetmap.org/way/957213718",
          "https://www.openstreetmap.org/way/957213716",
          "https://www.openstreetmap.org/way/957213715",
          "https://www.openstreetmap.org/way/957213714",
          "https://www.openstreetmap.org/way/957213713",
          "https://www.openstreetmap.org/way/957213712",
          "https://www.openstreetmap.org/way/957213711",
          "https://www.openstreetmap.org/way/957199174",
          "https://www.openstreetmap.org/way/957199173",
          "https://www.openstreetmap.org/way/957199172",
          "https://www.openstreetmap.org/way/957199171",
          "https://www.openstreetmap.org/way/957199170",
          "https://www.openstreetmap.org/way/957199169",
          "https://www.openstreetmap.org/way/1418046029",
          "https://www.openstreetmap.org/way/27715248",
          "https://www.openstreetmap.org/way/830316338",
          "https://www.openstreetmap.org/way/291493296",
          "https://www.openstreetmap.org/way/98616917"
        ],
        "osm_way_names": [
          "Hofersteig",
          "Birnhorn Nordanstieg"
        ],
        "osm_foot_access_override_way_ids": []
      },
      "geometry": {
        "type": "LineString",
        "coordinates": [
          [
            12.755754,
            47.452885
          ],
          [
            12.755717,
            47.4528202
          ],
          [
            12.7556582,
            47.4528522
          ],
          [
            12.7555937,
            47.4528873
          ],
          [
            12.7552906,
            47.4529762
          ],
          [
            12.7550733,
            47.4530732
          ],
          [
            12.7548373,
            47.4531693
          ],
          [
            12.7547327,
            47.453367
          ],
          [
            12.7546066,
            47.4536354
          ],
          [
            12.754392,
            47.4539456
          ],
          [
            12.7541962,
            47.4541886
          ],
          [
            12.7540645,
            47.4543841
          ],
          [
            12.7540545,
            47.4544158
          ],
          [
            12.7540138,
            47.4545447
          ],
          [
            12.7539523,
            47.4546618
          ],
          [
            12.7539776,
            47.4547125
          ],
          [
            12.7540315,
            47.4547633
          ],
          [
            12.7540989,
            47.4547615
          ],
          [
            12.754314,
            47.4545369
          ],
          [
            12.7543444,
            47.4546911
          ],
          [
            12.7542134,
            47.4549393
          ],
          [
            12.7542484,
            47.4551562
          ],
          [
            12.7542781,
            47.4552542
          ],
          [
            12.7542495,
            47.4553099
          ],
          [
            12.754274,
            47.4553498
          ],
          [
            12.7543062,
            47.455387
          ],
          [
            12.7542002,
            47.4554296
          ],
          [
            12.7542174,
            47.4555772
          ],
          [
            12.7541902,
            47.4556939
          ],
          [
            12.7541359,
            47.4557728
          ],
          [
            12.7540752,
            47.4558316
          ],
          [
            12.7539692,
            47.4558801
          ],
          [
            12.7539464,
            47.4559223
          ],
          [
            12.7538406,
            47.4559779
          ],
          [
            12.753664,
            47.4560314
          ],
          [
            12.7536343,
            47.4560738
          ],
          [
            12.7535056,
            47.4560838
          ],
          [
            12.7534479,
            47.456092
          ],
          [
            12.7534492,
            47.4561174
          ],
          [
            12.7534988,
            47.4561403
          ],
          [
            12.7535307,
            47.4561726
          ],
          [
            12.7534415,
            47.4561889
          ],
          [
            12.7533746,
            47.4562328
          ],
          [
            12.7533291,
            47.4563352
          ],
          [
            12.7532599,
            47.4564087
          ],
          [
            12.7531151,
            47.4564627
          ],
          [
            12.7529582,
            47.4564894
          ],
          [
            12.7528793,
            47.4565227
          ],
          [
            12.7527952,
            47.4565425
          ],
          [
            12.7529137,
            47.4565736
          ],
          [
            12.7530332,
            47.4565765
          ],
          [
            12.7531145,
            47.4565988
          ],
          [
            12.7531672,
            47.456629
          ],
          [
            12.7532981,
            47.4566242
          ],
          [
            12.7534349,
            47.4565975
          ],
          [
            12.7535386,
            47.4565885
          ],
          [
            12.753551,
            47.4566075
          ],
          [
            12.7534255,
            47.4567088
          ],
          [
            12.753387,
            47.456796
          ],
          [
            12.7533523,
            47.4568483
          ],
          [
            12.7533983,
            47.4568753
          ],
          [
            12.7534753,
            47.4568748
          ],
          [
            12.7536015,
            47.4568516
          ],
          [
            12.753754,
            47.4568837
          ],
          [
            12.7537637,
            47.4569068
          ],
          [
            12.7536476,
            47.4569741
          ],
          [
            12.7536275,
            47.4569988
          ],
          [
            12.7536014,
            47.4570097
          ],
          [
            12.753608,
            47.4570282
          ],
          [
            12.7535729,
            47.4570687
          ],
          [
            12.7535439,
            47.4570857
          ],
          [
            12.7535634,
            47.4571136
          ],
          [
            12.7535285,
            47.4571349
          ],
          [
            12.7535488,
            47.4571554
          ],
          [
            12.7535305,
            47.4572058
          ],
          [
            12.753566,
            47.4572403
          ],
          [
            12.7536061,
            47.4572603
          ],
          [
            12.7536411,
            47.4572488
          ],
          [
            12.7537464,
            47.4572597
          ],
          [
            12.7538121,
            47.4572501
          ],
          [
            12.7539094,
            47.4572452
          ],
          [
            12.7538444,
            47.4572976
          ],
          [
            12.7537881,
            47.4573795
          ],
          [
            12.7538169,
            47.4574788
          ],
          [
            12.7538205,
            47.4575042
          ],
          [
            12.7538442,
            47.4575203
          ],
          [
            12.753821,
            47.4575596
          ],
          [
            12.7537602,
            47.4575678
          ],
          [
            12.7537357,
            47.4575529
          ],
          [
            12.7536774,
            47.4575411
          ],
          [
            12.753656,
            47.4575554
          ],
          [
            12.7535561,
            47.4575562
          ],
          [
            12.7535454,
            47.4575941
          ],
          [
            12.7535663,
            47.457612
          ],
          [
            12.7535132,
            47.4576716
          ],
          [
            12.7530529,
            47.4578554
          ],
          [
            12.7532968,
            47.4582442
          ],
          [
            12.7532192,
            47.4583219
          ],
          [
            12.7532717,
            47.4583729
          ],
          [
            12.7532676,
            47.4584307
          ],
          [
            12.7533156,
            47.4584787
          ],
          [
            12.7533173,
            47.4585366
          ],
          [
            12.7532874,
            47.4585599
          ],
          [
            12.7532358,
            47.4585382
          ],
          [
            12.7531395,
            47.4585381
          ],
          [
            12.7530825,
            47.4585762
          ],
          [
            12.7530248,
            47.4586115
          ],
          [
            12.7530731,
            47.4586876
          ],
          [
            12.7529956,
            47.4587201
          ],
          [
            12.7527057,
            47.4587801
          ],
          [
            12.7526687,
            47.4588754
          ],
          [
            12.7529418,
            47.459013
          ],
          [
            12.7531763,
            47.4591887
          ],
          [
            12.753034,
            47.4592603
          ],
          [
            12.7530315,
            47.4593636
          ],
          [
            12.752801,
            47.4594311
          ],
          [
            12.7526439,
            47.4594461
          ],
          [
            12.7525416,
            47.4594887
          ],
          [
            12.7525857,
            47.4595631
          ],
          [
            12.7526296,
            47.4596136
          ],
          [
            12.7528476,
            47.4596794
          ],
          [
            12.7530107,
            47.4597279
          ],
          [
            12.7530501,
            47.4597606
          ],
          [
            12.7529356,
            47.4597614
          ],
          [
            12.7528676,
            47.4597952
          ],
          [
            12.7527838,
            47.4598036
          ],
          [
            12.7527162,
            47.4598257
          ],
          [
            12.7526487,
            47.4598448
          ],
          [
            12.7526333,
            47.4598844
          ],
          [
            12.7527001,
            47.459888
          ],
          [
            12.7527725,
            47.4599292
          ],
          [
            12.7528602,
            47.4599637
          ],
          [
            12.7528644,
            47.4599823
          ],
          [
            12.752805,
            47.4599873
          ],
          [
            12.7527694,
            47.4600154
          ],
          [
            12.7527238,
            47.4600389
          ],
          [
            12.7526931,
            47.4601002
          ],
          [
            12.7527157,
            47.4601587
          ],
          [
            12.752648,
            47.4603504
          ],
          [
            12.7525693,
            47.4604682
          ],
          [
            12.752634,
            47.4606087
          ],
          [
            12.7526689,
            47.4608476
          ],
          [
            12.7528714,
            47.4610542
          ],
          [
            12.7528496,
            47.4611113
          ],
          [
            12.7527444,
            47.4611147
          ],
          [
            12.7527352,
            47.4611381
          ],
          [
            12.7527515,
            47.4611767
          ],
          [
            12.7526966,
            47.4612688
          ],
          [
            12.7527152,
            47.4613327
          ],
          [
            12.7526038,
            47.4614337
          ],
          [
            12.7524583,
            47.4615184
          ],
          [
            12.752424,
            47.461605
          ],
          [
            12.7523011,
            47.4616963
          ],
          [
            12.7522141,
            47.4618517
          ],
          [
            12.7522904,
            47.4621271
          ],
          [
            12.7521873,
            47.462313
          ],
          [
            12.7521446,
            47.4623988
          ],
          [
            12.7522162,
            47.4624988
          ],
          [
            12.7521645,
            47.4625628
          ],
          [
            12.7519962,
            47.4626113
          ],
          [
            12.7520977,
            47.462735
          ],
          [
            12.7520725,
            47.4627724
          ],
          [
            12.751996,
            47.4627766
          ],
          [
            12.7520143,
            47.4628163
          ],
          [
            12.7520606,
            47.4628362
          ],
          [
            12.7521016,
            47.4628716
          ],
          [
            12.7520461,
            47.4628863
          ],
          [
            12.7519368,
            47.4629337
          ],
          [
            12.7519665,
            47.4630213
          ],
          [
            12.7520086,
            47.4630729
          ],
          [
            12.7519905,
            47.4631051
          ],
          [
            12.7519487,
            47.463117
          ],
          [
            12.7519334,
            47.4631444
          ],
          [
            12.7518052,
            47.4631932
          ],
          [
            12.7517946,
            47.4632166
          ],
          [
            12.7517468,
            47.4632455
          ],
          [
            12.751816,
            47.4633673
          ],
          [
            12.7516208,
            47.4635151
          ],
          [
            12.7513742,
            47.4635902
          ],
          [
            12.7515097,
            47.4637593
          ],
          [
            12.7514792,
            47.4638326
          ],
          [
            12.751435,
            47.463873
          ],
          [
            12.7514815,
            47.4639155
          ],
          [
            12.7516052,
            47.4639471
          ],
          [
            12.7513686,
            47.4641669
          ],
          [
            12.7514591,
            47.4643118
          ],
          [
            12.7513925,
            47.4643773
          ],
          [
            12.751367,
            47.4644802
          ],
          [
            12.7513162,
            47.4645441
          ],
          [
            12.7512627,
            47.4646127
          ],
          [
            12.7513449,
            47.4648541
          ],
          [
            12.7511758,
            47.4649951
          ],
          [
            12.7512346,
            47.4651113
          ],
          [
            12.7507378,
            47.4652084
          ],
          [
            12.7508914,
            47.4654111
          ],
          [
            12.7509194,
            47.4656518
          ],
          [
            12.7509535,
            47.465793
          ],
          [
            12.7510513,
            47.4659803
          ],
          [
            12.7508765,
            47.4660499
          ],
          [
            12.7510488,
            47.4663118
          ],
          [
            12.7511405,
            47.4665329
          ],
          [
            12.7513559,
            47.4667161
          ],
          [
            12.7512671,
            47.4667462
          ],
          [
            12.7511214,
            47.466766
          ],
          [
            12.7511268,
            47.4668098
          ],
          [
            12.7512634,
            47.4668671
          ],
          [
            12.7513352,
            47.4669171
          ],
          [
            12.7512168,
            47.4669483
          ],
          [
            12.7511662,
            47.4669922
          ],
          [
            12.7512515,
            47.4670388
          ],
          [
            12.7513748,
            47.4670518
          ],
          [
            12.7514037,
            47.4671207
          ],
          [
            12.7510812,
            47.4671841
          ],
          [
            12.7510154,
            47.4673151
          ],
          [
            12.751094,
            47.4673747
          ],
          [
            12.7512545,
            47.4673838
          ],
          [
            12.7512366,
            47.4674282
          ],
          [
            12.7511417,
            47.46749
          ],
          [
            12.7512849,
            47.467517
          ],
          [
            12.7515235,
            47.4674579
          ],
          [
            12.7515529,
            47.467486
          ],
          [
            12.7514095,
            47.4675843
          ],
          [
            12.751356,
            47.4676259
          ],
          [
            12.7513828,
            47.4676622
          ],
          [
            12.7515735,
            47.4676117
          ],
          [
            12.7516896,
            47.4676508
          ],
          [
            12.7517345,
            47.4677254
          ],
          [
            12.7516555,
            47.4677363
          ],
          [
            12.7513947,
            47.4679182
          ],
          [
            12.7512005,
            47.4680969
          ],
          [
            12.7511827,
            47.4682342
          ],
          [
            12.7511485,
            47.4682568
          ],
          [
            12.7511783,
            47.4682772
          ],
          [
            12.7511686,
            47.4683015
          ],
          [
            12.7511961,
            47.468309
          ],
          [
            12.7512414,
            47.4682601
          ],
          [
            12.7513226,
            47.4681898
          ],
          [
            12.7514656,
            47.46815
          ],
          [
            12.7516906,
            47.468166
          ],
          [
            12.7518698,
            47.4682459
          ],
          [
            12.7519131,
            47.4682924
          ],
          [
            12.7519848,
            47.4683209
          ],
          [
            12.751974,
            47.4683351
          ],
          [
            12.7519022,
            47.4683314
          ],
          [
            12.7518827,
            47.4683502
          ],
          [
            12.7520205,
            47.4684028
          ],
          [
            12.7520281,
            47.468432
          ],
          [
            12.7520174,
            47.4684501
          ],
          [
            12.7520458,
            47.4686356
          ],
          [
            12.7520618,
            47.4687013
          ],
          [
            12.7520408,
            47.4687916
          ],
          [
            12.7520751,
            47.4688999
          ],
          [
            12.7520463,
            47.4689134
          ],
          [
            12.7519004,
            47.4687973
          ],
          [
            12.7518479,
            47.4687519
          ],
          [
            12.7517974,
            47.4687607
          ],
          [
            12.7517362,
            47.4688746
          ],
          [
            12.7515538,
            47.4691049
          ],
          [
            12.7514758,
            47.46915
          ],
          [
            12.7514257,
            47.4692447
          ],
          [
            12.7513511,
            47.4693311
          ],
          [
            12.7513851,
            47.469334
          ],
          [
            12.7514102,
            47.4693169
          ],
          [
            12.7514451,
            47.4693111
          ],
          [
            12.7514242,
            47.46935
          ],
          [
            12.7513718,
            47.4694007
          ],
          [
            12.7513971,
            47.469404
          ],
          [
            12.7514488,
            47.4693778
          ],
          [
            12.7516186,
            47.4693046
          ],
          [
            12.7516598,
            47.4693085
          ],
          [
            12.7517729,
            47.4692686
          ],
          [
            12.7518575,
            47.4692905
          ],
          [
            12.7520306,
            47.4694718
          ],
          [
            12.7522179,
            47.469627
          ],
          [
            12.7520326,
            47.4695873
          ],
          [
            12.7519321,
            47.4695831
          ],
          [
            12.7518787,
            47.4696147
          ],
          [
            12.7517888,
            47.469627
          ],
          [
            12.7517072,
            47.4696654
          ],
          [
            12.751647,
            47.4696996
          ],
          [
            12.7516576,
            47.4697162
          ],
          [
            12.7517505,
            47.4697157
          ],
          [
            12.7517647,
            47.469738
          ],
          [
            12.7517087,
            47.4697761
          ],
          [
            12.751722,
            47.4697934
          ],
          [
            12.7517536,
            47.4697955
          ],
          [
            12.7517237,
            47.4698307
          ],
          [
            12.7516817,
            47.4698543
          ],
          [
            12.7517365,
            47.4698889
          ],
          [
            12.7518381,
            47.469898
          ],
          [
            12.7518919,
            47.4699352
          ],
          [
            12.7519347,
            47.4699868
          ],
          [
            12.7520158,
            47.4699939
          ],
          [
            12.7520806,
            47.4700216
          ],
          [
            12.7521356,
            47.4700666
          ],
          [
            12.7522099,
            47.4701584
          ],
          [
            12.752167,
            47.4701584
          ],
          [
            12.7521108,
            47.4701503
          ],
          [
            12.7521047,
            47.4702112
          ],
          [
            12.7520377,
            47.4702652
          ],
          [
            12.7519389,
            47.4702846
          ],
          [
            12.7518746,
            47.4703233
          ],
          [
            12.7519418,
            47.4703506
          ],
          [
            12.7519399,
            47.4703676
          ],
          [
            12.7518863,
            47.470414
          ],
          [
            12.7519463,
            47.4704314
          ],
          [
            12.7520063,
            47.4704159
          ],
          [
            12.7520884,
            47.4705097
          ],
          [
            12.7521309,
            47.4705801
          ],
          [
            12.7521531,
            47.4706979
          ],
          [
            12.75224,
            47.4706834
          ],
          [
            12.75237,
            47.4707002
          ],
          [
            12.7524868,
            47.470723
          ],
          [
            12.7525277,
            47.4707085
          ],
          [
            12.7525782,
            47.470718
          ],
          [
            12.7525345,
            47.4707317
          ],
          [
            12.7525568,
            47.470741
          ],
          [
            12.7526299,
            47.4707426
          ],
          [
            12.7527243,
            47.4707526
          ],
          [
            12.7528181,
            47.4708234
          ],
          [
            12.752896,
            47.4708977
          ],
          [
            12.7529482,
            47.4709424
          ],
          [
            12.7530318,
            47.470988
          ],
          [
            12.7531176,
            47.4710139
          ],
          [
            12.7531986,
            47.4709737
          ],
          [
            12.7532802,
            47.4708887
          ],
          [
            12.753312,
            47.4708854
          ],
          [
            12.7534317,
            47.4709279
          ],
          [
            12.7534697,
            47.4709036
          ],
          [
            12.7536228,
            47.4708697
          ],
          [
            12.7537355,
            47.4708739
          ],
          [
            12.753867,
            47.4708981
          ],
          [
            12.7539865,
            47.4709287
          ],
          [
            12.7538351,
            47.4709674
          ],
          [
            12.753714,
            47.4710215
          ],
          [
            12.7538282,
            47.4710392
          ],
          [
            12.7541664,
            47.4711424
          ],
          [
            12.7544893,
            47.4712468
          ],
          [
            12.7546125,
            47.4712642
          ],
          [
            12.7546192,
            47.4712775
          ],
          [
            12.7544942,
            47.4713276
          ],
          [
            12.7543745,
            47.4713542
          ],
          [
            12.7545422,
            47.471395
          ],
          [
            12.7544893,
            47.4714038
          ],
          [
            12.7544562,
            47.4714208
          ],
          [
            12.7544123,
            47.4714279
          ],
          [
            12.7545086,
            47.4714745
          ],
          [
            12.7545983,
            47.4714814
          ],
          [
            12.7546679,
            47.4715108
          ],
          [
            12.7547215,
            47.4715195
          ],
          [
            12.7547671,
            47.4715591
          ],
          [
            12.7547875,
            47.4715814
          ],
          [
            12.7548488,
            47.4715681
          ],
          [
            12.7548318,
            47.4716032
          ],
          [
            12.7548927,
            47.4716206
          ],
          [
            12.7549378,
            47.4716766
          ],
          [
            12.7549782,
            47.4716862
          ],
          [
            12.7550186,
            47.4716777
          ],
          [
            12.7550916,
            47.4716762
          ],
          [
            12.7550674,
            47.4716933
          ],
          [
            12.7551141,
            47.4717117
          ],
          [
            12.7550637,
            47.4717294
          ],
          [
            12.7550589,
            47.4717563
          ],
          [
            12.755151,
            47.4717884
          ],
          [
            12.7552736,
            47.4718286
          ],
          [
            12.7553618,
            47.4718918
          ],
          [
            12.7554782,
            47.4719289
          ],
          [
            12.7555605,
            47.471974
          ],
          [
            12.7556069,
            47.4719911
          ],
          [
            12.7555195,
            47.472007
          ],
          [
            12.7556011,
            47.4720404
          ],
          [
            12.7556441,
            47.4720539
          ],
          [
            12.7556626,
            47.4720784
          ],
          [
            12.7554926,
            47.4720925
          ],
          [
            12.7553196,
            47.4721285
          ],
          [
            12.7552483,
            47.4721512
          ],
          [
            12.7551755,
            47.4721078
          ],
          [
            12.7551156,
            47.4721154
          ],
          [
            12.7550079,
            47.4722511
          ],
          [
            12.7548449,
            47.4723556
          ],
          [
            12.7547427,
            47.4724057
          ],
          [
            12.7546557,
            47.4724244
          ],
          [
            12.7546208,
            47.4724105
          ],
          [
            12.7546336,
            47.472366
          ],
          [
            12.7546262,
            47.4723396
          ],
          [
            12.7545874,
            47.4722743
          ],
          [
            12.7545435,
            47.4722435
          ],
          [
            12.7544672,
            47.4722221
          ],
          [
            12.7545142,
            47.472282
          ],
          [
            12.7545319,
            47.4723144
          ],
          [
            12.7544248,
            47.4723118
          ],
          [
            12.7544813,
            47.4723915
          ],
          [
            12.7544531,
            47.4724
          ],
          [
            12.7543321,
            47.4723627
          ],
          [
            12.7542527,
            47.4723514
          ],
          [
            12.7541009,
            47.4723156
          ],
          [
            12.7539776,
            47.4722517
          ],
          [
            12.7539651,
            47.4723002
          ],
          [
            12.753978,
            47.4723323
          ],
          [
            12.7540602,
            47.4724468
          ],
          [
            12.7541553,
            47.4725235
          ],
          [
            12.7541744,
            47.4725436
          ],
          [
            12.7541411,
            47.472547
          ],
          [
            12.7540719,
            47.4725636
          ],
          [
            12.753978,
            47.4726572
          ],
          [
            12.7539868,
            47.4727191
          ],
          [
            12.753981,
            47.4727639
          ],
          [
            12.7538664,
            47.4727153
          ],
          [
            12.7538724,
            47.4727733
          ],
          [
            12.7538761,
            47.4728089
          ],
          [
            12.7538699,
            47.4729509
          ],
          [
            12.7538874,
            47.4730529
          ],
          [
            12.7539017,
            47.473109
          ],
          [
            12.7539628,
            47.4731202
          ],
          [
            12.7540169,
            47.4730931
          ],
          [
            12.7540234,
            47.4732186
          ],
          [
            12.7539499,
            47.4732882
          ],
          [
            12.7538507,
            47.4733823
          ],
          [
            12.7537829,
            47.4734557
          ],
          [
            12.7537348,
            47.4735451
          ],
          [
            12.7535562,
            47.4736442
          ],
          [
            12.7534953,
            47.4737319
          ],
          [
            12.7533901,
            47.473804
          ],
          [
            12.7531898,
            47.4738741
          ],
          [
            12.7530995,
            47.4738679
          ],
          [
            12.7530493,
            47.4739142
          ],
          [
            12.752935,
            47.4739913
          ],
          [
            12.7528076,
            47.4740491
          ],
          [
            12.7526394,
            47.4740779
          ],
          [
            12.7524764,
            47.4741221
          ],
          [
            12.7523517,
            47.4740994
          ],
          [
            12.7522187,
            47.4741488
          ],
          [
            12.7523445,
            47.4742492
          ],
          [
            12.7522379,
            47.474259
          ],
          [
            12.7521312,
            47.474276
          ],
          [
            12.7522427,
            47.4743513
          ],
          [
            12.7521276,
            47.4743878
          ],
          [
            12.7519814,
            47.4744153
          ],
          [
            12.7518724,
            47.4744356
          ],
          [
            12.7517597,
            47.4744185
          ],
          [
            12.7516916,
            47.4743918
          ],
          [
            12.751526,
            47.474361
          ],
          [
            12.7514716,
            47.4744307
          ],
          [
            12.7512998,
            47.4743895
          ],
          [
            12.7510663,
            47.4743437
          ],
          [
            12.750745,
            47.4743876
          ],
          [
            12.7506268,
            47.4743702
          ],
          [
            12.7505419,
            47.4743239
          ],
          [
            12.7505037,
            47.4743242
          ],
          [
            12.7504678,
            47.4743244
          ],
          [
            12.7504324,
            47.4742962
          ],
          [
            12.7503049,
            47.4743413
          ],
          [
            12.7501446,
            47.4742934
          ],
          [
            12.7500733,
            47.4741854
          ],
          [
            12.7499787,
            47.4741687
          ],
          [
            12.7499261,
            47.4741594
          ],
          [
            12.7497228,
            47.4741764
          ],
          [
            12.7496373,
            47.4741597
          ],
          [
            12.7494948,
            47.4741608
          ],
          [
            12.7493921,
            47.4741596
          ],
          [
            12.749358,
            47.4742283
          ],
          [
            12.7492081,
            47.4742586
          ],
          [
            12.7491478,
            47.4742845
          ],
          [
            12.7489509,
            47.4742974
          ],
          [
            12.7488334,
            47.4743268
          ],
          [
            12.7488346,
            47.4744071
          ],
          [
            12.7487789,
            47.4744558
          ],
          [
            12.7486906,
            47.4744426
          ],
          [
            12.7486007,
            47.4745053
          ],
          [
            12.7485179,
            47.474537
          ],
          [
            12.7484459,
            47.4745874
          ],
          [
            12.748383,
            47.4745697
          ],
          [
            12.7482985,
            47.47449
          ],
          [
            12.7482506,
            47.4744899
          ],
          [
            12.7482302,
            47.474417
          ],
          [
            12.7482703,
            47.4743495
          ],
          [
            12.748273,
            47.4743049
          ],
          [
            12.7482093,
            47.4742918
          ],
          [
            12.7480555,
            47.4743087
          ],
          [
            12.7479753,
            47.474305
          ],
          [
            12.7478911,
            47.4743095
          ],
          [
            12.7478299,
            47.4742188
          ],
          [
            12.7477157,
            47.4742171
          ],
          [
            12.7475715,
            47.4742102
          ],
          [
            12.7474713,
            47.4742689
          ],
          [
            12.7474212,
            47.4742935
          ],
          [
            12.7473418,
            47.4742932
          ],
          [
            12.7472397,
            47.4742998
          ],
          [
            12.747176,
            47.4742903
          ],
          [
            12.7471107,
            47.4743079
          ],
          [
            12.7470358,
            47.4742755
          ],
          [
            12.7469279,
            47.474272
          ],
          [
            12.7468246,
            47.4742894
          ],
          [
            12.7465311,
            47.474273
          ],
          [
            12.7464632,
            47.4742687
          ],
          [
            12.7463413,
            47.474305
          ],
          [
            12.7461808,
            47.4743405
          ],
          [
            12.7461221,
            47.474327
          ],
          [
            12.7460164,
            47.4743176
          ],
          [
            12.7458485,
            47.4743568
          ],
          [
            12.7457603,
            47.4743511
          ],
          [
            12.7457666,
            47.4743706
          ],
          [
            12.7455476,
            47.4742885
          ],
          [
            12.7455304,
            47.4743129
          ],
          [
            12.7454875,
            47.4743042
          ],
          [
            12.7451812,
            47.4742634
          ],
          [
            12.7450679,
            47.4742199
          ],
          [
            12.7449526,
            47.4742048
          ],
          [
            12.7447529,
            47.4741009
          ],
          [
            12.7446549,
            47.4740932
          ],
          [
            12.7445455,
            47.4740593
          ],
          [
            12.7444774,
            47.4740284
          ],
          [
            12.7444015,
            47.4739975
          ],
          [
            12.7443313,
            47.4739577
          ],
          [
            12.7442447,
            47.4739235
          ],
          [
            12.7440899,
            47.4739156
          ],
          [
            12.7438683,
            47.4738786
          ],
          [
            12.7436016,
            47.473872
          ],
          [
            12.7434145,
            47.4738989
          ],
          [
            12.7433115,
            47.4739279
          ],
          [
            12.7431672,
            47.4739237
          ],
          [
            12.7430335,
            47.4738348
          ],
          [
            12.7429429,
            47.4737754
          ],
          [
            12.7428178,
            47.4737275
          ],
          [
            12.7427245,
            47.4736856
          ],
          [
            12.7426678,
            47.4736959
          ],
          [
            12.7425192,
            47.473707
          ],
          [
            12.7424521,
            47.4737091
          ],
          [
            12.7424103,
            47.4737249
          ],
          [
            12.7422043,
            47.4737887
          ],
          [
            12.7421965,
            47.4738356
          ],
          [
            12.7422072,
            47.4739489
          ],
          [
            12.7421364,
            47.4740728
          ],
          [
            12.7420852,
            47.4741517
          ],
          [
            12.7420326,
            47.474276
          ],
          [
            12.7420326,
            47.4743166
          ],
          [
            12.7418695,
            47.4743166
          ],
          [
            12.7416979,
            47.474421
          ],
          [
            12.7414318,
            47.4745023
          ],
          [
            12.7412258,
            47.4745313
          ],
          [
            12.7409941,
            47.4745661
          ],
          [
            12.7408653,
            47.4745777
          ],
          [
            12.7407194,
            47.4746531
          ],
          [
            12.7404533,
            47.4746589
          ],
          [
            12.7402302,
            47.4746879
          ],
          [
            12.7399898,
            47.4747401
          ],
          [
            12.7399297,
            47.4748993
          ],
          [
            12.739801,
            47.4749722
          ],
          [
            12.7397152,
            47.4751255
          ],
          [
            12.7396557,
            47.4751705
          ],
          [
            12.7396578,
            47.4752549
          ],
          [
            12.7396127,
            47.475346
          ],
          [
            12.7395553,
            47.475198
          ],
          [
            12.739507,
            47.4751092
          ],
          [
            12.739448,
            47.4750219
          ],
          [
            12.7394062,
            47.4749258
          ],
          [
            12.7393633,
            47.4748852
          ],
          [
            12.7392898,
            47.4747995
          ],
          [
            12.739212,
            47.4746719
          ],
          [
            12.7391149,
            47.4745715
          ],
          [
            12.7389743,
            47.4744079
          ],
          [
            12.7388011,
            47.4742644
          ],
          [
            12.7386509,
            47.4742169
          ],
          [
            12.7386394,
            47.4743163
          ],
          [
            12.7385119,
            47.4742778
          ],
          [
            12.7384932,
            47.4743242
          ],
          [
            12.7385474,
            47.4744326
          ],
          [
            12.738394,
            47.4743902
          ],
          [
            12.7383349,
            47.4744667
          ],
          [
            12.7382679,
            47.4744496
          ],
          [
            12.7382571,
            47.4744892
          ],
          [
            12.7382931,
            47.4746368
          ],
          [
            12.738196,
            47.4746125
          ],
          [
            12.7379696,
            47.4745534
          ],
          [
            12.7378307,
            47.4744914
          ],
          [
            12.7377271,
            47.4744519
          ],
          [
            12.7375351,
            47.4744058
          ],
          [
            12.737269,
            47.4743333
          ],
          [
            12.7370088,
            47.4742829
          ],
          [
            12.73682,
            47.4742648
          ],
          [
            12.7366676,
            47.4742296
          ],
          [
            12.7366036,
            47.4742837
          ],
          [
            12.7367004,
            47.4743547
          ],
          [
            12.7368286,
            47.4744692
          ],
          [
            12.7368645,
            47.4745469
          ],
          [
            12.7366961,
            47.4745411
          ],
          [
            12.7366253,
            47.4745429
          ],
          [
            12.7364863,
            47.4745375
          ],
          [
            12.7362948,
            47.4745193
          ],
          [
            12.7360969,
            47.4745114
          ],
          [
            12.7359092,
            47.4745037
          ],
          [
            12.7358807,
            47.474553
          ],
          [
            12.7361022,
            47.4747263
          ],
          [
            12.7360073,
            47.4747633
          ],
          [
            12.735973,
            47.4747923
          ],
          [
            12.7358356,
            47.4747923
          ],
          [
            12.7357241,
            47.4747923
          ],
          [
            12.7355781,
            47.4747923
          ],
          [
            12.7354666,
            47.4747923
          ],
          [
            12.7353378,
            47.4747575
          ],
          [
            12.7354717,
            47.4749055
          ],
          [
            12.7350637,
            47.4748133
          ],
          [
            12.7349698,
            47.4747749
          ],
          [
            12.7348655,
            47.4747913
          ],
          [
            12.7347912,
            47.4748565
          ],
          [
            12.7346939,
            47.4750832
          ],
          [
            12.7345812,
            47.4752119
          ],
          [
            12.7343667,
            47.4750959
          ],
          [
            12.7341762,
            47.4748892
          ],
          [
            12.7341092,
            47.4747677
          ],
          [
            12.7338254,
            47.4747637
          ],
          [
            12.7336752,
            47.4746839
          ],
          [
            12.733485,
            47.4744611
          ],
          [
            12.7335813,
            47.4747483
          ],
          [
            12.7337982,
            47.4749133
          ],
          [
            12.7338343,
            47.4750415
          ],
          [
            12.7338343,
            47.4750415
          ]
        ]
      }
    }
  ]
}
