{
  "type": "FeatureCollection",
  "peaks_destination_id": "49FDCFD09E5245350B50",
  "peaks_trailhead_id": "8E6B8DD8AF59D25E6C4A",
  "peaks_source": "https://www.openstreetmap.org/",
  "peaks_retrieval_source": "https://overpass-api.de/api/interpreter",
  "peaks_license_name": "Open Data Commons Open Database License (ODbL) 1.0",
  "peaks_license": "https://opendatacommons.org/licenses/odbl/1-0/",
  "peaks_attribution": "© OpenStreetMap contributors",
  "peaks_retrieved_at": "2026-07-31T09:13:57.571Z",
  "features": [
    {
      "type": "Feature",
      "properties": {
        "name": "Blue Mountain Peak OSM route candidate",
        "trailhead_name": "Blue Mountain Peak Trailhead",
        "destination_name": "Blue Mountain Peak",
        "distance_m": 7024.08227606539,
        "trailhead_snap_m": 11.663815696915552,
        "summit_snap_m": 0,
        "osm_way_ids": [
          305289428,
          566686387,
          403328798
        ],
        "osm_way_urls": [
          "https://www.openstreetmap.org/way/305289428",
          "https://www.openstreetmap.org/way/566686387",
          "https://www.openstreetmap.org/way/403328798"
        ],
        "osm_way_names": [
          "Whitfield Hall Road"
        ],
        "osm_foot_access_override_way_ids": []
      },
      "geometry": {
        "type": "LineString",
        "coordinates": [
          [
            -76.615005,
            18.04645
          ],
          [
            -76.614901,
            18.046415
          ],
          [
            -76.6145848,
            18.0465158
          ],
          [
            -76.6143346,
            18.046563
          ],
          [
            -76.6147672,
            18.0466032
          ],
          [
            -76.6149331,
            18.0468322
          ],
          [
            -76.614917,
            18.0471069
          ],
          [
            -76.6145906,
            18.0469034
          ],
          [
            -76.6139004,
            18.0468067
          ],
          [
            -76.6139753,
            18.0469136
          ],
          [
            -76.6141733,
            18.0470458
          ],
          [
            -76.6136649,
            18.0472239
          ],
          [
            -76.6133813,
            18.0471425
          ],
          [
            -76.6131727,
            18.0473358
          ],
          [
            -76.6130549,
            18.0471272
          ],
          [
            -76.6126857,
            18.046995
          ],
          [
            -76.6124396,
            18.0469899
          ],
          [
            -76.6126483,
            18.0471628
          ],
          [
            -76.6126804,
            18.0474477
          ],
          [
            -76.6124664,
            18.0477123
          ],
          [
            -76.6121988,
            18.0478547
          ],
          [
            -76.6121774,
            18.0477581
          ],
          [
            -76.6123433,
            18.0476258
          ],
          [
            -76.612263,
            18.0473969
          ],
          [
            -76.6115593,
            18.0471682
          ],
          [
            -76.6112798,
            18.0472042
          ],
          [
            -76.6112843,
            18.0473532
          ],
          [
            -76.61097,
            18.047566
          ],
          [
            -76.6110378,
            18.0476259
          ],
          [
            -76.6111501,
            18.0476309
          ],
          [
            -76.6111837,
            18.0476847
          ],
          [
            -76.6111717,
            18.0477434
          ],
          [
            -76.6110538,
            18.0478751
          ],
          [
            -76.6111073,
            18.0479565
          ],
          [
            -76.6111663,
            18.0480188
          ],
          [
            -76.6113487,
            18.0480494
          ],
          [
            -76.6113722,
            18.0480864
          ],
          [
            -76.6113803,
            18.0481396
          ],
          [
            -76.6113541,
            18.0481769
          ],
          [
            -76.6112575,
            18.0481565
          ],
          [
            -76.6111731,
            18.0481865
          ],
          [
            -76.6108332,
            18.0484107
          ],
          [
            -76.6104483,
            18.048646
          ],
          [
            -76.6102233,
            18.0489299
          ],
          [
            -76.6100897,
            18.0489827
          ],
          [
            -76.609793,
            18.0492442
          ],
          [
            -76.6096321,
            18.0493564
          ],
          [
            -76.6094095,
            18.0494992
          ],
          [
            -76.6092217,
            18.0495821
          ],
          [
            -76.6091506,
            18.0496344
          ],
          [
            -76.6090299,
            18.0496854
          ],
          [
            -76.6089267,
            18.0497185
          ],
          [
            -76.6087885,
            18.0498167
          ],
          [
            -76.6086987,
            18.0498499
          ],
          [
            -76.6086477,
            18.0498754
          ],
          [
            -76.6085552,
            18.0499557
          ],
          [
            -76.6084385,
            18.050059
          ],
          [
            -76.6083916,
            18.0501584
          ],
          [
            -76.6083728,
            18.0502656
          ],
          [
            -76.608358,
            18.0505078
          ],
          [
            -76.6083406,
            18.0507182
          ],
          [
            -76.6083258,
            18.0507781
          ],
          [
            -76.6083111,
            18.0508623
          ],
          [
            -76.6082695,
            18.0509885
          ],
          [
            -76.60824,
            18.0510778
          ],
          [
            -76.6082306,
            18.0511632
          ],
          [
            -76.6081703,
            18.051255
          ],
          [
            -76.6081099,
            18.0513035
          ],
          [
            -76.6079892,
            18.0513609
          ],
          [
            -76.607886,
            18.051408
          ],
          [
            -76.6077505,
            18.0514348
          ],
          [
            -76.6076486,
            18.0514412
          ],
          [
            -76.6075279,
            18.0513966
          ],
          [
            -76.6074139,
            18.0513162
          ],
          [
            -76.60732,
            18.0512703
          ],
          [
            -76.6071913,
            18.0512142
          ],
          [
            -76.6071081,
            18.0511849
          ],
          [
            -76.606864,
            18.051196
          ],
          [
            -76.6063797,
            18.0516277
          ],
          [
            -76.6057289,
            18.051642
          ],
          [
            -76.6051917,
            18.0515125
          ],
          [
            -76.6044198,
            18.0518003
          ],
          [
            -76.6042875,
            18.052154
          ],
          [
            -76.6041538,
            18.0526882
          ],
          [
            -76.6040253,
            18.0529426
          ],
          [
            -76.6036829,
            18.0529019
          ],
          [
            -76.6033511,
            18.052678
          ],
          [
            -76.6029926,
            18.0528815
          ],
          [
            -76.6024362,
            18.0529629
          ],
          [
            -76.6019385,
            18.053258
          ],
          [
            -76.6013607,
            18.0535886
          ],
          [
            -76.6005848,
            18.0537056
          ],
          [
            -76.5997287,
            18.0536039
          ],
          [
            -76.5990671,
            18.0531712
          ],
          [
            -76.5986509,
            18.0526316
          ],
          [
            -76.5979925,
            18.0521999
          ],
          [
            -76.5980077,
            18.051761
          ],
          [
            -76.5978639,
            18.0513006
          ],
          [
            -76.597372,
            18.0510487
          ],
          [
            -76.5970239,
            18.0506315
          ],
          [
            -76.5972964,
            18.0503149
          ],
          [
            -76.5974023,
            18.0497825
          ],
          [
            -76.5971526,
            18.0500271
          ],
          [
            -76.5970467,
            18.0503437
          ],
          [
            -76.5970391,
            18.0498616
          ],
          [
            -76.5968121,
            18.0501926
          ],
          [
            -76.5963883,
            18.0504804
          ],
          [
            -76.5960705,
            18.0503077
          ],
          [
            -76.5961386,
            18.0498616
          ],
          [
            -76.5960781,
            18.0494155
          ],
          [
            -76.5962824,
            18.0490702
          ],
          [
            -76.5957678,
            18.0492717
          ],
          [
            -76.5956846,
            18.0497681
          ],
          [
            -76.5952986,
            18.050099
          ],
          [
            -76.5952532,
            18.0507322
          ],
          [
            -76.5952381,
            18.051502
          ],
          [
            -76.594996,
            18.0510272
          ],
          [
            -76.5948446,
            18.0505523
          ],
          [
            -76.5945949,
            18.0505955
          ],
          [
            -76.5944663,
            18.0502933
          ],
          [
            -76.5943918,
            18.0496025
          ],
          [
            -76.5943019,
            18.0494967
          ],
          [
            -76.5942469,
            18.0494418
          ],
          [
            -76.5941678,
            18.0493755
          ],
          [
            -76.5941142,
            18.0493041
          ],
          [
            -76.5940766,
            18.0492773
          ],
          [
            -76.5940243,
            18.0492773
          ],
          [
            -76.5940069,
            18.0492238
          ],
          [
            -76.5940243,
            18.0491486
          ],
          [
            -76.5940069,
            18.0489751
          ],
          [
            -76.5939264,
            18.0488935
          ],
          [
            -76.5938982,
            18.0487839
          ],
          [
            -76.5938714,
            18.0486768
          ],
          [
            -76.593858,
            18.0485289
          ],
          [
            -76.5939036,
            18.0484077
          ],
          [
            -76.5939023,
            18.0482432
          ],
          [
            -76.5938902,
            18.0481654
          ],
          [
            -76.5938754,
            18.0480826
          ],
          [
            -76.5938607,
            18.0480239
          ],
          [
            -76.5938191,
            18.047941
          ],
          [
            -76.593744,
            18.0478569
          ],
          [
            -76.5936743,
            18.0478186
          ],
          [
            -76.5935804,
            18.0477906
          ],
          [
            -76.5935066,
            18.0477816
          ],
          [
            -76.5933967,
            18.0477625
          ],
          [
            -76.5932988,
            18.0477383
          ],
          [
            -76.5931942,
            18.0477039
          ],
          [
            -76.5931284,
            18.0476618
          ],
          [
            -76.5930265,
            18.0475827
          ],
          [
            -76.5928186,
            18.047482
          ],
          [
            -76.5927543,
            18.0474603
          ],
          [
            -76.5926631,
            18.0474361
          ],
          [
            -76.5926054,
            18.0473876
          ],
          [
            -76.5925357,
            18.047371
          ],
          [
            -76.5924576,
            18.047361
          ],
          [
            -76.5923519,
            18.0473417
          ],
          [
            -76.5922903,
            18.0472907
          ],
          [
            -76.5922648,
            18.0472588
          ],
          [
            -76.5922353,
            18.0471798
          ],
          [
            -76.5922058,
            18.0471237
          ],
          [
            -76.592191,
            18.0470765
          ],
          [
            -76.5922192,
            18.047051
          ],
          [
            -76.5921763,
            18.0469911
          ],
          [
            -76.5921468,
            18.0469426
          ],
          [
            -76.5921602,
            18.0468878
          ],
          [
            -76.5921763,
            18.0467998
          ],
          [
            -76.592191,
            18.0467003
          ],
          [
            -76.5921588,
            18.0466315
          ],
          [
            -76.5920985,
            18.0465652
          ],
          [
            -76.5920234,
            18.0464912
          ],
          [
            -76.5919469,
            18.046444
          ],
          [
            -76.5918866,
            18.0463815
          ],
          [
            -76.5918624,
            18.0462948
          ],
          [
            -76.5918517,
            18.0461916
          ],
          [
            -76.5917873,
            18.0461048
          ],
          [
            -76.5917458,
            18.0460551
          ],
          [
            -76.5916841,
            18.0459837
          ],
          [
            -76.5916546,
            18.0459098
          ],
          [
            -76.5916291,
            18.045809
          ],
          [
            -76.5915714,
            18.0457274
          ],
          [
            -76.5914089,
            18.0455092
          ],
          [
            -76.5912375,
            18.0453321
          ],
          [
            -76.5910739,
            18.0452314
          ],
          [
            -76.5909746,
            18.0451676
          ],
          [
            -76.590925,
            18.0451319
          ],
          [
            -76.5907319,
            18.0450427
          ],
          [
            -76.5905388,
            18.0449713
          ],
          [
            -76.5903792,
            18.0449151
          ],
          [
            -76.5901539,
            18.044859
          ],
          [
            -76.5900318,
            18.0448272
          ],
          [
            -76.5899162,
            18.0448227
          ],
          [
            -76.5896003,
            18.0447664
          ],
          [
            -76.5890756,
            18.0446716
          ],
          [
            -76.5890032,
            18.0446729
          ],
          [
            -76.5889509,
            18.0447022
          ],
          [
            -76.5889308,
            18.0447481
          ],
          [
            -76.5889536,
            18.0447596
          ],
          [
            -76.588975,
            18.0447787
          ],
          [
            -76.5889737,
            18.0448093
          ],
          [
            -76.5889261,
            18.0448783
          ],
          [
            -76.588845,
            18.0449088
          ],
          [
            -76.5886894,
            18.0449266
          ],
          [
            -76.5885767,
            18.0449445
          ],
          [
            -76.5884735,
            18.0449738
          ],
          [
            -76.5883903,
            18.0449904
          ],
          [
            -76.5883635,
            18.0449891
          ],
          [
            -76.5882576,
            18.0449241
          ],
          [
            -76.5880939,
            18.0448667
          ],
          [
            -76.5879022,
            18.0448055
          ],
          [
            -76.5877345,
            18.044706
          ],
          [
            -76.5874247,
            18.044627
          ],
          [
            -76.5873,
            18.0446372
          ],
          [
            -76.5863813,
            18.0446295
          ],
          [
            -76.5859669,
            18.0445913
          ],
          [
            -76.5858664,
            18.0446117
          ],
          [
            -76.585802,
            18.0446525
          ],
          [
            -76.585739,
            18.0446601
          ],
          [
            -76.5856732,
            18.0446869
          ],
          [
            -76.5856048,
            18.0446907
          ],
          [
            -76.5855163,
            18.0446996
          ],
          [
            -76.5854627,
            18.0447149
          ],
          [
            -76.585393,
            18.0447188
          ],
          [
            -76.5853205,
            18.0447277
          ],
          [
            -76.5852562,
            18.0447507
          ],
          [
            -76.5851744,
            18.0447456
          ],
          [
            -76.5850932,
            18.0447698
          ],
          [
            -76.5850624,
            18.0447902
          ],
          [
            -76.5850563,
            18.0448036
          ],
          [
            -76.5850691,
            18.0448144
          ],
          [
            -76.5851046,
            18.044831
          ],
          [
            -76.5851609,
            18.0448476
          ],
          [
            -76.5852079,
            18.0448718
          ],
          [
            -76.5852642,
            18.0448884
          ],
          [
            -76.5853474,
            18.0448616
          ],
          [
            -76.5854225,
            18.0448272
          ],
          [
            -76.5854774,
            18.0448182
          ],
          [
            -76.5855096,
            18.0448501
          ],
          [
            -76.5854681,
            18.0448896
          ],
          [
            -76.5854184,
            18.044919
          ],
          [
            -76.5854225,
            18.0449355
          ],
          [
            -76.5854627,
            18.0449598
          ],
          [
            -76.5854841,
            18.0449738
          ],
          [
            -76.5855163,
            18.0449572
          ],
          [
            -76.5855204,
            18.0449292
          ],
          [
            -76.5855673,
            18.0449011
          ],
          [
            -76.5856397,
            18.0448909
          ],
          [
            -76.585688,
            18.0448935
          ],
          [
            -76.5857229,
            18.0448986
          ],
          [
            -76.5857591,
            18.0449457
          ],
          [
            -76.585802,
            18.0449674
          ],
          [
            -76.5858382,
            18.0449547
          ],
          [
            -76.5859093,
            18.0449317
          ],
          [
            -76.5859643,
            18.0449292
          ],
          [
            -76.5861695,
            18.0449751
          ],
          [
            -76.5863392,
            18.0450276
          ],
          [
            -76.5863357,
            18.0450465
          ],
          [
            -76.5863076,
            18.0450669
          ],
          [
            -76.5862378,
            18.0450656
          ],
          [
            -76.5861493,
            18.045058
          ],
          [
            -76.5860514,
            18.0450669
          ],
          [
            -76.5859931,
            18.0450815
          ],
          [
            -76.5859602,
            18.0450905
          ],
          [
            -76.5859314,
            18.0451185
          ],
          [
            -76.5859146,
            18.0451472
          ],
          [
            -76.5859207,
            18.0451651
          ],
          [
            -76.5859515,
            18.04516
          ],
          [
            -76.5860038,
            18.0451568
          ],
          [
            -76.5860327,
            18.0451651
          ],
          [
            -76.5860528,
            18.0451778
          ],
          [
            -76.5860628,
            18.0451982
          ],
          [
            -76.5860595,
            18.0452263
          ],
          [
            -76.5860514,
            18.0452518
          ],
          [
            -76.5860528,
            18.0452575
          ],
          [
            -76.586038,
            18.0452754
          ],
          [
            -76.586026,
            18.0452913
          ],
          [
            -76.5860139,
            18.0453104
          ],
          [
            -76.5859696,
            18.0453366
          ],
          [
            -76.5859321,
            18.0453665
          ],
          [
            -76.5858871,
            18.0454175
          ],
          [
            -76.5858704,
            18.0454367
          ],
          [
            -76.5857819,
            18.0454775
          ],
          [
            -76.585749,
            18.04551
          ],
          [
            -76.5857175,
            18.0455017
          ],
          [
            -76.5856981,
            18.0454966
          ],
          [
            -76.5856471,
            18.0455234
          ],
          [
            -76.5856189,
            18.0455227
          ],
          [
            -76.5856129,
            18.0455476
          ],
          [
            -76.5856236,
            18.0455833
          ],
          [
            -76.5856075,
            18.0455999
          ],
          [
            -76.5855217,
            18.0456267
          ],
          [
            -76.5854573,
            18.0456688
          ],
          [
            -76.585405,
            18.045693
          ],
          [
            -76.5853836,
            18.0457236
          ],
          [
            -76.585393,
            18.0457453
          ],
          [
            -76.585395,
            18.0457714
          ],
          [
            -76.5853581,
            18.0458001
          ],
          [
            -76.5853319,
            18.0458007
          ],
          [
            -76.5853018,
            18.0457988
          ],
          [
            -76.5852508,
            18.0458218
          ],
          [
            -76.5851448,
            18.04586
          ],
          [
            -76.5850865,
            18.0458619
          ],
          [
            -76.5849709,
            18.0458404
          ],
          [
            -76.5848424,
            18.0458823
          ],
          [
            -76.5848129,
            18.045897
          ],
          [
            -76.5848096,
            18.045918
          ],
          [
            -76.5848304,
            18.0459346
          ],
          [
            -76.5848605,
            18.0459333
          ],
          [
            -76.5848686,
            18.0459161
          ],
          [
            -76.5848994,
            18.045901
          ],
          [
            -76.5850062,
            18.0459285
          ],
          [
            -76.5850268,
            18.0459576
          ],
          [
            -76.5850798,
            18.045992
          ],
          [
            -76.5851046,
            18.0460092
          ],
          [
            -76.5851559,
            18.0460132
          ],
          [
            -76.5856169,
            18.0459517
          ],
          [
            -76.5857282,
            18.0459537
          ],
          [
            -76.5857986,
            18.0459506
          ],
          [
            -76.5858174,
            18.0459537
          ],
          [
            -76.5858281,
            18.045969
          ],
          [
            -76.5858241,
            18.0459869
          ],
          [
            -76.585806,
            18.045992
          ],
          [
            -76.5857738,
            18.0459945
          ],
          [
            -76.5857376,
            18.0460003
          ],
          [
            -76.5856846,
            18.0460143
          ],
          [
            -76.5855867,
            18.0460589
          ],
          [
            -76.5854862,
            18.0461252
          ],
          [
            -76.5854144,
            18.0461546
          ],
          [
            -76.5853574,
            18.0462375
          ],
          [
            -76.5853467,
            18.0462872
          ],
          [
            -76.5853246,
            18.0463446
          ],
          [
            -76.5852937,
            18.046386
          ],
          [
            -76.5852783,
            18.046402
          ],
          [
            -76.5852495,
            18.046416
          ],
          [
            -76.5850855,
            18.0464207
          ],
          [
            -76.5841991,
            18.0464493
          ],
          [
            -76.5838162,
            18.0462085
          ],
          [
            -76.5836433,
            18.046157
          ],
          [
            -76.5836052,
            18.0460796
          ],
          [
            -76.5831926,
            18.0461687
          ],
          [
            -76.5829584,
            18.0461371
          ],
          [
            -76.5824284,
            18.0463557
          ],
          [
            -76.5819155,
            18.0465983
          ],
          [
            -76.5818565,
            18.0466621
          ],
          [
            -76.5816902,
            18.0467998
          ],
          [
            -76.5816338,
            18.0468329
          ],
          [
            -76.5816097,
            18.0468635
          ],
          [
            -76.5815547,
            18.0469018
          ],
          [
            -76.581544,
            18.0469413
          ],
          [
            -76.5815239,
            18.0469821
          ],
          [
            -76.5814649,
            18.0470382
          ],
          [
            -76.58143,
            18.0470969
          ],
          [
            -76.5813857,
            18.0471339
          ],
          [
            -76.5813375,
            18.0471492
          ],
          [
            -76.5813026,
            18.0471224
          ],
          [
            -76.5812677,
            18.0470599
          ],
          [
            -76.5812355,
            18.0470013
          ],
          [
            -76.581198,
            18.046935
          ],
          [
            -76.5811417,
            18.0468623
          ],
          [
            -76.5810572,
            18.0468164
          ],
          [
            -76.5809834,
            18.0467641
          ],
          [
            -76.580919,
            18.0467042
          ],
          [
            -76.5808614,
            18.0466506
          ],
          [
            -76.5808144,
            18.0466079
          ],
          [
            -76.5807863,
            18.0465881
          ],
          [
            -76.580738,
            18.0465613
          ],
          [
            -76.5806817,
            18.0465524
          ],
          [
            -76.5806448,
            18.0465566
          ],
          [
            -76.5806025,
            18.0465766
          ],
          [
            -76.580577,
            18.0465996
          ],
          [
            -76.5805301,
            18.0466442
          ],
          [
            -76.5804335,
            18.0467054
          ],
          [
            -76.5803933,
            18.0467042
          ],
          [
            -76.5803611,
            18.0466838
          ],
          [
            -76.5803048,
            18.046643
          ],
          [
            -76.5802485,
            18.0466034
          ],
          [
            -76.5801613,
            18.0465473
          ],
          [
            -76.5801238,
            18.0465167
          ],
          [
            -76.5800956,
            18.0464848
          ],
          [
            -76.5800446,
            18.0464109
          ],
          [
            -76.5799628,
            18.0463127
          ],
          [
            -76.579938,
            18.0462566
          ],
          [
            -76.5799159,
            18.0462107
          ],
          [
            -76.5799031,
            18.0461603
          ],
          [
            -76.5798991,
            18.0461252
          ],
          [
            -76.5798642,
            18.0461068
          ],
          [
            -76.579826,
            18.0461265
          ],
          [
            -76.5797637,
            18.0461724
          ],
          [
            -76.5797295,
            18.0461903
          ],
          [
            -76.5796557,
            18.0461967
          ],
          [
            -76.5795773,
            18.0461871
          ],
          [
            -76.5795142,
            18.0461877
          ],
          [
            -76.5794478,
            18.0462075
          ],
          [
            -76.5793707,
            18.0462177
          ],
          [
            -76.5793499,
            18.0462228
          ],
          [
            -76.5793141,
            18.0462339
          ],
          [
            -76.5792795,
            18.0462776
          ],
          [
            -76.5792473,
            18.0463184
          ],
          [
            -76.5792319,
            18.0463611
          ],
          [
            -76.5792198,
            18.0463886
          ],
          [
            -76.5792131,
            18.0464326
          ],
          [
            -76.5792185,
            18.046467
          ],
          [
            -76.579242,
            18.0465046
          ],
          [
            -76.5792554,
            18.0465365
          ],
          [
            -76.5792815,
            18.0465575
          ],
          [
            -76.5793265,
            18.0465639
          ],
          [
            -76.579366,
            18.0465613
          ],
          [
            -76.5793955,
            18.0465658
          ],
          [
            -76.5794123,
            18.0465684
          ],
          [
            -76.579423,
            18.0465919
          ],
          [
            -76.5794257,
            18.0466104
          ],
          [
            -76.5794056,
            18.0466506
          ],
          [
            -76.5793848,
            18.0466799
          ],
          [
            -76.5793419,
            18.0467188
          ],
          [
            -76.5793184,
            18.046743
          ],
          [
            -76.579246,
            18.0467737
          ],
          [
            -76.5792299,
            18.0467826
          ],
          [
            -76.579195,
            18.0468049
          ],
          [
            -76.5791595,
            18.0468183
          ],
          [
            -76.5791441,
            18.046831
          ],
          [
            -76.5791199,
            18.04684
          ],
          [
            -76.5791059,
            18.0468533
          ],
          [
            -76.579073,
            18.0468916
          ],
          [
            -76.5790536,
            18.0469171
          ],
          [
            -76.5790194,
            18.0469394
          ],
          [
            -76.5789784,
            18.0469828
          ],
          [
            -76.5789266,
            18.0470562
          ],
          [
            -76.5789266,
            18.0470562
          ]
        ]
      }
    }
  ]
}
