{"type":"FeatureCollection","peaks_destination_id":"H5NfTgDpK52oHTw28Xwc","peaks_trailhead_id":"F3394CA0F3F5C87EEB47","peaks_source":"https://www.openstreetmap.org/","peaks_retrieval_source":"https://api.openstreetmap.org/api/0.6","peaks_license_name":"Open Data Commons Open Database License (ODbL) 1.0","peaks_license":"https://opendatacommons.org/licenses/odbl/1-0/","peaks_attribution":"© OpenStreetMap contributors","peaks_retrieved_at":"2026-07-31T06:36:36.997Z","features":[{"type":"Feature","properties":{"name":"Borah Peak OSM route candidate","trailhead_name":"Borah Peak Trailhead","destination_name":"Borah Peak","distance_m":6176.35541889254,"trailhead_snap_m":0,"summit_snap_m":2.9827362793887966,"osm_way_ids":[942450153,305494119,942450150,942450152,1418220137],"osm_way_urls":["https://www.openstreetmap.org/way/942450153","https://www.openstreetmap.org/way/305494119","https://www.openstreetmap.org/way/942450150","https://www.openstreetmap.org/way/942450152","https://www.openstreetmap.org/way/1418220137"],"osm_way_names":["Borah Peak Trail"],"osm_foot_access_override_way_ids":[]},"geometry":{"type":"LineString","coordinates":[[-113.8346164,44.1324886],[-113.8346164,44.1324886],[-113.8344542,44.1325391],[-113.8342759,44.1325518],[-113.8340691,44.1325822],[-113.8339406,44.1326192],[-113.8337448,44.1326827],[-113.8335437,44.1328367],[-113.8332272,44.1329773],[-113.8331467,44.1330119],[-113.8330501,44.133137],[-113.8329831,44.1332179],[-113.8328611,44.1332468],[-113.8327535,44.1332367],[-113.8327038,44.1332444],[-113.8326585,44.1332294],[-113.8326156,44.1332294],[-113.8323823,44.1333141],[-113.8321435,44.1335182],[-113.8321087,44.1335297],[-113.8320547,44.1335264],[-113.8319327,44.1334437],[-113.8317168,44.1333715],[-113.8315749,44.1333007],[-113.8311592,44.1331236],[-113.8309473,44.1330004],[-113.8307646,44.1329403],[-113.8305634,44.1328556],[-113.830318,44.13274],[-113.8301249,44.1327256],[-113.8299975,44.1327497],[-113.8297856,44.1328036],[-113.8295418,44.1328464],[-113.8293202,44.1328613],[-113.82917,44.1329162],[-113.8290641,44.1329095],[-113.8290171,44.1329181],[-113.8289541,44.1329075],[-113.8289018,44.1329162],[-113.8288503,44.1328908],[-113.8287194,44.1329152],[-113.8285679,44.1329027],[-113.8284766,44.132874],[-113.828419,44.1328748],[-113.828337,44.1329004],[-113.8282339,44.132856],[-113.8281401,44.1328729],[-113.8278356,44.1329316],[-113.8275862,44.1330192],[-113.8272756,44.1330522],[-113.8270444,44.1330307],[-113.8264323,44.1331513],[-113.8260883,44.1332561],[-113.8258614,44.1333491],[-113.8258226,44.1333843],[-113.8257671,44.1333823],[-113.8244748,44.1337738],[-113.8238204,44.1342589],[-113.8231955,44.1345153],[-113.8226029,44.1347294],[-113.8218918,44.1348368],[-113.8216192,44.1349188],[-113.8215081,44.1349104],[-113.8213347,44.1348673],[-113.8212947,44.1348689],[-113.8212125,44.1348835],[-113.8211046,44.1348497],[-113.8206609,44.1346541],[-113.8201926,44.1344365],[-113.8196871,44.1342477],[-113.8193836,44.1342468],[-113.8192812,44.1342616],[-113.8192222,44.1342525],[-113.8192015,44.1342598],[-113.8191852,44.1342901],[-113.8191729,44.1344552],[-113.8191466,44.1346382],[-113.8191409,44.1347248],[-113.819091,44.1347727],[-113.8190298,44.1347974],[-113.8188744,44.1348365],[-113.8186598,44.1349135],[-113.8185018,44.1349829],[-113.8183919,44.135076],[-113.8182995,44.1351925],[-113.8182203,44.135293],[-113.8181893,44.135429],[-113.8181838,44.1355005],[-113.8181767,44.1358487],[-113.8181338,44.1360678],[-113.8179839,44.1363842],[-113.8179502,44.1364557],[-113.8179271,44.1364655],[-113.8178967,44.1364615],[-113.8178555,44.1364049],[-113.8178295,44.1364156],[-113.8177512,44.1365541],[-113.8176928,44.1366227],[-113.8176406,44.1367614],[-113.8176535,44.1368651],[-113.8178193,44.1369743],[-113.8180955,44.137117],[-113.8183808,44.1372632],[-113.8184619,44.1373054],[-113.8184726,44.1373265],[-113.818517,44.1373616],[-113.818515,44.1373802],[-113.8184774,44.1374159],[-113.8181126,44.137516],[-113.8178853,44.137584],[-113.8177236,44.1375495],[-113.8176131,44.1375183],[-113.8175547,44.1375391],[-113.8172543,44.1377547],[-113.8171359,44.1377484],[-113.8170238,44.1378576],[-113.816922,44.1378618],[-113.816793,44.1379703],[-113.8167439,44.1379938],[-113.8166883,44.1379437],[-113.8166462,44.1379498],[-113.8164282,44.1379934],[-113.8162243,44.1378625],[-113.8157737,44.1379395],[-113.8156557,44.1377624],[-113.815409,44.1375006],[-113.8152758,44.1375287],[-113.8152216,44.137483],[-113.8151566,44.1374917],[-113.8151272,44.1374721],[-113.815116,44.1374232],[-113.8150786,44.1374219],[-113.8149668,44.1374461],[-113.8149019,44.1374361],[-113.814804,44.13736],[-113.8147652,44.1373004],[-113.8147287,44.1372733],[-113.8146139,44.1372873],[-113.8145736,44.1372839],[-113.8145404,44.1372153],[-113.8145116,44.1371928],[-113.8144827,44.1371793],[-113.8143361,44.1371926],[-113.8143161,44.1370749],[-113.8142624,44.1370081],[-113.8142695,44.1369783],[-113.8142015,44.136921],[-113.8141429,44.1369424],[-113.814033,44.1370309],[-113.8139686,44.1370271],[-113.8139096,44.1369905],[-113.8137031,44.137004],[-113.8136494,44.1369231],[-113.8134348,44.1369616],[-113.8133276,44.1368846],[-113.8131881,44.1369077],[-113.813113,44.1367845],[-113.8129521,44.1368076],[-113.812885,44.1367056],[-113.8127911,44.1366671],[-113.8126302,44.1366825],[-113.8125309,44.136644],[-113.8125095,44.1364592],[-113.8124558,44.1363899],[-113.8124049,44.1363149],[-113.8123754,44.1361551],[-113.8122869,44.1360973],[-113.8122469,44.1360101],[-113.8122431,44.1359671],[-113.8121644,44.1358886],[-113.8121688,44.1358522],[-113.8121469,44.1358429],[-113.8120884,44.1357277],[-113.8118792,44.1355834],[-113.8117638,44.1355911],[-113.811627,44.1354756],[-113.8116179,44.1353857],[-113.8116002,44.1353601],[-113.8114259,44.1352984],[-113.8113347,44.1352234],[-113.8112167,44.1352465],[-113.811112,44.1352234],[-113.8109055,44.1352388],[-113.8107473,44.1351926],[-113.8104349,44.1351587],[-113.8103262,44.1351714],[-113.8102108,44.1352407],[-113.8101695,44.1352609],[-113.8101123,44.1352495],[-113.810098,44.1353175],[-113.8100258,44.1353851],[-113.8099461,44.1354051],[-113.8099158,44.1353874],[-113.8098596,44.1353614],[-113.8098383,44.1353684],[-113.809788,44.1354136],[-113.8097418,44.1354072],[-113.8097072,44.1354341],[-113.8096342,44.1354294],[-113.8096217,44.1354351],[-113.8095613,44.1354186],[-113.8095237,44.1354272],[-113.8094944,44.135451],[-113.8094679,44.1354717],[-113.8093868,44.1354702],[-113.8092894,44.1354273],[-113.8091914,44.1353861],[-113.8091617,44.1353624],[-113.8090227,44.1353215],[-113.8089428,44.1353218],[-113.8089041,44.1352985],[-113.8088687,44.1352948],[-113.8088173,44.1352689],[-113.8087988,44.1352483],[-113.808667,44.1351964],[-113.8085987,44.135174],[-113.8085401,44.1351758],[-113.8085158,44.135201],[-113.8084866,44.1352236],[-113.8084367,44.1352201],[-113.8084101,44.1351965],[-113.8083828,44.1351978],[-113.8083207,44.1352592],[-113.8082908,44.1352927],[-113.8082794,44.1353662],[-113.8082371,44.1354043],[-113.8081938,44.1353768],[-113.8081702,44.1353899],[-113.8081579,44.1354128],[-113.8081372,44.1354146],[-113.8081151,44.1354001],[-113.8080892,44.1353717],[-113.8080545,44.1353977],[-113.8080115,44.1353618],[-113.807973,44.1353613],[-113.8079518,44.1353802],[-113.8079437,44.1354177],[-113.8079064,44.1354052],[-113.8078344,44.1354063],[-113.8076815,44.1354313],[-113.8076037,44.1354063],[-113.8075347,44.1354084],[-113.8074979,44.1354128],[-113.8074522,44.1354296],[-113.8073558,44.1354679],[-113.8073091,44.1354775],[-113.8072808,44.1354876],[-113.8072437,44.1354457],[-113.8072118,44.1354838],[-113.8071499,44.1354407],[-113.8070948,44.1354842],[-113.8070525,44.13545],[-113.8070163,44.1354746],[-113.80698,44.1354546],[-113.8069729,44.1354902],[-113.806872,44.1354521],[-113.806797,44.1355099],[-113.8067444,44.1354726],[-113.8066784,44.1354698],[-113.8066542,44.1354871],[-113.806559,44.1354707],[-113.8065335,44.13554],[-113.8064987,44.1355397],[-113.806449,44.1355314],[-113.8064329,44.1355699],[-113.8063297,44.1355593],[-113.8062841,44.1355882],[-113.8062385,44.1355631],[-113.8061982,44.1355805],[-113.8061446,44.1355535],[-113.8061097,44.135566],[-113.806058,44.1355486],[-113.8059635,44.1355304],[-113.8059072,44.1354861],[-113.8058103,44.1354673],[-113.8057503,44.1354611],[-113.8055608,44.135386],[-113.8054705,44.135386],[-113.8053077,44.1353086],[-113.8050653,44.1351295],[-113.8048759,44.1350177],[-113.8046972,44.1348818],[-113.8045026,44.1348006],[-113.8043486,44.1346863],[-113.804161,44.1345745],[-113.8040354,44.1345389],[-113.8038797,44.1344513],[-113.8036231,44.1343052],[-113.8034196,44.1341998],[-113.8032921,44.1341173],[-113.8031417,44.1339522],[-113.8030621,44.1339395],[-113.8029081,44.1338582],[-113.8026303,44.1337705],[-113.8025029,44.133721],[-113.8023985,44.1335991],[-113.8022976,44.1335051],[-113.8021685,44.1334721],[-113.8019561,44.1334136],[-113.8017349,44.1333311],[-113.8016606,44.1332689],[-113.8015633,44.133246],[-113.8015402,44.1332181],[-113.8012854,44.1331749],[-113.8011987,44.133105],[-113.8011987,44.1330733],[-113.8011598,44.1330504],[-113.8010943,44.1330237],[-113.8009315,44.1328815],[-113.8008731,44.1327926],[-113.8008023,44.13271],[-113.8006625,44.1326046],[-113.8004749,44.1325208],[-113.8003546,44.1324497],[-113.8001883,44.1323887],[-113.8000556,44.1323188],[-113.799868,44.132221],[-113.799576,44.1320585],[-113.7994061,44.1319035],[-113.7993159,44.131821],[-113.7991318,44.1317193],[-113.7989478,44.1316762],[-113.798647,44.1315568],[-113.7984771,44.1314895],[-113.798309,44.1314336],[-113.7982559,44.1314348],[-113.798212,44.1314165],[-113.7981563,44.1314314],[-113.7980906,44.1313958],[-113.7980443,44.1314083],[-113.7980209,44.1314059],[-113.7978834,44.1313087],[-113.7978452,44.1313049],[-113.7977799,44.1313066],[-113.7975159,44.1311547],[-113.7974536,44.1311061],[-113.7974127,44.131095],[-113.7972189,44.1309641],[-113.7971632,44.1309097],[-113.797011,44.1308385],[-113.796865,44.1307286],[-113.7965517,44.1305927],[-113.7964934,44.1305991],[-113.7962226,44.1305394],[-113.7960492,44.1304911],[-113.7959683,44.1304482],[-113.7958959,44.1304328],[-113.7958298,44.1303794],[-113.7957685,44.1303596],[-113.7957537,44.1303327],[-113.7957112,44.1303031],[-113.7955855,44.1302396],[-113.795359,44.1301926],[-113.7951803,44.1301025],[-113.7951489,44.1300689],[-113.7950458,44.1300351],[-113.7950134,44.1300574],[-113.7949665,44.1300429],[-113.7949437,44.130015],[-113.7948512,44.1299996],[-113.7947308,44.1299145],[-113.7946379,44.1298716],[-113.7945937,44.1298754],[-113.7945105,44.1298514],[-113.7944663,44.1298235],[-113.7944212,44.1298294],[-113.7943925,44.1298148],[-113.7943295,44.12981],[-113.794269,44.1297811],[-113.7942463,44.1297551],[-113.7941913,44.1297359],[-113.7941062,44.1296744],[-113.7940442,44.1296628],[-113.7939741,44.1296396],[-113.7939352,44.129655],[-113.7938668,44.1296463],[-113.7937783,44.129655],[-113.7937394,44.1296454],[-113.7937126,44.1296483],[-113.7936495,44.1296155],[-113.7936054,44.1295957],[-113.7933904,44.1295047],[-113.7933187,44.1295207],[-113.7932267,44.1294941],[-113.7931842,44.1294267],[-113.7931453,44.1293961],[-113.7931252,44.1293989],[-113.7931064,44.1293807],[-113.7930409,44.1293594],[-113.7929276,44.1293518],[-113.7927719,44.1293442],[-113.7925914,44.1292794],[-113.7925371,44.1292907],[-113.792523,44.1293138],[-113.7924821,44.1293061],[-113.7924519,44.1292858],[-113.7924398,44.1292618],[-113.7924016,44.1292589],[-113.7923795,44.1292753],[-113.7923318,44.1292777],[-113.7921654,44.1291881],[-113.792076,44.1291339],[-113.7919451,44.1290532],[-113.7919241,44.1290836],[-113.7918696,44.1290488],[-113.7918387,44.1290733],[-113.7917954,44.1290494],[-113.7917311,44.1291044],[-113.7916949,44.1290731],[-113.7916593,44.1290957],[-113.7916292,44.1290952],[-113.7916016,44.1290698],[-113.791542,44.1290457],[-113.7914937,44.1290413],[-113.7914743,44.1290606],[-113.7914441,44.1290553],[-113.7913997,44.1290753],[-113.7913428,44.1290375],[-113.7912802,44.1290696],[-113.7911902,44.1291008],[-113.7910239,44.1290974],[-113.7909606,44.1290948],[-113.7909284,44.1291102],[-113.7908922,44.1290909],[-113.7908533,44.1291073],[-113.790797,44.1290851],[-113.7907187,44.1290818],[-113.7906721,44.1290734],[-113.7905596,44.1290543],[-113.7904134,44.1291131],[-113.790286,44.1290986],[-113.7902284,44.1291169],[-113.790175,44.1291201],[-113.7901594,44.1291317],[-113.7901379,44.1291261],[-113.7901137,44.1291279],[-113.7900395,44.1291379],[-113.7899873,44.1291353],[-113.78994,44.1291285],[-113.7898572,44.1290938],[-113.789706,44.1290721],[-113.7895733,44.129053],[-113.7895157,44.1290362],[-113.7893388,44.1289959],[-113.7892812,44.1289461],[-113.7892574,44.1289354],[-113.7892446,44.1289338],[-113.7891812,44.1288985],[-113.7890778,44.1288687],[-113.7889627,44.1288251],[-113.788855,44.1287753],[-113.7887548,44.1287769],[-113.7885578,44.1288039],[-113.7885053,44.1288105],[-113.788448,44.1288071],[-113.7882281,44.1288131],[-113.7880761,44.1288081],[-113.7880196,44.1287951],[-113.7879589,44.1287886],[-113.7879331,44.12879],[-113.7878896,44.1287859],[-113.7877822,44.1288031],[-113.7874764,44.1288223],[-113.7872618,44.1288031],[-113.787,44.1288492],[-113.7869746,44.1288555],[-113.7869505,44.1288721],[-113.7869212,44.128884],[-113.7867737,44.1289109],[-113.7867081,44.128925],[-113.7866853,44.1289572],[-113.7866852,44.1289898],[-113.786707,44.1290415],[-113.7867086,44.1290993],[-113.7867187,44.1291529],[-113.7867697,44.1292594],[-113.7867469,44.1294115],[-113.7867804,44.1295019],[-113.7867817,44.1295934],[-113.7867744,44.1296114],[-113.7867483,44.1296282],[-113.786657,44.1296983],[-113.7865967,44.1298158],[-113.7865604,44.1298908],[-113.7865055,44.1299457],[-113.7864237,44.1299563],[-113.7863432,44.1300217],[-113.7862761,44.1300352],[-113.7861226,44.1301217],[-113.7860616,44.1301613],[-113.785957,44.1303288],[-113.7858751,44.1304029],[-113.7858255,44.1304674],[-113.7858133,44.1304908],[-113.7858135,44.130529],[-113.7857952,44.1305716],[-113.7857773,44.1305852],[-113.7857577,44.1305769],[-113.7857419,44.1305794],[-113.7857088,44.1306388],[-113.7856453,44.1307816],[-113.7856286,44.1307953],[-113.7856201,44.1308072],[-113.7856113,44.1308345],[-113.7855859,44.1308621],[-113.7854481,44.1309416],[-113.78539,44.1309987],[-113.7853072,44.1311401],[-113.7852381,44.1311826],[-113.7851885,44.1312327],[-113.7851496,44.1312413],[-113.7850016,44.1312604],[-113.7848313,44.1313095],[-113.784707,44.1314031],[-113.7845327,44.1314675],[-113.7844241,44.1314887],[-113.7843605,44.1315451],[-113.7843302,44.131585],[-113.7842645,44.131637],[-113.7841227,44.1317829],[-113.7839885,44.1319517],[-113.7839313,44.1320031],[-113.7838809,44.1320586],[-113.783842,44.1320903],[-113.7837414,44.1322222],[-113.7836824,44.1323829],[-113.783669,44.132407],[-113.7836645,44.1324322],[-113.7836339,44.1324567],[-113.7836144,44.1324734],[-113.7836099,44.1325256],[-113.7835991,44.1325467],[-113.7835403,44.1325909],[-113.7834531,44.1326775],[-113.7834008,44.1327968],[-113.7833592,44.1328103],[-113.7833498,44.1328363],[-113.7833244,44.1328507],[-113.7833014,44.1328873],[-113.7832675,44.1329201],[-113.7832366,44.132983],[-113.7832091,44.1330826],[-113.7831742,44.1331337],[-113.783153,44.1331849],[-113.7831551,44.1332506],[-113.7830919,44.1333513],[-113.7830595,44.1334811],[-113.7829803,44.1335993],[-113.7829789,44.1336751],[-113.7829538,44.1337729],[-113.7829064,44.1338648],[-113.7828583,44.1339582],[-113.7828773,44.1340357],[-113.7828442,44.1341925],[-113.7828469,44.1342464],[-113.7828217,44.1342893],[-113.7828268,44.1343388],[-113.7828,44.1343812],[-113.7827598,44.134411],[-113.7827058,44.134498],[-113.7826887,44.1345506],[-113.7826605,44.1345669],[-113.7826417,44.1346122],[-113.7825586,44.1346922],[-113.7825007,44.1347479],[-113.7824084,44.1348749],[-113.7823735,44.1349568],[-113.7823221,44.1350226],[-113.7822729,44.1350886],[-113.7822436,44.1351754],[-113.7822255,44.1352487],[-113.7822448,44.1354072],[-113.782226,44.1354226],[-113.7821992,44.135464],[-113.7821254,44.1355449],[-113.7821214,44.135619],[-113.7820932,44.1357479],[-113.7820737,44.1357833],[-113.7819752,44.1359183],[-113.7818552,44.1360695],[-113.781806,44.1363117],[-113.7816058,44.1366721],[-113.7815379,44.1367964],[-113.7814545,44.1369729],[-113.7813793,44.1372413],[-113.7813658,44.1374137],[-113.7813342,44.137441],[-113.7812311,44.137452],[-113.7811341,44.1374312],[-113.781085,44.1373798],[-113.781122,44.137376]]}}]}
