{"type":"FeatureCollection","peaks_destination_id":"150D6CD3C632787134B5","peaks_trailhead_id":"648A2C09ABD6B624DAE6","peaks_source":"https://www.openstreetmap.org/","peaks_retrieval_source":"https://overpass-api.de/api/interpreter","peaks_license_name":"Open Data Commons Open Database License (ODbL) 1.0","peaks_license":"https://opendatacommons.org/licenses/odbl/1-0/","peaks_attribution":"© OpenStreetMap contributors","peaks_retrieved_at":"2026-07-31T12:59:43.411Z","features":[{"type":"Feature","properties":{"name":"Cap de la Pala de Montferri OSM route candidate","trailhead_name":"Aguiró Trailhead","destination_name":"Cap de la Pala de Montferri","distance_m":5509.612502300573,"trailhead_snap_m":15.5593010364769,"summit_snap_m":29.813550596760745,"osm_way_ids":[496333395,206327607,1173385210,26717317,1173385209,1462078407],"osm_way_urls":["https://www.openstreetmap.org/way/496333395","https://www.openstreetmap.org/way/206327607","https://www.openstreetmap.org/way/1173385210","https://www.openstreetmap.org/way/26717317","https://www.openstreetmap.org/way/1173385209","https://www.openstreetmap.org/way/1462078407"],"osm_way_names":["Carrer de la Placeta","Carrer del Cap de la Vall"],"osm_foot_access_override_way_ids":[]},"geometry":{"type":"LineString","coordinates":[[0.9440034,42.3990709],[0.9439156,42.3989469],[0.9438231,42.3991288],[0.9437753,42.3992038],[0.9437601,42.399257],[0.9436449,42.3992416],[0.9435771,42.3992282],[0.9435415,42.3992139],[0.9435017,42.3991895],[0.9434594,42.3991607],[0.9435955,42.3993121],[0.9437622,42.3994976],[0.944178,42.3997212],[0.9444446,42.4001017],[0.9451497,42.4007424],[0.9454205,42.4010825],[0.9455143,42.4021338],[0.9452832,42.4027324],[0.9453971,42.4027918],[0.9458409,42.4025459],[0.9462737,42.4022755],[0.9467065,42.4024804],[0.9467287,42.4028819],[0.947194,42.4032149],[0.94718,42.403939],[0.9469616,42.4042523],[0.9471282,42.4045945],[0.9465179,42.4051926],[0.9464903,42.4053253],[0.9463514,42.4056269],[0.9458742,42.405717],[0.9455191,42.405504],[0.9448089,42.4056023],[0.9443983,42.4055614],[0.9441764,42.4053155],[0.9439434,42.4047665],[0.9433996,42.4044142],[0.9430889,42.4039635],[0.9427782,42.4036276],[0.9423787,42.4034555],[0.9421124,42.4042421],[0.9417906,42.4047092],[0.9410692,42.405504],[0.9397931,42.4067331],[0.9394158,42.407405],[0.9386945,42.4080441],[0.9380842,42.408634],[0.9372666,42.4095939],[0.9364309,42.4102252],[0.936044,42.4104994],[0.9356068,42.4105508],[0.9350806,42.4107479],[0.9347073,42.4109665],[0.9344558,42.4112407],[0.9340225,42.4114635],[0.9337478,42.4117035],[0.9336239,42.4119434],[0.9333493,42.4122176],[0.9330049,42.4124433],[0.9326896,42.4128346],[0.932264,42.4132488],[0.9319661,42.4137758],[0.9319061,42.4140615],[0.9315715,42.4145456],[0.93138,42.4148812],[0.9311672,42.415234],[0.930848,42.4157896],[0.9308132,42.4161309],[0.9305423,42.4168935],[0.9305164,42.4174184],[0.9305901,42.4177906],[0.9306726,42.4182521],[0.9307935,42.4187352],[0.9310574,42.4190247],[0.9312402,42.4192913],[0.9314598,42.4197038],[0.9316603,42.4202022],[0.9316632,42.4203774],[0.9316927,42.4205548],[0.9318932,42.4208508],[0.9321895,42.4212523],[0.9322514,42.4214623],[0.9322838,42.4216887],[0.932387,42.4218846],[0.9323517,42.4222578],[0.9324077,42.4224221],[0.9324799,42.4228726],[0.9325359,42.4230957],[0.9328484,42.4235168],[0.9329516,42.4236757],[0.9331447,42.4240283],[0.9333113,42.4243928],[0.9334292,42.4247486],[0.9334071,42.4249891],[0.9335,42.4252709],[0.9337123,42.4256431],[0.9337506,42.4262285],[0.9338273,42.4267639],[0.9338538,42.4274037],[0.9337919,42.4280413],[0.9339393,42.4282546],[0.9340071,42.4284831],[0.9343034,42.4288617],[0.9344862,42.4289727],[0.9344862,42.4290989],[0.9346174,42.4292088],[0.9349564,42.4295232],[0.9353839,42.4297539],[0.935664,42.4300564],[0.9357672,42.4303523],[0.9360296,42.430657],[0.9362345,42.4310269],[0.936264,42.4314284],[0.9362109,42.4319267],[0.9360871,42.4324163],[0.935863,42.4329516],[0.9356372,42.4340647],[0.9352805,42.434637],[0.9355775,42.4344826]]}}]}
