{"type":"FeatureCollection","peaks_destination_id":"3D2EE484CD00B4F67473","peaks_trailhead_id":"D84E4BDE2C2221FC54F6","peaks_source":"https://www.openstreetmap.org/","peaks_retrieval_source":"https://overpass-api.de/api/interpreter","peaks_license_name":"Open Data Commons Open Database License (ODbL) 1.0","peaks_license":"https://opendatacommons.org/licenses/odbl/1-0/","peaks_attribution":"© OpenStreetMap contributors","peaks_retrieved_at":"2026-07-31T12:46:51.289Z","features":[{"type":"Feature","properties":{"name":"Cerro Las Minas OSM route candidate","trailhead_name":"Villa Verde Trailhead","destination_name":"Cerro Las Minas","distance_m":9924.14864699946,"trailhead_snap_m":25.641161466051187,"summit_snap_m":0,"osm_way_ids":[396332432,438394038,438393965,438393999,438394037,438394023,983893814,438394035,983893815,438394025],"osm_way_urls":["https://www.openstreetmap.org/way/396332432","https://www.openstreetmap.org/way/438394038","https://www.openstreetmap.org/way/438393965","https://www.openstreetmap.org/way/438393999","https://www.openstreetmap.org/way/438394037","https://www.openstreetmap.org/way/438394023","https://www.openstreetmap.org/way/983893814","https://www.openstreetmap.org/way/438394035","https://www.openstreetmap.org/way/983893815","https://www.openstreetmap.org/way/438394025"],"osm_way_names":[],"osm_foot_access_override_way_ids":[]},"geometry":{"type":"LineString","coordinates":[[-88.628758,14.564614],[-88.6289957,14.5646297],[-88.6296456,14.5645738],[-88.6299641,14.5644457],[-88.6305248,14.5647404],[-88.6309819,14.5649853],[-88.6314227,14.5651572],[-88.6325346,14.5652081],[-88.632778,14.5651826],[-88.6340149,14.5650553],[-88.6342758,14.5651958],[-88.6345478,14.5651508],[-88.6347057,14.5652145],[-88.6349132,14.5651968],[-88.6353086,14.5648816],[-88.6361088,14.5646205],[-88.6366112,14.5645349],[-88.6368113,14.564607],[-88.6374114,14.5650122],[-88.6379231,14.5651518],[-88.6382301,14.5651338],[-88.6385372,14.5650662],[-88.6387884,14.5650752],[-88.6390722,14.5652148],[-88.6393141,14.5652283],[-88.639543,14.5653103],[-88.6396955,14.5649221],[-88.6398397,14.5648411],[-88.6401747,14.5647871],[-88.640291,14.5647105],[-88.640972,14.5643003],[-88.6415814,14.5639671],[-88.6417815,14.563697],[-88.6423828,14.5633566],[-88.642498,14.5630012],[-88.6428722,14.5629904],[-88.6428924,14.5627944],[-88.6430456,14.5625445],[-88.6431951,14.5625277],[-88.6432078,14.5623485],[-88.6439765,14.5620065],[-88.6441109,14.5617279],[-88.644408,14.56166],[-88.6445782,14.5613892],[-88.6447516,14.5613911],[-88.6448506,14.5615266],[-88.645098,14.561454],[-88.6450021,14.5613081],[-88.6449117,14.5612589],[-88.6449533,14.5611173],[-88.6452634,14.5612093],[-88.6456594,14.5611462],[-88.6457243,14.5610756],[-88.6462743,14.5611538],[-88.646615,14.5610978],[-88.6475504,14.5615792],[-88.6478075,14.5614651],[-88.6487966,14.5620375],[-88.6489644,14.5619666],[-88.6491845,14.5620483],[-88.6496302,14.5623416],[-88.6503228,14.562183],[-88.6505632,14.5622516],[-88.6509388,14.5624644],[-88.6508754,14.5626559],[-88.6510166,14.5626875],[-88.6512351,14.5623489],[-88.6510527,14.5621256],[-88.6510741,14.5619023],[-88.6516281,14.5619302],[-88.6521363,14.5614454],[-88.6531556,14.5610612],[-88.6537698,14.5604777],[-88.6549419,14.5608172],[-88.6554194,14.5607341],[-88.656631,14.561138],[-88.6573774,14.5608899],[-88.6577988,14.5604379],[-88.6581986,14.5596437],[-88.657286,14.5590327],[-88.657254,14.5584548],[-88.6579943,14.5575929],[-88.6584402,14.5563413],[-88.6579728,14.5555056],[-88.6588488,14.5540715],[-88.6586481,14.5536759],[-88.6583403,14.5535143],[-88.6580794,14.5527118],[-88.6589545,14.5513168],[-88.660478,14.5503107],[-88.6611512,14.5501082],[-88.6613712,14.5496175],[-88.6617574,14.5492359],[-88.6620498,14.5486517],[-88.6617011,14.5482934],[-88.6617522,14.5481683],[-88.6622429,14.5480702],[-88.6625898,14.5474013],[-88.6625111,14.5468603],[-88.6626452,14.5464709],[-88.6626345,14.5456851],[-88.6624578,14.5455875],[-88.6623615,14.5453599],[-88.662408,14.5451595],[-88.6625818,14.5449898],[-88.6625972,14.5449656],[-88.6626612,14.5448656],[-88.6628481,14.5448198],[-88.6629862,14.5447742],[-88.6630671,14.5447348],[-88.6636437,14.5444702],[-88.6639058,14.5442077],[-88.6643066,14.5440283],[-88.6646394,14.5440933],[-88.6647712,14.5440698],[-88.6651513,14.5440705],[-88.6651168,14.5441439],[-88.6653189,14.5441365],[-88.6655228,14.5441039],[-88.6654966,14.5438728],[-88.665623,14.54384],[-88.6658727,14.5438153],[-88.6659309,14.54386],[-88.6662017,14.5442424],[-88.6665563,14.5442982],[-88.6664375,14.5444129],[-88.6665314,14.5447316],[-88.6667012,14.5446818],[-88.6667552,14.5449245],[-88.6669628,14.5448828],[-88.6670163,14.5451027],[-88.6671636,14.5451006],[-88.6672796,14.5446666],[-88.6671692,14.5446168],[-88.6673207,14.5445323],[-88.6671867,14.5443103],[-88.6677602,14.5443868],[-88.6680812,14.5447469],[-88.6683758,14.5451934],[-88.6683609,14.5453017],[-88.6676464,14.5464927],[-88.6680541,14.5467617],[-88.6688572,14.5468967],[-88.6691415,14.5472653],[-88.6697091,14.5475282],[-88.6699065,14.5475465],[-88.6700594,14.5476758],[-88.6703418,14.5476472],[-88.6704193,14.5477197],[-88.670482,14.5477253],[-88.6706907,14.547889],[-88.6710094,14.5480335],[-88.6711337,14.54792],[-88.6713658,14.5474813],[-88.6719658,14.5473259],[-88.6725672,14.5477202],[-88.6733683,14.5473365],[-88.6736623,14.547525],[-88.6738654,14.5474081],[-88.6740606,14.547188],[-88.6742402,14.5469962],[-88.6744715,14.5464709],[-88.6750063,14.5458842],[-88.6751364,14.5454236],[-88.67589,14.5449443],[-88.6761153,14.5445081],[-88.67692,14.5438124],[-88.6778453,14.5421134],[-88.6789593,14.5415915],[-88.6791033,14.5410067],[-88.6790449,14.5407349],[-88.6792749,14.5403904],[-88.679688,14.5401516],[-88.6799136,14.5398857],[-88.6800474,14.5397362],[-88.6803943,14.5396846],[-88.680711,14.5399698],[-88.6809145,14.539737],[-88.6813105,14.539378],[-88.6812817,14.5390058],[-88.6813462,14.5388014],[-88.6818093,14.5380804],[-88.6813149,14.5377851],[-88.681242,14.5375165],[-88.6812752,14.5372421],[-88.6813849,14.5371489],[-88.6813025,14.5370494],[-88.6813557,14.5367586],[-88.6812669,14.5366165],[-88.6812235,14.53626],[-88.6812268,14.5360378],[-88.6810979,14.5358314],[-88.6811123,14.5355566],[-88.6811274,14.535284],[-88.680888,14.534947],[-88.680664,14.5346358],[-88.6806098,14.5343509],[-88.6802843,14.5340202],[-88.6800829,14.5336488],[-88.6800829,14.5336488]]}}]}
