{
  "type": "FeatureCollection",
  "peaks_destination_id": "6DFD00D02617F1D757AC",
  "peaks_trailhead_id": "2C4E1587D9F0A3B6C821",
  "peaks_source": "https://www.openstreetmap.org/",
  "peaks_retrieval_source": "https://overpass-api.de/api/interpreter",
  "peaks_license_name": "Open Data Commons Open Database License (ODbL) 1.0",
  "peaks_license": "https://opendatacommons.org/licenses/odbl/1-0/",
  "peaks_attribution": "© OpenStreetMap contributors",
  "peaks_retrieved_at": "2026-07-31T09:19:23.960Z",
  "features": [
    {
      "type": "Feature",
      "properties": {
        "name": "Cerro Champaqui OSM route candidate",
        "trailhead_name": "Los Linderos Trailhead",
        "destination_name": "Cerro Champaqui",
        "distance_m": 954.1413935217378,
        "trailhead_snap_m": 3.5644966526113597,
        "summit_snap_m": 13.4913081990042,
        "osm_way_ids": [
          311485403,
          97541725,
          628060986,
          97543513
        ],
        "osm_way_urls": [
          "https://www.openstreetmap.org/way/311485403",
          "https://www.openstreetmap.org/way/97541725",
          "https://www.openstreetmap.org/way/628060986",
          "https://www.openstreetmap.org/way/97543513"
        ],
        "osm_way_names": [
          "a Champaquí"
        ],
        "osm_foot_access_override_way_ids": []
      },
      "geometry": {
        "type": "LineString",
        "coordinates": [
          [
            -64.93879,
            -31.993893
          ],
          [
            -64.9387593,
            -31.9938743
          ],
          [
            -64.9387518,
            -31.993828
          ],
          [
            -64.9387074,
            -31.9937072
          ],
          [
            -64.9386225,
            -31.9936262
          ],
          [
            -64.9385269,
            -31.9935932
          ],
          [
            -64.9384314,
            -31.9935872
          ],
          [
            -64.9382049,
            -31.9934851
          ],
          [
            -64.9381801,
            -31.9934624
          ],
          [
            -64.9379854,
            -31.993284
          ],
          [
            -64.9377377,
            -31.9931369
          ],
          [
            -64.9374899,
            -31.9929898
          ],
          [
            -64.9374404,
            -31.9928878
          ],
          [
            -64.9374404,
            -31.9927707
          ],
          [
            -64.9374581,
            -31.9925906
          ],
          [
            -64.9374333,
            -31.9924465
          ],
          [
            -64.9373413,
            -31.9922214
          ],
          [
            -64.937228,
            -31.9917561
          ],
          [
            -64.937182,
            -31.9916421
          ],
          [
            -64.9370369,
            -31.991546
          ],
          [
            -64.9369343,
            -31.9913929
          ],
          [
            -64.9368564,
            -31.9911918
          ],
          [
            -64.9367998,
            -31.9909217
          ],
          [
            -64.9367892,
            -31.9907746
          ],
          [
            -64.9369378,
            -31.9906215
          ],
          [
            -64.9370688,
            -31.9905104
          ],
          [
            -64.9372387,
            -31.9904084
          ],
          [
            -64.9373767,
            -31.9902793
          ],
          [
            -64.9374829,
            -31.9900842
          ],
          [
            -64.9375997,
            -31.989787
          ],
          [
            -64.9376527,
            -31.9895079
          ],
          [
            -64.9376527,
            -31.9893668
          ],
          [
            -64.9375678,
            -31.9892017
          ],
          [
            -64.9374229,
            -31.9889335
          ],
          [
            -64.9371463,
            -31.9890981
          ],
          [
            -64.9369714,
            -31.9886063
          ],
          [
            -64.9367894,
            -31.9882683
          ],
          [
            -64.9369368,
            -31.9881725
          ],
          [
            -64.9368227,
            -31.9880105
          ],
          [
            -64.9366579,
            -31.9878222
          ],
          [
            -64.9364994,
            -31.9877255
          ],
          [
            -64.9361764,
            -31.9876174
          ],
          [
            -64.9363108,
            -31.9873691
          ],
          [
            -64.9361715,
            -31.9873967
          ]
        ]
      }
    }
  ]
}
