{"type":"FeatureCollection","peaks_destination_id":"F7683C7595CC8D9D29D0","peaks_trailhead_id":"8806E9ABC713551D1D54","peaks_source":"https://www.openstreetmap.org/","peaks_retrieval_source":"https://overpass-api.de/api/interpreter","peaks_license_name":"Open Data Commons Open Database License (ODbL) 1.0","peaks_license":"https://opendatacommons.org/licenses/odbl/1-0/","peaks_attribution":"© OpenStreetMap contributors","peaks_retrieved_at":"2026-07-31T12:54:20.278Z","features":[{"type":"Feature","properties":{"name":"Cerro El Pital OSM route candidate","trailhead_name":"Rio Chiquito Trailhead","destination_name":"Cerro El Pital","distance_m":4061.98897716998,"trailhead_snap_m":8.799697998044701,"summit_snap_m":7.04596126213383,"osm_way_ids":[138891386,1059695931,1059695929],"osm_way_urls":["https://www.openstreetmap.org/way/138891386","https://www.openstreetmap.org/way/1059695931","https://www.openstreetmap.org/way/1059695929"],"osm_way_names":["Ruta al Pital"],"osm_foot_access_override_way_ids":[]},"geometry":{"type":"LineString","coordinates":[[-89.123967,14.362915],[-89.1240242,14.3628585],[-89.1239203,14.363117],[-89.123793,14.363421],[-89.1237393,14.3635782],[-89.1237143,14.3636705],[-89.1236862,14.3638069],[-89.1236815,14.3638829],[-89.1236875,14.3639485],[-89.1237385,14.36432],[-89.1237432,14.364465],[-89.1237425,14.3646047],[-89.1236808,14.3651347],[-89.1238417,14.3655817],[-89.1238659,14.3658],[-89.1238739,14.3658727],[-89.1238417,14.3663923],[-89.1238882,14.3667375],[-89.1239061,14.3668704],[-89.1239919,14.3674005],[-89.1240563,14.3679409],[-89.1240885,14.3681293],[-89.1241528,14.3682748],[-89.1242145,14.3683788],[-89.1242574,14.3684515],[-89.1243675,14.3688777],[-89.1240429,14.3693375],[-89.1240804,14.369496],[-89.1241394,14.3696519],[-89.1241743,14.3697325],[-89.1242521,14.3698338],[-89.1244613,14.3700365],[-89.1245417,14.3700884],[-89.1246061,14.3701612],[-89.1247,14.3702755],[-89.1247778,14.3703924],[-89.1249012,14.3705379],[-89.1249602,14.3706445],[-89.1249816,14.3707354],[-89.1249977,14.3708315],[-89.124987,14.3709121],[-89.1249548,14.3710264],[-89.1249173,14.371094],[-89.1248824,14.3711563],[-89.1248073,14.3711849],[-89.1247215,14.3711901],[-89.124649,14.3711329],[-89.1245766,14.3710368],[-89.1244908,14.3709693],[-89.1244157,14.3709121],[-89.1243567,14.3708731],[-89.1242655,14.3708783],[-89.124177,14.3709173],[-89.1240777,14.3710264],[-89.124016,14.3711485],[-89.1239383,14.3712888],[-89.1238256,14.3714162],[-89.1237183,14.3715123],[-89.1236298,14.3715539],[-89.1235118,14.3715357],[-89.1233857,14.3714915],[-89.1233267,14.3714395],[-89.1232543,14.3714188],[-89.1231846,14.3714551],[-89.1231846,14.3715253],[-89.1232248,14.3716084],[-89.1232865,14.3717202],[-89.1233455,14.3718085],[-89.1234072,14.3718709],[-89.1235064,14.3719436],[-89.1236083,14.3719878],[-89.1237049,14.3720268],[-89.1238095,14.3720242],[-89.1239141,14.3720345],[-89.1239731,14.3720449],[-89.1240187,14.3720917],[-89.124016,14.3721437],[-89.1239543,14.37218],[-89.1238846,14.3721982],[-89.1238444,14.3722424],[-89.1238041,14.3722866],[-89.123772,14.3723541],[-89.1237451,14.3724529],[-89.1237264,14.3725698],[-89.123729,14.3726789],[-89.1237532,14.3727802],[-89.1237961,14.372905],[-89.1238417,14.3729881],[-89.1239785,14.373157],[-89.1240676,14.3732636],[-89.1241421,14.3733727],[-89.1242333,14.3734766],[-89.124295,14.3735623],[-89.1243433,14.3736559],[-89.1243701,14.3737182],[-89.1243835,14.3737936],[-89.124362,14.3738897],[-89.1243164,14.3740014],[-89.1242521,14.3741677],[-89.1242065,14.3742768],[-89.124177,14.3743626],[-89.1241555,14.3744743],[-89.1241716,14.3745652],[-89.1242038,14.3746224],[-89.1242682,14.3747185],[-89.1243138,14.3747783],[-89.1243755,14.3748251],[-89.1244318,14.3748666],[-89.1244801,14.3749056],[-89.1245096,14.3749524],[-89.1245042,14.3750043],[-89.1244666,14.3750433],[-89.1243996,14.3750771],[-89.1243325,14.3751057],[-89.124236,14.3751291],[-89.1241528,14.3751343],[-89.1240536,14.3751447],[-89.1239463,14.3751706],[-89.1239007,14.3751836],[-89.1238739,14.3752382],[-89.1238873,14.3753213],[-89.1239141,14.3753863],[-89.1239865,14.3754876],[-89.1240134,14.375563],[-89.1240321,14.3756409],[-89.1240134,14.3757396],[-89.1239624,14.375828],[-89.1239087,14.3759371],[-89.12389,14.3760436],[-89.12389,14.3761372],[-89.1239248,14.3762541],[-89.1239651,14.3763398],[-89.1240187,14.3764126],[-89.124059,14.3764542],[-89.1241314,14.3764853],[-89.1242413,14.3765243],[-89.1243379,14.3765555],[-89.1244291,14.3765893],[-89.1244908,14.3766334],[-89.1245391,14.376714],[-89.1246034,14.3768153],[-89.1246329,14.3768673],[-89.1246866,14.3769244],[-89.1247617,14.3769816],[-89.1248422,14.3770232],[-89.124928,14.3770621],[-89.1250138,14.3770725],[-89.1250675,14.3770881],[-89.1251426,14.3771479],[-89.1252123,14.3772128],[-89.1252928,14.3772622],[-89.1253518,14.377296],[-89.1254296,14.3773064],[-89.125502,14.37727],[-89.1255395,14.3772284],[-89.1255824,14.3772024],[-89.1256334,14.3772128],[-89.1256897,14.3772648],[-89.1257461,14.3773142],[-89.1258131,14.3773817],[-89.1258426,14.3774129],[-89.1259177,14.3774571],[-89.1263817,14.377296],[-89.1264649,14.3772544],[-89.1265534,14.3772544],[-89.1266526,14.3772882],[-89.126717,14.3773557],[-89.1268216,14.3774129],[-89.1269236,14.3774571],[-89.1270121,14.3774908],[-89.1270925,14.377548],[-89.127181,14.3776415],[-89.1272937,14.3777689],[-89.1273768,14.3778806],[-89.1274573,14.3779715],[-89.1275297,14.3780728],[-89.1276102,14.3781326],[-89.1276987,14.3781768],[-89.1278006,14.3782131],[-89.1279455,14.3782547],[-89.1280554,14.3782703],[-89.1281332,14.3782911],[-89.1282164,14.3783145],[-89.1283049,14.3783457],[-89.1283612,14.378395],[-89.1283934,14.3784782],[-89.1284095,14.3785665],[-89.1284095,14.3786444],[-89.1283586,14.3789017],[-89.1279133,14.3791121],[-89.1278382,14.3792836],[-89.1279213,14.3793304],[-89.1280018,14.3793771],[-89.1280581,14.3794369],[-89.128093,14.3795148],[-89.1281145,14.3795668],[-89.1281064,14.3796525],[-89.1280581,14.3797227],[-89.1279964,14.3798188],[-89.1279562,14.3798812],[-89.1279213,14.3799331],[-89.1278757,14.3799955],[-89.1278275,14.3800423],[-89.1277765,14.3800916],[-89.127755,14.3801384],[-89.1277577,14.3801774],[-89.1277926,14.3802163],[-89.1278757,14.3802605],[-89.1279589,14.3803125],[-89.1280072,14.3803644],[-89.1280528,14.3804424],[-89.1280635,14.3805125],[-89.1281171,14.380697],[-89.1281681,14.3808477],[-89.1282083,14.3809516],[-89.1282486,14.3810452],[-89.1282888,14.3811283],[-89.1283344,14.3811881],[-89.128431,14.3812218],[-89.1285221,14.3812218],[-89.1286428,14.3812244],[-89.1287394,14.3812114],[-89.1288306,14.381214],[-89.1288574,14.3812504],[-89.1288655,14.3812998],[-89.1288494,14.3813362],[-89.1287877,14.3813595],[-89.1287179,14.3813647],[-89.1286455,14.3813673],[-89.1285785,14.3813647],[-89.1285061,14.3813647],[-89.128439,14.3813881],[-89.1283961,14.3814323],[-89.1283424,14.3814972],[-89.1282915,14.38157],[-89.1282298,14.3816038],[-89.1281466,14.3816012],[-89.1280849,14.3815726],[-89.1280098,14.3815076],[-89.1279669,14.3814271],[-89.1279052,14.381331],[-89.1278623,14.3812478],[-89.1278405,14.3812126],[-89.1278221,14.3811829],[-89.1277604,14.3811439],[-89.1276853,14.3811153],[-89.1275485,14.3810607],[-89.1276132,14.3809535],[-89.1273725,14.3808434],[-89.127199,14.3808462],[-89.1270554,14.380879],[-89.1271462,14.381001],[-89.127055,14.3809802],[-89.1269638,14.3809386],[-89.1267438,14.3808373],[-89.1266419,14.3807801],[-89.1265427,14.380762],[-89.1263931,14.3807091],[-89.1263031,14.3807089],[-89.1262348,14.380741],[-89.1262372,14.3808041],[-89.1263157,14.3809124],[-89.1264756,14.381014],[-89.1267063,14.3811803],[-89.1268484,14.381292],[-89.1270091,14.3814535],[-89.1270796,14.3817466],[-89.1270322,14.3822869],[-89.1275615,14.382813],[-89.1277955,14.3830454],[-89.1278422,14.3828949],[-89.1279012,14.3827286],[-89.1280782,14.3826922],[-89.128149,14.3827477],[-89.1283542,14.3833464],[-89.1285073,14.383453],[-89.128722,14.3834821],[-89.1290951,14.3835216],[-89.1291156,14.383579],[-89.1290983,14.3836302],[-89.1290446,14.3836646],[-89.1289626,14.3837475],[-89.128928,14.3838207],[-89.1289016,14.3839019],[-89.1289116,14.3839451],[-89.1289535,14.3839398],[-89.1290364,14.3839266],[-89.1290601,14.3839654],[-89.1290364,14.3840289],[-89.1290646,14.3841013],[-89.1291187,14.3840944],[-89.1291457,14.3840983],[-89.1292122,14.3841052],[-89.1292534,14.384132],[-89.1292812,14.3842142],[-89.1292753,14.3842685],[-89.1292091,14.3843734],[-89.1291453,14.3843874]]}}]}
