{"type":"FeatureCollection","peaks_destination_id":"6916E6CB5E5C45C02499","peaks_trailhead_id":"169808D1CD6E1D75D218","peaks_source":"https://www.openstreetmap.org/","peaks_retrieval_source":"https://overpass-api.de/api/interpreter","peaks_license_name":"Open Data Commons Open Database License (ODbL) 1.0","peaks_license":"https://opendatacommons.org/licenses/odbl/1-0/","peaks_attribution":"© OpenStreetMap contributors","peaks_retrieved_at":"2026-07-31T11:49:10.687Z","features":[{"type":"Feature","properties":{"name":"Chamechaude OSM route candidate","trailhead_name":"Col de Porte Trailhead","destination_name":"Chamechaude","distance_m":4067.6300997299154,"trailhead_snap_m":23.21024473103657,"summit_snap_m":0,"osm_way_ids":[1350912477,406495514,139302419,1077374584,406495506,175843326,1396606093,1077374587,1060199671,1077044129,1089675806,1089675807,37210797,1077044128,175843325,37210798,1396609156,973088684,1077044137],"osm_way_urls":["https://www.openstreetmap.org/way/1350912477","https://www.openstreetmap.org/way/406495514","https://www.openstreetmap.org/way/139302419","https://www.openstreetmap.org/way/1077374584","https://www.openstreetmap.org/way/406495506","https://www.openstreetmap.org/way/175843326","https://www.openstreetmap.org/way/1396606093","https://www.openstreetmap.org/way/1077374587","https://www.openstreetmap.org/way/1060199671","https://www.openstreetmap.org/way/1077044129","https://www.openstreetmap.org/way/1089675806","https://www.openstreetmap.org/way/1089675807","https://www.openstreetmap.org/way/37210797","https://www.openstreetmap.org/way/1077044128","https://www.openstreetmap.org/way/175843325","https://www.openstreetmap.org/way/37210798","https://www.openstreetmap.org/way/1396609156","https://www.openstreetmap.org/way/973088684","https://www.openstreetmap.org/way/1077044137"],"osm_way_names":["Chemin de Chamechaude","Passage du Câble"],"osm_foot_access_override_way_ids":[]},"geometry":{"type":"LineString","coordinates":[[5.767184,45.290657],[5.7671505,45.2904496],[5.7671338,45.2901956],[5.7671249,45.2900598],[5.7671356,45.2899699],[5.7672208,45.2898503],[5.7671781,45.2897607],[5.7674608,45.2895022],[5.7677102,45.2892404],[5.7680183,45.2889523],[5.768128,45.2888333],[5.7682262,45.2887268],[5.7682849,45.2886861],[5.768368,45.2886597],[5.7686744,45.2886626],[5.7688643,45.2886587],[5.7689417,45.2886641],[5.7691231,45.2886314],[5.7692639,45.2885863],[5.7694571,45.2884842],[5.7698714,45.2882872],[5.7701451,45.2881813],[5.7703786,45.2881187],[5.7705487,45.2880926],[5.7707283,45.2880822],[5.7710938,45.2880669],[5.7712461,45.2880577],[5.7713554,45.2880483],[5.7716167,45.2880734],[5.7718322,45.2881124],[5.7720732,45.2881489],[5.7723386,45.2881962],[5.7725684,45.2882588],[5.7726449,45.2883266],[5.7727695,45.2885057],[5.7728897,45.2886476],[5.7731215,45.2888944],[5.7732802,45.2891152],[5.7734709,45.2892984],[5.7736143,45.2895502],[5.773755,45.2896953],[5.77385,45.2898178],[5.7739581,45.2899311],[5.7741682,45.2900799],[5.7743675,45.2902048],[5.7745307,45.2902878],[5.7747249,45.2903579],[5.7749528,45.290411],[5.7752765,45.2905126],[5.7756077,45.2906564],[5.7758179,45.2907198],[5.7760441,45.2908311],[5.7761796,45.2909197],[5.776366,45.2910172],[5.7764898,45.2911324],[5.7765453,45.2912008],[5.7766157,45.2912545],[5.7766614,45.2912654],[5.7766991,45.2912435],[5.7767022,45.2910549],[5.7767108,45.2908282],[5.7767162,45.2905852],[5.7767124,45.2904063],[5.7766868,45.2903373],[5.7766418,45.2902862],[5.7765473,45.2901235],[5.7764905,45.2900192],[5.7764529,45.2899281],[5.7764611,45.2898125],[5.7764735,45.2896091],[5.7765063,45.2893931],[5.7765091,45.2892241],[5.7764994,45.2890726],[5.7765128,45.2889239],[5.776542,45.2887821],[5.7765743,45.2887025],[5.7766199,45.2886002],[5.7766901,45.2885167],[5.7767549,45.2884626],[5.7768089,45.2884246],[5.7768613,45.2883865],[5.7769219,45.2883587],[5.7769554,45.2883452],[5.7770678,45.2882545],[5.7772151,45.2881343],[5.7772732,45.2880753],[5.7773059,45.28802],[5.7773344,45.2878866],[5.7773512,45.2877244],[5.7773855,45.2876065],[5.7773953,45.2874868],[5.7774568,45.2873181],[5.7775204,45.2871394],[5.7776129,45.2869826],[5.7777355,45.2867556],[5.7778195,45.2871256],[5.7779203,45.2873889],[5.7780625,45.287547],[5.7781784,45.2878552],[5.7782707,45.2876423],[5.778311,45.2874453],[5.7783674,45.2871726],[5.7783888,45.2870189],[5.7784519,45.2868839],[5.778476,45.2867754],[5.7785578,45.2866962],[5.7786557,45.2866263],[5.7787697,45.2865612],[5.7788917,45.2865018],[5.7790017,45.2864631],[5.7790688,45.2864037],[5.7791613,45.286347],[5.7792968,45.2862499],[5.7794166,45.2861444],[5.7795435,45.28604],[5.7795652,45.2860075],[5.7795804,45.2859682],[5.7795902,45.2859062],[5.7795884,45.2858724],[5.7795815,45.2858149],[5.7797408,45.2858475],[5.7799242,45.285891],[5.7799847,45.285917],[5.780017,45.2859383],[5.7800485,45.2859666],[5.7800716,45.2860504],[5.7800943,45.2861258],[5.7801341,45.2861652],[5.7801901,45.2862174],[5.7802478,45.286386],[5.7802637,45.2864357],[5.7802798,45.2864971],[5.7802877,45.2865634],[5.7803019,45.2866216],[5.7803193,45.2866665],[5.7803129,45.2866873],[5.7802945,45.2867051],[5.7802922,45.2867309],[5.7802476,45.2868134],[5.7802102,45.286867],[5.7801969,45.2869441],[5.7802048,45.2870049],[5.7802295,45.2870079],[5.780261,45.2870033],[5.7802932,45.286964],[5.7803509,45.2869188],[5.7803731,45.286907],[5.7804249,45.2868795],[5.780495,45.2868523],[5.7805359,45.2868476],[5.780609,45.2867958],[5.7806853,45.2867191],[5.7807703,45.2866335],[5.7808498,45.2865358],[5.7808921,45.2864808],[5.7809169,45.2864275],[5.7809517,45.2863499],[5.7810003,45.2862554],[5.7810201,45.2862022],[5.7810067,45.2861682],[5.7810129,45.2861334],[5.7810784,45.2860583],[5.7811143,45.2860203],[5.781144,45.2860605],[5.7811582,45.2861602],[5.781188,45.2862178],[5.7812237,45.2862804],[5.7812739,45.2863522],[5.781299,45.2864362],[5.7813104,45.2865152],[5.7813064,45.2865933],[5.7813245,45.2866636],[5.781346,45.286715],[5.7813367,45.2867595],[5.7813281,45.2869133],[5.7813257,45.2869884],[5.7813218,45.2870278],[5.7813366,45.2870698],[5.7813641,45.2871209],[5.7813827,45.2871748],[5.7814434,45.2870935],[5.7814975,45.2870396],[5.7815737,45.2869814],[5.7816922,45.2869221],[5.7817671,45.286875],[5.7818765,45.2868286],[5.7819253,45.2867981],[5.7819588,45.2867702],[5.7819736,45.2867381],[5.7819736,45.2867028],[5.7819988,45.2866586],[5.7820205,45.2866211],[5.7820402,45.2865712],[5.7820476,45.2865235],[5.782067,45.286474],[5.7821306,45.2865301],[5.7822043,45.2865883],[5.7822681,45.286636],[5.7823381,45.2867071],[5.7823974,45.286766],[5.7824323,45.2868286],[5.7824587,45.2869002],[5.782559,45.2868083],[5.7825697,45.2867438],[5.7825466,45.2865834],[5.7825141,45.2865292],[5.7824591,45.2864876],[5.7824336,45.2864504],[5.7824423,45.2863617],[5.7824262,45.2862838],[5.7824349,45.2862244],[5.782437,45.2861344],[5.7825141,45.2862046],[5.7825825,45.2862178],[5.7825851,45.2861819],[5.7825583,45.2861687],[5.7825463,45.2859998],[5.7826281,45.2860673],[5.7826176,45.2859252],[5.7826119,45.2857139],[5.7825905,45.2855828],[5.7825623,45.2852025],[5.7825315,45.2849388],[5.7825007,45.2848142],[5.7824932,45.2847052],[5.7825,45.284683],[5.7826535,45.2847958],[5.7826165,45.2846681],[5.7826133,45.2844769],[5.7826247,45.2842953],[5.7826372,45.2842921],[5.7826563,45.2842938],[5.7826984,45.284316],[5.782723,45.2843422],[5.7829392,45.2844515],[5.7829529,45.2844571],[5.7829657,45.2844571],[5.7829761,45.2844264],[5.7829949,45.2844028],[5.7830028,45.2843514],[5.7830332,45.284313],[5.783035,45.2842752],[5.7830516,45.2842351],[5.7830718,45.2842336],[5.7831119,45.2842707],[5.7831497,45.2842835],[5.783157,45.2843013],[5.7831803,45.2843155],[5.7831993,45.2843142],[5.783218,45.2843414],[5.7832545,45.284348],[5.7832672,45.2843707],[5.7832997,45.2843797],[5.7833278,45.2844024],[5.783361,45.2844052],[5.783373,45.2843745],[5.7833982,45.2843551],[5.7834234,45.2842637],[5.7834388,45.2842618],[5.7834743,45.2842905],[5.7835022,45.2843231],[5.7835232,45.2843306],[5.783583,45.2843931],[5.7836685,45.2844552],[5.783698,45.2844722],[5.7837033,45.2844382],[5.7837244,45.2844068],[5.7837489,45.2843888],[5.7837597,45.2843608],[5.7838006,45.2843026],[5.7838321,45.2842325],[5.7838606,45.2842178],[5.7838696,45.2842011],[5.7838774,45.2841568],[5.7838965,45.2841539],[5.7839513,45.2841962],[5.7839848,45.2842316],[5.7839938,45.2842618],[5.7840212,45.2842983],[5.7840516,45.2843287],[5.7840722,45.2843604],[5.7841298,45.2844099],[5.7841754,45.2844882],[5.7842671,45.2845254],[5.784277,45.2845407],[5.7843715,45.2846034],[5.7845093,45.2848322],[5.7845478,45.2849463],[5.7846357,45.2850836],[5.7846582,45.2851836],[5.7847628,45.2854412],[5.784806,45.2853528],[5.7848526,45.285279],[5.7848822,45.2853115],[5.7848874,45.2853454],[5.7849063,45.2853932],[5.78496,45.285612],[5.7850018,45.2857309],[5.7850461,45.2857771],[5.7850565,45.2858546],[5.7850904,45.2859363],[5.7851759,45.2860188],[5.7852725,45.2861496],[5.7853188,45.286238],[5.7853636,45.2862819],[5.7854149,45.2863461],[5.7854409,45.2863876],[5.7854848,45.2863404],[5.7855256,45.2862548],[5.7855561,45.286167],[5.7855893,45.286091],[5.7856388,45.2861298],[5.785692,45.2861874],[5.7857299,45.2862509],[5.7857921,45.286329],[5.7858288,45.2863981],[5.7858836,45.2863253],[5.7858843,45.2862763],[5.7859158,45.2862281],[5.7859339,45.2861645],[5.7859286,45.286135],[5.7859714,45.2861008],[5.7860116,45.2860544],[5.7860439,45.2861117],[5.7860604,45.2861716],[5.786068,45.2862433],[5.7860827,45.286264],[5.7860968,45.2863277],[5.786163,45.2864343],[5.7861632,45.2865041],[5.7862219,45.2866273],[5.7864177,45.2863564],[5.7864629,45.2863768],[5.7864938,45.2864197],[5.7864985,45.2865136],[5.7865521,45.2865659],[5.7866083,45.2866114],[5.7866273,45.2865385],[5.7866503,45.2864971],[5.7866655,45.2865504],[5.78671,45.286604],[5.7867734,45.2865518],[5.7868525,45.2864556],[5.7868801,45.2863485],[5.7869798,45.2863237],[5.7870526,45.2862727],[5.7871248,45.2863036],[5.7871369,45.2862791],[5.787212,45.286281],[5.7872334,45.2862612],[5.7872723,45.2862131],[5.7873045,45.2862668],[5.7874095,45.2861719],[5.7875443,45.286064],[5.7876738,45.2862226],[5.7876896,45.286229],[5.7877122,45.2861775],[5.7877339,45.2861626],[5.7877594,45.2861668],[5.7877868,45.2862312],[5.7878061,45.28629],[5.7878919,45.2863829],[5.7878912,45.2864037],[5.7879046,45.2864192],[5.7878926,45.2864626],[5.7878792,45.2864872],[5.7878745,45.286506],[5.7878637,45.2865641],[5.7878631,45.2866263],[5.7877933,45.286715],[5.7878141,45.2867962],[5.7878148,45.2868523],[5.7878505,45.2869544],[5.7878761,45.2870094],[5.787862,45.2870339],[5.787834,45.2870918],[5.7878165,45.2871476],[5.7878027,45.2871849],[5.7878403,45.2872646],[5.7879006,45.2873632],[5.7879362,45.2873996],[5.7879475,45.2874312],[5.7879771,45.2874614],[5.7879985,45.2874864],[5.7881132,45.2876175],[5.7881527,45.2876803],[5.7881527,45.2876803]]}}]}
