{"type":"FeatureCollection","peaks_destination_id":"nTJtNPdIX5emLtQtsOGQ","peaks_trailhead_id":"49607B13CE71459BAB7E","peaks_source":"https://www.openstreetmap.org/","peaks_retrieval_source":"https://api.openstreetmap.org/api/0.6","peaks_license_name":"Open Data Commons Open Database License (ODbL) 1.0","peaks_license":"https://opendatacommons.org/licenses/odbl/1-0/","peaks_attribution":"© OpenStreetMap contributors","peaks_retrieved_at":"2026-07-31T07:32:54.962Z","features":[{"type":"Feature","properties":{"name":"Charleston Peak OSM route candidate","trailhead_name":"Charleston Peak South Loop Trailhead","destination_name":"Charleston Peak","distance_m":13552.527471730938,"trailhead_snap_m":5.566055976079077,"summit_snap_m":7.696502781103605,"osm_way_ids":[1180509617,707867547,1348423586,614578033,1280514488,185196783,1180509615],"osm_way_urls":["https://www.openstreetmap.org/way/1180509617","https://www.openstreetmap.org/way/707867547","https://www.openstreetmap.org/way/1348423586","https://www.openstreetmap.org/way/614578033","https://www.openstreetmap.org/way/1280514488","https://www.openstreetmap.org/way/185196783","https://www.openstreetmap.org/way/1180509615"],"osm_way_names":["Charleston Peak Trail South Loop"],"osm_foot_access_override_way_ids":[]},"geometry":{"type":"LineString","coordinates":[[-115.645021,36.255894],[-115.6449765,36.2558591],[-115.6458516,36.2562293],[-115.645911,36.2562496],[-115.6459649,36.2561831],[-115.6460871,36.2561286],[-115.6461133,36.2560844],[-115.6460948,36.2560405],[-115.6460127,36.2559762],[-115.6459364,36.2559364],[-115.6457141,36.2558405],[-115.6455799,36.2557308],[-115.6454545,36.2556101],[-115.6453109,36.2554754],[-115.6451134,36.2554085],[-115.6450537,36.2553858],[-115.64492,36.2552645],[-115.6449168,36.254542],[-115.6441933,36.2542392],[-115.6440258,36.2540841],[-115.6440063,36.2540661],[-115.6437374,36.2538867],[-115.6435846,36.2536959],[-115.6432389,36.2531883],[-115.6430279,36.2527658],[-115.6429478,36.2521906],[-115.6427914,36.2516448],[-115.6427603,36.2513927],[-115.642821,36.2510244],[-115.6427367,36.250709],[-115.6426112,36.2505823],[-115.6423484,36.2505189],[-115.6423365,36.2503508],[-115.6423909,36.2501233],[-115.6423656,36.2500471],[-115.6420381,36.2500867],[-115.6417789,36.2500195],[-115.6415969,36.2499266],[-115.6414727,36.2499003],[-115.6413256,36.2498995],[-115.6412767,36.2498863],[-115.6412984,36.2496811],[-115.641231,36.2496109],[-115.641103,36.2495783],[-115.6410127,36.2495416],[-115.6409533,36.2494861],[-115.6409057,36.2494856],[-115.6408023,36.2495167],[-115.6407152,36.2495365],[-115.6405637,36.2496402],[-115.6404964,36.2496403],[-115.6404221,36.2496153],[-115.6403759,36.2495526],[-115.6402749,36.2492297],[-115.6401497,36.2490362],[-115.6398917,36.2487489],[-115.6396991,36.2486858],[-115.6393061,36.2484236],[-115.6392111,36.2483564],[-115.6391374,36.2483795],[-115.6390914,36.248484],[-115.6390805,36.2486676],[-115.6389996,36.2487872],[-115.638837,36.2488327],[-115.6385102,36.2487784],[-115.6382211,36.2487545],[-115.6380286,36.2487665],[-115.6378196,36.2487025],[-115.6375671,36.2487686],[-115.637497,36.2487134],[-115.6375443,36.248643],[-115.6376499,36.2485168],[-115.6376098,36.2484493],[-115.6374422,36.2484598],[-115.6373048,36.2485303],[-115.6372149,36.2484718],[-115.6373164,36.2482863],[-115.6374362,36.2481618],[-115.637406,36.2481129],[-115.637371,36.2480737],[-115.6373178,36.2480581],[-115.6372807,36.2480301],[-115.6372849,36.2479864],[-115.6373304,36.2479498],[-115.6375269,36.2478148],[-115.6377668,36.2476977],[-115.6378882,36.2475998],[-115.6379848,36.2474922],[-115.6378388,36.247166],[-115.6379068,36.2467361],[-115.6378692,36.2464633],[-115.6382816,36.2458073],[-115.6386629,36.2452342],[-115.638731,36.2451517],[-115.6389367,36.2449849],[-115.6391434,36.2447046],[-115.6395383,36.2444954],[-115.6397162,36.2443113],[-115.639781,36.244155],[-115.6398886,36.2440284],[-115.6399692,36.2440098],[-115.6399962,36.2440474],[-115.6399843,36.2441062],[-115.6400481,36.244175],[-115.6401432,36.2443131],[-115.6402767,36.2443543],[-115.6403807,36.2444151],[-115.6404511,36.2444949],[-115.6405047,36.2445879],[-115.6405181,36.244655],[-115.6405624,36.2446745],[-115.6405604,36.2443697],[-115.6405523,36.2441685],[-115.6405148,36.2440647],[-115.6404316,36.2439392],[-115.6404296,36.2438935],[-115.6404799,36.2439046],[-115.6406174,36.2440428],[-115.6407508,36.2442377],[-115.6407971,36.2443002],[-115.6408071,36.2442507],[-115.6408132,36.244151],[-115.6407776,36.2439716],[-115.6407535,36.2439219],[-115.6407669,36.2438873],[-115.640842,36.2439652],[-115.6409217,36.2440729],[-115.6409573,36.244082],[-115.6408783,36.2438203],[-115.6408994,36.2438041],[-115.6410334,36.2439244],[-115.6411277,36.2440015],[-115.6411726,36.2439887],[-115.6411221,36.2438941],[-115.6410877,36.2437842],[-115.6411412,36.2437224],[-115.6411998,36.2436786],[-115.641187,36.2438076],[-115.6413308,36.2438654],[-115.641422,36.2439217],[-115.6415287,36.2441358],[-115.6415506,36.2441157],[-115.6415863,36.2439284],[-115.6414679,36.243732],[-115.6414863,36.2437241],[-115.6415774,36.2438099],[-115.6417086,36.2438933],[-115.64177,36.2439998],[-115.6418539,36.2441921],[-115.641827,36.2442656],[-115.6417854,36.2443652],[-115.6418166,36.2443699],[-115.6419651,36.2442576],[-115.6419525,36.2440948],[-115.6420012,36.2439847],[-115.6419866,36.2438268],[-115.641931,36.2437532],[-115.6418517,36.2436747],[-115.6418805,36.2436668],[-115.6421143,36.2437989],[-115.6421619,36.2439548],[-115.6421494,36.2441483],[-115.6422131,36.2442431],[-115.6422599,36.2443579],[-115.642287,36.2443441],[-115.6422888,36.2442869],[-115.6422484,36.2442205],[-115.6422354,36.2441541],[-115.6423423,36.2439465],[-115.6423586,36.2438364],[-115.6422164,36.2435746],[-115.6422728,36.2434673],[-115.642289,36.2433589],[-115.6423129,36.2433584],[-115.64231,36.243528],[-115.6425989,36.2438029],[-115.6426377,36.2439548],[-115.6426196,36.2440795],[-115.642738,36.2441663],[-115.6428024,36.2443151],[-115.6428307,36.2444547],[-115.6427554,36.2446284],[-115.6425985,36.244726],[-115.6424562,36.2448565],[-115.6423447,36.2450283],[-115.6421056,36.2451924],[-115.6418664,36.2453224],[-115.6416929,36.2454781],[-115.6415763,36.2457106],[-115.6415402,36.2458293],[-115.6415712,36.2458423],[-115.6418403,36.2458087],[-115.641997,36.2458048],[-115.6423271,36.2459545],[-115.6425243,36.2460453],[-115.6427504,36.246097],[-115.6430164,36.2461909],[-115.6430281,36.2461727],[-115.6428488,36.2459073],[-115.6425997,36.2456718],[-115.6427322,36.2457052],[-115.6428623,36.2457333],[-115.6432058,36.2458142],[-115.6434696,36.2457846],[-115.6437368,36.2455494],[-115.6443649,36.2452119],[-115.6445968,36.2450705],[-115.6450041,36.2447985],[-115.6445391,36.2449073],[-115.6443968,36.2449236],[-115.644806,36.2446976],[-115.6449259,36.2446209],[-115.6451493,36.2444585],[-115.6453633,36.2443373],[-115.6455879,36.2442091],[-115.6457564,36.2442308],[-115.6458343,36.2443155],[-115.6459405,36.2445555],[-115.6460877,36.2448051],[-115.6461795,36.2450707],[-115.6462534,36.2451875],[-115.6462702,36.2451837],[-115.6462514,36.244767],[-115.6462626,36.2443468],[-115.6462183,36.2436354],[-115.6462514,36.2436386],[-115.6464607,36.2439704],[-115.6466661,36.244394],[-115.6466916,36.2443702],[-115.646707,36.2441277],[-115.6466799,36.2438242],[-115.6467035,36.2434279],[-115.6466237,36.2430175],[-115.6468931,36.2433584],[-115.6472154,36.243932],[-115.6472417,36.2439367],[-115.6472404,36.2435329],[-115.6472141,36.24306],[-115.647143,36.2424964],[-115.6474013,36.2428795],[-115.647753,36.2435638],[-115.6477805,36.2435584],[-115.6477472,36.2432214],[-115.647656,36.2427052],[-115.6476609,36.242632],[-115.6477056,36.2426559],[-115.6478756,36.2429071],[-115.647947,36.2429829],[-115.6479582,36.2428511],[-115.6479938,36.2428271],[-115.6480705,36.2428174],[-115.6481171,36.2427698],[-115.6479315,36.2416949],[-115.6479436,36.2414806],[-115.6478923,36.2412594],[-115.6478867,36.240899],[-115.6479282,36.2408951],[-115.6480029,36.2410004],[-115.6482252,36.2411642],[-115.6486183,36.2415648],[-115.6492332,36.2417062],[-115.6494652,36.2417669],[-115.6494725,36.2417557],[-115.6493479,36.2416816],[-115.6490714,36.241455],[-115.6489832,36.2412308],[-115.6489358,36.2409318],[-115.6489073,36.2405586],[-115.6490958,36.2407298],[-115.6493804,36.2411313],[-115.6496486,36.2412883],[-115.649668,36.2412778],[-115.6495556,36.2411447],[-115.6495006,36.2406931],[-115.649535,36.2405239],[-115.6494835,36.2402998],[-115.6495121,36.2402906],[-115.6498826,36.2408578],[-115.6499803,36.2409529],[-115.6499956,36.2409231],[-115.6499601,36.2406402],[-115.6499321,36.2397934],[-115.6498163,36.2394507],[-115.6495411,36.2389532],[-115.6495558,36.2388715],[-115.6494525,36.2387654],[-115.6494334,36.2386523],[-115.6493714,36.2386084],[-115.6492806,36.2383529],[-115.6493138,36.2383221],[-115.649369,36.2383328],[-115.649539,36.2384587],[-115.6495599,36.2384499],[-115.6495313,36.2383701],[-115.6495205,36.2380928],[-115.6496918,36.2378539],[-115.6499815,36.2374947],[-115.6501107,36.2378531],[-115.6503373,36.2381097],[-115.6505871,36.2382935],[-115.6504825,36.2378049],[-115.6505602,36.2374699],[-115.6506451,36.2372277],[-115.6507252,36.2369797],[-115.6507522,36.2368654],[-115.6507759,36.2363585],[-115.6509517,36.236471],[-115.6510006,36.2364622],[-115.6510342,36.2365102],[-115.6511405,36.2369766],[-115.6511574,36.2370509],[-115.6512658,36.2372187],[-115.6514042,36.2374208],[-115.6515383,36.2376718],[-115.6517448,36.237754],[-115.6519942,36.2378189],[-115.6522598,36.23786],[-115.652874,36.2380006],[-115.65425,36.2382277],[-115.6548883,36.2381975],[-115.6557504,36.2382637],[-115.656024,36.2382918],[-115.657364,36.2383619],[-115.6576993,36.2384116],[-115.6581446,36.2386193],[-115.6585415,36.2389135],[-115.6587867,36.239023],[-115.6593971,36.2392402],[-115.6598327,36.2394102],[-115.6603198,36.2395085],[-115.6608037,36.239646],[-115.6610987,36.2397996],[-115.6616969,36.2399576],[-115.6619624,36.2400852],[-115.6623782,36.2402626],[-115.662774,36.2404906],[-115.6632123,36.2407191],[-115.6639569,36.2411028],[-115.6642895,36.2412651],[-115.6644714,36.2413688],[-115.6645534,36.2414156],[-115.6647949,36.2416493],[-115.6650727,36.2420828],[-115.6652642,36.2423112],[-115.6657846,36.2426876],[-115.6664272,36.2429805],[-115.6667447,36.2433496],[-115.6670988,36.2434794],[-115.6675993,36.2436858],[-115.6681637,36.2437995],[-115.6684335,36.2438891],[-115.6690676,36.2438233],[-115.6694216,36.2438926],[-115.6695423,36.2439748],[-115.6697194,36.2441803],[-115.6698669,36.2445221],[-115.6699302,36.2448734],[-115.6698964,36.245158],[-115.6698964,36.2458719],[-115.6699982,36.2461552],[-115.6699419,36.2463607],[-115.6699527,36.2467523],[-115.6698696,36.2469967],[-115.6700466,36.2474142],[-115.6700944,36.2475298],[-115.6702477,36.2479009],[-115.6704677,36.2482816],[-115.6710148,36.2487878],[-115.6714325,36.2489942],[-115.6716452,36.2490993],[-115.6720035,36.2492775],[-115.6720169,36.24947],[-115.6721521,36.2497807],[-115.6722181,36.2499697],[-115.672297,36.2502262],[-115.6723345,36.250503],[-115.6723452,36.2509119],[-115.6724525,36.2514634],[-115.6725641,36.2519186],[-115.6727454,36.2522531],[-115.6728039,36.2523611],[-115.6729514,36.2527375],[-115.6731901,36.2531376],[-115.6740178,36.2541637],[-115.6743489,36.2544116],[-115.6748291,36.2546295],[-115.6748825,36.2546537],[-115.6752688,36.2549631],[-115.6754026,36.2550953],[-115.6757677,36.2554563],[-115.6766904,36.2562393],[-115.6770605,36.2566415],[-115.6775514,36.2568384],[-115.6777998,36.2568673],[-115.6779377,36.2569443],[-115.6778088,36.2571303],[-115.6780529,36.2572449],[-115.6782166,36.2573834],[-115.6784982,36.2572601],[-115.6791339,36.2568189],[-115.6795818,36.2565096],[-115.6800137,36.2563625],[-115.6805061,36.2565386],[-115.6807743,36.2565516],[-115.6809659,36.2565507],[-115.6814181,36.2566338],[-115.6817131,36.2568371],[-115.6823257,36.2571844],[-115.6829201,36.2575681],[-115.6834458,36.2578515],[-115.6839233,36.257899],[-115.684685,36.2579077],[-115.6851008,36.2579401],[-115.6851903,36.2580733],[-115.6853234,36.2581716],[-115.6854447,36.2582962],[-115.6855969,36.2584527],[-115.6856018,36.2585711],[-115.685605,36.2586495],[-115.6857203,36.2589848],[-115.6859403,36.2593049],[-115.6863011,36.2597944],[-115.6863476,36.2599343],[-115.6865327,36.2601917],[-115.6866977,36.2603528],[-115.6870276,36.2607638],[-115.687218,36.2609454],[-115.6875694,36.2612763],[-115.6879985,36.2617089],[-115.6882668,36.2620744],[-115.6885162,36.2624204],[-115.6886423,36.2626043],[-115.6887817,36.2626864],[-115.6890902,36.2628011],[-115.6893986,36.2630454],[-115.68975,36.2632358],[-115.6900772,36.2634131],[-115.6903482,36.2635169],[-115.6905976,36.2635948],[-115.6909812,36.2637872],[-115.6912386,36.2638932],[-115.6915471,36.2639689],[-115.6918529,36.2640576],[-115.691995,36.2641008],[-115.6921238,36.2641938],[-115.692274,36.2643474],[-115.6924135,36.2644274],[-115.6925878,36.2645896],[-115.6927756,36.2647842],[-115.6929794,36.2648945],[-115.6933093,36.2651086],[-115.6936848,36.2654049],[-115.6940925,36.2657185],[-115.6945828,36.2660202],[-115.6946341,36.266188],[-115.694915,36.2662042],[-115.6951466,36.266204],[-115.6955002,36.2663032],[-115.6960305,36.266591],[-115.6961873,36.2666284],[-115.6966266,36.2666583],[-115.696841,36.2667985],[-115.696798,36.2671735],[-115.6967325,36.2672321],[-115.696147,36.2682761],[-115.6959643,36.2684213],[-115.6955144,36.2688691],[-115.6954443,36.26897],[-115.6954197,36.2690744],[-115.6953714,36.2691171],[-115.6952957,36.2692096],[-115.6953254,36.2693446],[-115.6953662,36.2694482],[-115.6953307,36.2695971],[-115.6953452,36.2697361],[-115.6953128,36.2699193],[-115.695363,36.2700323],[-115.6953091,36.2702639],[-115.6952997,36.2704732],[-115.6953389,36.2705338],[-115.6954248,36.2705836],[-115.6954501,36.270648],[-115.6953652,36.2708502],[-115.6953129,36.2710589],[-115.6953048,36.2711713],[-115.6953343,36.2712881],[-115.6954384,36.271366],[-115.695525,36.2715135],[-115.695506,36.271581]]}}]}
