{"type":"FeatureCollection","peaks_destination_id":"3801FA71EE036A954BED","peaks_trailhead_id":"177BFA89F62675D89243","peaks_source":"https://www.openstreetmap.org/","peaks_retrieval_source":"https://api.openstreetmap.org/api/0.6","peaks_license_name":"Open Data Commons Open Database License (ODbL) 1.0","peaks_license":"https://opendatacommons.org/licenses/odbl/1-0/","peaks_attribution":"© OpenStreetMap contributors","peaks_retrieved_at":"2026-07-31T12:18:14.204Z","features":[{"type":"Feature","properties":{"name":"Cima Presanella OSM route candidate","trailhead_name":"Rifugio Segantini","destination_name":"Cima Presanella","distance_m":4384.836987772699,"trailhead_snap_m":1.7127198152252197,"summit_snap_m":0,"osm_way_ids":[432949754,370396078,370396077,370396079],"osm_way_urls":["https://www.openstreetmap.org/way/432949754","https://www.openstreetmap.org/way/370396078","https://www.openstreetmap.org/way/370396077","https://www.openstreetmap.org/way/370396079"],"osm_way_names":[],"osm_foot_access_override_way_ids":[]},"geometry":{"type":"LineString","coordinates":[[10.710569,46.20936],[10.7105769,46.2093744],[10.7104831,46.2094393],[10.7104267,46.209457],[10.710361,46.209522],[10.7102863,46.209595],[10.708893,46.2106602],[10.7083238,46.2111978],[10.70817,46.2114639],[10.70787,46.2116715],[10.7075162,46.2118205],[10.7068932,46.211911],[10.706824,46.2120068],[10.7066855,46.212257],[10.7057394,46.2125178],[10.705078,46.2127679],[10.7039088,46.2132044],[10.703355,46.213364],[10.7026935,46.2136089],[10.7021013,46.2137685],[10.701709,46.2138697],[10.7013013,46.2139814],[10.7005629,46.2140719],[10.6999784,46.2140879],[10.69934,46.2141571],[10.6987785,46.2141837],[10.6980401,46.2141624],[10.6971709,46.2142476],[10.6966017,46.2143008],[10.6958556,46.2144338],[10.6946096,46.214535],[10.6934251,46.2149767],[10.692802,46.215147],[10.6924328,46.2152482],[10.6919713,46.2151364],[10.6917483,46.2152907],[10.691056,46.215163],[10.6900176,46.2149395],[10.6893177,46.2148117],[10.6887947,46.2143168],[10.6881947,46.2140187],[10.6878409,46.2137632],[10.6874563,46.2137526],[10.6871871,46.2134013],[10.6866333,46.2131618],[10.6864256,46.2132576],[10.6860718,46.2129808],[10.6851796,46.2131086],[10.6838489,46.2128957],[10.6831336,46.2130553],[10.6818337,46.2130607],[10.681526,46.2128478],[10.6808107,46.2127786],[10.6796916,46.2126455],[10.6793136,46.2124994],[10.6788628,46.2125421],[10.6787263,46.212555],[10.6780476,46.2124301],[10.6779559,46.2125245],[10.6778917,46.2125695],[10.6778076,46.2125865],[10.6777553,46.212564],[10.6776369,46.2125738],[10.6775388,46.2125362],[10.6774655,46.2125123],[10.6774074,46.2125088],[10.6773012,46.2125223],[10.6771775,46.2126242],[10.677078,46.2128009],[10.6768958,46.2129855],[10.6766693,46.2131394],[10.6764923,46.2133584],[10.6750332,46.2136597],[10.6737113,46.2139176],[10.6727267,46.2143806],[10.6724103,46.2145698],[10.6720306,46.2147425],[10.6715691,46.2149368],[10.6718488,46.2151766],[10.6714961,46.2156367],[10.6711653,46.2158975],[10.6704577,46.2158655],[10.6691732,46.2160891],[10.6684732,46.2162381],[10.6682162,46.216464],[10.6681291,46.2165089],[10.6680688,46.2165737],[10.6679816,46.2165847],[10.6679451,46.2166198],[10.6679166,46.2166604],[10.6678484,46.2167053],[10.6678423,46.2167384],[10.6678349,46.2168213],[10.6677798,46.2168514],[10.6675502,46.2169193],[10.6671041,46.2174249],[10.6668964,46.2182285],[10.666558,46.2185798],[10.6663196,46.2188459],[10.6659119,46.2190641],[10.6656843,46.2194287],[10.6653229,46.2195332],[10.665012,46.2196389],[10.6647966,46.2198358],[10.6641189,46.2199321],[10.6641189,46.2199321]]}}]}
