{"type":"FeatureCollection","peaks_destination_id":"GwLKVzkyBpklFRhl69MR","peaks_trailhead_id":"949C3C8A353D7C1D0932","peaks_source":"https://www.openstreetmap.org/","peaks_retrieval_source":"https://api.openstreetmap.org/api/0.6","peaks_license_name":"Open Data Commons Open Database License (ODbL) 1.0","peaks_license":"https://opendatacommons.org/licenses/odbl/1-0/","peaks_attribution":"© OpenStreetMap contributors","peaks_retrieved_at":"2026-07-31T10:19:55.287Z","features":[{"type":"Feature","properties":{"name":"Cleveland Mountain OSM route candidate","trailhead_name":"FS 6422 / Temple Mountain Road Route Start","destination_name":"Cleveland Mountain","distance_m":10285.260856326282,"trailhead_snap_m":3.3251502443923386,"summit_snap_m":27.772909171469983,"osm_way_ids":[1422762654,6477962,6478012,1164806094,1164806097],"osm_way_urls":["https://www.openstreetmap.org/way/1422762654","https://www.openstreetmap.org/way/6477962","https://www.openstreetmap.org/way/6478012","https://www.openstreetmap.org/way/1164806094","https://www.openstreetmap.org/way/1164806097"],"osm_way_names":["Temple Mountain Road","Cleveland Mountain Trail","Cleveland Mountain Bootpath"],"osm_foot_access_override_way_ids":[]},"geometry":{"type":"LineString","coordinates":[[-121.414238,47.713932],[-121.4141949,47.7139393],[-121.4143801,47.713855],[-121.4146444,47.7137443],[-121.4152246,47.7134447],[-121.4156744,47.7131601],[-121.4162347,47.712927],[-121.4170935,47.7126766],[-121.4179058,47.7123922],[-121.4184703,47.7120964],[-121.4191782,47.7118596],[-121.4197883,47.7116343],[-121.4207474,47.7112762],[-121.4212509,47.7110356],[-121.4216843,47.7107177],[-121.422033,47.7106275],[-121.4221606,47.7105509],[-121.4222413,47.7104656],[-121.4223325,47.7103964],[-121.4224708,47.7103308],[-121.4226063,47.7103061],[-121.4228449,47.7103342],[-121.4230656,47.7103046],[-121.4235629,47.7101182],[-121.4241184,47.7097782],[-121.4246293,47.7093905],[-121.425373,47.709099],[-121.4258986,47.7089159],[-121.4263349,47.7087844],[-121.4271217,47.7084844],[-121.4277723,47.7081643],[-121.4287816,47.7077311],[-121.4288132,47.707659],[-121.4287895,47.7075812],[-121.4287008,47.7075365],[-121.4284413,47.7075548],[-121.4283015,47.7075501],[-121.4280159,47.7076234],[-121.427526,47.7077882],[-121.4270179,47.7078132],[-121.4266887,47.7077544],[-121.4259382,47.7078828],[-121.4244881,47.7081046],[-121.4230922,47.7084686],[-121.4227113,47.7086013],[-121.4225967,47.7085892],[-121.4226018,47.7085139],[-121.4227397,47.7084002],[-121.4233805,47.7080816],[-121.4239361,47.7075104],[-121.4253253,47.7068104],[-121.426221,47.706197],[-121.4262878,47.7060747],[-121.4262914,47.7058928],[-121.4264057,47.7057224],[-121.4265291,47.7056727],[-121.4267973,47.7056631],[-121.4270124,47.7055849],[-121.4271678,47.7054321],[-121.4274095,47.7051489],[-121.4278927,47.7044054],[-121.4283102,47.7036307],[-121.4288855,47.7027706],[-121.4290798,47.7022401],[-121.4291378,47.7018356],[-121.4291924,47.7015861],[-121.4291917,47.7013824],[-121.4291365,47.7013471],[-121.4290474,47.7013432],[-121.4289967,47.7013966],[-121.4288396,47.7016793],[-121.428659,47.7018431],[-121.4284785,47.7021789],[-121.4282664,47.7023727],[-121.4278414,47.7026294],[-121.4272873,47.7029317],[-121.4268353,47.7033027],[-121.426604,47.7034935],[-121.4263514,47.7037043],[-121.4262476,47.703732],[-121.426067,47.7037263],[-121.4258741,47.7036861],[-121.425668,47.7035919],[-121.4255592,47.7033996],[-121.4254334,47.7033134],[-121.4252712,47.7032839],[-121.4251264,47.7033035],[-121.4249452,47.7033911],[-121.4249329,47.7035277],[-121.4248191,47.70379],[-121.4244891,47.7040295],[-121.4239839,47.7042559],[-121.4234382,47.7044731],[-121.4231162,47.7047052],[-121.4227468,47.7050875],[-121.4225436,47.7053572],[-121.4222932,47.7055372],[-121.4221283,47.7056894],[-121.4219499,47.7058053],[-121.4216517,47.7058768],[-121.4214684,47.7058482],[-121.4213208,47.7058695],[-121.4211827,47.7059196],[-121.4211045,47.7059888],[-121.4210035,47.7060327],[-121.4209335,47.7060343],[-121.4208609,47.706007],[-121.4208365,47.7059635],[-121.420863,47.7059308],[-121.420942,47.705885],[-121.4210612,47.7058248],[-121.4213082,47.7057579],[-121.4214963,47.7057398],[-121.4216137,47.7057115],[-121.4217963,47.7056131],[-121.4218564,47.7055199],[-121.4218068,47.705321],[-121.421828,47.7050843],[-121.4219358,47.7049564],[-121.4220563,47.7047216],[-121.4222425,47.7041075],[-121.4223932,47.7038058],[-121.4227183,47.7035401],[-121.4228248,47.7033587],[-121.4228612,47.7026692],[-121.4230113,47.7023889],[-121.423146,47.7021231],[-121.4232806,47.7019751],[-121.4237661,47.7017767],[-121.4241917,47.7016821],[-121.4246377,47.7014419],[-121.4251338,47.7010718],[-121.425711,47.7007882],[-121.4257379,47.7007287],[-121.4256768,47.7006782],[-121.4255262,47.7006708],[-121.4252607,47.7007361],[-121.424765,47.700837],[-121.4243909,47.7010925],[-121.4240833,47.7012264],[-121.4239311,47.701242],[-121.4238386,47.7011962],[-121.4238629,47.7011109],[-121.423984,47.7010027],[-121.4242605,47.7008899],[-121.4245844,47.7006695],[-121.4247596,47.7004538],[-121.4251036,47.7002955],[-121.4253732,47.700019],[-121.4253864,47.6999232],[-121.4258457,47.6995681],[-121.4259505,47.6994377],[-121.4260148,47.6993163],[-121.4260189,47.6992396],[-121.4259284,47.6991901],[-121.4258339,47.699226],[-121.4257259,47.6993528],[-121.4255437,47.699494],[-121.4251857,47.6995944],[-121.4250125,47.6997379],[-121.424765,47.6998269],[-121.4243647,47.6998958],[-121.4239628,47.700022],[-121.4236427,47.7002597],[-121.4232423,47.7003695],[-121.4228205,47.7003755],[-121.4226893,47.7003315],[-121.4225938,47.7002873],[-121.4225556,47.7002379],[-121.4225515,47.7001904],[-121.4225978,47.7001482],[-121.4226726,47.7001258],[-121.4228191,47.7001356],[-121.4229942,47.7001136],[-121.4231514,47.7000547],[-121.4233098,47.6999364],[-121.4235638,47.6997026],[-121.4239397,47.6994827],[-121.4245795,47.6993316],[-121.4249377,47.6992202],[-121.4249979,47.6991718],[-121.424973,47.6991094],[-121.4248944,47.6990295],[-121.4246539,47.6989595],[-121.4243439,47.6989167],[-121.4240858,47.6989495],[-121.4233858,47.6991616],[-121.4225558,47.6995787],[-121.422273,47.6996131],[-121.4221021,47.6995641],[-121.4221004,47.6994438],[-121.422225,47.6992129],[-121.4230577,47.6988015],[-121.4231995,47.6986851],[-121.4246611,47.6976443],[-121.4248392,47.6973774],[-121.4250117,47.6972471],[-121.4252792,47.6971805],[-121.4253941,47.6971032],[-121.4253738,47.6970486],[-121.4253062,47.6970259],[-121.4250561,47.6970441],[-121.4247317,47.6971441],[-121.4242113,47.6973898],[-121.4232583,47.6978447],[-121.4223662,47.6981494],[-121.4210888,47.6984952],[-121.4202574,47.698809],[-121.4197708,47.6990319],[-121.4195275,47.6992412],[-121.4193788,47.6995505],[-121.4191828,47.6997597],[-121.4189868,47.6998416],[-121.4187232,47.6998689],[-121.4183582,47.6998325],[-121.4181555,47.699737],[-121.4180879,47.6996551],[-121.4181082,47.6995368],[-121.4184326,47.6993276],[-121.4187638,47.6989182],[-121.4189936,47.698618],[-121.4192639,47.6984997],[-121.4197911,47.6983632],[-121.4205413,47.6981176],[-121.4209198,47.6979038],[-121.4213253,47.6975308],[-121.421839,47.6972943],[-121.4223324,47.6970168],[-121.4225284,47.6967848],[-121.4227447,47.6965073],[-121.4229001,47.6963708],[-121.4230826,47.6962662],[-121.4232651,47.6961934],[-121.4233867,47.6960933],[-121.4234273,47.6959978],[-121.4233462,47.6958977],[-121.4232313,47.6958795],[-121.4231231,47.6959114],[-121.4230218,47.6959932],[-121.422792,47.6961616],[-121.4223864,47.696389],[-121.4220489,47.696631],[-121.4218054,47.6968183],[-121.4214949,47.6969858],[-121.4211979,47.6971065],[-121.4208928,47.6972055],[-121.4206573,47.6972397],[-121.4203844,47.6973082],[-121.4201944,47.6973298],[-121.4199642,47.697301],[-121.4195976,47.6972055],[-121.4194076,47.6970903],[-121.4188541,47.6966831],[-121.4186079,47.696395],[-121.4185223,47.696186],[-121.418533,47.6960563],[-121.4186293,47.6959843],[-121.4188434,47.6959771],[-121.4191967,47.6960996],[-121.4194536,47.6961284],[-121.4196997,47.6960852],[-121.4201172,47.6958762],[-121.4206631,47.6955232],[-121.4214901,47.6950288],[-121.4217073,47.6949653],[-121.4221051,47.6948564],[-121.4223142,47.6947656],[-121.4227255,47.6945069],[-121.4228266,47.6943798],[-121.4227997,47.6943118],[-121.422685,47.6942528],[-121.4225434,47.6942391],[-121.4222265,47.6943072],[-121.4215589,47.6944525],[-121.421408,47.6943633],[-121.4214552,47.6943043],[-121.4212732,47.6942725],[-121.4211046,47.6941409],[-121.4210034,47.6939321],[-121.4210844,47.693687],[-121.4210776,47.6935191],[-121.4213406,47.6934011],[-121.4215968,47.6932422],[-121.4216508,47.6929109],[-121.4216845,47.6927112],[-121.4215699,47.6924298],[-121.4215294,47.6920984],[-121.4214889,47.6917535],[-121.4216643,47.6915447],[-121.4217722,47.6913313],[-121.4220419,47.6911861],[-121.4224734,47.6910408],[-121.4226151,47.6909364],[-121.422669,47.6906596],[-121.4226757,47.6905189],[-121.4228443,47.6903464],[-121.4233163,47.6902193],[-121.4234106,47.6901062],[-121.4234374,47.6900162],[-121.4234053,47.6899045],[-121.423424,47.6898342],[-121.4236702,47.6897333],[-121.4240315,47.6896145],[-121.424382,47.6893947],[-121.4245613,47.6892001],[-121.4246577,47.6889642],[-121.4247941,47.6887552],[-121.4249922,47.6884688],[-121.4253508,47.6882959],[-121.4255863,47.6881391],[-121.4257575,47.6879122],[-121.4258003,47.6877032],[-121.4258833,47.6875429],[-121.4260519,47.6873285],[-121.4262365,47.687188],[-121.426282,47.6869898],[-121.4264158,47.6868889],[-121.4265576,47.6868259],[-121.4266192,47.6867466],[-121.4266245,47.6866313],[-121.4265844,47.6864746],[-121.4266138,47.6863701],[-121.4266995,47.6862764],[-121.4268279,47.6861792],[-121.4269189,47.6860567],[-121.4269617,47.6858981],[-121.4270393,47.6857468],[-121.4271812,47.6856081],[-121.4273872,47.6854009],[-121.4275745,47.685309],[-121.4278368,47.6852298],[-121.4280295,47.6851595],[-121.4282195,47.6850136],[-121.4282302,47.6849181],[-121.4281713,47.6846677],[-121.4280857,47.6844317],[-121.4279117,47.6843002],[-121.4277244,47.6841597],[-121.4276842,47.6839345],[-121.4275183,47.6837489],[-121.4274086,47.6835724],[-121.4271357,47.6834373],[-121.4266968,47.6832337],[-121.426456,47.6830787],[-121.4262847,47.6828247],[-121.4262205,47.6824716],[-121.4260278,47.6821617],[-121.4257388,47.6820176],[-121.4254605,47.6817293],[-121.4252143,47.6812897],[-121.4250002,47.6812177],[-121.4249079,47.6811548],[-121.4247713,47.6811253],[-121.4246078,47.6811582],[-121.4244628,47.6811423],[-121.42454,47.680898]]}}]}
