{"type":"FeatureCollection","peaks_destination_id":"144BC5ECD52DC039FADA","peaks_trailhead_id":"DF80CDAA92247B907408","peaks_source":"https://www.openstreetmap.org/","peaks_retrieval_source":"https://overpass-api.de/api/interpreter","peaks_license_name":"Open Data Commons Open Database License (ODbL) 1.0","peaks_license":"https://opendatacommons.org/licenses/odbl/1-0/","peaks_attribution":"© OpenStreetMap contributors","peaks_retrieved_at":"2026-07-31T13:11:11.707Z","features":[{"type":"Feature","properties":{"name":"Col Nudo OSM route candidate","trailhead_name":"Località Carota Trailhead","destination_name":"Col Nudo","distance_m":8186.251524515093,"trailhead_snap_m":12.30808657694393,"summit_snap_m":1.415624628215156,"osm_way_ids":[28585003,871684740,28089203,28089204,989689841,993265316,989689840,989689842,871684739,623373360,623430575,623373327,623373333,989691647,989691646],"osm_way_urls":["https://www.openstreetmap.org/way/28585003","https://www.openstreetmap.org/way/871684740","https://www.openstreetmap.org/way/28089203","https://www.openstreetmap.org/way/28089204","https://www.openstreetmap.org/way/989689841","https://www.openstreetmap.org/way/993265316","https://www.openstreetmap.org/way/989689840","https://www.openstreetmap.org/way/989689842","https://www.openstreetmap.org/way/871684739","https://www.openstreetmap.org/way/623373360","https://www.openstreetmap.org/way/623430575","https://www.openstreetmap.org/way/623373327","https://www.openstreetmap.org/way/623373333","https://www.openstreetmap.org/way/989691647","https://www.openstreetmap.org/way/989691646"],"osm_way_names":["Località Carota"],"osm_foot_access_override_way_ids":[]},"geometry":{"type":"LineString","coordinates":[[12.352818,46.179328],[12.3527026,46.1792514],[12.3531464,46.1793787],[12.3533269,46.1794233],[12.3533704,46.1795003],[12.3534898,46.17963],[12.3535743,46.1796941],[12.3536361,46.1798013],[12.3538895,46.1801214],[12.3541847,46.1804219],[12.3544693,46.1806654],[12.3546756,46.1807837],[12.354807,46.1809745],[12.3548766,46.18116],[12.354971,46.1813483],[12.3550493,46.1814615],[12.3552323,46.1816523],[12.355404,46.1818111],[12.3555364,46.1819357],[12.3556898,46.1820219],[12.355825,46.1820594],[12.3559637,46.1820684],[12.3561832,46.1820826],[12.3564487,46.1821471],[12.35728,46.1824515],[12.3574229,46.1825285],[12.3575723,46.1826393],[12.3578172,46.1828635],[12.357977,46.1830182],[12.3581071,46.1832489],[12.3600145,46.1842674],[12.3611551,46.1849917],[12.3619572,46.1859071],[12.3621082,46.1860048],[12.3623845,46.1862799],[12.3628753,46.1864898],[12.3632935,46.1866661],[12.3635593,46.1869076],[12.3639862,46.1872199],[12.3640817,46.1872817],[12.3644066,46.1878316],[12.3654064,46.1883565],[12.366881,46.1896311],[12.3671454,46.1899417],[12.3672688,46.1900308],[12.367596,46.1902313],[12.3677221,46.1903186],[12.3678267,46.1903984],[12.3678803,46.1905563],[12.3678803,46.1908051],[12.3679286,46.1910242],[12.3686306,46.1916556],[12.3690954,46.1926043],[12.3691759,46.1927311],[12.3692536,46.1928011],[12.3693234,46.1928809],[12.3694816,46.1931743],[12.3696586,46.1935234],[12.370805,46.1947799],[12.3720297,46.1960795],[12.372998,46.1967391],[12.3731697,46.196908],[12.3732153,46.1970194],[12.3732179,46.1971271],[12.3730007,46.1976562],[12.3730114,46.1977342],[12.3730543,46.1977917],[12.3731482,46.1978307],[12.3733574,46.197892],[12.3738027,46.1979421],[12.374213,46.1978994],[12.3744625,46.1978938],[12.3747334,46.1979792],[12.375125,46.198202],[12.3752671,46.1983635],[12.3755193,46.1984527],[12.3765895,46.1987516],[12.3767424,46.1988351],[12.3770052,46.1989428],[12.3772198,46.1990003],[12.3773754,46.199056],[12.3780727,46.1994533],[12.3783383,46.1995591],[12.3786172,46.1997058],[12.3788506,46.1998228],[12.3791805,46.1999713],[12.3796901,46.200309],[12.3797589,46.2003552],[12.3800567,46.2005555],[12.3803446,46.2008874],[12.3806275,46.201177],[12.3807684,46.2013228],[12.3809521,46.2016708],[12.3811962,46.2019688],[12.3813598,46.2021025],[12.3814926,46.2023039],[12.3815878,46.2024839],[12.3816366,46.2027163],[12.3818114,46.2031036],[12.3819535,46.2037737],[12.3821582,46.2041235],[12.3821884,46.2041841],[12.3822578,46.2043054],[12.3824166,46.2044331],[12.382492,46.2046417],[12.3825585,46.204826],[12.3827478,46.2050578],[12.3829508,46.2055227],[12.3829335,46.2057714],[12.3828726,46.2059008],[12.3828276,46.2059644],[12.3828298,46.2060506],[12.3828373,46.2060823],[12.3829007,46.2063497],[12.3829624,46.2065168],[12.3829728,46.206608],[12.3829329,46.2067154],[12.3829034,46.2067897],[12.3829249,46.2068602],[12.3830955,46.2071732],[12.3829651,46.2073725],[12.3829463,46.2074319],[12.3830026,46.2075507],[12.3830608,46.2077116],[12.3831048,46.2079682],[12.383,46.208451],[12.3829691,46.2091379],[12.382839,46.2094032],[12.3828078,46.2097025],[12.3829374,46.2099197],[12.3832467,46.2099693],[12.3834586,46.2099266],[12.3835957,46.2099596],[12.3836979,46.2101026],[12.383835,46.2102011],[12.3839237,46.2103256],[12.3839961,46.2104316],[12.3841062,46.2105116],[12.3842137,46.2106157],[12.3843104,46.2107272],[12.3843963,46.2108387],[12.3846649,46.2110246],[12.3847509,46.2111361],[12.3847938,46.2112625],[12.3848583,46.2113815],[12.3849658,46.2114856],[12.3851645,46.2115025],[12.3853281,46.2115693],[12.3854354,46.2117382],[12.3855883,46.2118811],[12.3856768,46.2119238],[12.3856929,46.2119869],[12.3857841,46.2120983],[12.3859609,46.2121975],[12.3860577,46.2122523],[12.3862642,46.2123284],[12.3865136,46.2123767],[12.3867336,46.2124342],[12.3868892,46.2125047],[12.3870313,46.2125679],[12.3871576,46.2126826],[12.3873585,46.212772],[12.3874799,46.2128164],[12.3876411,46.2128908],[12.3877807,46.2129874],[12.3879862,46.2131043],[12.3880532,46.2131729],[12.388182,46.2132453],[12.3882857,46.2133517],[12.3886295,46.2134112],[12.3887318,46.2134847],[12.3889626,46.2135079],[12.3892924,46.2135478],[12.3894855,46.2135868],[12.389558,46.2136091],[12.3896304,46.2137149],[12.3896089,46.2138095],[12.3895982,46.2138615],[12.3896921,46.214036],[12.3899174,46.2142884],[12.3901534,46.2144907],[12.3902848,46.2145631],[12.3903921,46.2146689],[12.390478,46.2147542],[12.3905852,46.2148266],[12.3907247,46.2148916],[12.3908521,46.2149751],[12.3909312,46.2149974],[12.3909782,46.2150029],[12.3910224,46.2150178],[12.3910426,46.2150169],[12.391059,46.2150078],[12.3910318,46.2150586],[12.390997,46.2150827],[12.3909554,46.2151041],[12.3909024,46.2151658],[12.3907971,46.2152386],[12.3905933,46.215298],[12.3903787,46.2153426],[12.3901319,46.2153723],[12.3900568,46.2154688],[12.3896813,46.2156395],[12.3894755,46.2156901],[12.3893273,46.2156275],[12.3891677,46.2156409],[12.3890383,46.2156817],[12.3889276,46.215743],[12.3888579,46.2157411],[12.3888445,46.2158251],[12.388811,46.2158947],[12.3887942,46.2159648],[12.3887043,46.2160293],[12.3885957,46.2160478],[12.3882866,46.2162483],[12.3879761,46.2163091],[12.3878749,46.2162993],[12.3874819,46.2163448],[12.387321,46.2163002],[12.3872043,46.2162654],[12.3871017,46.2162047],[12.387028,46.2162019],[12.3868885,46.2161694],[12.3867631,46.2161592],[12.3865774,46.2161374],[12.3864117,46.2161007],[12.3863299,46.2161017],[12.3862877,46.2161049],[12.3862427,46.2161077],[12.3861958,46.2161847],[12.3861375,46.216233],[12.3860121,46.2162668],[12.3859222,46.2163267],[12.3856205,46.2163856],[12.3853248,46.2164269],[12.3851737,46.2164346],[12.3851873,46.216483],[12.3852168,46.2165434],[12.3852745,46.2166362],[12.3854689,46.2167642],[12.3855387,46.2168236],[12.3856553,46.2169108],[12.3858216,46.2170259],[12.3860027,46.2172133],[12.3861556,46.2173275],[12.3862535,46.2174843],[12.3863782,46.2175715],[12.3864815,46.2176476],[12.386625,46.217772],[12.3866558,46.2179529],[12.3868597,46.2182285],[12.3869911,46.2183853],[12.3871091,46.2185366],[12.3872405,46.2187092],[12.3873237,46.218801],[12.3875195,46.2190302],[12.3877193,46.2191991],[12.3878668,46.2192669],[12.3880559,46.2193578],[12.3882155,46.2194552],[12.3883523,46.2195267],[12.3885199,46.2196306],[12.3887077,46.219716],[12.3888351,46.2197317],[12.3892522,46.2197457],[12.3894453,46.2198616],[12.3895231,46.2200398],[12.3896062,46.2203367],[12.3896143,46.2203961],[12.3896384,46.2205371],[12.3896384,46.2206541],[12.3894078,46.2211161],[12.3893729,46.2212869],[12.389389,46.2214409],[12.3895231,46.2216079],[12.3896009,46.2217731],[12.3896196,46.2219141],[12.3897859,46.2222481],[12.3898771,46.2225655],[12.3899308,46.2227399],[12.3899227,46.2229181],[12.3899308,46.2230016],[12.389975,46.2231407],[12.389967,46.2232892],[12.3900153,46.2233885],[12.3901387,46.2235536],[12.3902741,46.2237411],[12.3904659,46.2239674],[12.3905691,46.2240834],[12.3906657,46.2241465],[12.3907167,46.2241911],[12.3907877,46.2242579],[12.3909205,46.2243107],[12.3910922,46.2243646],[12.3914368,46.2244601],[12.3917313,46.2245163],[12.3918016,46.2245297],[12.3921061,46.2245288],[12.3923394,46.2244935],[12.3925674,46.2244583],[12.3927055,46.2245093],[12.3928597,46.2245195],[12.393018,46.2245845],[12.3932111,46.2245993],[12.393415,46.2246067],[12.3936188,46.2245993],[12.3938119,46.2245993],[12.3940158,46.2246216],[12.3941982,46.2246513],[12.394402,46.2246809],[12.3945951,46.2247181],[12.3947883,46.2247478],[12.3949706,46.2247923],[12.3951852,46.2249704],[12.3954642,46.2250409],[12.3955983,46.2251115],[12.3957029,46.2252052],[12.395786,46.2252618],[12.3958571,46.2252961],[12.3960006,46.2254084],[12.3959899,46.2255568],[12.3960221,46.2257053],[12.3961723,46.2257869],[12.3962796,46.2259057],[12.3962903,46.2260133],[12.396419,46.2261729],[12.3964941,46.226299],[12.3966873,46.2265366],[12.3968053,46.2266553],[12.3969233,46.2267592],[12.3971057,46.2268334],[12.3972881,46.226878],[12.3974705,46.2269299],[12.3976421,46.2269893],[12.3978138,46.2270413],[12.3979533,46.2271303],[12.398082,46.2272342],[12.3982644,46.227301],[12.3983824,46.2274272],[12.3985085,46.2275348],[12.3986077,46.2276425],[12.3986828,46.2277037],[12.3988384,46.2277037],[12.398994,46.2277167],[12.3992622,46.2278058],[12.3994553,46.2278503],[12.3996377,46.2279097],[12.3998308,46.2279245],[12.4000454,46.2279245],[12.4002117,46.2279189],[12.400445,46.2279004],[12.400665,46.2278447],[12.4008407,46.2277826],[12.4009131,46.2278531],[12.4009412,46.2279496],[12.4010351,46.2280637],[12.4011826,46.2281694],[12.401365,46.2282214],[12.4015689,46.2282214],[12.4017727,46.228214],[12.4020624,46.228227],[12.4023145,46.2282121],[12.4025318,46.2281694],[12.4027356,46.2281397],[12.4028456,46.2281119],[12.4029261,46.2280451],[12.4029583,46.2279412],[12.4030521,46.2277724],[12.4031836,46.2275849],[12.4032997,46.2274675],[12.4033474,46.2274489],[12.4033601,46.2274373],[12.403342,46.227435]]}}]}
