{"type":"FeatureCollection","peaks_destination_id":"zMLDu2EPp1YJW83TdzcN","peaks_trailhead_id":"0JLCOALFIt6f6nzgo5v1","peaks_source":"https://www.openstreetmap.org/","peaks_retrieval_source":"https://overpass-api.de/api/interpreter","peaks_license_name":"Open Data Commons Open Database License (ODbL) 1.0","peaks_license":"https://opendatacommons.org/licenses/odbl/1-0/","peaks_attribution":"© OpenStreetMap contributors","peaks_retrieved_at":"2026-07-30T17:05:28.123Z","features":[{"type":"Feature","properties":{"name":"Del Campo Peak OSM route candidate","trailhead_name":"Barlow Pass trailhead","destination_name":"Del Campo Peak","distance_m":8761.495357735195,"trailhead_snap_m":122.64751993287153,"summit_snap_m":258.79687028232894,"osm_way_ids":[1304455445,511357416,441565897,840037164,840058699],"osm_way_urls":["https://www.openstreetmap.org/way/1304455445","https://www.openstreetmap.org/way/511357416","https://www.openstreetmap.org/way/441565897","https://www.openstreetmap.org/way/840037164","https://www.openstreetmap.org/way/840058699"],"osm_way_names":["Monte Cristo Trail","Weeden Creek Trail"],"osm_foot_access_override_way_ids":[]},"geometry":{"type":"LineString","coordinates":[[-121.443912,48.027085],[-121.4437808,48.0259855],[-121.4437717,48.0259107],[-121.4437538,48.0258062],[-121.4436718,48.0255188],[-121.4436489,48.0253125],[-121.443652,48.0250492],[-121.4436721,48.0247801],[-121.4436811,48.0243115],[-121.4436961,48.0238738],[-121.4437,48.0235097],[-121.4437079,48.0233266],[-121.443727,48.0232279],[-121.4437696,48.0231167],[-121.4439531,48.0227982],[-121.4441881,48.0224512],[-121.4442819,48.0223346],[-121.4444187,48.0221605],[-121.4445502,48.0219291],[-121.4446817,48.0215923],[-121.4447684,48.0212836],[-121.4447996,48.0210824],[-121.4447996,48.0209424],[-121.4447809,48.0207595],[-121.4446821,48.0199095],[-121.4446414,48.0195341],[-121.4446119,48.0193672],[-121.4445788,48.0192531],[-121.4445126,48.0191484],[-121.4442743,48.0188286],[-121.4442149,48.0187106],[-121.4441586,48.0186012],[-121.4441237,48.0185545],[-121.4440566,48.0185097],[-121.4439172,48.0183948],[-121.4438216,48.0182936],[-121.4437455,48.0181867],[-121.4436919,48.0180898],[-121.4436463,48.0179732],[-121.4436236,48.0178668],[-121.4436141,48.0177221],[-121.4436194,48.0175247],[-121.4436837,48.0171534],[-121.4437025,48.0169315],[-121.443767,48.0167263],[-121.4438482,48.0164908],[-121.4438903,48.0162634],[-121.4438812,48.0160893],[-121.4438474,48.0159261],[-121.4437666,48.0157547],[-121.4437315,48.0156678],[-121.4436547,48.015545],[-121.4438701,48.0154022],[-121.4439449,48.0152847],[-121.4438855,48.0151384],[-121.4435019,48.0148711],[-121.4434684,48.0147841],[-121.4435046,48.0146864],[-121.4435911,48.014602],[-121.4437811,48.014491],[-121.4438766,48.0143981],[-121.4439008,48.014308],[-121.4439725,48.0142191],[-121.4440124,48.0140745],[-121.4440566,48.0139847],[-121.4441907,48.0139273],[-121.4442712,48.0138771],[-121.4443678,48.0137946],[-121.4444536,48.01359],[-121.4444482,48.0134931],[-121.4444697,48.0133711],[-121.4445233,48.0132311],[-121.4446092,48.0131343],[-121.4447111,48.0130454],[-121.4447004,48.0128508],[-121.444761,48.0127051],[-121.4448498,48.0125886],[-121.4448086,48.012421],[-121.4448558,48.0122411],[-121.4448861,48.0121259],[-121.4448667,48.011889],[-121.4449827,48.0118314],[-121.4449839,48.0116915],[-121.4449827,48.0115815],[-121.4450181,48.0114718],[-121.4450558,48.0113246],[-121.4450381,48.0111559],[-121.4450511,48.0110017],[-121.4449139,48.0107063],[-121.4449705,48.01048],[-121.4448343,48.0100783],[-121.444793,48.0098991],[-121.4448036,48.0098219],[-121.4446628,48.0095563],[-121.4446616,48.0094117],[-121.4444471,48.0093569],[-121.4442136,48.0092305],[-121.4440365,48.0090683],[-121.4440017,48.0089265],[-121.4439676,48.008666],[-121.4440563,48.0085252],[-121.4440821,48.0082142],[-121.4441638,48.0080799],[-121.4441207,48.0079543],[-121.4440178,48.0078534],[-121.4439829,48.0077296],[-121.4438336,48.0074943],[-121.4435854,48.0072458],[-121.4434418,48.0071296],[-121.4431628,48.0069883],[-121.4431861,48.0068971],[-121.4433269,48.0067287],[-121.4433306,48.0065155],[-121.4433316,48.0064608],[-121.4434813,48.0061702],[-121.4434579,48.0058251],[-121.4432942,48.0056741],[-121.4433363,48.0054484],[-121.4431686,48.0052096],[-121.4430522,48.0048853],[-121.4428589,48.0046487],[-121.4427808,48.0043779],[-121.4427364,48.0041647],[-121.4427621,48.0039209],[-121.4427023,48.0036982],[-121.4426144,48.0033679],[-121.4423988,48.0031145],[-121.4422707,48.0029038],[-121.4422203,48.0027514],[-121.4423423,48.0024292],[-121.4424023,48.0022859],[-121.4423937,48.0020372],[-121.4423817,48.0019303],[-121.4424607,48.0017572],[-121.4424777,48.0015562],[-121.4426423,48.0013041],[-121.4428363,48.0010618],[-121.4430271,48.0009674],[-121.4430718,48.0008944],[-121.4429633,48.0007587],[-121.4432346,48.0003879],[-121.443374,48.0002515],[-121.4435564,47.9999356],[-121.4436422,47.9998889],[-121.4437442,47.9999499],[-121.4438568,48.0000684],[-121.4439547,48.0002173],[-121.4439803,48.0003442],[-121.4440671,48.0003954],[-121.4441548,48.0004161],[-121.4441535,48.0003186],[-121.444205,48.0001803],[-121.444286,47.9998673],[-121.4444536,47.999643],[-121.4446038,47.999424],[-121.4448237,47.9991835],[-121.4449887,47.9988264],[-121.4451067,47.9986039],[-121.4451397,47.9984511],[-121.44513,47.9983226],[-121.4452481,47.9983305],[-121.4453598,47.9984327],[-121.4454676,47.9985107],[-121.4455594,47.9985874],[-121.4456501,47.9986191],[-121.4457318,47.9985318],[-121.4457529,47.998411],[-121.445749,47.99815],[-121.4457293,47.9979944],[-121.4457108,47.9978133],[-121.4458014,47.9976975],[-121.4458604,47.9975234],[-121.4458792,47.9974031],[-121.4459231,47.9973299],[-121.4459239,47.9972112],[-121.4460538,47.9972095],[-121.4460584,47.9970899],[-121.4460755,47.9969816],[-121.4460146,47.9968395],[-121.4460838,47.9967589],[-121.4461989,47.9968273],[-121.4462794,47.9966119],[-121.4462383,47.9964758],[-121.4463687,47.9962831],[-121.4464724,47.9961165],[-121.4466597,47.995801],[-121.4466683,47.9959173],[-121.4467839,47.9960451],[-121.4469713,47.9959029],[-121.4470232,47.996045],[-121.4472035,47.9961754],[-121.4472396,47.9960949],[-121.4474917,47.9957816],[-121.4476418,47.9955582],[-121.447742,47.995418],[-121.4479555,47.9952224],[-121.4480655,47.9950772],[-121.4481117,47.9949068],[-121.4482078,47.9946671],[-121.4483074,47.9945272],[-121.4484674,47.9945203],[-121.4486048,47.9943746],[-121.4489154,47.994179],[-121.4490132,47.9940433],[-121.4492713,47.9938598],[-121.4496455,47.9936772],[-121.4498341,47.9936035],[-121.4499464,47.9936614],[-121.4502354,47.9934965],[-121.4504466,47.9933667],[-121.450716,47.9932968],[-121.4508534,47.9931815],[-121.4511112,47.9930782],[-121.4512277,47.9929793],[-121.4514833,47.9929177],[-121.4516941,47.9928228],[-121.451826,47.9927372],[-121.4519833,47.9926541],[-121.4520907,47.9925935],[-121.4521585,47.9925571],[-121.4522217,47.9925342],[-121.4522669,47.9925075],[-121.4523212,47.9924511],[-121.4523619,47.9923926],[-121.4523298,47.9923223],[-121.4523471,47.9922632],[-121.4523841,47.9922184],[-121.4524331,47.9921757],[-121.4524731,47.9921418],[-121.4524901,47.9921169],[-121.4525331,47.9920897],[-121.4526701,47.9920231],[-121.4527151,47.9920094],[-121.4527691,47.9919849],[-121.4528061,47.9919802],[-121.4528381,47.9919675],[-121.4528891,47.991905],[-121.4529021,47.9918742],[-121.4529401,47.9918373],[-121.4529821,47.9917897],[-121.4530001,47.991734],[-121.4530704,47.9916682],[-121.4531572,47.9916721],[-121.4532151,47.9916377],[-121.4532776,47.9916016],[-121.4533449,47.9915965],[-121.4534564,47.9916133],[-121.4535282,47.99163],[-121.4536028,47.9916241],[-121.4536791,47.9916239],[-121.4537237,47.9916291],[-121.4537422,47.9916215],[-121.4537393,47.9916014],[-121.453756,47.9915756],[-121.4537631,47.991566],[-121.45379,47.9915631],[-121.4537965,47.9915548],[-121.453786,47.9915319],[-121.4537961,47.9915133],[-121.4538176,47.9915284],[-121.4538821,47.9916003],[-121.453905,47.9916104],[-121.4539088,47.9915927],[-121.4538967,47.9915635],[-121.4538877,47.9915308],[-121.4538804,47.9914899],[-121.453818,47.9914404],[-121.4538124,47.9913765],[-121.4538154,47.9913497],[-121.4538044,47.9913168],[-121.4538309,47.9912808],[-121.4538632,47.9912703],[-121.4538847,47.9912311],[-121.4539302,47.9911822],[-121.4539507,47.9911495],[-121.4539682,47.9911066],[-121.4540089,47.9910721],[-121.4540702,47.9910482],[-121.4541464,47.9910236],[-121.4542373,47.9910252],[-121.4542728,47.9910015],[-121.4543694,47.9909976],[-121.454398,47.9909786],[-121.4544043,47.9909461],[-121.4544034,47.9909315],[-121.454377,47.9909007],[-121.454349,47.9908819],[-121.4542935,47.9908416],[-121.4542357,47.9907844],[-121.4541765,47.9907487],[-121.4541458,47.9907449],[-121.4541138,47.9907325],[-121.454081,47.9907211],[-121.454045,47.9906934],[-121.454016,47.990675],[-121.4539683,47.990673],[-121.453955,47.9906573],[-121.4539305,47.9906733],[-121.4539091,47.9906796],[-121.4538883,47.9906822],[-121.4538743,47.9906765],[-121.4538586,47.9906625],[-121.453841,47.9906455],[-121.4538375,47.9906324],[-121.4538541,47.9906203],[-121.453884,47.9906022],[-121.4539199,47.9905918],[-121.4539364,47.9905678],[-121.4539134,47.9905505],[-121.4539343,47.9905355],[-121.4539617,47.9905214],[-121.4539536,47.9905034],[-121.4539248,47.990492],[-121.453902,47.9904564],[-121.4538415,47.9904359],[-121.4537516,47.9904109],[-121.4537078,47.9903585],[-121.453681,47.9902933],[-121.4536607,47.9902391],[-121.4536127,47.9902007],[-121.4534835,47.9901603],[-121.4533379,47.9900545],[-121.4532591,47.9899646],[-121.4528842,47.9897945],[-121.4527682,47.9897102],[-121.4528386,47.9896545],[-121.4528425,47.9895917],[-121.4527823,47.989554],[-121.4523391,47.9894516],[-121.4522777,47.9893727],[-121.4522856,47.989256],[-121.4523129,47.9891411],[-121.4523871,47.9890962],[-121.4525167,47.9890819],[-121.4525834,47.9890262],[-121.452596,47.9889235],[-121.4527228,47.9887839],[-121.4529126,47.9886903],[-121.4533907,47.9882343],[-121.4538016,47.987985],[-121.4538416,47.9878917],[-121.4539833,47.9878126],[-121.4541072,47.9877014],[-121.4541696,47.9875535],[-121.4542564,47.9873785],[-121.4544079,47.987321],[-121.4544541,47.9872235],[-121.4546012,47.9869904],[-121.454743,47.9868451],[-121.4547844,47.9867729],[-121.4547929,47.9866867],[-121.4548242,47.986571],[-121.4548478,47.9865095],[-121.4548514,47.9864658],[-121.4548725,47.9864218],[-121.4548826,47.9863837],[-121.4548744,47.9863397],[-121.4548268,47.9862748],[-121.4548559,47.9862464],[-121.4548395,47.9862161],[-121.454834,47.9861908],[-121.4548451,47.9861629],[-121.4548724,47.98613],[-121.4549058,47.986085],[-121.454938,47.9860371],[-121.4549597,47.9859942],[-121.4550019,47.9859717],[-121.4550626,47.9859413],[-121.4551257,47.98588],[-121.4551802,47.9858056],[-121.4552003,47.9857828],[-121.4552178,47.9857796],[-121.4552483,47.9857932],[-121.4552861,47.9858326],[-121.4553206,47.9858571],[-121.4553324,47.9858767],[-121.4553493,47.9859117],[-121.4553552,47.9859456],[-121.4553628,47.9859709],[-121.455363,47.9859968],[-121.4553746,47.9860221],[-121.4554024,47.986044],[-121.4554478,47.9860449],[-121.4554855,47.9860495],[-121.4555085,47.9860707],[-121.4555614,47.9860739],[-121.4556033,47.9860882],[-121.4556549,47.986096],[-121.4557094,47.9860868],[-121.4557579,47.9861136],[-121.4558213,47.9861207],[-121.4558582,47.9861181],[-121.4558927,47.9861383],[-121.4559237,47.9861341],[-121.4559603,47.9861468],[-121.4560084,47.9861234],[-121.456022,47.986065],[-121.4560183,47.9859025],[-121.4559983,47.9858101],[-121.4559631,47.9857482],[-121.4559908,47.9857132],[-121.4560479,47.9857132],[-121.4561445,47.9857249],[-121.4561591,47.9856934],[-121.4561884,47.9856476],[-121.4562194,47.9855889],[-121.4562645,47.9855267],[-121.4563189,47.9854701],[-121.456355,47.9853721],[-121.4563648,47.9853078],[-121.4563856,47.9852508],[-121.4563925,47.9852035],[-121.4564122,47.9851605],[-121.456423,47.9851375],[-121.4564201,47.9851076],[-121.4563949,47.9850761],[-121.4563593,47.9850156],[-121.4563567,47.984941],[-121.4563801,47.9848803],[-121.456432,47.98482],[-121.4564603,47.9847559],[-121.4564676,47.9846918],[-121.4564914,47.9846368],[-121.4565002,47.9845848],[-121.4564731,47.9844917],[-121.4564665,47.9844152],[-121.4564802,47.98439],[-121.4565221,47.9843755],[-121.4565687,47.9843844],[-121.4565968,47.9844043],[-121.4566512,47.984433],[-121.4567195,47.9844209],[-121.4568213,47.9844208],[-121.4569123,47.9844071],[-121.4569991,47.9844247],[-121.4570601,47.9844181],[-121.4571122,47.9844225],[-121.4571715,47.9843895],[-121.4572931,47.9843658],[-121.4573657,47.9843578],[-121.4574077,47.9843973],[-121.4574162,47.9844286],[-121.4573541,47.9844763],[-121.4573253,47.9845229],[-121.4572817,47.9845529],[-121.4572473,47.9845861],[-121.4572932,47.9846391],[-121.457312,47.9846789],[-121.4573557,47.9847448],[-121.4573917,47.9847926],[-121.4574302,47.984837],[-121.4574724,47.9848774],[-121.4575179,47.9848883],[-121.4575708,47.9849398],[-121.4576102,47.9849477],[-121.4576599,47.9849366],[-121.4577204,47.9848933],[-121.4578586,47.9848443],[-121.4580632,47.984767],[-121.4583082,47.9846928],[-121.4583832,47.9846622],[-121.4584589,47.9846396],[-121.4585216,47.9846387],[-121.458593,47.9846303],[-121.45868,47.9846008],[-121.4587024,47.9845882],[-121.4587159,47.9845665],[-121.4587089,47.9845122],[-121.4586848,47.9844526],[-121.4586717,47.9844152],[-121.4586412,47.9843911],[-121.4585885,47.9843603],[-121.4584955,47.9842988],[-121.4584276,47.9842434],[-121.4584001,47.9841654],[-121.4583697,47.9841249],[-121.4583434,47.9840816],[-121.4583132,47.9840537],[-121.4582773,47.9840445],[-121.4582463,47.9840203],[-121.4581966,47.9839639],[-121.4582076,47.9839329],[-121.4582327,47.9838866],[-121.4582577,47.9838427],[-121.4582957,47.9837997],[-121.4583348,47.98378],[-121.4583768,47.9837739],[-121.4584069,47.9837924],[-121.4584195,47.9838126],[-121.458452,47.9838381],[-121.4584981,47.9838619],[-121.4585239,47.9838889],[-121.4585461,47.9839216],[-121.4585708,47.9839443],[-121.4586146,47.9839557],[-121.4586719,47.9839511],[-121.4587406,47.9839632],[-121.4587925,47.9839605],[-121.4588253,47.9839443],[-121.4588391,47.9839229],[-121.4588462,47.9838814],[-121.4588742,47.9838293],[-121.4588983,47.9838156],[-121.4589105,47.9837977],[-121.4588979,47.9837772],[-121.4588582,47.9837518],[-121.4588404,47.9837093],[-121.4588495,47.9836467],[-121.4588735,47.9836344],[-121.4588765,47.9835869],[-121.4588617,47.9835225],[-121.4588269,47.9834315],[-121.4587966,47.9833896],[-121.4587705,47.9833412],[-121.4587756,47.9832937],[-121.4587664,47.9832462],[-121.4587209,47.9831826],[-121.4587127,47.9831363],[-121.4587205,47.9830842],[-121.4587014,47.9830135],[-121.458702,47.9829642],[-121.4587557,47.9829377],[-121.4587898,47.9829076],[-121.4588271,47.9828532],[-121.4588468,47.9828005],[-121.4588572,47.9827653],[-121.458912,47.982721],[-121.4589659,47.9827101],[-121.4590567,47.9827108],[-121.4591401,47.9826973],[-121.4592543,47.9827085],[-121.4593466,47.982706],[-121.459389,47.9826868],[-121.4594311,47.9826583],[-121.4594704,47.9826168],[-121.4594802,47.982546],[-121.4594692,47.9824804],[-121.4594303,47.9824401],[-121.4593828,47.9823998],[-121.4593084,47.9823463],[-121.4592819,47.9822788],[-121.4592926,47.9822134],[-121.4593247,47.9821799],[-121.4593397,47.9821398],[-121.4593426,47.9820806],[-121.4593463,47.9820052],[-121.4593562,47.9819059],[-121.4593748,47.9818548],[-121.459374,47.9817889],[-121.4593425,47.9817403],[-121.4592978,47.9816992],[-121.4592692,47.9816468],[-121.4592535,47.9815891],[-121.4592116,47.9815549],[-121.4591576,47.9815458],[-121.4590967,47.9815196],[-121.4590749,47.9814803],[-121.4590721,47.9814152],[-121.4590715,47.981349],[-121.4590549,47.9813001],[-121.4590659,47.9812611],[-121.4590609,47.9812142],[-121.4590194,47.9811542],[-121.4589671,47.9811234],[-121.4589361,47.9810532],[-121.4589534,47.9809969],[-121.45894,47.9809401],[-121.4589756,47.9808963],[-121.4590271,47.9808743],[-121.4590707,47.980843],[-121.4591046,47.9807885],[-121.4591368,47.980726],[-121.4591999,47.9806539],[-121.4593124,47.9805972],[-121.4594345,47.9805445],[-121.459453,47.9805366],[-121.4595806,47.9804951],[-121.4596876,47.9804451],[-121.4598139,47.9803815],[-121.4602867,47.9803003],[-121.4604936,47.9803079],[-121.4605841,47.9802896],[-121.4606714,47.9803276],[-121.4607584,47.9804144],[-121.4608201,47.9804539],[-121.4608713,47.9805187],[-121.4610286,47.980531],[-121.461141,47.9805823],[-121.4612624,47.9806265],[-121.4614069,47.9806349],[-121.4614783,47.9806576],[-121.4615729,47.9807114],[-121.4616728,47.9807221],[-121.461771,47.9807329],[-121.4619031,47.9807508],[-121.4620173,47.9807735],[-121.4620887,47.9807603],[-121.4621654,47.9807532],[-121.4622047,47.9807472],[-121.4622172,47.9807568],[-121.4622225,47.9807747],[-121.4622707,47.9807938],[-121.4623475,47.9808093],[-121.4623028,47.9808296],[-121.462351,47.9808428],[-121.4624064,47.9808404],[-121.4624938,47.9808655],[-121.4625366,47.9808643],[-121.4625598,47.9808894],[-121.462567,47.9809372],[-121.4625955,47.980967],[-121.4626402,47.9809742],[-121.4627312,47.9809634],[-121.4627829,47.9809849],[-121.4628275,47.9810279],[-121.4629221,47.9810447],[-121.4630203,47.9810471],[-121.4632152,47.981021],[-121.4633366,47.9810258],[-121.463458,47.9810147],[-121.4635499,47.9810201],[-121.4636674,47.9809987],[-121.4637294,47.9810182],[-121.4637989,47.9810057],[-121.4638768,47.9810194],[-121.4640519,47.9810052],[-121.464134,47.9810148],[-121.4641804,47.9810662],[-121.464225,47.9811319],[-121.4642758,47.9811858],[-121.4643512,47.981245],[-121.4643643,47.9813013],[-121.4643807,47.9813452],[-121.4643731,47.9813789],[-121.4643862,47.9814088],[-121.4644266,47.9814242],[-121.4644769,47.9814315],[-121.4645369,47.981463],[-121.464549,47.9815156],[-121.4646123,47.9815844],[-121.4646298,47.981656],[-121.4646822,47.9817006],[-121.4647072,47.9817312],[-121.464746,47.9818039],[-121.4648178,47.9818382],[-121.4648679,47.9818878],[-121.464905,47.9819519],[-121.4649706,47.9819713],[-121.465017,47.9820306],[-121.465048,47.9820759],[-121.4651198,47.9821571],[-121.4652084,47.9822763],[-121.4652895,47.982312],[-121.4653699,47.9823539],[-121.4654033,47.9823651],[-121.4655134,47.9824097],[-121.4655781,47.9824451],[-121.4656312,47.9825611],[-121.4656934,47.982692],[-121.4657477,47.9828003],[-121.4657331,47.9828355],[-121.4657331,47.9828557],[-121.465689,47.9828744],[-121.465682,47.9829039],[-121.4656728,47.9829397],[-121.4656167,47.9829795],[-121.4655801,47.9830108],[-121.4655412,47.9830614],[-121.4654665,47.9831146],[-121.4653954,47.983142],[-121.465411,47.9831676],[-121.4653858,47.9831829],[-121.4653459,47.9831711],[-121.4652921,47.9831918],[-121.4652475,47.9832272],[-121.4652634,47.9832828],[-121.4652351,47.9833277],[-121.4650817,47.9833966],[-121.4650769,47.9834344],[-121.4650452,47.9834431],[-121.4650238,47.9834747],[-121.4650465,47.9835152],[-121.4650759,47.9835544],[-121.465074,47.9836232],[-121.4650429,47.9836759],[-121.4649879,47.9837017],[-121.4649934,47.9837361],[-121.4650172,47.9837692],[-121.4650539,47.9837827],[-121.4650722,47.9838318],[-121.4650649,47.9838711],[-121.4650227,47.9838981],[-121.4650044,47.9839361],[-121.4649677,47.9840245],[-121.4649585,47.9841362],[-121.4650245,47.9842331],[-121.465107,47.9842798],[-121.465184,47.9843289],[-121.4652097,47.9843976],[-121.4652446,47.984443],[-121.4652482,47.9844786],[-121.4652079,47.9845105],[-121.4651987,47.9845498],[-121.4652207,47.9846013],[-121.4652537,47.9846357],[-121.4652446,47.984659],[-121.4652519,47.9846958],[-121.4652977,47.9847216],[-121.4653509,47.9847498],[-121.4654444,47.9848014],[-121.4654848,47.9848247],[-121.4654884,47.9848566],[-121.4654976,47.9848848],[-121.4653898,47.9848802],[-121.4652925,47.9848854],[-121.4652005,47.9848816],[-121.4650591,47.9848624],[-121.4649492,47.9848178],[-121.4648545,47.9848053],[-121.4647259,47.9847901],[-121.4646069,47.9848055],[-121.4645672,47.9848323],[-121.4646375,47.9848808],[-121.4646285,47.9849127],[-121.4645581,47.984934],[-121.4645377,47.9849659],[-121.4646149,47.9849978],[-121.4646897,47.9850327],[-121.4647419,47.9850691],[-121.4648462,47.9851465],[-121.4648644,47.9852331],[-121.4649166,47.9852741],[-121.4650617,47.9853211],[-121.4651389,47.9853652],[-121.4652455,47.9854259],[-121.4652795,47.9854244],[-121.4653453,47.9854639],[-121.4653634,47.9854927],[-121.465436,47.9855322],[-121.4655109,47.985555],[-121.4655676,47.9856081],[-121.4655857,47.9856461],[-121.465563,47.9856688],[-121.4655267,47.9856916],[-121.4655199,47.9857341],[-121.4655086,47.9857539],[-121.4655767,47.9858161],[-121.4656243,47.9858343],[-121.4657082,47.9858784],[-121.4657445,47.9859133],[-121.4657649,47.9859573],[-121.4657808,47.9859786],[-121.4657763,47.986012],[-121.4658239,47.9860408],[-121.4659237,47.9860788],[-121.4659555,47.9861228],[-121.465985,47.9861592],[-121.4659464,47.9861972],[-121.4659351,47.9862382],[-121.465892,47.9862868],[-121.4658965,47.9863126],[-121.4659373,47.9863323],[-121.4659691,47.9863718],[-121.4659986,47.986431],[-121.4660349,47.9864568],[-121.4660916,47.9864644],[-121.4661316,47.9864898],[-121.4662158,47.986508],[-121.4662775,47.9865029],[-121.4663512,47.986517],[-121.4664565,47.9865331],[-121.4664791,47.9865583],[-121.4665347,47.9865673],[-121.4665648,47.9865875],[-121.4665422,47.9866197],[-121.4665633,47.986667],[-121.466631,47.9866932],[-121.4667333,47.9867053],[-121.4667663,47.9867486],[-121.4668325,47.986809],[-121.4669465,47.9868944],[-121.4669947,47.9869574],[-121.4670494,47.9870057],[-121.4671063,47.9870409],[-121.4671566,47.9870335],[-121.4672989,47.9870687],[-121.4673426,47.9870526],[-121.4673754,47.9870658],[-121.4673995,47.9870921],[-121.4674914,47.9871141],[-121.4675286,47.9871478],[-121.4676052,47.9871741],[-121.4676949,47.9871785],[-121.4678197,47.9872093],[-121.4680013,47.9872606],[-121.4680232,47.9873074],[-121.468021,47.9873484],[-121.4680298,47.9873821],[-121.4681282,47.9873851],[-121.4681479,47.9874041],[-121.4681217,47.9874451],[-121.4681326,47.9874759],[-121.4681654,47.9875066],[-121.4681961,47.9875095],[-121.4683011,47.9875183],[-121.4683361,47.987552],[-121.4683164,47.9876033],[-121.4683317,47.9876516],[-121.4683492,47.987697],[-121.4683711,47.9877497],[-121.4684083,47.9877732],[-121.4685112,47.9878157],[-121.4686009,47.9878391],[-121.4686797,47.9878698],[-121.4687803,47.9878947],[-121.4687847,47.9879372],[-121.4688175,47.9879768],[-121.468881,47.9880119],[-121.4689598,47.9880485],[-121.4690364,47.9880969],[-121.4690495,47.9881408],[-121.4690823,47.9881657],[-121.4691327,47.9881701],[-121.4691524,47.9881935],[-121.4691349,47.9882214],[-121.469148,47.9882536],[-121.4691327,47.9882814],[-121.4691852,47.9883268],[-121.4692815,47.9883825],[-121.4693209,47.9884191],[-121.4693953,47.9884542],[-121.4694565,47.9884542],[-121.4695178,47.9884747],[-121.4695681,47.9885187],[-121.470582,47.990745]]}}]}
