{"type":"FeatureCollection","peaks_destination_id":"jyDEGmHGvJLIvaiTJVaA","peaks_trailhead_id":"4E0B25216C65FCDD5727","peaks_source":"https://www.openstreetmap.org/","peaks_retrieval_source":"https://api.openstreetmap.org/api/0.6","peaks_license_name":"Open Data Commons Open Database License (ODbL) 1.0","peaks_license":"https://opendatacommons.org/licenses/odbl/1-0/","peaks_attribution":"© OpenStreetMap contributors","peaks_retrieved_at":"2026-07-31T06:44:00.504Z","features":[{"type":"Feature","properties":{"name":"Deseret Peak OSM route candidate","trailhead_name":"Mill Fork Trailhead","destination_name":"Deseret Peak","distance_m":6293.338538848071,"trailhead_snap_m":26.728055204196338,"summit_snap_m":2.3267673120925965,"osm_way_ids":[457582877,457582875],"osm_way_urls":["https://www.openstreetmap.org/way/457582877","https://www.openstreetmap.org/way/457582875"],"osm_way_names":["Mill Fork Canyon Trail","Stansbury Crest Trail"],"osm_foot_access_override_way_ids":[]},"geometry":{"type":"LineString","coordinates":[[-112.6067787,40.4832322],[-112.6067135,40.482997],[-112.6067385,40.4829785],[-112.6069129,40.4827888],[-112.6070524,40.4825896],[-112.6071919,40.4823162],[-112.6073287,40.4821816],[-112.6074547,40.4820339],[-112.607518,40.4818398],[-112.6075287,40.4816745],[-112.6076252,40.4815623],[-112.6079525,40.4814093],[-112.6082013,40.4813148],[-112.6083163,40.4813084],[-112.608448,40.4812687],[-112.6086868,40.4811076],[-112.6088029,40.4810602],[-112.6088665,40.4810342],[-112.6090251,40.4809728],[-112.609164,40.4809137],[-112.609394,40.4809019],[-112.6095928,40.4808959],[-112.6097698,40.4808775],[-112.6099254,40.4808306],[-112.6101078,40.4807326],[-112.6103491,40.4807001],[-112.6105735,40.4806316],[-112.6106802,40.4804891],[-112.6108787,40.4802484],[-112.6109752,40.4800771],[-112.6110866,40.4798576],[-112.6111376,40.4796393],[-112.6111085,40.4794691],[-112.6110911,40.4793178],[-112.6111293,40.4791429],[-112.6112703,40.4789031],[-112.6113133,40.4786562],[-112.6113723,40.4785766],[-112.6114689,40.4784849],[-112.6116244,40.4785215],[-112.6118578,40.4786175],[-112.6120804,40.4786807],[-112.6121904,40.478797],[-112.6122976,40.4789194],[-112.6123352,40.4788113],[-112.6124586,40.4787296],[-112.6125498,40.478597],[-112.612641,40.4784971],[-112.612708,40.4784134],[-112.6127832,40.4782502],[-112.6128502,40.478138],[-112.6129602,40.4780482],[-112.613046,40.477938],[-112.6131345,40.4777891],[-112.6132526,40.4776891],[-112.6133433,40.4775822],[-112.6133938,40.4774422],[-112.6134215,40.477301],[-112.6135387,40.477192],[-112.6136477,40.4771016],[-112.6136486,40.4770757],[-112.6135777,40.4770235],[-112.6134459,40.4770149],[-112.6133803,40.4769743],[-112.6133059,40.4769282],[-112.6132509,40.4767866],[-112.6131249,40.4767009],[-112.6128513,40.4766764],[-112.6125187,40.476707],[-112.6120171,40.4766172],[-112.6119447,40.4765417],[-112.611765,40.4764887],[-112.6115397,40.4764764],[-112.6112741,40.4763826],[-112.6110864,40.4763214],[-112.6109496,40.4762112],[-112.6108772,40.476101],[-112.6108852,40.4759827],[-112.6107994,40.4758603],[-112.6105419,40.4757623],[-112.6104534,40.4757603],[-112.6103755,40.4757905],[-112.6103166,40.4758133],[-112.6102039,40.4758297],[-112.6100993,40.475899],[-112.6100457,40.4759011],[-112.6100135,40.4758623],[-112.6100671,40.475695],[-112.6100242,40.4754359],[-112.6100242,40.4752584],[-112.6100537,40.4751523],[-112.6100269,40.4750544],[-112.6099545,40.4749401],[-112.6096728,40.4748095],[-112.6092598,40.474734],[-112.609072,40.4746789],[-112.6088709,40.4746789],[-112.6087663,40.4746973],[-112.6084551,40.4746769],[-112.6082459,40.4747197],[-112.6081225,40.4747707],[-112.6080447,40.4748564],[-112.6079831,40.4748687],[-112.6079884,40.4747993],[-112.6079777,40.4747442],[-112.6080251,40.4746467],[-112.6080655,40.474581],[-112.6080573,40.4744435],[-112.6080443,40.4743023],[-112.6079354,40.4739836],[-112.6078603,40.4737858],[-112.6078248,40.4735996],[-112.6076975,40.473413],[-112.6077545,40.4732668],[-112.6078489,40.4732099],[-112.6079433,40.4730748],[-112.6081892,40.472993],[-112.6082316,40.4729199],[-112.6082251,40.4727407],[-112.6083025,40.47264],[-112.6082755,40.4721284],[-112.6082652,40.471835],[-112.6082251,40.4716924],[-112.6081306,40.4715623],[-112.6080458,40.4714882],[-112.6080007,40.471392],[-112.6080085,40.4712525],[-112.6080023,40.4711182],[-112.6080117,40.4710185],[-112.608085,40.470876],[-112.6081114,40.4708116],[-112.6081721,40.4707499],[-112.608212,40.4706543],[-112.6082218,40.4705143],[-112.6082558,40.4704116],[-112.6083642,40.4703025],[-112.6083906,40.470187],[-112.6084203,40.4698697],[-112.6085164,40.4696963],[-112.6086575,40.4695291],[-112.608781,40.4692923],[-112.6088878,40.4691579],[-112.6089383,40.4690414],[-112.6090441,40.4689225],[-112.6090685,40.4688333],[-112.6092829,40.4686355],[-112.6093698,40.4684765],[-112.6094414,40.4683192],[-112.6093796,40.4680764],[-112.6094121,40.4679841],[-112.6094154,40.4679748],[-112.6094556,40.4679628],[-112.6095039,40.4679618],[-112.6095924,40.4680067],[-112.6097017,40.4680036],[-112.6097912,40.4679079],[-112.6099039,40.4678571],[-112.6101677,40.467929],[-112.6104299,40.4680479],[-112.6105504,40.468142],[-112.6105894,40.4682548],[-112.6106627,40.4682981],[-112.6106904,40.4682709],[-112.6106692,40.468235],[-112.6106839,40.468142],[-112.6108272,40.4677295],[-112.610933,40.4673814],[-112.6109688,40.4672575],[-112.6109409,40.4670988],[-112.6108874,40.4669441],[-112.6108011,40.4668363],[-112.6108321,40.4667744],[-112.6108093,40.4667174],[-112.6107962,40.4666183],[-112.6108679,40.4665378],[-112.6107865,40.4663916],[-112.6108239,40.466342],[-112.6109021,40.4663197],[-112.6110845,40.4663606],[-112.6113075,40.4664139],[-112.6114362,40.4664696],[-112.6115339,40.4665811],[-112.6116283,40.4666431],[-112.6117358,40.4667199],[-112.6117619,40.4667075],[-112.6117456,40.4665192],[-112.6118205,40.4663743],[-112.6118726,40.4662256],[-112.6118563,40.466155],[-112.6117765,40.4660633],[-112.6116357,40.4660006],[-112.6116416,40.4659682],[-112.6116937,40.4659575],[-112.6118058,40.4659989],[-112.6118986,40.4660175],[-112.6120191,40.4660831],[-112.6121559,40.4661166],[-112.6122439,40.4662293],[-112.6123106,40.4663358],[-112.6123416,40.4663346],[-112.6123416,40.4662813],[-112.6123334,40.4661587],[-112.612366,40.4660522],[-112.6123676,40.4659927],[-112.6122911,40.4658775],[-112.612296,40.4657796],[-112.6122585,40.4656966],[-112.6121934,40.4655913],[-112.6121592,40.4655133],[-112.6121738,40.4654798],[-112.6122569,40.4655405],[-112.6123644,40.4655913],[-112.6124669,40.4656446],[-112.6125581,40.4657214],[-112.6125826,40.4657214],[-112.6126021,40.4657016],[-112.612576,40.4656508],[-112.6125337,40.4655517],[-112.6125076,40.4653956],[-112.612493,40.4651454],[-112.6125442,40.4650489],[-112.6125598,40.4649706],[-112.6125522,40.4649213],[-112.6124972,40.4648611],[-112.6125187,40.4648193],[-112.6125673,40.4647925],[-112.6127138,40.4648361],[-112.6127936,40.464794],[-112.6128376,40.464649],[-112.6127659,40.4645487],[-112.6127073,40.4644743],[-112.6127118,40.4643561],[-112.6127563,40.4642688],[-112.6128799,40.4641126],[-112.6129499,40.4639243],[-112.6130786,40.463736],[-112.613122,40.4635747],[-112.6133067,40.4633947],[-112.6133689,40.4632776],[-112.6133528,40.4631939],[-112.6133756,40.4630432],[-112.6133672,40.4629429],[-112.6132799,40.4628388],[-112.6132107,40.4627562],[-112.6131825,40.462599],[-112.6131114,40.4625194],[-112.6130632,40.4624164],[-112.6130526,40.4623134],[-112.6128816,40.4622304],[-112.6127642,40.4620162],[-112.6126524,40.4618647],[-112.6125822,40.4616769],[-112.6125938,40.4615981],[-112.6125152,40.4615031],[-112.6125053,40.4614522],[-112.6125816,40.4613609],[-112.6125978,40.4612685],[-112.6126687,40.4611876],[-112.6128422,40.4611639],[-112.6129885,40.461118],[-112.6130677,40.4610496],[-112.6131253,40.4610271],[-112.6131624,40.460992],[-112.6131508,40.4608006],[-112.6131133,40.4606272],[-112.6130864,40.4604476],[-112.6131052,40.4602496],[-112.6130998,40.4601864],[-112.6130382,40.4601476],[-112.6130302,40.4600843],[-112.6130798,40.4600129],[-112.6131495,40.4599966],[-112.6131852,40.4599093],[-112.6131879,40.4598665],[-112.6132165,40.4598558],[-112.613377,40.4598604],[-112.6135398,40.4598404],[-112.6137409,40.4598945],[-112.6139751,40.4599379],[-112.6142089,40.4599191],[-112.6146636,40.4599639],[-112.6148888,40.4599027],[-112.614938,40.4598114],[-112.6148227,40.4596726],[-112.6147383,40.4594425],[-112.6147076,40.4593099],[-112.614651,40.4592094],[-112.6146434,40.4591121],[-112.6145913,40.4589287],[-112.6145196,40.4588216],[-112.614487,40.4587292],[-112.6144552,40.4586889],[-112.6144514,40.4586532],[-112.6143995,40.4586031],[-112.6144512,40.4585675],[-112.6145668,40.4585385],[-112.6147085,40.4585644],[-112.6147744,40.4586058],[-112.6148958,40.4586588],[-112.6151077,40.4587392],[-112.6151855,40.4587864],[-112.6152162,40.4587841],[-112.6152075,40.4587437],[-112.6151029,40.4584274],[-112.6149956,40.4582866],[-112.6148267,40.4581499],[-112.6145853,40.4580764],[-112.6145745,40.458058],[-112.6148615,40.4579805],[-112.6150332,40.4579611],[-112.6152129,40.4579897],[-112.6152397,40.4579662],[-112.6151821,40.4578961],[-112.6150738,40.4578367],[-112.6149305,40.4577324],[-112.6151747,40.4577323],[-112.6151959,40.4577153],[-112.6150917,40.4576447],[-112.6149191,40.4576249],[-112.6147563,40.4575989],[-112.6146146,40.4575505],[-112.614499,40.4575543],[-112.6144778,40.4575381],[-112.6146043,40.4574741],[-112.6144686,40.4574502],[-112.614415,40.4574297],[-112.6143883,40.4573995],[-112.6144861,40.457342],[-112.6145619,40.457279],[-112.6146255,40.4572195],[-112.6146776,40.4571903],[-112.614706,40.4571481],[-112.6146768,40.4570902],[-112.6146719,40.4570592],[-112.6150064,40.4569287],[-112.6150986,40.4569055],[-112.6151888,40.4568644],[-112.6153422,40.456813],[-112.6154904,40.4568551],[-112.6156304,40.4568712],[-112.6160054,40.4568363],[-112.6161676,40.4568002],[-112.6162684,40.4568083],[-112.6163235,40.4568436],[-112.616436,40.4568848],[-112.6165097,40.4569337],[-112.6165675,40.4570083],[-112.6165795,40.4570602],[-112.6166452,40.4571022],[-112.6167069,40.4571012],[-112.6167592,40.4571165],[-112.6168075,40.4571134],[-112.6168908,40.4571228],[-112.6170182,40.4570442],[-112.6170932,40.4570491],[-112.6171336,40.4570993],[-112.6171938,40.4571593],[-112.6172608,40.457241],[-112.6173092,40.4573677],[-112.6173736,40.4574024],[-112.6174995,40.4573185],[-112.6176338,40.4572615],[-112.6176846,40.4573032],[-112.6177302,40.4573665],[-112.6177626,40.4573821],[-112.6179531,40.4573006],[-112.6180872,40.4571495],[-112.6183205,40.4569373],[-112.6184579,40.4566948],[-112.6186016,40.4564291],[-112.6187303,40.4560393],[-112.6187994,40.4557846],[-112.6188499,40.4557387],[-112.6190176,40.4557499],[-112.6192252,40.4557607],[-112.6193743,40.4557865],[-112.6195843,40.4558857],[-112.6199216,40.4560134],[-112.6204249,40.4561237],[-112.6208487,40.4562972],[-112.6212349,40.4564503],[-112.6214103,40.4565074],[-112.6216415,40.4565569],[-112.6218499,40.4566201],[-112.6222025,40.4566369],[-112.6223206,40.4566634],[-112.6225421,40.4566685],[-112.6227406,40.4566909],[-112.6227915,40.4567114],[-112.6227218,40.4567379],[-112.6226923,40.4567807],[-112.6227674,40.4568012],[-112.6230007,40.4567991],[-112.6231778,40.4568216],[-112.6232609,40.4568746],[-112.6232287,40.4569052],[-112.623159,40.4569359],[-112.6230893,40.4569624],[-112.6231134,40.4569889],[-112.6232743,40.4570399],[-112.6234406,40.4571379],[-112.6235104,40.4572257],[-112.6234809,40.4572461],[-112.623395,40.4572481],[-112.6232582,40.4572399],[-112.6232126,40.4572665],[-112.6232314,40.4572971],[-112.6233628,40.4573604],[-112.6235077,40.4574624],[-112.6236472,40.4575991],[-112.6237598,40.4577318],[-112.6238108,40.4579195],[-112.6239797,40.4580787],[-112.6240307,40.4581787],[-112.6242265,40.4583277],[-112.6244625,40.4585481],[-112.6247442,40.4586828],[-112.6248837,40.4587359],[-112.625066,40.4588196],[-112.6251733,40.458942],[-112.6254845,40.4590604],[-112.6256079,40.4591277],[-112.6259244,40.4592604],[-112.6261357,40.4592985],[-112.6262409,40.4593175],[-112.6263884,40.4593563],[-112.6264313,40.4594236],[-112.6264132,40.4594798],[-112.626393,40.459494]]}}]}
