{"type":"FeatureCollection","peaks_destination_id":"5BEF4058E29D86131779","peaks_trailhead_id":"D4B4A310CC2A021EDFB0","peaks_source":"https://www.openstreetmap.org/","peaks_retrieval_source":"https://api.openstreetmap.org/api/0.6","peaks_license_name":"Open Data Commons Open Database License (ODbL) 1.0","peaks_license":"https://opendatacommons.org/licenses/odbl/1-0/","peaks_attribution":"© OpenStreetMap contributors","peaks_retrieved_at":"2026-07-31T11:39:50.042Z","features":[{"type":"Feature","properties":{"name":"Đinh Núi Phan Xi Phăng OSM route candidate","trailhead_name":"Tram Ton Pass Trailhead","destination_name":"Đinh Núi Phan Xi Phăng","distance_m":8682.827240377,"trailhead_snap_m":3.8166599954707023,"summit_snap_m":5.827594833122675,"osm_way_ids":[235934528,192215815,1418993028,1158514763,1158514764,762156701,717891038,718039415,585132216,718039414,718039412,910659399,718039384,718039387,718039390,718039389,1158514768,1158514767,718039386,718039373,718039374],"osm_way_urls":["https://www.openstreetmap.org/way/235934528","https://www.openstreetmap.org/way/192215815","https://www.openstreetmap.org/way/1418993028","https://www.openstreetmap.org/way/1158514763","https://www.openstreetmap.org/way/1158514764","https://www.openstreetmap.org/way/762156701","https://www.openstreetmap.org/way/717891038","https://www.openstreetmap.org/way/718039415","https://www.openstreetmap.org/way/585132216","https://www.openstreetmap.org/way/718039414","https://www.openstreetmap.org/way/718039412","https://www.openstreetmap.org/way/910659399","https://www.openstreetmap.org/way/718039384","https://www.openstreetmap.org/way/718039387","https://www.openstreetmap.org/way/718039390","https://www.openstreetmap.org/way/718039389","https://www.openstreetmap.org/way/1158514768","https://www.openstreetmap.org/way/1158514767","https://www.openstreetmap.org/way/718039386","https://www.openstreetmap.org/way/718039373","https://www.openstreetmap.org/way/718039374"],"osm_way_names":["Đường mòn Trạm Tôn"],"osm_foot_access_override_way_ids":[]},"geometry":{"type":"LineString","coordinates":[[103.774827,22.352987],[103.7748641,22.3529879],[103.774715,22.3527059],[103.7747362,22.3520777],[103.7747277,22.3519462],[103.7747921,22.3514699],[103.7746633,22.3510134],[103.7745775,22.3506165],[103.7744058,22.3503585],[103.7743629,22.3500211],[103.7742342,22.349783],[103.7742556,22.3495647],[103.7743844,22.3491479],[103.7744058,22.3487312],[103.7741483,22.3482747],[103.7738265,22.3477785],[103.7735475,22.347461],[103.7739981,22.3469053],[103.7744273,22.3465679],[103.7745131,22.3461313],[103.7747921,22.3458535],[103.7751139,22.3456749],[103.7751783,22.3450398],[103.7753285,22.3446627],[103.7753285,22.3439879],[103.7752427,22.3438291],[103.7752641,22.343591],[103.7754358,22.3433131],[103.7758435,22.3428963],[103.7761225,22.3426979],[103.7762727,22.3420628],[103.7764229,22.341646],[103.7761439,22.3413086],[103.7760581,22.34113],[103.7761868,22.3406338],[103.7761439,22.3403361],[103.7759937,22.3399193],[103.7758864,22.3392445],[103.7763521,22.338783],[103.776616,22.3383315],[103.7767876,22.338272],[103.7770237,22.3384109],[103.7771524,22.3382918],[103.7774743,22.3381132],[103.7777532,22.3380536],[103.7780536,22.3381529],[103.7784399,22.3381132],[103.7785472,22.3378155],[103.7789334,22.3376368],[103.7792982,22.3374979],[103.7794055,22.337101],[103.779663,22.3365849],[103.7795557,22.3358307],[103.7794913,22.3354139],[103.7793626,22.3351162],[103.7789978,22.3347589],[103.7788374,22.3345887],[103.778926,22.334313],[103.7791327,22.3342159],[103.7794225,22.3342453],[103.7795102,22.3343397],[103.7795517,22.3343544],[103.7796483,22.334359],[103.7798132,22.3341238],[103.7798561,22.3338856],[103.7795342,22.3332306],[103.779148,22.332655],[103.7790622,22.3322382],[103.7791158,22.3317817],[103.7791909,22.3314641],[103.7796415,22.3310275],[103.7800063,22.3308091],[103.7803067,22.3304717],[103.78065,22.3302534],[103.7812562,22.3302177],[103.7814869,22.3299358],[103.7814633,22.3296083],[103.7814225,22.3293602],[103.7816015,22.3289811],[103.78168,22.3285464],[103.7817109,22.3284232],[103.7817804,22.3283314],[103.7815218,22.3280567],[103.7815218,22.3276962],[103.7812723,22.3273356],[103.7808646,22.3268592],[103.780414,22.3267401],[103.7798519,22.3262202],[103.7796758,22.3263849],[103.7791694,22.326105],[103.778633,22.3259859],[103.7780322,22.3260653],[103.7774314,22.3260454],[103.776852,22.3263233],[103.776754,22.3264917],[103.7767763,22.3266105],[103.7766159,22.326833],[103.7765116,22.3269294],[103.7763593,22.3269813],[103.7760866,22.3269368],[103.7759102,22.3268849],[103.7754451,22.3269146],[103.774972,22.3270333],[103.774539,22.3269517],[103.7740979,22.3268404],[103.7738173,22.3266772],[103.7735607,22.3266253],[103.773288,22.3265289],[103.7729272,22.3266179],[103.7726866,22.3265882],[103.7726064,22.3264621],[103.7727026,22.326336],[103.7727107,22.3262042],[103.7725095,22.3258321],[103.7724425,22.3252217],[103.7725873,22.3248778],[103.7723888,22.3247974],[103.7718953,22.3243979],[103.7717022,22.3241399],[103.7713642,22.3241607],[103.7713889,22.3236476],[103.7711389,22.3231673],[103.7708439,22.3226512],[103.7708085,22.3223366],[103.7709297,22.3217381],[103.7709512,22.3213014],[103.7708653,22.3209243],[103.7707173,22.3206732],[103.7700714,22.3202692],[103.7699224,22.3200064],[103.7696873,22.3200648],[103.7694942,22.3197134],[103.768977,22.3197333],[103.7685608,22.3194117],[103.768226,22.3192172],[103.7675608,22.3189393],[103.7672336,22.3183983],[103.7671317,22.3178872],[103.7670029,22.3174902],[103.7668463,22.3171875],[103.7665916,22.3167225],[103.7664665,22.3163786],[103.7661446,22.3161007],[103.7658228,22.3156639],[103.7658013,22.3155051],[103.7659944,22.315386],[103.7660614,22.315287],[103.7660165,22.315211],[103.7659333,22.3151414],[103.7657733,22.3150311],[103.7656516,22.3149241],[103.7656926,22.3147805],[103.765581,22.3145157],[103.765514,22.314344],[103.765436,22.3137814],[103.7655849,22.3136984],[103.7654306,22.3134315],[103.7652781,22.3132845],[103.7653916,22.3130488],[103.7658871,22.3127062],[103.7662841,22.3126764],[103.7665958,22.3125849],[103.7667025,22.3121702],[103.7668957,22.3121106],[103.7674106,22.3119915],[103.7676252,22.3119121],[103.767754,22.3116938],[103.7680758,22.3115945],[103.7682475,22.3112372],[103.7684191,22.3109791],[103.7689341,22.3106416],[103.7690414,22.3103637],[103.7692775,22.3100858],[103.7698379,22.3100123],[103.770522,22.310066],[103.7710981,22.310056],[103.7717075,22.3101076],[103.7719382,22.3099866],[103.7723244,22.3094903],[103.7727536,22.3088153],[103.7730111,22.3086366],[103.7729853,22.308452],[103.7732349,22.3081901],[103.7735215,22.3079644],[103.7739338,22.3079418],[103.7743168,22.3078307],[103.7744833,22.3077045],[103.7747029,22.3077984],[103.7749077,22.3075685],[103.7750925,22.3074455],[103.7755088,22.3071527],[103.7757056,22.3070644],[103.7758011,22.3067827],[103.7758326,22.3065444],[103.7759687,22.3064414],[103.7759943,22.3062809],[103.7760186,22.3060178],[103.7758846,22.3060142],[103.775663,22.3061894],[103.7755472,22.3063358],[103.7753841,22.3063415],[103.7752906,22.3063448],[103.775443,22.3060909],[103.7753624,22.3060002],[103.7753618,22.3058737],[103.7751921,22.3057629],[103.7752061,22.3057403],[103.7752207,22.3056928],[103.7751141,22.3056481],[103.77517,22.3055548],[103.7751776,22.3055411],[103.7752666,22.305401],[103.7752975,22.305403],[103.7753126,22.305382],[103.7753277,22.305361],[103.7753948,22.3052673],[103.7753998,22.3052604],[103.7755657,22.3051616],[103.775696,22.3049572],[103.7759033,22.304721],[103.7759235,22.3046801],[103.7759527,22.3046211],[103.7759811,22.3045324],[103.7759972,22.304443],[103.7759811,22.3043165],[103.7759489,22.3042321],[103.775856,22.3040421],[103.7758087,22.3040677],[103.7757719,22.3039988],[103.7757236,22.3039629],[103.7756532,22.3040361],[103.7755737,22.3040366],[103.7755512,22.3040404],[103.7755271,22.3041031],[103.7754145,22.3041384],[103.7753705,22.3041412],[103.7753635,22.3041006],[103.7753715,22.3040671],[103.7753789,22.3040274],[103.7753776,22.3040044],[103.7753273,22.3039225],[103.7753219,22.3038841],[103.7753219,22.3038605],[103.7753253,22.3038307],[103.7753494,22.303791],[103.7754044,22.3036924],[103.7754646,22.303626],[103.7755255,22.3035588],[103.7755405,22.3035422],[103.7755861,22.3034988],[103.7756076,22.3034715],[103.7756149,22.3034517],[103.7755653,22.3034473],[103.7755325,22.3034374],[103.7755184,22.3034039],[103.7755063,22.3033543],[103.7754983,22.303335],[103.7754668,22.3032533],[103.775471,22.3032097],[103.7754728,22.3031869],[103.7754686,22.303163],[103.7754835,22.3031508],[103.7754936,22.3031309],[103.7754942,22.3031142],[103.7754942,22.3030949],[103.7754412,22.3030764]]}}]}
