{"type":"FeatureCollection","peaks_destination_id":"91A3B223635D9D35116E","peaks_trailhead_id":"B56797F14E6217570842","peaks_source":"https://www.openstreetmap.org/","peaks_retrieval_source":"https://api.openstreetmap.org/api/0.6","peaks_license_name":"Open Data Commons Open Database License (ODbL) 1.0","peaks_license":"https://opendatacommons.org/licenses/odbl/1-0/","peaks_attribution":"© OpenStreetMap contributors","peaks_retrieved_at":"2026-07-31T15:22:49.459Z","features":[{"type":"Feature","properties":{"name":"Gerlachovský štít OSM loop candidate","trailhead_name":"Sliezsky Dom Trailhead","destination_name":"Gerlachovský štít","distance_m":8498.495156832487,"trailhead_snap_m":13.913600306540646,"summit_snap_m":5.866206092685934,"osm_way_ids":[719434536,719434533,719434534,73910559,897905853,23137251,318459322,369381775,369381776,369381777,1419337294,1419337295,719434535,318459326,906586285,970730549,369381774],"osm_way_urls":["https://www.openstreetmap.org/way/719434536","https://www.openstreetmap.org/way/719434533","https://www.openstreetmap.org/way/719434534","https://www.openstreetmap.org/way/73910559","https://www.openstreetmap.org/way/897905853","https://www.openstreetmap.org/way/23137251","https://www.openstreetmap.org/way/318459322","https://www.openstreetmap.org/way/369381775","https://www.openstreetmap.org/way/369381776","https://www.openstreetmap.org/way/369381777","https://www.openstreetmap.org/way/1419337294","https://www.openstreetmap.org/way/1419337295","https://www.openstreetmap.org/way/719434535","https://www.openstreetmap.org/way/318459326","https://www.openstreetmap.org/way/906586285","https://www.openstreetmap.org/way/970730549","https://www.openstreetmap.org/way/369381774"],"osm_way_names":["Velická próba","KRAMLE","Batizovská próba"],"osm_foot_access_override_way_ids":[369381776,369381777,1419337294,1419337295,369381774],"route_shape":"lollipop"},"geometry":{"type":"LineString","coordinates":[[20.1565843,49.1560323],[20.1567686,49.1560659],[20.1568912,49.1560085],[20.1570039,49.1560483],[20.1571323,49.1560709],[20.1571921,49.1560771],[20.1571669,49.1561093],[20.15714,49.1561536],[20.1569753,49.1565238],[20.1568387,49.1566833],[20.1568021,49.1567526],[20.1567981,49.1567789],[20.1567632,49.1568307],[20.1567262,49.1569863],[20.156727,49.1570649],[20.1565246,49.1576056],[20.156446,49.1577239],[20.1562922,49.1582407],[20.1562925,49.1583173],[20.1563595,49.1583988],[20.1563945,49.158585],[20.156382,49.1586885],[20.1563448,49.1587383],[20.1563315,49.1587966],[20.1564024,49.1589952],[20.1564452,49.1590713],[20.1564638,49.1593115],[20.1565079,49.159413],[20.1564789,49.1594592],[20.1565006,49.1594889],[20.1564992,49.1595772],[20.1566861,49.1598335],[20.1566686,49.1599625],[20.1567133,49.1599937],[20.1568167,49.1599825],[20.1570303,49.1599126],[20.1571633,49.1598045],[20.1571874,49.1597486],[20.157308,49.1596951],[20.1573828,49.1596924],[20.1574793,49.1596591],[20.1575209,49.1596688],[20.1575088,49.1597302],[20.1575249,49.1597837],[20.1573852,49.1600859],[20.157338,49.1602721],[20.1573387,49.160454],[20.1572674,49.1605405],[20.1571604,49.160585],[20.1570938,49.1606467],[20.1570126,49.1606879],[20.1569023,49.1607009],[20.1567565,49.1607519],[20.1566532,49.1607712],[20.1564966,49.1608227],[20.156377,49.1608484],[20.1562338,49.1608998],[20.1562276,49.1609394],[20.1561318,49.1609394],[20.156007,49.1609362],[20.1559393,49.1609249],[20.1558861,49.1608831],[20.155838,49.1608253],[20.1557045,49.1607852],[20.1556267,49.1607885],[20.1554386,49.1608462],[20.1552348,49.1608545],[20.1551483,49.1609135],[20.1551505,49.1609292],[20.1551917,49.1609321],[20.1552048,49.160959],[20.1551809,49.1609881],[20.1551321,49.1610139],[20.1551048,49.1610355],[20.1550957,49.1610548],[20.1551227,49.1610672],[20.1552152,49.1610646],[20.1553323,49.1610929],[20.1553991,49.1610984],[20.1554967,49.1611307],[20.1555222,49.1611579],[20.1555198,49.1611833],[20.1553874,49.1612215],[20.1552458,49.1613054],[20.1549265,49.1613729],[20.1548617,49.1613949],[20.1548511,49.1614465],[20.1548782,49.1614797],[20.1549326,49.1615254],[20.1549031,49.1615596],[20.15482,49.1615947],[20.1547138,49.1616209],[20.1546458,49.1617353],[20.1544644,49.1617956],[20.1544243,49.161842],[20.1543814,49.1619376],[20.1543474,49.1619707],[20.1542768,49.16197],[20.1541548,49.1619508],[20.154081,49.1619252],[20.1538705,49.1618411],[20.1538187,49.161662],[20.1538096,49.1616308],[20.1537019,49.1616068],[20.1535935,49.1615557],[20.1535307,49.1615905],[20.1534706,49.1615243],[20.1534225,49.1615649],[20.1534057,49.1614912],[20.1533588,49.1614745],[20.1533166,49.1615285],[20.1532597,49.1615083],[20.1532166,49.1615061],[20.153118,49.1615072],[20.1530835,49.1615931],[20.1528881,49.1616771],[20.1528132,49.1617018],[20.1527553,49.161697],[20.1527309,49.161661],[20.1526565,49.1616693],[20.1525791,49.1616617],[20.1524447,49.1616425],[20.1523194,49.1616063],[20.1520296,49.1615751],[20.1516354,49.1614207],[20.1512228,49.161459],[20.15078,49.1614174],[20.1507147,49.1614661],[20.1505895,49.1614666],[20.1505745,49.1614252],[20.150346,49.1614418],[20.1501916,49.1615031],[20.150183,49.1614626],[20.1500699,49.1614514],[20.1499174,49.1615072],[20.149921,49.1614741],[20.1498727,49.1614513],[20.1496961,49.1614733],[20.1496527,49.1615001],[20.1495987,49.1615022],[20.1495328,49.1615401],[20.1493986,49.1615761],[20.1491877,49.1616039],[20.1490766,49.1616401],[20.1489712,49.1616428],[20.1489033,49.1616232],[20.1488664,49.1616066],[20.1488168,49.1616247],[20.1487212,49.1616302],[20.1485869,49.1616206],[20.1484525,49.1616556],[20.1483243,49.1616548],[20.1482022,49.161637],[20.1480921,49.1616553],[20.1479173,49.1617113],[20.1477422,49.161774],[20.1476269,49.1618198],[20.1476273,49.1618726],[20.1472352,49.161985],[20.1471916,49.161951],[20.1467159,49.1620216],[20.1465692,49.1620982],[20.1462233,49.1619386],[20.1458571,49.1620029],[20.1456866,49.1619147],[20.1457973,49.1618918],[20.1456793,49.1618417],[20.145623,49.1618457],[20.1455796,49.1618732],[20.1455574,49.161914],[20.1455253,49.161925],[20.1454903,49.1619105],[20.1454717,49.1618788],[20.1454388,49.1618527],[20.1453679,49.1618498],[20.1452969,49.1618385],[20.1452309,49.1617803],[20.1451677,49.1617381],[20.145075,49.1617978],[20.1450538,49.1618522],[20.1450816,49.1618989],[20.1450333,49.1618911],[20.1446407,49.1617522],[20.1445726,49.1616876],[20.1444771,49.1616333],[20.1444136,49.1616469],[20.1443385,49.1616166],[20.1442782,49.1616359],[20.1442125,49.1616166],[20.144128,49.161635],[20.14402,49.1615631],[20.1439127,49.1615631],[20.143902,49.1615456],[20.1439067,49.1615044],[20.1438752,49.161457],[20.1437357,49.1614158],[20.1437183,49.1614302],[20.1435828,49.1613925],[20.1435458,49.1614],[20.1434655,49.1613768],[20.1433852,49.1613687],[20.1432268,49.161396],[20.1431934,49.1614017],[20.1430209,49.1614053],[20.1428984,49.161414],[20.1428184,49.1613772],[20.1427755,49.1613658],[20.1426262,49.1613692],[20.1425354,49.1613018],[20.142464,49.1612748],[20.1423731,49.1612141],[20.142172,49.1611588],[20.1420794,49.1610939],[20.142011,49.1611115],[20.1417978,49.1610695],[20.1417549,49.161086],[20.1416892,49.1610904],[20.141598,49.1610527],[20.1415242,49.1610615],[20.1414464,49.1610474],[20.1413669,49.1610871],[20.141252,49.1611141],[20.1412104,49.1610799],[20.1411799,49.1610294],[20.1410884,49.161001],[20.1409472,49.1610047],[20.140829,49.1610202],[20.1406909,49.160971],[20.1406257,49.1608878],[20.1405747,49.1608721],[20.1403784,49.1608055],[20.1402825,49.1607985],[20.1402529,49.1607782],[20.1402421,49.1607387],[20.1401366,49.1606877],[20.1398787,49.1607536],[20.1397124,49.1607677],[20.1395556,49.1608026],[20.1393648,49.1608099],[20.1393262,49.1608475],[20.1392467,49.1608502],[20.1391183,49.1607771],[20.1390392,49.1607826],[20.1389361,49.1608552],[20.1388098,49.1608685],[20.1386958,49.160844],[20.138555,49.1608565],[20.1385094,49.1608115],[20.1384522,49.1607956],[20.1382054,49.1608435],[20.1379649,49.1608861],[20.1377733,49.1609369],[20.137639,49.1610012],[20.1375743,49.1610692],[20.1372846,49.1611217],[20.1371288,49.1611504],[20.1370526,49.1611404],[20.1365546,49.1611999],[20.1363718,49.161216],[20.1362212,49.1612346],[20.1359867,49.1612474],[20.1359251,49.1612956],[20.1359506,49.1613719],[20.135921,49.1614956],[20.1359506,49.161607],[20.1359144,49.161699],[20.1359962,49.1617718],[20.1359836,49.161819],[20.135906,49.1618701],[20.1358325,49.1619269],[20.1358265,49.1619655],[20.1358446,49.1620367],[20.1357185,49.1621595],[20.1356791,49.1622772],[20.1355602,49.1623495],[20.1354222,49.1625076],[20.1352528,49.1626589],[20.1351822,49.1627469],[20.1351489,49.1627816],[20.1352109,49.1628439],[20.1352465,49.1628909],[20.1351057,49.1629373],[20.1350065,49.1629663],[20.1349578,49.1629715],[20.1347893,49.1630533],[20.1347262,49.1631215],[20.1346629,49.1631606],[20.134624,49.163175],[20.1345858,49.1632181],[20.1345167,49.163328],[20.1345378,49.1633868],[20.1345599,49.1634196],[20.1345786,49.1634324],[20.1346061,49.163485],[20.1345733,49.1635148],[20.1345542,49.1635488],[20.1344955,49.1635736],[20.134411,49.1635819],[20.1343359,49.1635928],[20.1342698,49.1636242],[20.1342554,49.163667],[20.1341958,49.1636827],[20.1341527,49.1637281],[20.1341602,49.1637841],[20.1341015,49.1638182],[20.134103,49.1638375],[20.1340874,49.1638518],[20.1340878,49.1638749],[20.1341017,49.163889],[20.1341269,49.1638986],[20.1340866,49.1639209],[20.1340676,49.1639517],[20.1340438,49.1639679],[20.1340244,49.1639704],[20.1340117,49.1639894],[20.1340595,49.1640319],[20.1340117,49.1639894],[20.1340244,49.1639704],[20.1340438,49.1639679],[20.1340676,49.1639517],[20.1340866,49.1639209],[20.1341269,49.1638986],[20.1341017,49.163889],[20.1340878,49.1638749],[20.1340874,49.1638518],[20.134103,49.1638375],[20.1341015,49.1638182],[20.1341602,49.1637841],[20.1341527,49.1637281],[20.1341958,49.1636827],[20.1342554,49.163667],[20.1342698,49.1636242],[20.1343359,49.1635928],[20.134411,49.1635819],[20.1344955,49.1635736],[20.1345542,49.1635488],[20.1345733,49.1635148],[20.1346061,49.163485],[20.1345786,49.1634324],[20.1345599,49.1634196],[20.1345378,49.1633868],[20.1345167,49.163328],[20.1345236,49.1632903],[20.1345028,49.163289],[20.1344935,49.1632934],[20.1344459,49.1632421],[20.1344392,49.1632022],[20.134407,49.1631824],[20.1344445,49.1631298],[20.1343969,49.163114],[20.1344043,49.1630926],[20.1342943,49.1630584],[20.1343151,49.163022],[20.134383,49.1629955],[20.1343104,49.1629251],[20.1342179,49.162886],[20.1342543,49.1628563],[20.134244,49.1628137],[20.1342742,49.1627896],[20.1342729,49.1627549],[20.1342313,49.1627549],[20.1341696,49.1626799],[20.1340667,49.1626872],[20.1340898,49.162644],[20.1340647,49.1626204],[20.133945,49.1625949],[20.1338951,49.1625752],[20.1338544,49.1625208],[20.133843,49.1624791],[20.1337787,49.1624296],[20.1338276,49.1624138],[20.1337934,49.1623989],[20.1338001,49.1623813],[20.133778,49.1623598],[20.1338068,49.162341],[20.1337606,49.1623221],[20.1337291,49.1622572],[20.1336639,49.1622143],[20.1336895,49.1622007],[20.1336265,49.1621485],[20.1335668,49.1621217],[20.133679,49.1620972],[20.1337277,49.1620621],[20.1337532,49.1620086],[20.1335661,49.1619564],[20.1336305,49.1619161],[20.1336023,49.1619038],[20.133612,49.1618559],[20.1335607,49.1618275],[20.1336278,49.1618179],[20.1335353,49.1617815],[20.1335507,49.1617666],[20.1334944,49.1617596],[20.1335467,49.1617425],[20.133495,49.1617275],[20.1335366,49.1617039],[20.1334122,49.1616545],[20.1334716,49.1616249],[20.1334514,49.1615986],[20.1335131,49.1615693],[20.133483,49.1615298],[20.1333341,49.1614947],[20.1333489,49.1614465],[20.1332657,49.1614088],[20.1333958,49.1612904],[20.1332488,49.1612708],[20.1332013,49.1612632],[20.1331974,49.161158],[20.133149,49.1611536],[20.1331396,49.1610238],[20.1328772,49.1609763],[20.1328003,49.1608361],[20.1327011,49.1608194],[20.1324236,49.1607271],[20.132291,49.1607329],[20.1321986,49.1607416],[20.132048,49.1607193],[20.1320184,49.1606968],[20.1319286,49.1606236],[20.1318521,49.1605859],[20.1318212,49.1605486],[20.1317234,49.1605375],[20.131641,49.1605353],[20.131594,49.1604856],[20.131539,49.1604384],[20.1315162,49.1604099],[20.1315263,49.1603879],[20.1315115,49.1603616],[20.1314787,49.1603165],[20.1315136,49.1602761],[20.131476,49.1602643],[20.1314156,49.160245],[20.131305,49.160234],[20.131248,49.1602301],[20.1311857,49.16022],[20.1311877,49.1601906],[20.1312098,49.1601538],[20.1311447,49.1601687],[20.1311273,49.1601469],[20.1310717,49.1602078],[20.1309891,49.1602438],[20.1308425,49.1601095],[20.1307535,49.1602133],[20.1307114,49.160094],[20.1306378,49.1600623],[20.1305635,49.1601084],[20.1304713,49.160025],[20.1304507,49.1600753],[20.1304024,49.1600893],[20.13032,49.1600538],[20.1303307,49.1600345],[20.1302395,49.1600187],[20.1302764,49.1599424],[20.1302013,49.1599363],[20.1301952,49.1599122],[20.1301121,49.15991],[20.1300926,49.1598617],[20.1300217,49.1598559],[20.1300598,49.1598012],[20.1299673,49.1597946],[20.1300243,49.1597635],[20.1299092,49.1597575],[20.1297665,49.1597408],[20.1296394,49.1596859],[20.1295897,49.1596591],[20.129595,49.1596246],[20.129579,49.1595846],[20.1295402,49.159567],[20.129512,49.1595193],[20.1294335,49.1595193],[20.1294342,49.1594846],[20.1293705,49.1594824],[20.1293591,49.1594522],[20.1292524,49.1594373],[20.1292603,49.1593878],[20.129176,49.1593662],[20.1290854,49.1593287],[20.1290283,49.1592958],[20.1289883,49.1592763],[20.1289534,49.1592233],[20.1289514,49.1591391],[20.1290318,49.159097],[20.1289829,49.1590136],[20.129003,49.1589794],[20.1289862,49.1589198],[20.1288575,49.1588198],[20.1289514,49.1587137],[20.1288193,49.1586168],[20.1289138,49.158569],[20.1288642,49.1585462],[20.1289071,49.1585094],[20.1289031,49.158448],[20.1289675,49.1583594],[20.1290975,49.1583453],[20.1291995,49.1583304],[20.1291995,49.1582699],[20.1291887,49.1582077],[20.1292625,49.1580998],[20.129233,49.1580507],[20.1292561,49.1580041],[20.1292803,49.1578841],[20.1292079,49.1578195],[20.129322,49.1578102],[20.1294154,49.1578428],[20.1295567,49.1578131],[20.1296498,49.1576594],[20.129664,49.1575743],[20.1296676,49.1575352],[20.1296779,49.1575137],[20.1296708,49.1573891],[20.1294693,49.1572465],[20.1293196,49.1571658],[20.1291841,49.1572196],[20.1290515,49.1572804],[20.1288772,49.1572808],[20.1287937,49.1573047],[20.1286873,49.1572575],[20.128541,49.1572336],[20.1281356,49.1569399],[20.12811,49.1569019],[20.1280378,49.15659],[20.1279483,49.1564428],[20.1280077,49.1563126],[20.1281184,49.1560698],[20.1281412,49.1558021],[20.1282083,49.1557044],[20.1282143,49.1555947],[20.128345,49.1553073],[20.1282563,49.1549478],[20.1282542,49.1546353],[20.1284488,49.1543732],[20.1284685,49.1541852],[20.1286043,49.1540524],[20.1286695,49.1539422],[20.1286416,49.1539013],[20.1287378,49.1538285],[20.1288064,49.1537485],[20.1288109,49.1536808],[20.1287846,49.1536091],[20.1288789,49.1535056],[20.1289566,49.1534289],[20.1289639,49.1531908],[20.1291157,49.1530705],[20.129106,49.1529831],[20.1291348,49.1529695],[20.1291929,49.1529458],[20.1295617,49.1529356],[20.1296911,49.1528479],[20.1299394,49.1528467],[20.1301264,49.1529351],[20.1303478,49.1529387],[20.1304172,49.1529103],[20.1308083,49.1527858],[20.1308606,49.1527286],[20.1310129,49.1526771],[20.1311386,49.1525933],[20.1311953,49.1525678],[20.1312652,49.1525389],[20.1313045,49.1524949],[20.1313295,49.1523827],[20.1314019,49.1523051],[20.1314661,49.1522808],[20.1316116,49.1521417],[20.131696,49.1521115],[20.1319578,49.1519378],[20.1321371,49.1516174],[20.1321382,49.1514973],[20.1322042,49.1514919],[20.1322315,49.1514834],[20.1323082,49.1514515],[20.1325004,49.151411],[20.1326186,49.1513315],[20.1327098,49.1512218],[20.1327291,49.1510761],[20.1328449,49.1510005],[20.1328986,49.1509357],[20.132977,49.1508936],[20.1331513,49.1506837],[20.1331986,49.1506611],[20.1332985,49.1506552],[20.1333631,49.1506331],[20.1334485,49.1506284],[20.1335061,49.1506048],[20.1337276,49.1505953],[20.1337896,49.1505777],[20.1338911,49.1505065],[20.1339515,49.1504999],[20.1340238,49.1504342],[20.1343409,49.1503172],[20.1345377,49.150205],[20.1346917,49.1500936],[20.1347272,49.1500043],[20.1348129,49.1498848],[20.1349501,49.1497729],[20.1351177,49.1496788],[20.1351865,49.1495753],[20.1352477,49.1495567],[20.1354454,49.1494266],[20.1356666,49.149241],[20.1358623,49.1491188],[20.135904,49.1490078],[20.1359512,49.1489683],[20.1360019,49.1489244],[20.1360837,49.1488911],[20.1361053,49.1488675],[20.1361229,49.1488091],[20.136236,49.1487215],[20.1362663,49.1486643],[20.1365624,49.1484749],[20.1367635,49.1483687],[20.1368479,49.1483434],[20.1369001,49.1483082],[20.136918,49.1482579],[20.1369976,49.1481929],[20.1371452,49.1480651],[20.1372058,49.1479685],[20.1372911,49.1479245],[20.1373354,49.1478687],[20.1374016,49.1478485],[20.1374348,49.1477822],[20.1374535,49.1477103],[20.1375005,49.147674],[20.1375491,49.14761],[20.1375982,49.1475916],[20.1376015,49.1475734],[20.1375601,49.1475244],[20.1375781,49.1474808],[20.1376846,49.1474163],[20.1377019,49.1473837],[20.137675,49.1473482],[20.1376691,49.1472543],[20.1378282,49.1471133],[20.1379111,49.1470482],[20.137978,49.1469746],[20.1380239,49.1469409],[20.1380251,49.1468438],[20.1380109,49.1468188],[20.1380045,49.1467451],[20.1379411,49.146646],[20.1379521,49.1465975],[20.1379859,49.1465664],[20.1382186,49.146498],[20.1382691,49.1464784],[20.1383029,49.1464501],[20.1384056,49.1462712],[20.1384577,49.1462005],[20.1384957,49.1460106],[20.1385198,49.1459386],[20.138497,49.1457893],[20.1385156,49.1455701],[20.1385396,49.1454833],[20.1388223,49.1450826],[20.1389247,49.1449802],[20.1389713,49.1448941],[20.1390038,49.1448526],[20.1390195,49.1447612],[20.1390469,49.1447411],[20.139056,49.1446752],[20.1391009,49.1445704],[20.1391702,49.1444944],[20.1392577,49.1444324],[20.1393509,49.1443973],[20.1395419,49.1443802],[20.1398937,49.1443477],[20.1400975,49.144338],[20.1402997,49.1443072],[20.1404194,49.1442848],[20.1405096,49.1442999],[20.1408649,49.1442795],[20.1410116,49.1442275],[20.1411983,49.1441887],[20.1413139,49.1441576],[20.141615,49.1441951],[20.1416546,49.1441955],[20.1420118,49.1441443],[20.1421324,49.144197],[20.1422347,49.1441971],[20.1423495,49.1442576],[20.1425249,49.1443263],[20.1426288,49.1443433],[20.1428737,49.144411],[20.1430872,49.1444662],[20.1432776,49.1445657],[20.1435035,49.1447068],[20.1436143,49.1448039],[20.1439104,49.145179],[20.1440921,49.1454681],[20.144523,49.1459249],[20.1447035,49.1461831],[20.1449068,49.1464352],[20.1452262,49.1466978],[20.1456628,49.1469041],[20.1457937,49.1469853],[20.1458734,49.1470565],[20.1459914,49.1471246],[20.1462355,49.1472425],[20.1464313,49.1473083],[20.1465641,49.1473732],[20.1467384,49.1474951],[20.1469946,49.147575],[20.1471877,49.1476337],[20.1473069,49.1476847],[20.1478161,49.1480277],[20.1478818,49.1481053],[20.1480356,49.1481342],[20.1483433,49.1482717],[20.1491542,49.1486356],[20.149357,49.1486899],[20.1495915,49.1488042],[20.1498043,49.1489896],[20.1498908,49.1490242],[20.1502629,49.1491329],[20.1504112,49.1492207],[20.1506814,49.1494133],[20.1508457,49.1494404],[20.1509819,49.1495556],[20.1511651,49.1496905],[20.1515199,49.1498573],[20.1515718,49.149908],[20.1517907,49.1499784],[20.1519977,49.1501447],[20.1521197,49.1501526],[20.1525252,49.1503021],[20.1529854,49.1505176],[20.1530801,49.1506079],[20.1532095,49.1506652],[20.153421,49.1508324],[20.1536143,49.1509924],[20.1536679,49.1511189],[20.1539205,49.1512663],[20.1540005,49.151282],[20.1541521,49.1513583],[20.154894,49.1516794],[20.1549808,49.1518004],[20.1550654,49.1519715],[20.1550955,49.1520531],[20.1551506,49.1523763],[20.1551163,49.1524662],[20.1551002,49.1525609],[20.155064,49.1526328],[20.1550169,49.1527455],[20.1549835,49.1529047],[20.1549809,49.1530416],[20.1549914,49.1531238],[20.1550724,49.1533707],[20.1550895,49.1535301],[20.1550814,49.1535828],[20.1551042,49.153667],[20.1551042,49.1537161],[20.155115,49.1537933],[20.1550922,49.1538801],[20.155111,49.1539626],[20.1550933,49.1540271],[20.1550671,49.1542662],[20.1550291,49.1543765],[20.1549634,49.1544572],[20.15495,49.154602],[20.1548884,49.1546924],[20.1548632,49.1548711],[20.154494,49.1552239],[20.1543954,49.1553475],[20.154396,49.1554676],[20.1545463,49.1558149],[20.1545888,49.1560279],[20.1546808,49.1561161],[20.1546925,49.1562264],[20.1547252,49.1562713],[20.1547868,49.156333],[20.1549699,49.1563886],[20.1550172,49.1564163],[20.1550331,49.1565502],[20.1552745,49.1565168],[20.1555466,49.1564632],[20.1556612,49.156337],[20.1558647,49.1562202],[20.1559396,49.1562135],[20.1560444,49.1562246],[20.156118,49.1562485],[20.1561861,49.1563064],[20.1562576,49.156293],[20.156436,49.1563182],[20.156554,49.1562334],[20.1567686,49.1560659],[20.1565843,49.1560323]]}}]}
