{"type":"FeatureCollection","peaks_destination_id":"1829DB119FADE67F6223","peaks_trailhead_id":"A95EDB5947FF6F5A9940","peaks_source":"https://www.openstreetmap.org/","peaks_retrieval_source":"https://overpass-api.de/api/interpreter","peaks_license_name":"Open Data Commons Open Database License (ODbL) 1.0","peaks_license":"https://opendatacommons.org/licenses/odbl/1-0/","peaks_attribution":"© OpenStreetMap contributors","peaks_retrieved_at":"2026-07-31T14:17:03.293Z","features":[{"type":"Feature","properties":{"name":"Grande Tête de l'Obiou OSM route candidate","trailhead_name":"Chalet des Baumes Parking","destination_name":"Grande Tête de l'Obiou","distance_m":4988.058570990448,"trailhead_snap_m":5.317610679430951,"summit_snap_m":0,"osm_way_ids":[139721010,1192580308,1084283582,1395525595,1395525594,1084283581,1395527408,421286577,1395525597,1395525598,1395527405,1395527675,1395527406,1195191753,1395527407],"osm_way_urls":["https://www.openstreetmap.org/way/139721010","https://www.openstreetmap.org/way/1192580308","https://www.openstreetmap.org/way/1084283582","https://www.openstreetmap.org/way/1395525595","https://www.openstreetmap.org/way/1395525594","https://www.openstreetmap.org/way/1084283581","https://www.openstreetmap.org/way/1395527408","https://www.openstreetmap.org/way/421286577","https://www.openstreetmap.org/way/1395525597","https://www.openstreetmap.org/way/1395525598","https://www.openstreetmap.org/way/1395527405","https://www.openstreetmap.org/way/1395527675","https://www.openstreetmap.org/way/1395527406","https://www.openstreetmap.org/way/1195191753","https://www.openstreetmap.org/way/1395527407"],"osm_way_names":["Vire de la Cravate"],"osm_foot_access_override_way_ids":[]},"geometry":{"type":"LineString","coordinates":[[5.875409,44.784638],[5.8754379,44.7846812],[5.8753346,44.7845194],[5.8753051,44.7844461],[5.8752938,44.7843727],[5.8753091,44.7842738],[5.8753333,44.784137],[5.8753532,44.7840427],[5.8753863,44.7838864],[5.8754379,44.7836046],[5.8755186,44.7833559],[5.8756685,44.7829807],[5.875639,44.7829607],[5.8756209,44.7829683],[5.8756229,44.782954],[5.8756001,44.7829669],[5.8756001,44.7829397],[5.8755787,44.7829402],[5.8755887,44.7828988],[5.8755793,44.7828731],[5.8755472,44.7828745],[5.8755411,44.782865],[5.8755431,44.7828388],[5.8755344,44.7828103],[5.875525,44.7828012],[5.8754533,44.7828307],[5.8754104,44.7828393],[5.8753735,44.7828236],[5.8753708,44.7828502],[5.8753587,44.7828541],[5.8753319,44.7828293],[5.8753084,44.7828245],[5.8753232,44.7828036],[5.8753091,44.782786],[5.8752783,44.7827817],[5.8752769,44.7827641],[5.875291,44.7827455],[5.8752789,44.7827346],[5.8752125,44.7827612],[5.8751985,44.7827451],[5.8752119,44.782727],[5.8751911,44.7826837],[5.8752045,44.7826066],[5.875167,44.7822472],[5.8751495,44.7822053],[5.8751656,44.7820797],[5.8752193,44.7819816],[5.8752246,44.7817122],[5.87512,44.781558],[5.8751656,44.78148],[5.87512,44.7813572],[5.8750664,44.7813353],[5.8750382,44.781182],[5.875057,44.7811002],[5.8750932,44.7810754],[5.8751106,44.781045],[5.8751039,44.7810307],[5.8750235,44.781005],[5.8749966,44.7809812],[5.8750449,44.7808098],[5.8750117,44.7805877],[5.8749247,44.7805132],[5.8746239,44.7804615],[5.8743712,44.7803434],[5.8742198,44.7802175],[5.8740931,44.7801762],[5.8740575,44.7801211],[5.8739663,44.7800845],[5.873916,44.7799783],[5.8737817,44.7799442],[5.8736326,44.7797918],[5.8732398,44.7796409],[5.8731553,44.7795342],[5.8727448,44.7792925],[5.8723571,44.7791913],[5.8716488,44.7788517],[5.8714338,44.7786988],[5.8711221,44.7785776],[5.8704175,44.7783825],[5.8682372,44.7778081],[5.8675047,44.7777229],[5.8668957,44.777489],[5.8664756,44.777392],[5.8653558,44.7774779],[5.8645205,44.7772675],[5.8637427,44.7770807],[5.863046,44.7769877],[5.8611208,44.7768446],[5.8608869,44.7768264],[5.8606495,44.7768326],[5.8604389,44.7768773],[5.8602954,44.7769149],[5.8601607,44.7769649],[5.8600118,44.7770096],[5.8598797,44.7770215],[5.8598409,44.777076],[5.859822,44.7772238],[5.8597811,44.7772857],[5.8597389,44.7773442],[5.8597005,44.7773657],[5.8596101,44.7773628],[5.8595431,44.7773771],[5.8594479,44.7773695],[5.859332,44.7773914],[5.8589637,44.7776284],[5.8586808,44.7777798],[5.8585451,44.7778305],[5.8583924,44.7778331],[5.8583187,44.7778255],[5.8582377,44.777776],[5.8580643,44.7777758],[5.8578747,44.7777636],[5.8576391,44.7777786],[5.857453,44.7778],[5.8572467,44.7778677],[5.8570433,44.777994],[5.8568126,44.7781139],[5.8564813,44.7782824],[5.8561876,44.7783481],[5.8560978,44.7783871],[5.8560039,44.7784785],[5.8559516,44.7785547],[5.8557169,44.7786499],[5.8556204,44.7787156],[5.8552971,44.7788603],[5.8551389,44.7788802],[5.8547634,44.779044],[5.8546494,44.7791363],[5.8545139,44.7791982],[5.8544214,44.7792049],[5.8542337,44.7791734],[5.8540338,44.7791344],[5.8536335,44.7791777],[5.8534236,44.7792596],[5.8530508,44.7791382],[5.8527987,44.7791087],[5.8522636,44.7790059],[5.8520477,44.7790059],[5.8518961,44.7789821],[5.8515836,44.7788479],[5.8511974,44.7787275],[5.8508735,44.7786546],[5.8506053,44.7785571],[5.8504906,44.7784814],[5.8502385,44.7781415],[5.8500454,44.7779683],[5.8499971,44.7778502],[5.8491254,44.7772314],[5.8490959,44.7771134],[5.8489591,44.7770068],[5.8488974,44.7769325],[5.8488974,44.7767383],[5.8488277,44.776666],[5.8482802,44.7764725],[5.8478051,44.7764682],[5.8473785,44.7765692],[5.8468039,44.7767021],[5.8465974,44.7766831],[5.8463909,44.7767221],[5.8459811,44.7769],[5.845831,44.7770038],[5.8454829,44.7772219],[5.8453435,44.7772714],[5.8451879,44.7774161],[5.8450944,44.7774388],[5.84504,44.7775614],[5.8449653,44.7777398],[5.8449036,44.777814],[5.8447893,44.7778643],[5.8445187,44.7773857],[5.844378,44.7772598],[5.844244,44.777043],[5.844225,44.77692],[5.8443028,44.7767697],[5.844292,44.776548],[5.8443525,44.7764081],[5.8442616,44.7761473],[5.8443271,44.776005],[5.8445724,44.775725],[5.8444532,44.7752991],[5.844363,44.775043],[5.8443326,44.7747628],[5.844439,44.7745739],[5.8445541,44.7744027],[5.8447753,44.7742331],[5.8448276,44.7741553],[5.8449226,44.7740889],[5.8450122,44.7740333],[5.8450498,44.7740036],[5.844958,44.773896],[5.8449383,44.7737919],[5.8448847,44.7737104],[5.8445442,44.7736833],[5.8444717,44.7735681],[5.8443591,44.7736024],[5.8442411,44.77361],[5.8441713,44.773549],[5.8441713,44.7735167],[5.8442518,44.7735433],[5.8443457,44.7735167],[5.844395,44.7734414],[5.8443578,44.7733272],[5.8442689,44.7733215],[5.8441843,44.7732901],[5.844094,44.7732975],[5.8440068,44.7732752],[5.8437938,44.7732831],[5.8437358,44.7732764],[5.8437182,44.773244],[5.8437428,44.7731844],[5.8437215,44.7731281],[5.8434561,44.7732658],[5.84325,44.7733968],[5.8430109,44.773478],[5.8428196,44.7734855],[5.8422787,44.7735084],[5.8422483,44.7735189],[5.8422469,44.773651],[5.842133,44.773643],[5.8420809,44.7736278],[5.842012,44.7736333],[5.8419564,44.7736475],[5.8419507,44.7737628],[5.841869,44.773781],[5.841776,44.773794],[5.8415569,44.7737903],[5.841199,44.7736265],[5.8410226,44.7735318],[5.8407815,44.7733698],[5.8406338,44.7732732],[5.8405567,44.7731838],[5.8405347,44.7730972],[5.8404935,44.7730244],[5.8404397,44.7730018],[5.8403924,44.7730162],[5.8403479,44.7731948],[5.8403079,44.7732443],[5.840052,44.77335],[5.839832,44.773382],[5.83958,44.773385],[5.8394064,44.7733866],[5.8392266,44.7734344],[5.8391298,44.7734776],[5.8390811,44.7735068],[5.8390289,44.773494],[5.8390015,44.7734482],[5.8389868,44.7733808],[5.8388666,44.7732978],[5.8387945,44.7732599],[5.8387472,44.7732162],[5.8386944,44.7732171],[5.8386528,44.77323],[5.8383898,44.7731873],[5.838213,44.7732183],[5.8381578,44.7732389],[5.8380969,44.773234],[5.8380291,44.7732387],[5.8379634,44.7732615],[5.8378722,44.7732539],[5.8377562,44.7732814],[5.8376012,44.7733551],[5.8375262,44.7734312],[5.8374566,44.773543],[5.8374573,44.7736282],[5.8375129,44.7737025],[5.837581,44.773734],[5.837681,44.773759],[5.8380563,44.7737578],[5.838396,44.773943],[5.83873,44.774026],[5.838833,44.77407],[5.8389323,44.7740864],[5.8388297,44.7741593],[5.8389544,44.7742021],[5.8388887,44.7742659],[5.8389397,44.7743069],[5.8388361,44.7743675],[5.8389585,44.7744461],[5.8391379,44.7744708],[5.8391818,44.7744922],[5.8391466,44.7745286],[5.839174,44.774582],[5.839228,44.774872],[5.8392272,44.7749531],[5.8392774,44.7750262],[5.8393494,44.7750736],[5.8394183,44.7751086],[5.8394443,44.7751543],[5.8394535,44.7752275],[5.8394587,44.7752786],[5.8394587,44.7752786]]}}]}
