{"type":"FeatureCollection","peaks_destination_id":"2E5FFFF77936BBE3C5D7","peaks_trailhead_id":"A17DB58D2952ED0446C3","peaks_source":"https://www.openstreetmap.org/","peaks_retrieval_source":"https://overpass-api.de/api/interpreter","peaks_license_name":"Open Data Commons Open Database License (ODbL) 1.0","peaks_license":"https://opendatacommons.org/licenses/odbl/1-0/","peaks_attribution":"© OpenStreetMap contributors","peaks_retrieved_at":"2026-07-31T13:53:48.139Z","features":[{"type":"Feature","properties":{"name":"Gran Paradiso OSM route candidate","trailhead_name":"Pont Valsavarenche Trailhead","destination_name":"Gran Paradiso","distance_m":9411.21432888598,"trailhead_snap_m":15.187662497757549,"summit_snap_m":0,"osm_way_ids":[115073111,59472920,949312670,59472922,949312669,59473382,411060536,411060539,290792065,290792066,949312667,949312668,411060535,115073039,129238898,411060537,411071563,1096325169,722673973,290792025,411071565,290792000,401856525,411071566,401856524,411071562,290792046,290792004,290791974],"osm_way_urls":["https://www.openstreetmap.org/way/115073111","https://www.openstreetmap.org/way/59472920","https://www.openstreetmap.org/way/949312670","https://www.openstreetmap.org/way/59472922","https://www.openstreetmap.org/way/949312669","https://www.openstreetmap.org/way/59473382","https://www.openstreetmap.org/way/411060536","https://www.openstreetmap.org/way/411060539","https://www.openstreetmap.org/way/290792065","https://www.openstreetmap.org/way/290792066","https://www.openstreetmap.org/way/949312667","https://www.openstreetmap.org/way/949312668","https://www.openstreetmap.org/way/411060535","https://www.openstreetmap.org/way/115073039","https://www.openstreetmap.org/way/129238898","https://www.openstreetmap.org/way/411060537","https://www.openstreetmap.org/way/411071563","https://www.openstreetmap.org/way/1096325169","https://www.openstreetmap.org/way/722673973","https://www.openstreetmap.org/way/290792025","https://www.openstreetmap.org/way/411071565","https://www.openstreetmap.org/way/290792000","https://www.openstreetmap.org/way/401856525","https://www.openstreetmap.org/way/411071566","https://www.openstreetmap.org/way/401856524","https://www.openstreetmap.org/way/411071562","https://www.openstreetmap.org/way/290792046","https://www.openstreetmap.org/way/290792004","https://www.openstreetmap.org/way/290791974"],"osm_way_names":[],"osm_foot_access_override_way_ids":[]},"geometry":{"type":"LineString","coordinates":[[7.201978,45.524498],[7.2021678,45.5244668],[7.2022882,45.5244579],[7.2025704,45.5244356],[7.2026426,45.524243],[7.2026845,45.524087],[7.2027023,45.5237521],[7.2027187,45.5234436],[7.2027428,45.5229904],[7.2027227,45.5229036],[7.2027526,45.5225488],[7.202846,45.5222498],[7.2028561,45.5218377],[7.2029743,45.5215479],[7.2030136,45.5214715],[7.2031134,45.5212771],[7.2032987,45.5211158],[7.2033604,45.5208837],[7.2034221,45.5208091],[7.2038218,45.5205316],[7.2039616,45.5203154],[7.2042365,45.519991],[7.2044342,45.5196734],[7.2045547,45.5192848],[7.2046608,45.5191902],[7.2046898,45.5190923],[7.2049646,45.5189301],[7.2050032,45.5186936],[7.2050688,45.5185776],[7.2051538,45.5183117],[7.2051515,45.5181843],[7.2054823,45.5176175],[7.205466,45.5174365],[7.2055478,45.5172299],[7.2055746,45.5170665],[7.2055406,45.5168909],[7.2054975,45.516821],[7.2054847,45.5166931],[7.2055529,45.5165192],[7.2056216,45.5163044],[7.2056851,45.515938],[7.2056827,45.515704],[7.2056823,45.5156616],[7.2057364,45.515477],[7.2057604,45.5153952],[7.2057861,45.5152982],[7.2058631,45.515219],[7.2059329,45.5151523],[7.2059637,45.5151081],[7.2060093,45.515079],[7.2060683,45.5150621],[7.2061635,45.5150649],[7.2062547,45.5150527],[7.2063634,45.5150132],[7.2064935,45.5149615],[7.2066101,45.5148967],[7.2067885,45.514757],[7.2068523,45.5147174],[7.206959,45.5146539],[7.2072016,45.5144475],[7.2072539,45.5143516],[7.2072646,45.5142501],[7.2073196,45.5141674],[7.2074228,45.5141214],[7.207506,45.5140105],[7.2076709,45.5139306],[7.2077581,45.5139513],[7.207778,45.513994],[7.2077647,45.5140871],[7.207788,45.5141616],[7.2078345,45.5142524],[7.2079208,45.5143199],[7.2079208,45.5143967],[7.2079673,45.5146085],[7.2079876,45.5146727],[7.2079985,45.5147076],[7.2080172,45.5147668],[7.2080703,45.5148831],[7.2081666,45.5148017],[7.2082297,45.5147737],[7.2082729,45.5147109],[7.2083526,45.514527],[7.2084058,45.5144479],[7.2085253,45.5142314],[7.2086316,45.5140918],[7.2086881,45.5140499],[7.2087313,45.5140801],[7.2087346,45.5141732],[7.2087579,45.5143036],[7.2087678,45.5145061],[7.2087944,45.5145619],[7.2088442,45.514541],[7.2088641,45.5144944],[7.2089206,45.5144525],[7.2089571,45.5144432],[7.2089904,45.5144805],[7.2090003,45.5145363],[7.2089837,45.5146178],[7.2090136,45.5146969],[7.2090767,45.5146062],[7.2091166,45.5146062],[7.2091232,45.514683],[7.209193,45.5146201],[7.2092229,45.5146969],[7.209276,45.5146364],[7.2093159,45.5145619],[7.2093856,45.5145177],[7.2094255,45.5145224],[7.2094786,45.5146108],[7.2095218,45.5145829],[7.2096248,45.514534],[7.2096547,45.514548],[7.2097111,45.5146201],[7.2096945,45.5146923],[7.2096846,45.51479],[7.2097377,45.5149646],[7.2097908,45.5149948],[7.2099104,45.5149785],[7.2100067,45.5149413],[7.210113,45.5148901],[7.2101761,45.5148808],[7.2102725,45.5149157],[7.2103591,45.5149648],[7.2105041,45.5150252],[7.2105864,45.5151433],[7.210602,45.5152229],[7.2107078,45.5152641],[7.210747,45.5152696],[7.2107862,45.5153191],[7.210845,45.5154152],[7.2109116,45.5154289],[7.2109195,45.5153795],[7.210845,45.5152229],[7.2108646,45.5151543],[7.21099,45.5152394],[7.2110214,45.515179],[7.2110409,45.5151021],[7.2110475,45.5148367],[7.2108453,45.5146915],[7.2106522,45.5146051],[7.2106435,45.5145839],[7.2106536,45.5145802],[7.2107629,45.5145792],[7.2109164,45.5146149],[7.2109949,45.5146511],[7.211013,45.5146638],[7.2110257,45.5146516],[7.2110016,45.5146196],[7.2108883,45.5144994],[7.2108521,45.5144336],[7.2108333,45.5143805],[7.2108561,45.5142057],[7.2108951,45.5140888],[7.2109512,45.514026],[7.210987,45.5140291],[7.2110296,45.5141313],[7.2110655,45.5141784],[7.2111306,45.5142365],[7.2112875,45.5143418],[7.2113705,45.5144157],[7.211449,45.514466],[7.2114916,45.5144832],[7.2115544,45.514554],[7.2115925,45.5145744],[7.2115723,45.514411],[7.2115465,45.514385],[7.2114378,45.5142758],[7.211384,45.5141313],[7.2113907,45.5140087],[7.2114243,45.5139003],[7.2114243,45.5138358],[7.2113593,45.5137023],[7.211357,45.5136567],[7.211384,45.5135954],[7.211431,45.5135719],[7.211458,45.5135923],[7.2114467,45.5136284],[7.2116172,45.5137808],[7.2116351,45.5138343],[7.211671,45.5138798],[7.2116934,45.5139286],[7.21181,45.514081],[7.2119132,45.5141485],[7.2119334,45.5141328],[7.211875,45.5139961],[7.2118863,45.5138783],[7.2118863,45.5138138],[7.211875,45.5137526],[7.211884,45.5136599],[7.2119266,45.5136379],[7.2119894,45.5136253],[7.2120275,45.5136441],[7.2120567,45.5136787],[7.2120455,45.5137259],[7.2120477,45.5137761],[7.2120612,45.5138248],[7.2120881,45.513861],[7.2121284,45.5138987],[7.2121912,45.5139254],[7.2122854,45.5140024],[7.2123617,45.514081],[7.2124043,45.5141454],[7.2124267,45.5140888],[7.21242,45.5140354],[7.2124043,45.5139757],[7.2123751,45.5139207],[7.2123684,45.5138704],[7.2123953,45.5138296],[7.2124222,45.5138233],[7.2124334,45.5138704],[7.2124648,45.5139191],[7.2124962,45.5139537],[7.2125298,45.5140071],[7.212568,45.5140464],[7.2126038,45.5141831],[7.2126734,45.5143198],[7.212707,45.5143701],[7.2127272,45.5143811],[7.2127317,45.5142915],[7.2127788,45.5141957],[7.212772,45.5141485],[7.2128079,45.5140087],[7.2127967,45.5139568],[7.2128438,45.5139223],[7.2129268,45.51407],[7.2130052,45.514191],[7.2130703,45.5142633],[7.2131779,45.5143308],[7.2132026,45.5143355],[7.2131891,45.5142963],[7.2131981,45.5141721],[7.2131779,45.51407],[7.2131846,45.5140087],[7.2132833,45.5140888],[7.2133595,45.514136],[7.2135412,45.5142963],[7.2135658,45.514301],[7.2135681,45.5142538],[7.2134649,45.513982],[7.2134829,45.513949],[7.2135412,45.5139144],[7.2136197,45.5138987],[7.2136174,45.5139348],[7.2136466,45.5139977],[7.2137363,45.5140417],[7.2138843,45.514092],[7.2141646,45.5141674],[7.2143866,45.5142098],[7.2145099,45.5142271],[7.2146826,45.5142743],[7.2147835,45.514279],[7.2147207,45.5142303],[7.2146781,45.5141753],[7.2146893,45.5141313],[7.2147947,45.5141171],[7.2148404,45.5140993],[7.2148473,45.5140728],[7.2148381,45.5139658],[7.2149437,45.514035],[7.2150034,45.5140454],[7.2151424,45.5141008],[7.2152106,45.5141574],[7.2152806,45.5141875],[7.2153254,45.5142164],[7.2153649,45.5142089],[7.2153541,45.5141548],[7.2154582,45.5141071],[7.2155533,45.5140782],[7.2156627,45.5140216],[7.2157793,45.5139826],[7.2158564,45.5139537],[7.2159443,45.5139198],[7.2159964,45.513872],[7.216052,45.5138205],[7.2161022,45.5137551],[7.2161417,45.5136985],[7.2161955,45.5136093],[7.2163103,45.513515],[7.2163713,45.513471],[7.2164449,45.5134396],[7.2165345,45.5134157],[7.2166189,45.5134106],[7.2166888,45.5134345],[7.2167283,45.5134559],[7.2166781,45.5135313],[7.2166386,45.5135791],[7.2166278,45.5136357],[7.2165991,45.5137237],[7.2165722,45.5137752],[7.2165633,45.5138255],[7.2165561,45.513877],[7.2165471,45.5139235],[7.2165776,45.5139311],[7.2166368,45.5138745],[7.2167355,45.5137991],[7.2168018,45.5137614],[7.2169005,45.5137224],[7.2170099,45.5136885],[7.2171391,45.5136621],[7.2172091,45.5136608],[7.2172611,45.5136244],[7.2173077,45.5135904],[7.2173939,45.5135527],[7.2174692,45.5135213],[7.2175248,45.5134898],[7.2176217,45.5134458],[7.2177293,45.5134169],[7.21788,45.5133641],[7.2179518,45.513344],[7.2180199,45.5133151],[7.2180827,45.5132975],[7.2181742,45.5132749],[7.2182334,45.5132686],[7.218194,45.5133088],[7.218115,45.5133503],[7.2180971,45.5134144],[7.2180451,45.5134383],[7.2179715,45.5135049],[7.2179177,45.513559],[7.2178693,45.5135942],[7.2178154,45.5136357],[7.2177688,45.5136759],[7.2177401,45.5137211],[7.2177114,45.5137727],[7.2176845,45.5138117],[7.217654,45.5138456],[7.2176217,45.5138946],[7.2175894,45.5139261],[7.217575,45.5139575],[7.217584,45.5140053],[7.2176217,45.5139713],[7.2176594,45.5139336],[7.2177329,45.5138909],[7.2178118,45.5138707],[7.2179087,45.5138368],[7.2180002,45.5138003],[7.218072,45.5137614],[7.2181778,45.5137249],[7.2182711,45.5136985],[7.2183662,45.5136822],[7.2185115,45.513652],[7.2186173,45.5136357],[7.2187052,45.5136156],[7.2187931,45.5136017],[7.2188757,45.5135791],[7.2189313,45.5135703],[7.2189994,45.513569],[7.2191107,45.5135628],[7.2191932,45.513559],[7.2192632,45.5135577],[7.2193546,45.5135615],[7.2194425,45.5135577],[7.2195143,45.5135577],[7.2196094,45.513564],[7.2197278,45.5135816],[7.2198247,45.5135929],[7.219891,45.513598],[7.2199484,45.5136055],[7.2199951,45.5136294],[7.2200525,45.513652],[7.2201494,45.5136596],[7.2202534,45.5136482],[7.2203521,45.5136382],[7.2204095,45.5136168],[7.2204777,45.513608],[7.2205835,45.5135917],[7.2206176,45.513569],[7.2206642,45.5135137],[7.2207127,45.5134735],[7.2207485,45.5134471],[7.2208077,45.5134257],[7.2209028,45.5133968],[7.2209818,45.5133679],[7.2210517,45.5133553],[7.2210966,45.5133465],[7.2210661,45.513393],[7.2210248,45.5134421],[7.2209764,45.5134949],[7.2209566,45.5135338],[7.2209333,45.5135841],[7.2210051,45.5135728],[7.221084,45.5135439],[7.2211594,45.5135049],[7.2212383,45.513476],[7.2213334,45.513466],[7.2214554,45.5134446],[7.2215253,45.5134345],[7.2215881,45.513427],[7.2216222,45.5134295],[7.2216007,45.5134735],[7.2215594,45.5135087],[7.2215092,45.5135477],[7.2214715,45.5135866],[7.221441,45.5136218],[7.221432,45.5136482],[7.2214356,45.5136646],[7.2214966,45.5136495],[7.221572,45.5136281],[7.2216599,45.5135992],[7.2217442,45.5135866],[7.2218303,45.513564],[7.2218913,45.5135502],[7.2219343,45.5135338],[7.2219666,45.5135162],[7.2220294,45.5135087],[7.222051,45.5135125],[7.2220079,45.5135527],[7.2219469,45.5135929],[7.2218769,45.5136332],[7.2218285,45.5136621],[7.2217657,45.5136872],[7.2217101,45.5137211],[7.2216455,45.5137563],[7.221615,45.5137865],[7.2216258,45.5138041],[7.2216904,45.5137727],[7.2217603,45.5137463],[7.2218124,45.5137274],[7.2218698,45.5137161],[7.2219666,45.513691],[7.2220581,45.5136746],[7.2221317,45.5136709],[7.2222196,45.5136596],[7.2222878,45.5136457],[7.2223523,45.5136105],[7.2224277,45.5135791],[7.2225048,45.5135514],[7.2225658,45.5135238],[7.222634,45.5134848],[7.2226788,45.5134697],[7.2227327,45.5134484],[7.2227721,45.5134282],[7.2228367,45.5133943],[7.2228995,45.5133641],[7.222939,45.513339],[7.2229982,45.5133],[7.223034,45.5132749],[7.223104,45.5132422],[7.2231883,45.5132145],[7.223269,45.5131944],[7.2233605,45.5131693],[7.2234879,45.5131429],[7.2236081,45.5131215],[7.2237714,45.5130926],[7.2238557,45.5130825],[7.2239525,45.5130675],[7.2240727,45.5130486],[7.2241732,45.513036],[7.2243526,45.5130159],[7.2244836,45.5129996],[7.2245826,45.5129721],[7.2246777,45.512957],[7.2247836,45.5129457],[7.2248948,45.5129445],[7.2249881,45.5129231],[7.2251047,45.5128778],[7.225189,45.5128414],[7.225311,45.5127999],[7.2253917,45.5127659],[7.225476,45.5127333],[7.225537,45.5127219],[7.225598,45.5126893],[7.2256698,45.5126402],[7.2257272,45.5125925],[7.2257846,45.5125648],[7.2258241,45.5125736],[7.2258169,45.5126025],[7.2258079,45.512634],[7.2257684,45.5126528],[7.2257613,45.5126767],[7.2258007,45.5126654],[7.2258779,45.5126365],[7.225946,45.5125975],[7.2259676,45.5125648],[7.2259819,45.5125145],[7.2260035,45.5124881],[7.2260519,45.5124781],[7.2260788,45.5124756],[7.2261757,45.512463],[7.226251,45.5124818],[7.2263317,45.5124957],[7.2264376,45.5124919],[7.2265183,45.5124806],[7.2266152,45.5124567],[7.2267049,45.512419],[7.226791,45.5123775],[7.2268341,45.5123461],[7.2268825,45.5123172],[7.2269399,45.5122996],[7.2269883,45.512297],[7.2270565,45.5123096],[7.2271157,45.5123461],[7.2271318,45.512385],[7.2271641,45.512429],[7.2272359,45.5124265],[7.2273041,45.5123989],[7.2273902,45.5123561],[7.2274566,45.5123297],[7.2275211,45.5123322],[7.2275785,45.5123473],[7.2276324,45.5123536],[7.2277131,45.5123649],[7.2277866,45.5123838],[7.2278512,45.5123901],[7.227932,45.512385],[7.2280109,45.5123813],[7.2281149,45.5123863],[7.2281759,45.5123989],[7.2282244,45.5124202],[7.2282692,45.5124378],[7.2283243,45.5124895],[7.2283631,45.5125206],[7.2284449,45.5125578],[7.2285195,45.512577],[7.2285697,45.512582],[7.2286019,45.5125975],[7.2287034,45.5125626],[7.2287895,45.5125615],[7.2288571,45.512541],[7.2289078,45.5125421],[7.2290031,45.5125593],[7.2291652,45.512578],[7.2293101,45.5125153],[7.2295903,45.5124335],[7.2296253,45.512447],[7.229669,45.5124526],[7.2297265,45.5124437],[7.2297862,45.5124461],[7.2298147,45.5124617],[7.229794,45.5125277],[7.2298722,45.5125342],[7.2298929,45.5125535],[7.2299273,45.512597],[7.2300147,45.5125928],[7.2300262,45.5126646],[7.2300491,45.5127806],[7.2301043,45.5128675],[7.2302238,45.513035],[7.2303111,45.5131542],[7.2303663,45.5132959],[7.2303617,45.5135085],[7.2304536,45.5137533],[7.2305517,45.5140286],[7.2305972,45.5141106],[7.2307013,45.5142108],[7.2308378,45.5142791],[7.2310198,45.5143702],[7.2310783,45.5144841],[7.2310653,45.5145889],[7.2310783,45.5147119],[7.2311433,45.5148531],[7.2312343,45.5149943],[7.2313123,45.5151127],[7.2314163,45.5152311],[7.2314807,45.5152462],[7.2316308,45.5152812],[7.2318648,45.5153541],[7.2320729,45.5154543],[7.2322289,45.5155591],[7.2323589,45.5157185],[7.2324629,45.5158871],[7.2325344,45.5160374],[7.2326384,45.5162332],[7.2326969,45.5164428],[7.2326514,45.5165111],[7.2325864,45.5166113],[7.2326774,45.5166341],[7.2328074,45.516625],[7.2328204,45.5166705],[7.2327619,45.5167707],[7.2329699,45.5167844],[7.2330414,45.5168481],[7.2331779,45.51688],[7.233425,45.5168891],[7.233568,45.5169802],[7.233763,45.5170395],[7.2341214,45.5171359],[7.2343901,45.5172],[7.2347121,45.5172353],[7.2350046,45.5173765],[7.235542,45.5177356],[7.2361994,45.517944],[7.236752,45.5182221],[7.2369612,45.5184627],[7.2373099,45.5185604],[7.2375727,45.5184627],[7.2385061,45.5185115],[7.2389568,45.5186318],[7.2394717,45.5186807],[7.2399182,45.5188112],[7.2403461,45.5188761],[7.2406402,45.5189122],[7.2408738,45.5188276],[7.2413548,45.5188945],[7.2415307,45.5190433],[7.2424651,45.5191392],[7.2440047,45.5194775],[7.2450722,45.5197218],[7.2457213,45.5197594],[7.2464026,45.5197218],[7.2469551,45.5196993],[7.2472823,45.5195189],[7.2474118,45.5193225],[7.2474775,45.5191971],[7.2475977,45.5190248],[7.2477418,45.5188326],[7.2478284,45.5186029],[7.2477663,45.5183919],[7.2476039,45.5181413],[7.2475348,45.5178793],[7.247944,45.5178171],[7.2478497,45.5172469],[7.2479968,45.5170022],[7.2482542,45.5166285],[7.2486528,45.5163389],[7.2490524,45.5160848],[7.2496567,45.5157735],[7.2500725,45.5155217],[7.2508581,45.5151142],[7.2509686,45.5150484],[7.25135,45.515003],[7.251674,45.5147411],[7.2518148,45.514612],[7.2521527,45.5145744],[7.2523684,45.5144388],[7.2524787,45.5145231],[7.2526753,45.5144786],[7.2528415,45.5143417],[7.2531173,45.5143675],[7.2536377,45.5143906],[7.2538957,45.5142549],[7.2539997,45.5140395],[7.2544276,45.514253],[7.2545904,45.5141241],[7.2553053,45.5144126],[7.2556603,45.5144039],[7.2562477,45.5140651],[7.2573591,45.5138718],[7.2583342,45.5138023],[7.2590358,45.5138552],[7.2596503,45.5138785],[7.2603232,45.513953],[7.2607387,45.5139484],[7.2611299,45.5139994],[7.2613893,45.5139571],[7.2619529,45.5137035],[7.2623644,45.5134758],[7.2629057,45.5133072],[7.2631166,45.5132544],[7.263401,45.5131793],[7.2636102,45.5131417],[7.264034,45.5130928],[7.2643505,45.5130552],[7.2646938,45.5130139],[7.2650854,45.5129687],[7.2654609,45.5129725],[7.2658418,45.5129575],[7.2663926,45.5129445],[7.2671424,45.5128971],[7.2671024,45.5131294],[7.2674009,45.5131002],[7.267282,45.5133484],[7.2675618,45.513333],[7.2675527,45.5133956],[7.2674143,45.5138039],[7.267749,45.5138089],[7.2685011,45.5151617],[7.2685789,45.515395],[7.2686787,45.5156394],[7.268731,45.5158685],[7.2687557,45.5161214],[7.2687329,45.5162744],[7.2687084,45.5163691],[7.2686442,45.5164845],[7.2686239,45.5165991],[7.2686141,45.5166424],[7.2685478,45.5166948],[7.2685148,45.516745],[7.2684918,45.5168287],[7.2684688,45.5168762],[7.2684619,45.5169052],[7.2684527,45.5169221],[7.2684286,45.5169302],[7.2684079,45.5169414],[7.268401,45.5169583],[7.2683964,45.5169744],[7.2683918,45.5169938],[7.2683424,45.5169881],[7.2683033,45.5169978],[7.2682815,45.5170236],[7.2682631,45.5170469],[7.2682223,45.5170816],[7.2680518,45.5172282],[7.268007,45.5172667],[7.2678862,45.5173766],[7.2678411,45.5173689],[7.2675836,45.517557],[7.267362,45.5176871],[7.2672005,45.5178193],[7.2672005,45.5178193]]}}]}
