{"type":"FeatureCollection","peaks_destination_id":"koJWwABAtWxk0Z00lXKz","peaks_trailhead_id":"B8B4127B4768F95F7E4B","peaks_source":"https://www.openstreetmap.org/","peaks_retrieval_source":"https://overpass-api.de/api/interpreter","peaks_license_name":"Open Data Commons Open Database License (ODbL) 1.0","peaks_license":"https://opendatacommons.org/licenses/odbl/1-0/","peaks_attribution":"© OpenStreetMap contributors","peaks_retrieved_at":"2026-07-31T13:27:08.991Z","features":[{"type":"Feature","properties":{"name":"Granite Mountain OSM route candidate","trailhead_name":"Tucquala Meadows Trailhead","destination_name":"Granite Mountain","distance_m":12207.460303589036,"trailhead_snap_m":8.881101205019863,"summit_snap_m":18.254442645345602,"osm_way_ids":[1089355507,229366636,229366635,1174946185,1174946186,379010137,827836552,827836554,1191406576,1174946183,833279180],"osm_way_urls":["https://www.openstreetmap.org/way/1089355507","https://www.openstreetmap.org/way/229366636","https://www.openstreetmap.org/way/229366635","https://www.openstreetmap.org/way/1174946185","https://www.openstreetmap.org/way/1174946186","https://www.openstreetmap.org/way/379010137","https://www.openstreetmap.org/way/827836552","https://www.openstreetmap.org/way/827836554","https://www.openstreetmap.org/way/1191406576","https://www.openstreetmap.org/way/1174946183","https://www.openstreetmap.org/way/833279180"],"osm_way_names":["Deception Pass Trail","Robin Lakes Trail"],"osm_foot_access_override_way_ids":[]},"geometry":{"type":"LineString","coordinates":[[-121.098175,47.544895],[-121.098057,47.5449009],[-121.0980275,47.5452926],[-121.0981016,47.545414],[-121.0982166,47.5455399],[-121.0983345,47.5455876],[-121.0984621,47.5456645],[-121.0985686,47.5456881],[-121.0986467,47.5457625],[-121.0986643,47.5458354],[-121.098749,47.5459379],[-121.0989976,47.5462682],[-121.0991945,47.5463272],[-121.0994095,47.5463621],[-121.0994929,47.5464213],[-121.0995675,47.5465233],[-121.0996771,47.5467268],[-121.0997109,47.5469355],[-121.0997894,47.5470468],[-121.0998391,47.5472519],[-121.0999072,47.5473543],[-121.100025,47.5474643],[-121.1002569,47.5475549],[-121.1003942,47.5477241],[-121.1005709,47.5478381],[-121.1006942,47.5479569],[-121.100834,47.5480024],[-121.1010009,47.5480302],[-121.1011384,47.5480634],[-121.1012797,47.5481349],[-121.101386,47.5481559],[-121.1015429,47.5481164],[-121.1016961,47.5481374],[-121.1017706,47.5481402],[-121.1019159,47.5481416],[-121.1020494,47.5480965],[-121.1021984,47.5480737],[-121.1024107,47.5480859],[-121.1029075,47.5481641],[-121.1030253,47.5482379],[-121.1030783,47.5483046],[-121.1030764,47.5483894],[-121.1030921,47.5484623],[-121.1030724,47.54862],[-121.1031628,47.5489261],[-121.1031058,47.5490878],[-121.1031235,47.5491528],[-121.103224,47.5492427],[-121.1033389,47.5493877],[-121.1033886,47.5494801],[-121.1034542,47.5496888],[-121.1039286,47.5499292],[-121.1043271,47.5506363],[-121.1047583,47.5516066],[-121.1047552,47.5518908],[-121.1046967,47.5520177],[-121.1047238,47.5521386],[-121.1047827,47.5522764],[-121.1047945,47.55245],[-121.1048398,47.5525724],[-121.1049889,47.5526329],[-121.105209,47.5526821],[-121.1052363,47.5528383],[-121.1052971,47.5529589],[-121.105329,47.5530852],[-121.1054503,47.5531424],[-121.1055612,47.5531438],[-121.10581,47.5532335],[-121.105949,47.553381],[-121.1060024,47.5534973],[-121.1061355,47.5536578],[-121.106101,47.5538571],[-121.1062357,47.5540376],[-121.1064232,47.5541542],[-121.106436,47.5542258],[-121.1065832,47.5543397],[-121.1067521,47.5545279],[-121.107188,47.5548406],[-121.1073812,47.5551475],[-121.1073981,47.5552627],[-121.1073928,47.5554171],[-121.1073893,47.5555271],[-121.1074182,47.5555763],[-121.1074698,47.5556145],[-121.1075424,47.5556318],[-121.1075915,47.5556735],[-121.1076262,47.5557616],[-121.1076141,47.5559034],[-121.107563,47.5560452],[-121.1074865,47.5560955],[-121.1074737,47.5561433],[-121.107529,47.556183],[-121.1077015,47.556234],[-121.1078095,47.5562844],[-121.1078085,47.5563771],[-121.1078722,47.5564418],[-121.1080719,47.5565483],[-121.1081658,47.556664],[-121.1082817,47.5567654],[-121.1084676,47.5569993],[-121.1085703,47.5572603],[-121.1085193,47.5574246],[-121.1085262,47.5575187],[-121.1085857,47.5575867],[-121.1086695,47.5576347],[-121.1087205,47.5577294],[-121.1088266,47.5577702],[-121.1088768,47.5578203],[-121.1090759,47.5578944],[-121.1092947,47.5579654],[-121.1094282,47.5580989],[-121.1094608,47.5582789],[-121.1095069,47.5583462],[-121.1095943,47.5583933],[-121.1096715,47.5584092],[-121.1097229,47.5584721],[-121.1097553,47.5585331],[-121.1097602,47.558594],[-121.1098628,47.5587867],[-121.1099576,47.5588431],[-121.1100371,47.5589471],[-121.1101254,47.5589856],[-121.1102118,47.5590677],[-121.1102786,47.559179],[-121.1105083,47.5593552],[-121.1106929,47.5594679],[-121.110827,47.5595824],[-121.1108087,47.5600475],[-121.1109209,47.5602274],[-121.1109984,47.5602809],[-121.1112233,47.5603816],[-121.1115571,47.560483],[-121.1119428,47.5605152],[-121.1122039,47.5605652],[-121.112777,47.5607379],[-121.1131203,47.5609333],[-121.1133027,47.5611505],[-121.1134637,47.5615487],[-121.1135173,47.5618383],[-121.113707,47.5621308],[-121.1141396,47.5624537],[-121.1151718,47.5633319],[-121.1153451,47.5636082],[-121.1155558,47.5638437],[-121.1155971,47.5641396],[-121.1157532,47.5644556],[-121.1159122,47.5647774],[-121.1159916,47.5649296],[-121.1160292,47.5649622],[-121.1161365,47.5651558],[-121.1162491,47.565268],[-121.1163698,47.5653413],[-121.1164422,47.5654979],[-121.1164543,47.5655911],[-121.1165147,47.5656518],[-121.1166501,47.5657476],[-121.1167212,47.5658644],[-121.1167688,47.5660315],[-121.1168674,47.5661928],[-121.1169304,47.5662951],[-121.1169425,47.5664354],[-121.1169733,47.5664779],[-121.1169934,47.5665295],[-121.1170699,47.5665629],[-121.1171128,47.5666227],[-121.1171155,47.5666932],[-121.1172201,47.5668453],[-121.1172938,47.5669928],[-121.1173542,47.5671204],[-121.1173931,47.5672497],[-121.1174347,47.5673221],[-121.1175406,47.5674479],[-121.1176157,47.5675864],[-121.1178517,47.5677167],[-121.1182273,47.5678904],[-121.1184079,47.5679589],[-121.1185853,47.5680262],[-121.1190708,47.5683754],[-121.119283,47.5686247],[-121.1194262,47.5688658],[-121.1197588,47.5691472],[-121.1198312,47.5692404],[-121.1199546,47.5694829],[-121.1201598,47.5696069],[-121.1202805,47.5697734],[-121.1203663,47.5698693],[-121.1203873,47.5699548],[-121.1207084,47.5701699],[-121.1208639,47.5703045],[-121.1209631,47.5704384],[-121.1210958,47.5707407],[-121.1210999,47.5709216],[-121.1211804,47.5710601],[-121.1212286,47.5711424],[-121.1213056,47.5712013],[-121.1214016,47.5712265],[-121.1215331,47.5712374],[-121.1215626,47.5712645],[-121.1216658,47.5712881],[-121.1219206,47.5714925],[-121.1220333,47.5716165],[-121.122036,47.5717993],[-121.1219923,47.5720361],[-121.1220226,47.5722462],[-121.1221084,47.5723611],[-121.1221714,47.5725014],[-121.1221695,47.5726681],[-121.1221913,47.5727987],[-121.1223136,47.5728714],[-121.1224222,47.5729864],[-121.1225349,47.5730868],[-121.1228514,47.5732831],[-121.1232376,47.5735437],[-121.1233328,47.5735871],[-121.1234804,47.5736296],[-121.1237633,47.5737753],[-121.1240423,47.5740504],[-121.1243963,47.5741589],[-121.1245524,47.5742592],[-121.1248469,47.5743616],[-121.1252117,47.5743399],[-121.1256228,47.5743494],[-121.1259305,47.5743502],[-121.1260808,47.5744702],[-121.1262632,47.5746945],[-121.1264348,47.5748683],[-121.126751,47.5750275],[-121.1269444,47.5752229],[-121.1271268,47.5754111],[-121.1273736,47.575545],[-121.1274433,47.5756101],[-121.1274755,47.5757404],[-121.1274132,47.5758878],[-121.1275493,47.5759874],[-121.1278242,47.576048],[-121.1279583,47.576124],[-121.128602,47.5766126],[-121.1289561,47.5770179],[-121.1292061,47.5772929],[-121.1294306,47.5773815],[-121.1295977,47.5774446],[-121.1297715,47.5774739],[-121.1308229,47.5778032],[-121.1311823,47.5780058],[-121.131472,47.5781108],[-121.1316705,47.5781469],[-121.1319065,47.5782591],[-121.132278,47.5784663],[-121.1324944,47.5785285],[-121.132665,47.57859],[-121.1327514,47.5786608],[-121.1330035,47.5789394],[-121.133084,47.579039],[-121.1331189,47.5792108],[-121.1333227,47.5795655],[-121.1337519,47.5799346],[-121.134063,47.5801155],[-121.1345673,47.5804014],[-121.1348087,47.5804991],[-121.1350393,47.5806692],[-121.1351895,47.5807849],[-121.1354363,47.5809405],[-121.1356241,47.5810744],[-121.1358118,47.5812409],[-121.1358638,47.5813972],[-121.1359329,47.5815083],[-121.1359753,47.581585],[-121.1360007,47.5816249],[-121.1360215,47.5816505],[-121.136048,47.5817158],[-121.1359702,47.5817097],[-121.1358708,47.5817033],[-121.1357875,47.5816866],[-121.1356866,47.5816682],[-121.1354833,47.581593],[-121.1352984,47.5815753],[-121.1352838,47.5815707],[-121.1352678,47.5815692],[-121.1352337,47.581567],[-121.1352054,47.5815606],[-121.1351177,47.5815481],[-121.1351427,47.5815809],[-121.1351753,47.5816066],[-121.135221,47.5816222],[-121.1352757,47.5816555],[-121.1352888,47.5816643],[-121.1352972,47.5816754],[-121.1353001,47.5816878],[-121.1352972,47.5817001],[-121.1353531,47.5817566],[-121.1352787,47.5817472],[-121.1352312,47.5817278],[-121.1351859,47.5817101],[-121.1351362,47.5817021],[-121.1350994,47.5817017],[-121.1350544,47.5816997],[-121.134958,47.5816943],[-121.1349727,47.5817272],[-121.1350286,47.5817963],[-121.1350688,47.5818524],[-121.1352516,47.582003],[-121.1353596,47.5821892],[-121.1354243,47.5822306],[-121.135449,47.5822629],[-121.1354693,47.582284],[-121.1354789,47.5823032],[-121.1354727,47.58233],[-121.1355043,47.582372],[-121.1355159,47.5824206],[-121.135457,47.5823963],[-121.1354107,47.5823753],[-121.135373,47.5823701],[-121.1352932,47.5823753],[-121.1352783,47.5823934],[-121.1353418,47.5824563],[-121.1353532,47.5824802],[-121.1354329,47.5825666],[-121.1353288,47.582615],[-121.1353628,47.582653],[-121.1354367,47.582664],[-121.1355165,47.582669],[-121.1356148,47.5826709],[-121.1355387,47.5827299],[-121.1355007,47.5827426],[-121.1353102,47.582862],[-121.1352796,47.5828859],[-121.1352662,47.5829194],[-121.1352132,47.5829221],[-121.1351466,47.582888],[-121.1350316,47.5828504],[-121.1349714,47.5828464],[-121.1349101,47.5828633],[-121.1347969,47.5828369],[-121.1345844,47.582823],[-121.1345416,47.5828884],[-121.1344673,47.5829005],[-121.134413,47.5829175],[-121.1343493,47.5829226],[-121.1342708,47.5829123],[-121.1342097,47.5829139],[-121.1342407,47.582966],[-121.1342866,47.5830012],[-121.1343259,47.5830411],[-121.1345493,47.5833602],[-121.1345581,47.5833755],[-121.1345587,47.5833918],[-121.1345633,47.5834059],[-121.1345805,47.5834419],[-121.1345389,47.5834357],[-121.1344921,47.5834324],[-121.1344681,47.5834303],[-121.1344466,47.5834228],[-121.1343409,47.5833909],[-121.1342998,47.5833856],[-121.1342777,47.5833811],[-121.1341968,47.5833545],[-121.1342106,47.5834159],[-121.1342069,47.5834396],[-121.134213,47.5834663],[-121.1342213,47.5834861],[-121.1342327,47.5836128],[-121.1342537,47.5836309],[-121.1342738,47.5836487],[-121.1342835,47.5836967],[-121.1342587,47.5837091],[-121.1342061,47.5836833],[-121.1341606,47.5836757],[-121.1341086,47.5836721],[-121.1340683,47.5836733],[-121.1340352,47.5836744],[-121.1339955,47.58368],[-121.1339873,47.583712],[-121.1340087,47.5837423],[-121.1340605,47.5838015],[-121.1340518,47.5838694],[-121.1340103,47.5838896],[-121.1339346,47.583889],[-121.1338682,47.5839158],[-121.133758,47.5839615],[-121.1337722,47.5840421],[-121.1337403,47.5841386],[-121.1337948,47.5842279],[-121.1339578,47.5844703],[-121.1340907,47.584514],[-121.1341837,47.5845698],[-121.1342541,47.5847113],[-121.134328,47.5847327],[-121.1343466,47.5847416],[-121.1343681,47.5847459],[-121.1343906,47.5847451],[-121.1344112,47.5847393],[-121.1344362,47.5847149],[-121.1344443,47.5846922],[-121.1344676,47.5846736],[-121.1344933,47.584694],[-121.1345154,47.5846969],[-121.1345648,47.5846871],[-121.1346133,47.5846908],[-121.1346291,47.5847419],[-121.1345667,47.5848216],[-121.1345619,47.5849081],[-121.1346244,47.5850023],[-121.1346482,47.5851041],[-121.1346838,47.5852012],[-121.1346866,47.5852639],[-121.1345439,47.5853382],[-121.1344573,47.5853821],[-121.134427,47.5854103],[-121.1344126,47.5854436],[-121.1344156,47.5854784],[-121.1344358,47.5855103],[-121.1344707,47.5855359],[-121.1346263,47.585639],[-121.1346461,47.5856585],[-121.1346571,47.5856809],[-121.1346582,47.5857044],[-121.1346495,47.5857273],[-121.1346316,47.5857476],[-121.1342191,47.5860069],[-121.1342075,47.5861168],[-121.1342169,47.5862048],[-121.1342588,47.5862885],[-121.1343983,47.5864115],[-121.1344546,47.5866069],[-121.1347038,47.5867843],[-121.1348167,47.5868511],[-121.1349243,47.5870074],[-121.1353585,47.5872184],[-121.1356646,47.5872623],[-121.1359653,47.5873934],[-121.1359927,47.5874848],[-121.1360529,47.5875675],[-121.1361398,47.5875763],[-121.1362678,47.587696],[-121.1364049,47.5878785],[-121.1364366,47.5879888],[-121.1364025,47.5880773],[-121.1360896,47.5880585],[-121.135866,47.5880537],[-121.1356694,47.5879943],[-121.1352787,47.5880237],[-121.1350496,47.5880975],[-121.1348475,47.588094],[-121.1346195,47.5881221],[-121.134467,47.5880485],[-121.13426,47.5879732],[-121.1339004,47.5879954],[-121.1335251,47.5878507],[-121.1334032,47.5878425],[-121.1332516,47.5879099],[-121.1330169,47.5879112],[-121.1328614,47.5877936],[-121.1327107,47.5876729],[-121.1320418,47.5875704],[-121.1318506,47.5874437],[-121.1317519,47.5873714],[-121.1316253,47.5873545],[-121.1314764,47.5874208],[-121.1314091,47.587392],[-121.1313243,47.587347],[-121.1311998,47.5873373],[-121.1310806,47.5873182],[-121.1310247,47.5872923],[-121.1309056,47.5872996],[-121.1308262,47.5872874],[-121.1307288,47.5872175],[-121.1305267,47.587218],[-121.1304852,47.5872314],[-121.1303623,47.5872242],[-121.1302618,47.5871561],[-121.129993,47.5870587],[-121.1298032,47.5869807],[-121.1297454,47.5869673],[-121.1296353,47.5869211],[-121.1295281,47.5868239],[-121.1292575,47.5867952],[-121.1290123,47.5867013],[-121.1289533,47.5865706],[-121.1288777,47.5864732],[-121.1288216,47.5864562],[-121.1287638,47.5864087],[-121.1286177,47.586388],[-121.1285189,47.5863373],[-121.1284336,47.5862894],[-121.1283849,47.586214],[-121.1282966,47.5861533],[-121.128181,47.5861531],[-121.1280728,47.5861008],[-121.1279248,47.5860986],[-121.1276287,47.5859593],[-121.1274655,47.5858903],[-121.1272204,47.5858597],[-121.1272032,47.5859176],[-121.1272808,47.5859856],[-121.1273963,47.586067],[-121.1274755,47.5861823],[-121.1275465,47.5862339],[-121.1275479,47.5863084],[-121.1273793,47.5863487],[-121.1273746,47.5864621],[-121.1274266,47.5866355],[-121.1275184,47.5867426],[-121.1276559,47.5867823],[-121.1277887,47.5868541],[-121.1276471,47.5868586],[-121.1272797,47.5868909],[-121.1270759,47.5868095],[-121.1267801,47.5868137],[-121.1262204,47.5865189],[-121.125962,47.5863848],[-121.1258588,47.5863844],[-121.1257438,47.5863618],[-121.125649,47.5864115],[-121.1256693,47.5865328],[-121.1255935,47.5865864],[-121.1255033,47.5866205],[-121.1255437,47.5867189],[-121.1255051,47.5867409],[-121.1254368,47.5867337],[-121.1251983,47.5866594],[-121.1250341,47.5865811],[-121.1248071,47.5866611],[-121.1245625,47.5866289],[-121.1242204,47.5867726],[-121.1241175,47.5868724],[-121.1239985,47.5868797],[-121.1239353,47.5869259],[-121.1238054,47.5869357],[-121.1234887,47.5870924],[-121.1234344,47.5872501],[-121.1230651,47.5873321],[-121.1229203,47.5874231],[-121.1227145,47.5874628],[-121.1225045,47.587632],[-121.1221025,47.5877829],[-121.1217818,47.5879409],[-121.1216615,47.5880272],[-121.1213903,47.5882033],[-121.1211096,47.5882645],[-121.12095,47.5882515],[-121.1208091,47.5882315],[-121.1206602,47.5881428],[-121.1205819,47.5881377],[-121.1205035,47.5880622],[-121.120473,47.5880077],[-121.1203954,47.5879716],[-121.1203847,47.5879283],[-121.1202857,47.5878994],[-121.1202161,47.5878417],[-121.1201117,47.5878543],[-121.1200181,47.5878381],[-121.1200004,47.5877703],[-121.1198433,47.5877529],[-121.1195752,47.5878431],[-121.1194397,47.5878443],[-121.1192525,47.5878278],[-121.1191601,47.5877499],[-121.1189597,47.5877852],[-121.118841,47.5877643],[-121.1188479,47.5876887],[-121.1187417,47.5876312],[-121.118483,47.5876067],[-121.1183931,47.5875378],[-121.1182438,47.5875034],[-121.118225,47.5873743],[-121.1180066,47.5873169],[-121.1178898,47.5873532],[-121.1178244,47.5873092],[-121.1178162,47.5872354],[-121.1176642,47.5871788],[-121.1174103,47.5871478],[-121.1171774,47.5870391],[-121.1169202,47.5871567],[-121.1168487,47.5870534],[-121.1168953,47.5869506],[-121.1169223,47.5866974],[-121.116818,47.5866505],[-121.1167225,47.5865852],[-121.1167354,47.5864806],[-121.1165814,47.5863681],[-121.1165509,47.5862107],[-121.116487,47.5861454],[-121.1160522,47.5860802],[-121.1160722,47.5859562],[-121.1160942,47.5858454],[-121.115942,47.5858181],[-121.1158235,47.5856795],[-121.1157006,47.5857512],[-121.115546,47.5857402],[-121.1153063,47.5856296],[-121.1149362,47.5855537],[-121.1146867,47.5855573],[-121.1145043,47.5855121],[-121.1143541,47.5854052],[-121.1142227,47.5853767],[-121.1140532,47.5853807],[-121.1137474,47.5852106],[-121.1134648,47.5851507],[-121.1131825,47.5851407],[-121.1131391,47.5850983],[-121.1130479,47.5850999],[-121.1126751,47.5853148],[-121.1123827,47.5853076],[-121.112085,47.5852624],[-121.1116022,47.5852605],[-121.111342,47.5852823],[-121.1110094,47.5852425],[-121.1107233,47.5852336],[-121.1103873,47.5852468],[-121.1101672,47.5852533],[-121.1099054,47.5852193],[-121.1095492,47.5851598],[-121.1095396,47.5851695],[-121.1094199,47.5852901],[-121.1094062,47.5853778],[-121.1093002,47.5854091],[-121.1090996,47.5855232],[-121.109006,47.5857061],[-121.1087621,47.5857442],[-121.1086303,47.5858127],[-121.1084189,47.5857225],[-121.1080777,47.5857768],[-121.1078528,47.5857662],[-121.1077339,47.5857606],[-121.1074443,47.5858565],[-121.1072752,47.5858165],[-121.1069968,47.5858453],[-121.106661,47.5857932],[-121.1062512,47.5856065],[-121.106138,47.5854839],[-121.1057416,47.5851792],[-121.1056182,47.585076],[-121.1057603,47.5849479],[-121.1057859,47.5848635],[-121.1057697,47.5847887],[-121.1057228,47.5847426],[-121.1056758,47.5847281],[-121.1055873,47.5847242],[-121.105479,47.5847203],[-121.1054358,47.5847082],[-121.1053835,47.5847046],[-121.1053406,47.5847096],[-121.1052796,47.5847299],[-121.1052112,47.5847449],[-121.1051747,47.5847333],[-121.1051495,47.584748],[-121.1050911,47.5848],[-121.1050586,47.5848253],[-121.1050093,47.584819],[-121.1049597,47.584805],[-121.1049416,47.5847738],[-121.1049114,47.5847865],[-121.1048779,47.5848181],[-121.1048484,47.584819],[-121.1047652,47.5848864],[-121.1046895,47.5849029],[-121.1046499,47.5848873],[-121.104605,47.5848679],[-121.1045761,47.5848602],[-121.1045544,47.5848589],[-121.1045165,47.5848177],[-121.104462,47.5847639],[-121.1043755,47.5846776],[-121.1042622,47.5846233],[-121.1042181,47.5846273],[-121.1041797,47.5846342],[-121.104027,47.5847313],[-121.1039847,47.5847435],[-121.1039217,47.5847829],[-121.1038855,47.5847869],[-121.1038183,47.5848395],[-121.1037264,47.5848861],[-121.1036696,47.5849181],[-121.1036252,47.5849467],[-121.103594,47.5849837],[-121.103569,47.5850072],[-121.1034724,47.5850447],[-121.1034288,47.5850673],[-121.1034054,47.5850922],[-121.1033571,47.5851162],[-121.1033195,47.5851537],[-121.1032914,47.5851886],[-121.1032531,47.5852609],[-121.1031703,47.5853728],[-121.1029563,47.5854503],[-121.1027891,47.5854761],[-121.1027369,47.5855332],[-121.1026373,47.5855283],[-121.1025043,47.5855019],[-121.1024509,47.5855306],[-121.1024396,47.5856141],[-121.1024107,47.5857274],[-121.1023069,47.5858751],[-121.1022279,47.5861018],[-121.1021817,47.5863359],[-121.1021704,47.586582],[-121.1021789,47.5867424],[-121.1022724,47.586857],[-121.1022894,47.5870719],[-121.1023616,47.5872524],[-121.1024678,47.5873498],[-121.1024126,47.5874558],[-121.102455,47.5876048],[-121.1025612,47.5877022],[-121.1026674,47.5876879],[-121.1026717,47.5877624],[-121.1028067,47.5878928],[-121.1027603,47.5880352],[-121.1026748,47.588129],[-121.1023977,47.5885057],[-121.1022876,47.5885806],[-121.1022043,47.5887112],[-121.1020528,47.5887701],[-121.1018742,47.5889952],[-121.1015618,47.5892399],[-121.1017034,47.5900038],[-121.1016154,47.5900562],[-121.1014485,47.5900837],[-121.1012916,47.5901158],[-121.1008681,47.5900384],[-121.1006593,47.5901028],[-121.1005001,47.590147],[-121.1000046,47.5899274],[-121.099679,47.5897078],[-121.0990561,47.5891922],[-121.0986739,47.5891636],[-121.097782,47.5890585],[-121.096607,47.5885907],[-121.0963663,47.5881324],[-121.0961681,47.5874067],[-121.0955735,47.5866237],[-121.0945401,47.5858694],[-121.0941578,47.5852488],[-121.0933934,47.5848095],[-121.0931516,47.5847577],[-121.0931206,47.5846597],[-121.0932038,47.5845196],[-121.0931693,47.5844079],[-121.0932139,47.584322],[-121.0931516,47.5842622],[-121.0931425,47.5841772],[-121.0929865,47.5840926],[-121.09295,47.5840369],[-121.0929556,47.5839621],[-121.0928875,47.5838895],[-121.0928951,47.5837894],[-121.0928216,47.5836904],[-121.0927554,47.5836246],[-121.0926956,47.5834213],[-121.092632,47.5833986],[-121.0926414,47.5833063],[-121.0926123,47.5831574],[-121.0925416,47.5831022],[-121.0924275,47.5831025],[-121.0923741,47.5830334],[-121.0926868,47.5826499],[-121.0926743,47.5823951],[-121.0927013,47.5821724],[-121.0926291,47.5820239],[-121.0921617,47.5816011],[-121.0917087,47.5812573],[-121.0906328,47.5808753],[-121.090734,47.580726]]}}]}
