{
  "type": "FeatureCollection",
  "peaks_destination_id": "AFD21967E06AA9D81BA1",
  "peaks_trailhead_id": "9A6A7F33A62D50654883",
  "peaks_source": "https://www.openstreetmap.org/",
  "peaks_retrieval_source": "https://overpass-api.de/api/interpreter",
  "peaks_license_name": "Open Data Commons Open Database License (ODbL) 1.0",
  "peaks_license": "https://opendatacommons.org/licenses/odbl/1-0/",
  "peaks_attribution": "© OpenStreetMap contributors",
  "peaks_retrieved_at": "2026-07-31T15:01:04.943Z",
  "features": [
    {
      "type": "Feature",
      "properties": {
        "name": "Großglockner via Lucknerhaus Normal Route",
        "trailhead_name": "Lucknerhaus Trailhead",
        "destination_name": "Großglockner",
        "distance_m": 9113.308856725575,
        "trailhead_snap_m": 15.100174771303829,
        "summit_snap_m": 0,
        "osm_way_ids": [
          144045013,
          816314524,
          275649620,
          38048108,
          78167521,
          275649617,
          78167524,
          78167531,
          1319615232,
          78167523,
          25818151,
          78167522,
          144045014,
          750435315,
          750435314,
          1319615228,
          38048104,
          126087702,
          126087715,
          750435313,
          59276950,
          390464885,
          1216022722,
          390458978
        ],
        "osm_way_urls": [
          "https://www.openstreetmap.org/way/144045013",
          "https://www.openstreetmap.org/way/816314524",
          "https://www.openstreetmap.org/way/275649620",
          "https://www.openstreetmap.org/way/38048108",
          "https://www.openstreetmap.org/way/78167521",
          "https://www.openstreetmap.org/way/275649617",
          "https://www.openstreetmap.org/way/78167524",
          "https://www.openstreetmap.org/way/78167531",
          "https://www.openstreetmap.org/way/1319615232",
          "https://www.openstreetmap.org/way/78167523",
          "https://www.openstreetmap.org/way/25818151",
          "https://www.openstreetmap.org/way/78167522",
          "https://www.openstreetmap.org/way/144045014",
          "https://www.openstreetmap.org/way/750435315",
          "https://www.openstreetmap.org/way/750435314",
          "https://www.openstreetmap.org/way/1319615228",
          "https://www.openstreetmap.org/way/38048104",
          "https://www.openstreetmap.org/way/126087702",
          "https://www.openstreetmap.org/way/126087715",
          "https://www.openstreetmap.org/way/750435313",
          "https://www.openstreetmap.org/way/59276950",
          "https://www.openstreetmap.org/way/390464885",
          "https://www.openstreetmap.org/way/1216022722",
          "https://www.openstreetmap.org/way/390458978"
        ],
        "osm_way_names": [
          "Glor-Berg",
          "Normalweg Großglockner (von Adlersruhe)"
        ],
        "osm_foot_access_override_way_ids": []
      },
      "geometry": {
        "type": "LineString",
        "coordinates": [
          [
            12.689365,
            47.021923
          ],
          [
            12.6895447,
            47.0218644
          ],
          [
            12.6895659,
            47.0218975
          ],
          [
            12.6891693,
            47.0219761
          ],
          [
            12.6891125,
            47.021848
          ],
          [
            12.6890802,
            47.021763
          ],
          [
            12.6890064,
            47.0216815
          ],
          [
            12.6889689,
            47.0216584
          ],
          [
            12.688893,
            47.0216415
          ],
          [
            12.6889657,
            47.0217611
          ],
          [
            12.6890134,
            47.021815
          ],
          [
            12.6890553,
            47.0218748
          ],
          [
            12.689081,
            47.0219508
          ],
          [
            12.6891077,
            47.0220417
          ],
          [
            12.6891286,
            47.0221333
          ],
          [
            12.689121,
            47.0221755
          ],
          [
            12.6891029,
            47.0221949
          ],
          [
            12.6891515,
            47.0223365
          ],
          [
            12.6891772,
            47.0224443
          ],
          [
            12.6891744,
            47.0225203
          ],
          [
            12.6892001,
            47.0226112
          ],
          [
            12.6892563,
            47.0227268
          ],
          [
            12.6893201,
            47.0228398
          ],
          [
            12.6893419,
            47.0228692
          ],
          [
            12.6895939,
            47.0232212
          ],
          [
            12.6898492,
            47.0235002
          ],
          [
            12.6899238,
            47.0239093
          ],
          [
            12.6900446,
            47.024292
          ],
          [
            12.6899537,
            47.0243646
          ],
          [
            12.6898112,
            47.0244592
          ],
          [
            12.6897001,
            47.0244709
          ],
          [
            12.6896492,
            47.0245079
          ],
          [
            12.6896662,
            47.0247343
          ],
          [
            12.6895678,
            47.0248175
          ],
          [
            12.6894543,
            47.0247525
          ],
          [
            12.6896187,
            47.0251018
          ],
          [
            12.6897543,
            47.0254647
          ],
          [
            12.6898294,
            47.0256903
          ],
          [
            12.6898406,
            47.0257545
          ],
          [
            12.6898613,
            47.0258091
          ],
          [
            12.6899736,
            47.0259569
          ],
          [
            12.6899619,
            47.0260137
          ],
          [
            12.6898192,
            47.0260533
          ],
          [
            12.6895327,
            47.026095
          ],
          [
            12.6894833,
            47.0261095
          ],
          [
            12.6894036,
            47.0264833
          ],
          [
            12.6891691,
            47.0267557
          ],
          [
            12.6887971,
            47.0270714
          ],
          [
            12.6889789,
            47.0272039
          ],
          [
            12.68903,
            47.0274311
          ],
          [
            12.6891067,
            47.0275515
          ],
          [
            12.6891135,
            47.0277202
          ],
          [
            12.6890186,
            47.0281177
          ],
          [
            12.6892254,
            47.0283858
          ],
          [
            12.6892864,
            47.0284898
          ],
          [
            12.6894171,
            47.0287898
          ],
          [
            12.6894391,
            47.0288572
          ],
          [
            12.6894635,
            47.0289321
          ],
          [
            12.6894546,
            47.0290656
          ],
          [
            12.6895826,
            47.0294229
          ],
          [
            12.68964,
            47.0295761
          ],
          [
            12.6896723,
            47.0297179
          ],
          [
            12.6898058,
            47.0299318
          ],
          [
            12.6898705,
            47.0301334
          ],
          [
            12.6900328,
            47.0305723
          ],
          [
            12.690244,
            47.0311733
          ],
          [
            12.6902158,
            47.0312907
          ],
          [
            12.6902754,
            47.0315019
          ],
          [
            12.6904538,
            47.0319667
          ],
          [
            12.6904921,
            47.0321985
          ],
          [
            12.6903954,
            47.0324124
          ],
          [
            12.6903948,
            47.0326111
          ],
          [
            12.6904251,
            47.0330546
          ],
          [
            12.6906123,
            47.0332867
          ],
          [
            12.6907289,
            47.0335304
          ],
          [
            12.6907999,
            47.0337763
          ],
          [
            12.6908121,
            47.0338431
          ],
          [
            12.6908936,
            47.0339848
          ],
          [
            12.6909171,
            47.0341595
          ],
          [
            12.6909854,
            47.034416
          ],
          [
            12.6911804,
            47.0346847
          ],
          [
            12.6912622,
            47.0348502
          ],
          [
            12.6913547,
            47.0349379
          ],
          [
            12.6915301,
            47.0350497
          ],
          [
            12.6916642,
            47.0351541
          ],
          [
            12.6917737,
            47.0352063
          ],
          [
            12.6919255,
            47.0352519
          ],
          [
            12.6921042,
            47.0353126
          ],
          [
            12.6922426,
            47.0353235
          ],
          [
            12.6923533,
            47.0353014
          ],
          [
            12.6926659,
            47.0350895
          ],
          [
            12.6927013,
            47.0350167
          ],
          [
            12.6927842,
            47.034777
          ],
          [
            12.6928393,
            47.0347489
          ],
          [
            12.692884,
            47.0348058
          ],
          [
            12.6928915,
            47.0349239
          ],
          [
            12.6929565,
            47.0350387
          ],
          [
            12.6929707,
            47.0351652
          ],
          [
            12.6929654,
            47.0353051
          ],
          [
            12.6930024,
            47.0354377
          ],
          [
            12.6930489,
            47.0356195
          ],
          [
            12.6931305,
            47.0357784
          ],
          [
            12.6930437,
            47.0358356
          ],
          [
            12.6928604,
            47.0358828
          ],
          [
            12.6928064,
            47.0359181
          ],
          [
            12.6928039,
            47.0360646
          ],
          [
            12.6928367,
            47.0366821
          ],
          [
            12.692816,
            47.0367071
          ],
          [
            12.6927713,
            47.0367346
          ],
          [
            12.6925093,
            47.0366969
          ],
          [
            12.6923896,
            47.0366835
          ],
          [
            12.6922817,
            47.0367965
          ],
          [
            12.692213,
            47.0369351
          ],
          [
            12.6922047,
            47.0372816
          ],
          [
            12.6922146,
            47.0374824
          ],
          [
            12.692231,
            47.0376452
          ],
          [
            12.6921547,
            47.0378989
          ],
          [
            12.6919982,
            47.0379914
          ],
          [
            12.691812,
            47.0380318
          ],
          [
            12.6916307,
            47.0380544
          ],
          [
            12.691311,
            47.038095
          ],
          [
            12.69127,
            47.0381905
          ],
          [
            12.6912655,
            47.0382364
          ],
          [
            12.6915132,
            47.0383973
          ],
          [
            12.6917254,
            47.0385412
          ],
          [
            12.6917774,
            47.0386513
          ],
          [
            12.6916924,
            47.0388013
          ],
          [
            12.6915798,
            47.0389289
          ],
          [
            12.69149,
            47.0390116
          ],
          [
            12.6914109,
            47.039131
          ],
          [
            12.6913208,
            47.0392965
          ],
          [
            12.6911598,
            47.0394968
          ],
          [
            12.6910382,
            47.039609
          ],
          [
            12.6910109,
            47.0396839
          ],
          [
            12.691029,
            47.0398639
          ],
          [
            12.6911063,
            47.0399869
          ],
          [
            12.6911022,
            47.0400802
          ],
          [
            12.6910469,
            47.0401074
          ],
          [
            12.6909666,
            47.0401056
          ],
          [
            12.6908549,
            47.0400491
          ],
          [
            12.6907637,
            47.0399764
          ],
          [
            12.6906619,
            47.039815
          ],
          [
            12.6906125,
            47.0398237
          ],
          [
            12.6906019,
            47.039877
          ],
          [
            12.690639,
            47.0400802
          ],
          [
            12.6904897,
            47.0401914
          ],
          [
            12.6902999,
            47.040278
          ],
          [
            12.6902642,
            47.040414
          ],
          [
            12.6902035,
            47.0406124
          ],
          [
            12.6902091,
            47.0408737
          ],
          [
            12.6901042,
            47.0411221
          ],
          [
            12.6900902,
            47.0412877
          ],
          [
            12.6900975,
            47.0414953
          ],
          [
            12.6900894,
            47.0416999
          ],
          [
            12.6899481,
            47.0421453
          ],
          [
            12.689916,
            47.0423163
          ],
          [
            12.6897641,
            47.0424293
          ],
          [
            12.6895162,
            47.0425306
          ],
          [
            12.6895231,
            47.0426802
          ],
          [
            12.6896046,
            47.0427626
          ],
          [
            12.6896406,
            47.042849
          ],
          [
            12.6895665,
            47.0430693
          ],
          [
            12.6895498,
            47.0432783
          ],
          [
            12.6894342,
            47.043413
          ],
          [
            12.6894295,
            47.0435477
          ],
          [
            12.6894166,
            47.0438968
          ],
          [
            12.6893048,
            47.0441085
          ],
          [
            12.6893414,
            47.044275
          ],
          [
            12.6893032,
            47.0445022
          ],
          [
            12.6892991,
            47.0445708
          ],
          [
            12.6892172,
            47.0447944
          ],
          [
            12.6892131,
            47.0449617
          ],
          [
            12.6891583,
            47.0451607
          ],
          [
            12.6891666,
            47.0452209
          ],
          [
            12.6892249,
            47.0453154
          ],
          [
            12.6892658,
            47.0454149
          ],
          [
            12.6892958,
            47.0457042
          ],
          [
            12.6893019,
            47.0457816
          ],
          [
            12.6892932,
            47.045905
          ],
          [
            12.6892953,
            47.046015
          ],
          [
            12.6892715,
            47.0460692
          ],
          [
            12.6892075,
            47.0461201
          ],
          [
            12.6892039,
            47.0461425
          ],
          [
            12.6892264,
            47.0461857
          ],
          [
            12.689271,
            47.0462273
          ],
          [
            12.6893065,
            47.0462456
          ],
          [
            12.6893096,
            47.0462562
          ],
          [
            12.6892898,
            47.0463099
          ],
          [
            12.6892753,
            47.0463368
          ],
          [
            12.6891458,
            47.0464064
          ],
          [
            12.6890161,
            47.0464791
          ],
          [
            12.6887165,
            47.0467071
          ],
          [
            12.6890138,
            47.0468379
          ],
          [
            12.6885504,
            47.0468753
          ],
          [
            12.68894,
            47.0470639
          ],
          [
            12.689352,
            47.0471894
          ],
          [
            12.6894377,
            47.0472515
          ],
          [
            12.6895194,
            47.04722
          ],
          [
            12.6896912,
            47.0470641
          ],
          [
            12.6898565,
            47.0470621
          ],
          [
            12.6899515,
            47.047111
          ],
          [
            12.6900589,
            47.0470678
          ],
          [
            12.6901418,
            47.0470384
          ],
          [
            12.6901752,
            47.0470589
          ],
          [
            12.6901504,
            47.0471231
          ],
          [
            12.6903203,
            47.0471873
          ],
          [
            12.6903336,
            47.0472836
          ],
          [
            12.6902715,
            47.0473618
          ],
          [
            12.6903944,
            47.0474844
          ],
          [
            12.6899102,
            47.0475989
          ],
          [
            12.690119,
            47.0476533
          ],
          [
            12.6902318,
            47.0477158
          ],
          [
            12.6900696,
            47.0477752
          ],
          [
            12.6900467,
            47.0478009
          ],
          [
            12.6901819,
            47.04784
          ],
          [
            12.6903127,
            47.0479161
          ],
          [
            12.6900118,
            47.048034
          ],
          [
            12.6899428,
            47.0481242
          ],
          [
            12.6899621,
            47.0482251
          ],
          [
            12.6902393,
            47.0482954
          ],
          [
            12.6904876,
            47.0483808
          ],
          [
            12.690446,
            47.048415
          ],
          [
            12.690356,
            47.0484428
          ],
          [
            12.690309,
            47.0484758
          ],
          [
            12.6902409,
            47.0484975
          ],
          [
            12.6901024,
            47.0485886
          ],
          [
            12.6900205,
            47.048624
          ],
          [
            12.6898241,
            47.0486018
          ],
          [
            12.6897122,
            47.0485475
          ],
          [
            12.6895661,
            47.0485652
          ],
          [
            12.6893101,
            47.0485559
          ],
          [
            12.6891011,
            47.0485859
          ],
          [
            12.6890474,
            47.0486532
          ],
          [
            12.6889997,
            47.0487914
          ],
          [
            12.6890158,
            47.0488981
          ],
          [
            12.6891051,
            47.0491247
          ],
          [
            12.6891714,
            47.0491838
          ],
          [
            12.68914,
            47.0492425
          ],
          [
            12.6891684,
            47.0496169
          ],
          [
            12.6891396,
            47.0497605
          ],
          [
            12.6890703,
            47.049857
          ],
          [
            12.6890728,
            47.0499708
          ],
          [
            12.6889737,
            47.0500777
          ],
          [
            12.6888678,
            47.0501605
          ],
          [
            12.6887516,
            47.0502782
          ],
          [
            12.6885464,
            47.0504635
          ],
          [
            12.688375,
            47.0505072
          ],
          [
            12.6882345,
            47.0506657
          ],
          [
            12.6881946,
            47.0508109
          ],
          [
            12.6879819,
            47.0510524
          ],
          [
            12.6878289,
            47.0512168
          ],
          [
            12.6877482,
            47.0512832
          ],
          [
            12.687617,
            47.0512611
          ],
          [
            12.6875752,
            47.0512766
          ],
          [
            12.6873786,
            47.0513496
          ],
          [
            12.6871499,
            47.0513973
          ],
          [
            12.6867685,
            47.0512283
          ],
          [
            12.6864006,
            47.0511135
          ],
          [
            12.68624,
            47.0510736
          ],
          [
            12.6861768,
            47.0511023
          ],
          [
            12.6862952,
            47.05138
          ],
          [
            12.6863749,
            47.051513
          ],
          [
            12.6864008,
            47.0516366
          ],
          [
            12.6864077,
            47.0517786
          ],
          [
            12.6863239,
            47.0519128
          ],
          [
            12.6863769,
            47.0520261
          ],
          [
            12.6862774,
            47.0521378
          ],
          [
            12.6862235,
            47.0523171
          ],
          [
            12.686094,
            47.0525538
          ],
          [
            12.6859745,
            47.0528183
          ],
          [
            12.6857582,
            47.0529874
          ],
          [
            12.6857703,
            47.0532302
          ],
          [
            12.6855624,
            47.0533018
          ],
          [
            12.6853559,
            47.0535065
          ],
          [
            12.6852358,
            47.0535772
          ],
          [
            12.6851233,
            47.0535903
          ],
          [
            12.6850429,
            47.0536808
          ],
          [
            12.6849293,
            47.0537272
          ],
          [
            12.6847628,
            47.0538446
          ],
          [
            12.6846936,
            47.0538399
          ],
          [
            12.684746,
            47.0537219
          ],
          [
            12.6847738,
            47.0536183
          ],
          [
            12.6848426,
            47.0535354
          ],
          [
            12.6848184,
            47.0534653
          ],
          [
            12.6847406,
            47.0534845
          ],
          [
            12.6846549,
            47.0534981
          ],
          [
            12.6844773,
            47.0535564
          ],
          [
            12.6842219,
            47.0536137
          ],
          [
            12.684046,
            47.0537214
          ],
          [
            12.6839424,
            47.0538781
          ],
          [
            12.683867,
            47.0540421
          ],
          [
            12.6838374,
            47.0541018
          ],
          [
            12.6837366,
            47.0541541
          ],
          [
            12.6834691,
            47.0542848
          ],
          [
            12.6833676,
            47.0543279
          ],
          [
            12.6832547,
            47.0543391
          ],
          [
            12.6829484,
            47.0544249
          ],
          [
            12.6827471,
            47.0545279
          ],
          [
            12.6826154,
            47.0546291
          ],
          [
            12.6824256,
            47.0547705
          ],
          [
            12.682172,
            47.0549594
          ],
          [
            12.6821103,
            47.0549597
          ],
          [
            12.682043,
            47.0547345
          ],
          [
            12.6818884,
            47.054759
          ],
          [
            12.6815644,
            47.0549987
          ],
          [
            12.6814801,
            47.0549512
          ],
          [
            12.681289,
            47.0551952
          ],
          [
            12.681078,
            47.0553082
          ],
          [
            12.6812259,
            47.0554497
          ],
          [
            12.681263,
            47.0555296
          ],
          [
            12.6813992,
            47.0556776
          ],
          [
            12.6815049,
            47.055769
          ],
          [
            12.6816595,
            47.0558505
          ],
          [
            12.6818357,
            47.0558593
          ],
          [
            12.6820621,
            47.0559409
          ],
          [
            12.6822092,
            47.0559309
          ],
          [
            12.6824776,
            47.0559692
          ],
          [
            12.683053,
            47.0560055
          ],
          [
            12.6834252,
            47.0560634
          ],
          [
            12.683468,
            47.0560692
          ],
          [
            12.6835981,
            47.0561518
          ],
          [
            12.6838938,
            47.0562757
          ],
          [
            12.6840695,
            47.056356
          ],
          [
            12.6844875,
            47.056384
          ],
          [
            12.6849054,
            47.0564335
          ],
          [
            12.6853481,
            47.0564658
          ],
          [
            12.6857221,
            47.0565703
          ],
          [
            12.6858834,
            47.0564724
          ],
          [
            12.686082,
            47.0564971
          ],
          [
            12.6861364,
            47.0566888
          ],
          [
            12.6862361,
            47.056865
          ],
          [
            12.6863501,
            47.0570503
          ],
          [
            12.686694,
            47.0572466
          ],
          [
            12.6871462,
            47.0572207
          ],
          [
            12.6873962,
            47.0572638
          ],
          [
            12.6873498,
            47.0573615
          ],
          [
            12.6874573,
            47.0578136
          ],
          [
            12.6874583,
            47.0579912
          ],
          [
            12.687451,
            47.0582253
          ],
          [
            12.6875681,
            47.0585192
          ],
          [
            12.6876354,
            47.058786
          ],
          [
            12.6876401,
            47.0590505
          ],
          [
            12.6875623,
            47.0593998
          ],
          [
            12.6875002,
            47.0597725
          ],
          [
            12.6882028,
            47.060372
          ],
          [
            12.6883771,
            47.0608591
          ],
          [
            12.6882966,
            47.0616838
          ],
          [
            12.6886249,
            47.0622815
          ],
          [
            12.6891208,
            47.0632784
          ],
          [
            12.6892969,
            47.0636729
          ],
          [
            12.6894314,
            47.0640407
          ],
          [
            12.6897318,
            47.0650053
          ],
          [
            12.6902039,
            47.0655608
          ],
          [
            12.6908047,
            47.0660285
          ],
          [
            12.6914983,
            47.0664701
          ],
          [
            12.6919636,
            47.0668558
          ],
          [
            12.6925436,
            47.0670757
          ],
          [
            12.6932738,
            47.067461
          ],
          [
            12.6937762,
            47.0676835
          ],
          [
            12.6943674,
            47.0680046
          ],
          [
            12.6945275,
            47.0682621
          ],
          [
            12.6947284,
            47.0684861
          ],
          [
            12.6952455,
            47.068579
          ],
          [
            12.6959785,
            47.0686702
          ],
          [
            12.6966277,
            47.0688207
          ],
          [
            12.6970416,
            47.0689119
          ],
          [
            12.6976246,
            47.068959
          ],
          [
            12.6979436,
            47.0690128
          ],
          [
            12.6982813,
            47.0689704
          ],
          [
            12.698597,
            47.0688587
          ],
          [
            12.6987487,
            47.068717
          ],
          [
            12.6986971,
            47.0684563
          ],
          [
            12.6989699,
            47.068253
          ],
          [
            12.6992132,
            47.0680055
          ],
          [
            12.6999066,
            47.068012
          ],
          [
            12.7000301,
            47.0681227
          ],
          [
            12.7003985,
            47.0685039
          ],
          [
            12.7005755,
            47.0688237
          ],
          [
            12.700716,
            47.0690239
          ],
          [
            12.7009172,
            47.0692137
          ],
          [
            12.7010323,
            47.0694662
          ],
          [
            12.7012224,
            47.0697256
          ],
          [
            12.7014423,
            47.0698609
          ],
          [
            12.7014491,
            47.0698728
          ],
          [
            12.7014859,
            47.0702604
          ],
          [
            12.7012235,
            47.0707292
          ],
          [
            12.7011047,
            47.0708898
          ],
          [
            12.7008823,
            47.0710767
          ],
          [
            12.7005905,
            47.0713558
          ],
          [
            12.7003249,
            47.0717486
          ],
          [
            12.7000065,
            47.0721698
          ],
          [
            12.6994763,
            47.072796
          ],
          [
            12.6988699,
            47.073234
          ],
          [
            12.6985608,
            47.0733916
          ],
          [
            12.698425,
            47.0736327
          ],
          [
            12.6983599,
            47.073947
          ],
          [
            12.6983761,
            47.0741189
          ],
          [
            12.6981528,
            47.0740865
          ],
          [
            12.6979374,
            47.0740812
          ],
          [
            12.6979116,
            47.0742271
          ],
          [
            12.6976529,
            47.0742322
          ],
          [
            12.6973255,
            47.0742899
          ],
          [
            12.6970532,
            47.0741059
          ],
          [
            12.6968392,
            47.0741875
          ],
          [
            12.6967238,
            47.0740301
          ],
          [
            12.6966573,
            47.0741003
          ],
          [
            12.6965805,
            47.0739658
          ],
          [
            12.6964305,
            47.0738991
          ],
          [
            12.696255,
            47.0738153
          ],
          [
            12.6961262,
            47.0738153
          ],
          [
            12.6957829,
            47.0738504
          ],
          [
            12.695617,
            47.0737986
          ],
          [
            12.6956237,
            47.0740082
          ],
          [
            12.6954825,
            47.0740699
          ],
          [
            12.6952937,
            47.074166
          ],
          [
            12.6952157,
            47.0741844
          ],
          [
            12.6950554,
            47.0741762
          ],
          [
            12.6946761,
            47.0741836
          ],
          [
            12.6945093,
            47.0742812
          ],
          [
            12.6944857,
            47.0743004
          ],
          [
            12.6944625,
            47.0742979
          ],
          [
            12.6938826,
            47.0745464
          ],
          [
            12.6938826,
            47.0745464
          ]
        ]
      }
    }
  ]
}
