{"type":"FeatureCollection","peaks_destination_id":"F05DDBC67BB98513312A","peaks_trailhead_id":"E14AC375D3BAA8196F20","peaks_source":"https://www.openstreetmap.org/","peaks_retrieval_source":"https://api.openstreetmap.org/api/0.6","peaks_license_name":"Open Data Commons Open Database License (ODbL) 1.0","peaks_license":"https://opendatacommons.org/licenses/odbl/1-0/","peaks_attribution":"© OpenStreetMap contributors","peaks_retrieved_at":"2026-07-31T14:00:13.837Z","features":[{"type":"Feature","properties":{"name":"Gunung Mulu OSM route candidate","trailhead_name":"Gunung Mulu National Park Headquarters","destination_name":"Gunung Mulu","distance_m":17957.232099183788,"trailhead_snap_m":6.417065301096737,"summit_snap_m":0,"osm_way_ids":[119207287,119196692,1101754465,1101744616,422408452,422408446,1238494598,119196646,1238494547,1238493595,1238493589,422408470,1238492904,422408466,422408677,422963688],"osm_way_urls":["https://www.openstreetmap.org/way/119207287","https://www.openstreetmap.org/way/119196692","https://www.openstreetmap.org/way/1101754465","https://www.openstreetmap.org/way/1101744616","https://www.openstreetmap.org/way/422408452","https://www.openstreetmap.org/way/422408446","https://www.openstreetmap.org/way/1238494598","https://www.openstreetmap.org/way/119196646","https://www.openstreetmap.org/way/1238494547","https://www.openstreetmap.org/way/1238493595","https://www.openstreetmap.org/way/1238493589","https://www.openstreetmap.org/way/422408470","https://www.openstreetmap.org/way/1238492904","https://www.openstreetmap.org/way/422408466","https://www.openstreetmap.org/way/422408677","https://www.openstreetmap.org/way/422963688"],"osm_way_names":["Trail To Paku Waterfall","Paku Valley Loop","Gunung Mulu Trail"],"osm_foot_access_override_way_ids":[]},"geometry":{"type":"LineString","coordinates":[[114.812525,4.042283],[114.8125515,4.0422317],[114.8125282,4.0424211],[114.812608,4.0425393],[114.8126683,4.0425898],[114.8127454,4.0426042],[114.8128078,4.0425924],[114.8129198,4.0424767],[114.8129771,4.0424485],[114.8131055,4.0424354],[114.8132826,4.0424433],[114.8133168,4.0424433],[114.813448,4.0424427],[114.8136046,4.0424139],[114.8137181,4.042366],[114.8139656,4.0422601],[114.8143173,4.0419631],[114.8143651,4.0419263],[114.8145661,4.0414685],[114.8148717,4.0406346],[114.8149093,4.0404152],[114.8150151,4.0401403],[114.8151176,4.039827],[114.8150263,4.039652],[114.8150332,4.0395969],[114.815066,4.03945],[114.815104,4.039379],[114.8151769,4.0393008],[114.815269,4.039201],[114.815325,4.03911],[114.815398,4.038946],[114.815455,4.038757],[114.815528,4.038423],[114.815628,4.037848],[114.815767,4.037337],[114.815878,4.036828],[114.816039,4.035944],[114.816106,4.035749],[114.816274,4.035361],[114.816382,4.03501],[114.816488,4.034281],[114.8165406,4.0336233],[114.816609,4.033178],[114.816733,4.032709],[114.816986,4.032084],[114.817183,4.031681],[114.817297,4.031247],[114.8174233,4.0308575],[114.8175451,4.0309082],[114.8176094,4.0309811],[114.817726,4.03106],[114.8178706,4.0312097],[114.818061,4.031407],[114.818105,4.031436],[114.818264,4.031488],[114.818372,4.031598],[114.818459,4.031655],[114.818517,4.031728],[114.81857,4.031937],[114.818716,4.03216],[114.818763,4.032299],[114.818805,4.032367],[114.819012,4.032585],[114.819139,4.03277],[114.819389,4.03297],[114.819497,4.033031],[114.819698,4.033173],[114.819811,4.033309],[114.8200556,4.0335464],[114.8200954,4.033585],[114.820182,4.033669],[114.820343,4.033758],[114.820437,4.033831],[114.820551,4.033959],[114.820736,4.034214],[114.820765,4.034265],[114.820801,4.034392],[114.820918,4.034635],[114.821,4.034771],[114.821065,4.034944],[114.821094,4.034987],[114.821148,4.035025],[114.821316,4.035061],[114.821449,4.035164],[114.821513,4.035193],[114.8216199,4.0352578],[114.821728,4.035297],[114.821952,4.035348],[114.822445,4.035376],[114.822953,4.035524],[114.823176,4.035521],[114.82343,4.035552],[114.823498,4.035543],[114.823562,4.035513],[114.823643,4.035434],[114.823723,4.035395],[114.823827,4.035393],[114.823963,4.035368],[114.824055,4.035336],[114.824161,4.035258],[114.824225,4.035235],[114.824307,4.035242],[114.82436,4.035279],[114.824464,4.035422],[114.82451,4.035445],[114.824595,4.035462],[114.824765,4.035442],[114.824848,4.035452],[114.825036,4.03552],[114.825178,4.035549],[114.825296,4.035619],[114.825402,4.035647],[114.825527,4.035707],[114.825756,4.035762],[114.826265,4.03607],[114.826638,4.036238],[114.826771,4.036283],[114.826955,4.036307],[114.827131,4.036365],[114.827342,4.036383],[114.827842,4.03652],[114.827979,4.036521],[114.828175,4.036568],[114.828287,4.036543],[114.828345,4.036547],[114.828391,4.036599],[114.828473,4.036742],[114.828569,4.036836],[114.8287655,4.0369365],[114.8289802,4.0370119],[114.8291303,4.0371292],[114.8291474,4.0373493],[114.8290262,4.0375028],[114.8288817,4.0377463],[114.8288657,4.0378475],[114.8288722,4.0380524],[114.828824,4.038209],[114.82881,4.038264],[114.828713,4.038415],[114.828692,4.038587],[114.828574,4.038924],[114.828548,4.039052],[114.828545,4.039187],[114.828561,4.039335],[114.828604,4.039486],[114.828621,4.039653],[114.82865,4.039765],[114.828764,4.039988],[114.828819,4.040154],[114.828849,4.040311],[114.828905,4.040438],[114.829028,4.040534],[114.829166,4.040737],[114.829214,4.040877],[114.829319,4.04109],[114.82949,4.04125],[114.829675,4.041474],[114.829797,4.041577],[114.83021,4.041994],[114.830349,4.04219],[114.830538,4.042578],[114.830602,4.042661],[114.830785,4.042812],[114.831019,4.042919],[114.831109,4.042976],[114.831148,4.043023],[114.831205,4.04314],[114.831234,4.043259],[114.831273,4.043322],[114.831577,4.043481],[114.83176,4.043648],[114.831843,4.043699],[114.832007,4.04376],[114.832436,4.044085],[114.832788,4.044326],[114.832895,4.044389],[114.833004,4.044422],[114.83315,4.044503],[114.833315,4.04464],[114.833517,4.04475],[114.833585,4.044817],[114.833695,4.044965],[114.833845,4.04506],[114.83404,4.04535],[114.834143,4.045459],[114.834207,4.045607],[114.834245,4.045654],[114.834498,4.045794],[114.834622,4.045896],[114.834728,4.046004],[114.834959,4.046393],[114.835144,4.046578],[114.83532,4.046737],[114.835432,4.046811],[114.835592,4.046965],[114.835713,4.047149],[114.835824,4.047247],[114.836116,4.047385],[114.8365584,4.0474817],[114.8366282,4.0474866],[114.8367467,4.0474939],[114.8369059,4.0476682],[114.8369961,4.0478193],[114.837023,4.047977],[114.836947,4.048226],[114.836894,4.048384],[114.836888,4.048458],[114.8369,4.048957],[114.836875,4.049204],[114.836886,4.049301],[114.837028,4.049919],[114.837131,4.050114],[114.837228,4.050395],[114.83728,4.050507],[114.837349,4.05061],[114.837524,4.050824],[114.837606,4.05097],[114.837681,4.051045],[114.837782,4.051101],[114.837863,4.051166],[114.838078,4.051449],[114.838217,4.051703],[114.838489,4.052085],[114.838628,4.052196],[114.838846,4.052285],[114.839164,4.052319],[114.839387,4.05237],[114.83965,4.052484],[114.839842,4.052592],[114.84016,4.052691],[114.840264,4.052704],[114.840615,4.052651],[114.840699,4.052663],[114.840864,4.052826],[114.841279,4.05291],[114.84149,4.052932],[114.841805,4.05299],[114.841892,4.052978],[114.84194,4.052956],[114.842097,4.052856],[114.842215,4.052815],[114.842299,4.052811],[114.842489,4.05284],[114.84338,4.052838],[114.843692,4.052968],[114.843805,4.052987],[114.843993,4.052989],[114.844482,4.052947],[114.844807,4.052947],[114.845179,4.053018],[114.845383,4.053038],[114.845692,4.053039],[114.845816,4.053082],[114.846123,4.053265],[114.846655,4.053455],[114.846988,4.053607],[114.847153,4.053712],[114.847288,4.053756],[114.847358,4.053805],[114.847529,4.054065],[114.847682,4.054227],[114.847889,4.05435],[114.848209,4.054453],[114.848277,4.054493],[114.848561,4.054724],[114.84884,4.054796],[114.848952,4.054801],[114.849066,4.054786],[114.84917,4.054804],[114.849265,4.054866],[114.849319,4.054877],[114.849423,4.054825],[114.849507,4.054816],[114.84972,4.054887],[114.849799,4.0549],[114.849957,4.054884],[114.850016,4.054847],[114.850173,4.054705],[114.850267,4.0545782],[114.8504612,4.0545413],[114.8505982,4.0544648],[114.8507322,4.0545298],[114.8508436,4.0545473],[114.8509161,4.0544984],[114.8509857,4.054372],[114.851212,4.054201],[114.8512844,4.0541709],[114.8514558,4.0542175],[114.8516489,4.0542061],[114.8518761,4.0542843],[114.851968,4.054281],[114.8520324,4.0542362],[114.8520786,4.0542331],[114.852294,4.054376],[114.852497,4.054427],[114.852638,4.054497],[114.852708,4.054509],[114.852858,4.054506],[114.853099,4.054435],[114.853381,4.054313],[114.8537899,4.0541954],[114.8541427,4.0539051],[114.8545289,4.0538302],[114.8547864,4.0534235],[114.8553657,4.053049],[114.8554784,4.0530276],[114.8554999,4.0527868],[114.8558003,4.0523266],[114.8557574,4.05154],[114.8559397,4.0512992],[114.856208,4.0510691],[114.856562,4.0507962],[114.8568249,4.0506464],[114.8571092,4.0507213],[114.8574471,4.0504002],[114.8575437,4.0501059],[114.8579675,4.0501541],[114.8584986,4.0497581],[114.858858,4.0497527],[114.8590699,4.0495026],[114.8592348,4.0494919],[114.8594655,4.0492952],[114.8599792,4.0493139],[114.8601079,4.049231],[114.8601186,4.0490544],[114.8601723,4.0490009],[114.8604137,4.0489206],[114.8608428,4.0484738],[114.861111,4.0484792],[114.8617977,4.0478799],[114.8625272,4.0480297],[114.8627955,4.0478317],[114.8631549,4.0477889],[114.8634124,4.0474946],[114.8639435,4.047227],[114.8644799,4.0466973],[114.8647964,4.0463227],[114.8650539,4.0460177],[114.8652685,4.0458732],[114.8657513,4.0453916],[114.8659068,4.0452632],[114.8660731,4.0452311],[114.8661685,4.0451189],[114.8661911,4.0450064],[114.8663682,4.0448886],[114.8664862,4.0447442],[114.8668349,4.0444766],[114.8670763,4.0442572],[114.8672479,4.0440539],[114.8675054,4.043904],[114.8677844,4.0438773],[114.867956,4.0438666],[114.8680171,4.0438004],[114.8680519,4.0436486],[114.8681907,4.0435756],[114.8681948,4.0434285],[114.868353,4.0432031],[114.8688894,4.0425877],[114.8692971,4.0422559],[114.8696244,4.0422131],[114.869855,4.0423201],[114.8700374,4.0423415],[114.8702252,4.0422666],[114.8703325,4.0421275],[114.8705792,4.0420312],[114.8709494,4.0420312],[114.8712927,4.0421221],[114.8716146,4.0424539],[114.8717286,4.0425609],[114.8718667,4.0425208],[114.8720706,4.0425583],[114.8727035,4.0427429],[114.87348,4.0430438],[114.8738394,4.0431709],[114.8740487,4.0431375],[114.8743585,4.0430131],[114.8746991,4.0430479],[114.8750853,4.0432352],[114.8752456,4.0433716],[114.875424,4.0434231],[114.8755346,4.0433442],[114.8756647,4.0433208],[114.8757767,4.0432144],[114.8760054,4.043282],[114.8762421,4.0431649],[114.8763406,4.0430158],[114.8765016,4.0428338],[114.8766383,4.042779],[114.8768663,4.0428071],[114.8769938,4.0427429],[114.8771841,4.0427683],[114.8773384,4.0425984],[114.8775731,4.0425489],[114.8777448,4.0425034],[114.8779017,4.0425181],[114.8780572,4.0424914],[114.8781672,4.0423483],[114.8781833,4.0421876],[114.8783321,4.0421583],[114.8784341,4.0420673],[114.8784971,4.0418492],[114.8786527,4.0415282],[114.8788673,4.0412606],[114.8792374,4.0411429],[114.8797047,4.0410251],[114.8799106,4.0408974],[114.8799146,4.0407403],[114.8800904,4.0406078],[114.8802513,4.0405864],[114.8803586,4.0404044],[114.8805088,4.0403402],[114.8807019,4.0403616],[114.8809795,4.0401449],[114.8811753,4.0400633],[114.8816568,4.0400406],[114.8822576,4.0400459],[114.8826586,4.0398171],[114.8829429,4.0398158],[114.8832044,4.0394814],[114.8835021,4.0393944],[114.8837542,4.0390292],[114.8840158,4.038779],[114.8843765,4.038676],[114.884909,4.0386118],[114.8850095,4.0385262],[114.8851758,4.0384888],[114.8853421,4.0385369],[114.8854709,4.0384406],[114.8855996,4.0383122],[114.8858289,4.0382988],[114.8860154,4.038185],[114.8859993,4.0380673],[114.8860978,4.0379851],[114.8861897,4.0379643],[114.8863184,4.0379871],[114.8864257,4.0379215],[114.8866403,4.0379001],[114.8868281,4.0379818],[114.8869193,4.0379857],[114.8870346,4.0379483],[114.8871446,4.0379965],[114.8872626,4.0380072],[114.8873806,4.0379643],[114.8875469,4.0380339],[114.8877346,4.03805],[114.8878956,4.0381088],[114.8880312,4.038133],[114.8881524,4.0380908],[114.8883046,4.0380861],[114.8884569,4.0380667],[114.8889684,4.0381289],[114.8891696,4.0381985],[114.8894955,4.0379135],[114.889753,4.037678],[114.889808,4.0374198],[114.8900052,4.0371002],[114.8901178,4.0369797],[114.8904289,4.0368941],[114.8907226,4.0368406],[114.890846,4.036846],[114.8910056,4.0367416],[114.8910391,4.0365208],[114.8911893,4.036252],[114.8913181,4.0359256],[114.891302,4.0354935],[114.891404,4.035159],[114.8915595,4.0349731],[114.8918116,4.0345931],[114.8920745,4.0342507],[114.8921978,4.0339403],[114.8921496,4.033555],[114.8922676,4.0331697],[114.8924231,4.0328487],[114.8926806,4.0325383],[114.8930722,4.0324099],[114.8934692,4.0323136],[114.8936409,4.0323564],[114.8937911,4.0323029],[114.8939413,4.0324313],[114.8941344,4.0324901],[114.8943436,4.0327042],[114.8944938,4.0328059],[114.8946923,4.0327363],[114.8947996,4.0327845],[114.8949122,4.0326667],[114.8951107,4.0326935],[114.895395,4.0329503],[114.8955291,4.0329503],[114.8958081,4.0329771],[114.8961568,4.0330199],[114.896307,4.0330627],[114.8964626,4.0331804],[114.8965216,4.0331483],[114.8966932,4.0330841],[114.8969561,4.0331162],[114.8972189,4.0333142],[114.8973584,4.0334801],[114.8974764,4.0335443],[114.8976481,4.0336299],[114.8978144,4.0337691],[114.8977715,4.0340687],[114.8978734,4.0342614],[114.8979324,4.0345182],[114.8980665,4.0347537],[114.8984635,4.034941],[114.8988283,4.035246],[114.8989516,4.0354654],[114.8989624,4.0356741],[114.8991394,4.0358935],[114.8993111,4.0359363],[114.899354,4.0361396],[114.8994935,4.0363537],[114.8996705,4.0364767],[114.8997295,4.0366801],[114.8999226,4.0368246],[114.8999923,4.0371028],[114.9002284,4.0372526],[114.9004751,4.0372794],[114.9007219,4.0372366],[114.9008614,4.0373062],[114.9010491,4.0372473],[114.9013656,4.0371831],[114.9016124,4.0372473],[114.9017626,4.0374988],[114.9018162,4.037761],[114.9018913,4.0381195],[114.9020469,4.0383229],[114.9022025,4.0385423],[114.9023634,4.0385583],[114.9027497,4.0389596],[114.9028516,4.0392004],[114.9030822,4.0393021],[114.9034041,4.0396339],[114.9038655,4.0397891],[114.9042892,4.0399389],[114.9046057,4.0401422],[114.9050885,4.04026],[114.9055606,4.0404954],[114.9058771,4.040565],[114.9063331,4.0407095],[114.9065208,4.0408914],[114.9065691,4.0409984],[114.9066764,4.0411268],[114.9068642,4.041373],[114.907245,4.0416031],[114.9078351,4.0418332],[114.9079639,4.0418653],[114.9080282,4.0417904],[114.908157,4.0418011],[114.9082696,4.0418813],[114.9084306,4.0418599],[114.9085754,4.0418278],[114.9088222,4.0419349],[114.9091279,4.0421382],[114.9094659,4.0422773],[114.9097127,4.0423897],[114.9098575,4.0423308],[114.9100023,4.0422292],[114.9101847,4.042288],[114.9102623,4.042412],[114.9104047,4.0424807],[114.9105924,4.0424164],[114.9108231,4.0424593],[114.9109036,4.0425342],[114.9110109,4.0425128],[114.9111664,4.0425716],[114.9113434,4.0427215],[114.9115795,4.0427482],[114.9117029,4.0428178],[114.9118102,4.0430586],[114.9121106,4.0433047],[114.9125183,4.0436204],[114.9125934,4.0437435],[114.9127704,4.043797],[114.9131834,4.0440057],[114.9133444,4.0439201],[114.9134088,4.0438666],[114.9135375,4.0439469],[114.9135536,4.0440271],[114.9137628,4.0441234],[114.9139667,4.0443],[114.9140525,4.0445034],[114.9140974,4.0445595],[114.9141658,4.0445903],[114.9143858,4.0446378],[114.9145246,4.0445703],[114.9147391,4.0446104],[114.9149001,4.0447335],[114.9151576,4.0449421],[114.9153292,4.0450813],[114.9155116,4.0452739],[114.9156725,4.0453595],[114.9158174,4.0454612],[114.9160266,4.0454291],[114.9161285,4.0454987],[114.9161822,4.0455468],[114.916327,4.0455736],[114.9166006,4.0457181],[114.9167025,4.0459374],[114.9167615,4.0460766],[114.917078,4.0461194],[114.917196,4.0460926],[114.9173248,4.046114],[114.9175018,4.0462639],[114.9176466,4.0462639],[114.9177486,4.0461729],[114.9179578,4.0461836],[114.918344,4.046296],[114.918627,4.0463561],[114.9187799,4.0463321],[114.9190125,4.0462224],[114.9191996,4.0463147],[114.9193123,4.0462973],[114.9194371,4.0463201],[114.9196033,4.0462284],[114.9199051,4.0462532],[114.9201304,4.0463709],[114.9203664,4.046419],[114.9206574,4.0463013],[114.920884,4.0462625],[114.9211389,4.0461889],[114.9213749,4.0461889],[114.9216163,4.0463281],[114.9220723,4.046494],[114.9223083,4.0466705],[114.9225283,4.0466545],[114.9227589,4.0465796],[114.9229306,4.0466277],[114.9231827,4.0465528],[114.9235421,4.0464458],[114.9237889,4.0463388],[114.9241751,4.0461354],[114.9243575,4.0458732],[114.9245292,4.0458358],[114.9248081,4.0458786],[114.9250066,4.0457823],[114.9251461,4.0456645],[114.9253499,4.0456324],[114.9255967,4.0456271],[114.9258006,4.045702],[114.9260634,4.045611],[114.9263477,4.0456859],[114.9265087,4.045702],[114.926734,4.0456164],[114.9270719,4.0455468],[114.9273294,4.0454077],[114.9274421,4.0452686],[114.9276191,4.0450385],[114.9279624,4.0450385],[114.9281985,4.0451134],[114.9283862,4.0452525],[114.9285579,4.0452258],[114.928751,4.0453381],[114.9288958,4.0453916],[114.9290085,4.0453756],[114.9291319,4.0454398],[114.9293357,4.0454237],[114.9294859,4.0454666],[114.9296415,4.0455575],[114.9297756,4.0455575],[114.9299526,4.0456485],[114.9299526,4.0456485]]}}]}
