{"type":"FeatureCollection","peaks_destination_id":"ACyWTKuB03iS0A1FPdQG","peaks_trailhead_id":"C78E40E05CED9B8311F2","peaks_source":"https://www.openstreetmap.org/","peaks_retrieval_source":"https://api.openstreetmap.org/api/0.6","peaks_license_name":"Open Data Commons Open Database License (ODbL) 1.0","peaks_license":"https://opendatacommons.org/licenses/odbl/1-0/","peaks_attribution":"© OpenStreetMap contributors","peaks_retrieved_at":"2026-07-31T05:52:55.820Z","features":[{"type":"Feature","properties":{"name":"Gunung Kerinci OSM route candidate","trailhead_name":"Pintu Rimba","destination_name":"Gunung Kerinci","distance_m":9027.349494531636,"trailhead_snap_m":0,"summit_snap_m":91.46827436861902,"osm_way_ids":[473787853,473787851,473787871,573230198,473787872],"osm_way_urls":["https://www.openstreetmap.org/way/473787853","https://www.openstreetmap.org/way/473787851","https://www.openstreetmap.org/way/473787871","https://www.openstreetmap.org/way/573230198","https://www.openstreetmap.org/way/473787872"],"osm_way_names":[],"osm_foot_access_override_way_ids":[]},"geometry":{"type":"LineString","coordinates":[[101.2663404,-1.7677128],[101.2663404,-1.7677128],[101.2661926,-1.7674459],[101.2660477,-1.7661456],[101.2658761,-1.7654298],[101.2659189,-1.7647515],[101.2657392,-1.7642234],[101.265691,-1.7637542],[101.2656829,-1.763277],[101.2654763,-1.7623625],[101.2654334,-1.7619872],[101.2653744,-1.7617727],[101.2652296,-1.7615261],[101.2649345,-1.7611185],[101.2648326,-1.760888],[101.264677,-1.7604001],[101.2645698,-1.7601856],[101.2643444,-1.7598585],[101.2642318,-1.7595958],[101.2640548,-1.7589095],[101.2638134,-1.7583786],[101.2636685,-1.758191],[101.2634728,-1.7579661],[101.2631428,-1.7577084],[101.2628049,-1.7574939],[101.2625045,-1.757392],[101.261909,-1.7573277],[101.2616909,-1.7572695],[101.2615443,-1.7571913],[101.2611794,-1.7569631],[101.2609381,-1.7567516],[101.2608361,-1.756577],[101.2607396,-1.7560891],[101.2607101,-1.7557516],[101.2606859,-1.7552634],[101.2606269,-1.7549631],[101.2605464,-1.7547218],[101.2604284,-1.7544108],[101.2602353,-1.7540408],[101.2601119,-1.7538156],[101.26001,-1.7536065],[101.2599349,-1.7533921],[101.2598759,-1.7531186],[101.2598464,-1.7529202],[101.2598008,-1.7527004],[101.2597525,-1.7525261],[101.259723,-1.7523626],[101.2597015,-1.7520462],[101.2596935,-1.7516923],[101.2596198,-1.7511498],[101.2596144,-1.7510566],[101.2595353,-1.7505707],[101.25954,-1.7500961],[101.2595072,-1.7494487],[101.2595333,-1.7491122],[101.2594743,-1.7488709],[101.2594287,-1.748312],[101.2593683,-1.7480841],[101.2592838,-1.7478334],[101.2593,-1.7476176],[101.2593455,-1.7474151],[101.2593415,-1.7473347],[101.259369,-1.7471843],[101.2593576,-1.7469997],[101.2594407,-1.7468119],[101.2594005,-1.7464903],[101.2593361,-1.7462838],[101.258946,-1.745803],[101.258907,-1.745592],[101.259039,-1.745244],[101.25928,-1.745043],[101.259332,-1.744918],[101.259465,-1.744851],[101.259539,-1.744521],[101.259716,-1.744275],[101.259819,-1.743962],[101.259774,-1.743851],[101.259911,-1.743661],[101.259837,-1.74349],[101.259829,-1.743329],[101.259886,-1.74308],[101.259851,-1.742915],[101.259979,-1.742351],[101.259943,-1.74218],[101.260111,-1.742043],[101.260156,-1.741772],[101.260243,-1.741484],[101.260195,-1.74133],[101.260236,-1.74091],[101.260208,-1.74081],[101.2601976,-1.7407448],[101.259997,-1.7406],[101.259772,-1.740261],[101.25959,-1.739882],[101.259563,-1.739357],[101.259753,-1.738905],[101.259931,-1.73867],[101.259945,-1.738253],[101.259996,-1.738129],[101.259885,-1.737903],[101.259951,-1.737776],[101.259967,-1.737603],[101.26008,-1.737421],[101.260164,-1.736979],[101.26042,-1.736416],[101.260442,-1.736034],[101.260502,-1.735883],[101.260492,-1.735647],[101.26035,-1.735371],[101.260378,-1.734722],[101.260426,-1.734567],[101.260553,-1.734327],[101.260852,-1.733995],[101.260966,-1.733759],[101.26098,-1.733623],[101.261123,-1.733383],[101.261264,-1.733268],[101.261518,-1.732937],[101.261668,-1.73267],[101.261767,-1.732093],[101.261952,-1.731924],[101.26204,-1.731495],[101.262105,-1.731491],[101.262213,-1.730522],[101.262397,-1.730033],[101.262368,-1.729807],[101.262173,-1.729592],[101.262103,-1.729408],[101.262281,-1.729003],[101.262182,-1.728675],[101.262209,-1.728588],[101.262358,-1.728421],[101.2624494,-1.7282275],[101.262564,-1.728176],[101.262714,-1.728015],[101.262829,-1.727745],[101.2627823,-1.7275672],[101.2628589,-1.7271686],[101.262962,-1.727067],[101.262896,-1.72671],[101.263172,-1.726441],[101.263348,-1.726168],[101.263377,-1.726013],[101.2635,-1.72584],[101.263633,-1.72542],[101.263614,-1.725251],[101.263824,-1.72499],[101.263803,-1.724848],[101.263995,-1.72431],[101.264196,-1.724137],[101.264446,-1.723812],[101.26467,-1.723336],[101.264631,-1.723213],[101.264508,-1.723117],[101.264494,-1.72302],[101.26428,-1.722885],[101.264208,-1.722663],[101.264113,-1.722544],[101.264043,-1.722007],[101.263611,-1.721452],[101.263585,-1.72112],[101.2636377,-1.7208107],[101.2635447,-1.7206224],[101.2635628,-1.7205353],[101.2636115,-1.7203933],[101.263559,-1.720201],[101.2636225,-1.7200515],[101.263575,-1.719703],[101.263621,-1.71962],[101.263577,-1.719499],[101.263449,-1.719353],[101.2635167,-1.7192523],[101.2634596,-1.7190774],[101.263478,-1.718892],[101.263439,-1.718758],[101.26377,-1.718326],[101.263797,-1.718123],[101.26373,-1.717953],[101.263847,-1.717764],[101.263682,-1.717576],[101.2636986,-1.7174289],[101.2635924,-1.7173108],[101.263487,-1.717087],[101.263561,-1.716814],[101.263517,-1.716623],[101.263623,-1.71637],[101.263646,-1.71597],[101.26377,-1.715785],[101.263913,-1.715687],[101.264003,-1.715435],[101.264214,-1.71536],[101.264348,-1.715127],[101.264618,-1.714906],[101.264797,-1.714651],[101.265502,-1.714036],[101.266123,-1.71362],[101.266245,-1.713308],[101.266336,-1.713241],[101.266401,-1.713025],[101.266711,-1.712613],[101.2667742,-1.7124214],[101.2669286,-1.7122476],[101.2670286,-1.7120341],[101.267025,-1.71186],[101.267112,-1.711615],[101.267077,-1.711462],[101.267261,-1.711269],[101.2676292,-1.7111684],[101.2676492,-1.7110938],[101.267587,-1.710815],[101.267684,-1.710708],[101.2677365,-1.7104475],[101.267907,-1.710005],[101.267967,-1.709946],[101.2679758,-1.7098263],[101.2680425,-1.709712],[101.2680021,-1.7095836],[101.2681454,-1.7093613],[101.2681371,-1.7092481],[101.268225,-1.709063],[101.268204,-1.708882],[101.268304,-1.708755],[101.268287,-1.708612],[101.268116,-1.70833],[101.2680957,-1.707989],[101.267899,-1.707599],[101.2676516,-1.7069064],[101.2676758,-1.7066786],[101.2675416,-1.7062523],[101.2674665,-1.7061531],[101.2674451,-1.7059949],[101.2673458,-1.7058756],[101.2673391,-1.7057563],[101.2672828,-1.7057295],[101.2673458,-1.7056061],[101.2673257,-1.7054922],[101.2672091,-1.7054252],[101.2670514,-1.7052211],[101.2668155,-1.7048993],[101.2666626,-1.704717],[101.2665111,-1.7044784],[101.2660343,-1.7041406],[101.2659833,-1.7033309],[101.2654556,-1.7018778],[101.2650426,-1.7014408],[101.2645019,-1.7007548],[101.264134,-1.7003174],[101.2640481,-1.700044],[101.2640991,-1.6995694],[101.2645537,-1.6992521],[101.264547,-1.6984863],[101.2647046,-1.6972906],[101.2642252,-1.696621991]]}}]}
