{"type":"FeatureCollection","peaks_destination_id":"EE823F72482FCF46BEE8","peaks_trailhead_id":"C6A2F96D1A04D339E9F1","peaks_source":"https://www.openstreetmap.org/","peaks_retrieval_source":"https://api.openstreetmap.org/api/0.6","peaks_license_name":"Open Data Commons Open Database License (ODbL) 1.0","peaks_license":"https://opendatacommons.org/licenses/odbl/1-0/","peaks_attribution":"© OpenStreetMap contributors","peaks_retrieved_at":"2026-07-31T13:47:36.449Z","features":[{"type":"Feature","properties":{"name":"Gunung Tambora OSM route candidate","trailhead_name":"Pancasila Tambora Trailhead","destination_name":"Gunung Tambora","distance_m":14766.157724383478,"trailhead_snap_m":17.710891009807668,"summit_snap_m":26.152649423530253,"osm_way_ids":[762623828],"osm_way_urls":["https://www.openstreetmap.org/way/762623828"],"osm_way_names":[],"osm_foot_access_override_way_ids":[]},"geometry":{"type":"LineString","coordinates":[[117.860874,-8.190161],[117.8609249,-8.1903121],[117.8610095,-8.190477],[117.8611736,-8.1905665],[117.861273,-8.1907224],[117.8615274,-8.1909924],[117.8617068,-8.1910342],[117.8618939,-8.1910172],[117.8624073,-8.1912535],[117.8627735,-8.191326],[117.8632449,-8.1916081],[117.8634496,-8.1919077],[117.8638752,-8.1927275],[117.8646605,-8.193243],[117.8648522,-8.1932565],[117.8650274,-8.1933095],[117.8651453,-8.1934494],[117.8653104,-8.1935392],[117.8653548,-8.1937143],[117.8654879,-8.1938371],[117.8656752,-8.1938366],[117.8658254,-8.1939495],[117.8660054,-8.1939204],[117.8661836,-8.193967],[117.8665595,-8.1939751],[117.8666447,-8.1941413],[117.8670166,-8.1941501],[117.8671966,-8.1941923],[117.8673455,-8.1943076],[117.867678,-8.1944519],[117.8678287,-8.194558],[117.8678174,-8.1947437],[117.8682898,-8.19596],[117.8682753,-8.1961432],[117.8683486,-8.1965046],[117.868541,-8.196517],[117.8688576,-8.1967322],[117.869037,-8.196797],[117.8691495,-8.1969416],[117.8693453,-8.196914],[117.8696659,-8.1970972],[117.8698172,-8.1972368],[117.8699985,-8.1972654],[117.8701055,-8.1974114],[117.8702843,-8.1974714],[117.8704401,-8.1975713],[117.8705535,-8.1977132],[117.8708954,-8.1978712],[117.8708798,-8.1982398],[117.8709312,-8.1984243],[117.8710444,-8.1985736],[117.8710754,-8.1987547],[117.8711665,-8.1989149],[117.8713318,-8.1990144],[117.8715076,-8.1993542],[117.8716114,-8.1997207],[117.8717307,-8.1998629],[117.8718003,-8.20003],[117.8718991,-8.200186],[117.8720824,-8.2002041],[117.8724147,-8.2003848],[117.8725313,-8.2005306],[117.8725116,-8.2007104],[117.8726846,-8.20078],[117.8729125,-8.2010631],[117.8730998,-8.2010806],[117.8733947,-8.2008635],[117.87391,-8.200658],[117.874093,-8.2006149],[117.8742281,-8.20049],[117.8744078,-8.2004072],[117.8745947,-8.2004272],[117.8749276,-8.2002771],[117.8751142,-8.2002951],[117.8753609,-8.2005836],[117.875542,-8.2006561],[117.8758589,-8.2008615],[117.8761328,-8.2011201],[117.8763628,-8.2014061],[117.8765398,-8.2014578],[117.8769206,-8.2018561],[117.8774721,-8.2019807],[117.8776548,-8.2019321],[117.8779779,-8.2021069],[117.8781669,-8.2021147],[117.8785399,-8.2020762],[117.8788929,-8.2022028],[117.879197,-8.2024172],[117.8795364,-8.2022415],[117.8798385,-8.2020291],[117.8800022,-8.2019482],[117.8801821,-8.2019004],[117.8805399,-8.2019734],[117.8807255,-8.2019419],[117.8812619,-8.2021479],[117.8814097,-8.2022604],[117.8815774,-8.2023386],[117.8816578,-8.2025001],[117.8819601,-8.2027098],[117.882142,-8.2027501],[117.8823398,-8.2027236],[117.8825256,-8.2027496],[117.8828982,-8.2027154],[117.8830759,-8.2026681],[117.883261,-8.2027048],[117.8834261,-8.202781],[117.8834567,-8.2029612],[117.8836201,-8.2032927],[117.883893,-8.2035337],[117.8842611,-8.2036562],[117.884626,-8.2037161],[117.8851887,-8.2042047],[117.8853721,-8.2042454],[117.8857306,-8.2043848],[117.8858678,-8.2045158],[117.8860412,-8.2045921],[117.8864075,-8.2046798],[117.8867226,-8.2051378],[117.8870696,-8.2052787],[117.8872089,-8.2054028],[117.8872816,-8.2055734],[117.8877957,-8.2061009],[117.8881292,-8.2062874],[117.888494,-8.2063486],[117.8886304,-8.206471],[117.888812,-8.2067928],[117.8890625,-8.2070747],[117.889021,-8.2072563],[117.889152,-8.2073896],[117.8892254,-8.2075635],[117.8894505,-8.2078584],[117.8895971,-8.2079889],[117.8897795,-8.2080438],[117.8899607,-8.2079903],[117.8901118,-8.2081033],[117.890293,-8.2081563],[117.8908438,-8.2082137],[117.8909226,-8.2085773],[117.8909893,-8.2087545],[117.8913565,-8.2088947],[117.8919256,-8.2088199],[117.8921079,-8.2088304],[117.8922919,-8.2088966],[117.8923655,-8.2090655],[117.8924974,-8.2091908],[117.8927774,-8.2096743],[117.8929904,-8.209969],[117.8931314,-8.2100971],[117.8933205,-8.2101779],[117.8934352,-8.2103174],[117.8935913,-8.2104208],[117.8937758,-8.2104703],[117.8938649,-8.2106383],[117.8940516,-8.2106762],[117.8944215,-8.2106883],[117.8946029,-8.2107531],[117.8947291,-8.2108883],[117.8947946,-8.2110631],[117.8949678,-8.2111389],[117.8951533,-8.2111715],[117.8952461,-8.2113264],[117.8958397,-8.211752],[117.8959639,-8.2118944],[117.8964577,-8.2121435],[117.8966511,-8.2121008],[117.8967833,-8.2119647],[117.8969544,-8.2118946],[117.897082,-8.2117574],[117.8972402,-8.2114138],[117.8972862,-8.2112322],[117.8977177,-8.210867],[117.8978911,-8.2107978],[117.8982651,-8.2107774],[117.8983718,-8.2106297],[117.8987353,-8.2105024],[117.8988504,-8.2103596],[117.8992673,-8.2099796],[117.9000012,-8.2100048],[117.9003482,-8.2101371],[117.9007071,-8.2100653],[117.900893,-8.2100899],[117.9012639,-8.2100389],[117.9013583,-8.2098829],[117.9014846,-8.2097424],[117.9016234,-8.2097708],[117.901806,-8.2098146],[117.9019886,-8.2098174],[117.9021583,-8.2097374],[117.9023413,-8.2097898],[117.9025174,-8.209866],[117.9026227,-8.2100234],[117.9029392,-8.2102149],[117.90364,-8.2104527],[117.9041561,-8.2106613],[117.9043328,-8.210587],[117.9047019,-8.2105447],[117.9048772,-8.2106167],[117.9052454,-8.2106643],[117.9054187,-8.2107381],[117.9056037,-8.2107729],[117.9058267,-8.2110628],[117.9059129,-8.2112383],[117.9059494,-8.2114148],[117.9060772,-8.2115544],[117.9062393,-8.2116385],[117.9066147,-8.211705],[117.9067883,-8.211773],[117.9070853,-8.2119974],[117.9072151,-8.2121274],[117.9073016,-8.21229],[117.907299,-8.2124713],[117.9078894,-8.2129513],[117.908008,-8.21309],[117.9083285,-8.2132744],[117.9084429,-8.213423],[117.9087686,-8.2136097],[117.909069,-8.2138331],[117.909582,-8.2143614],[117.9096649,-8.2145251],[117.9100103,-8.2146937],[117.9100823,-8.214863],[117.9106443,-8.2150039],[117.911202,-8.2150529],[117.9116594,-8.2153884],[117.9118289,-8.2154661],[117.9120079,-8.2154178],[117.9123799,-8.2154669],[117.9125268,-8.2155754],[117.9124943,-8.2159563],[117.9126206,-8.2160868],[117.9127776,-8.2161924],[117.9129625,-8.2161774],[117.913334,-8.2160842],[117.913517,-8.2161056],[117.913611,-8.2159415],[117.9137967,-8.2158821],[117.9139808,-8.2159079],[117.9141386,-8.2158099],[117.9144854,-8.2159225],[117.9147603,-8.2156717],[117.9148117,-8.215495],[117.9149934,-8.2154818],[117.9150595,-8.2153023],[117.9152323,-8.2152388],[117.9152898,-8.2150633],[117.9153937,-8.2149104],[117.915665,-8.2151678],[117.9158205,-8.2152709],[117.9159917,-8.215336],[117.9163646,-8.2153392],[117.916547,-8.2153912],[117.9171101,-8.2154459],[117.9172899,-8.215406],[117.9175857,-8.2156284],[117.9176821,-8.2161731],[117.9179358,-8.2164498],[117.9180021,-8.2166315],[117.918137,-8.2167644],[117.9182224,-8.2169236],[117.9183869,-8.2170147],[117.9183403,-8.2171976],[117.9183843,-8.2173748],[117.9185284,-8.2174958],[117.9187161,-8.2174856],[117.9190657,-8.2176326],[117.9194789,-8.2180163],[117.919802,-8.2181989],[117.9198827,-8.2183636],[117.92002,-8.2184871],[117.9205104,-8.2187662],[117.9206895,-8.2188011],[117.9208413,-8.218906],[117.9209586,-8.2190483],[117.9213304,-8.2190628],[117.921509,-8.21912],[117.9218851,-8.2191707],[117.9222355,-8.2192762],[117.9224175,-8.2192693],[117.9225992,-8.219308],[117.9229136,-8.2195038],[117.9234069,-8.2200629],[117.9235798,-8.2201262],[117.9236824,-8.220279],[117.9241271,-8.2206022],[117.9243105,-8.2206538],[117.9244457,-8.2207782],[117.9249287,-8.2210512],[117.9251763,-8.2213449],[117.9254896,-8.2215583],[117.9259138,-8.221924],[117.926288,-8.2220036],[117.9264508,-8.222092],[117.9266761,-8.2223977],[117.9270006,-8.2225741],[117.9270721,-8.222746],[117.927067,-8.2229393],[117.9271261,-8.2231139],[117.9274127,-8.2233441],[117.927766,-8.2234582],[117.9278717,-8.2236135],[117.9280331,-8.2237017],[117.9282069,-8.2237554],[117.9283498,-8.2238666],[117.9285345,-8.2239141],[117.9287863,-8.2241805],[117.9288043,-8.2243612],[117.9289173,-8.2245126],[117.92898,-8.2246919],[117.9289529,-8.2250535],[117.9291233,-8.2251176],[117.9293138,-8.225149],[117.9294655,-8.225253],[117.9296522,-8.2252967],[117.9298954,-8.225586],[117.9299704,-8.2257632],[117.9301073,-8.2258918],[117.9302891,-8.2259348],[117.9305882,-8.2261665],[117.9309538,-8.2262508],[117.9310702,-8.2263899],[117.931423,-8.2265156],[117.9316118,-8.226508],[117.9317913,-8.2265488],[117.9319021,-8.2270938],[117.9319054,-8.2272839],[117.9320391,-8.2274166],[117.9320823,-8.2275935],[117.932183,-8.2277477],[117.9324541,-8.2279915],[117.9326507,-8.2280224],[117.9328145,-8.2281178],[117.9329999,-8.2281205],[117.9333005,-8.228349],[117.934053,-8.2284996],[117.9343979,-8.2286567],[117.9344826,-8.2288191],[117.9348041,-8.2290217],[117.9349143,-8.2291661],[117.9349655,-8.2293405],[117.9351011,-8.229465],[117.9352885,-8.2294793],[117.9356317,-8.2296812],[117.9358171,-8.2296666],[117.9363652,-8.2297651],[117.9369226,-8.2298135],[117.9372739,-8.2297064],[117.9374252,-8.2298237],[117.9379686,-8.2297147],[117.9381265,-8.2298217],[117.9383035,-8.2298643],[117.9386787,-8.2297855],[117.9388264,-8.2296774],[117.9390075,-8.2296338],[117.9391899,-8.2296704],[117.9393613,-8.2295944],[117.939553,-8.2295869],[117.9397225,-8.2296722],[117.939904,-8.2296284],[117.9400896,-8.229682],[117.94027,-8.2296572],[117.9406142,-8.2294966],[117.9409358,-8.2296674],[117.9412819,-8.2297919],[117.9414636,-8.2298082],[117.9417925,-8.2299673],[117.942184,-8.2299956],[117.9424315,-8.23026],[117.9426109,-8.230319],[117.9427516,-8.2304388],[117.9427368,-8.2304955],[117.9427061,-8.2306132],[117.9428079,-8.2307634],[117.9428378,-8.2309413],[117.9427875,-8.2311184],[117.9428863,-8.2312709],[117.9429104,-8.2314582],[117.9432129,-8.2316725],[117.943421,-8.2321954],[117.9435696,-8.2323101],[117.9437553,-8.2323463],[117.9439086,-8.2324463],[117.9439236,-8.2326302],[117.9442082,-8.2328576],[117.9444503,-8.2331395],[117.944609,-8.2332396],[117.9448821,-8.2335056],[117.9450462,-8.2335892],[117.945295,-8.2338596],[117.9454491,-8.233965],[117.9455286,-8.2341289],[117.9456796,-8.2342334],[117.9457914,-8.2343791],[117.9461017,-8.2346067],[117.9461566,-8.2347832],[117.9460904,-8.2349656],[117.946119,-8.2351572],[117.9462222,-8.2353164],[117.9466939,-8.2356008],[117.946936,-8.2358733],[117.9472711,-8.2360263],[117.9473947,-8.2361659],[117.9475593,-8.236252],[117.9479682,-8.2366356],[117.9481498,-8.23659],[117.9483256,-8.2366458],[117.9485163,-8.2369646],[117.9487708,-8.237234],[117.948873,-8.2373924],[117.949202,-8.2375564],[117.9493469,-8.2376846],[117.949525,-8.2377426],[117.9497138,-8.2377569],[117.9498715,-8.2378482],[117.9500538,-8.2378392],[117.9502057,-8.2377355],[117.9503647,-8.2378231],[117.950479,-8.2376829],[117.950652,-8.2376251],[117.9508168,-8.2377047],[117.9511836,-8.2377274],[117.9513616,-8.2377666],[117.951674,-8.2379779],[117.9518592,-8.2379942],[117.9520232,-8.2380814],[117.9522076,-8.2381209],[117.9523371,-8.2382611],[117.9525116,-8.2383279],[117.952887,-8.2383607],[117.9530588,-8.238434],[117.9532453,-8.238445],[117.9534113,-8.2385221],[117.9535455,-8.2386445],[117.9540614,-8.2388496],[117.9541994,-8.2389709],[117.9543107,-8.2391272],[117.9548532,-8.239266],[117.9553607,-8.2394901],[117.9556186,-8.239754],[117.9557725,-8.2398515],[117.9559526,-8.2398898],[117.9560662,-8.2400399],[117.9562508,-8.2400353],[117.9563364,-8.2401949],[117.9565779,-8.2404687],[117.9567466,-8.2405534],[117.9571154,-8.2405792],[117.9572818,-8.2406637],[117.9574673,-8.2406847],[117.9578199,-8.2408024],[117.9581226,-8.2410094],[117.9582409,-8.2411538],[117.9584128,-8.2412326],[117.9584857,-8.2415924],[117.9585639,-8.2417658],[117.9585867,-8.2421286],[117.9587417,-8.2422227],[117.9588797,-8.2425644],[117.9589269,-8.2429355],[117.958908,-8.243125],[117.9589661,-8.2434838],[117.9591262,-8.2438214],[117.9592905,-8.2439164],[117.9594003,-8.2440707],[117.9593833,-8.2446265],[117.9594301,-8.244805],[117.9594174,-8.2449939],[117.9593324,-8.2455331],[117.9590376,-8.2459966],[117.9589809,-8.2461769],[117.9589878,-8.2463609],[117.9589,-8.2465237],[117.9587318,-8.2465925],[117.9582926,-8.2468451],[117.9584724,-8.2466913]]}}]}
