{"type":"FeatureCollection","peaks_destination_id":"shF1iCx18JsrUfsKmy6f","peaks_trailhead_id":"69B9CAB4B0E857098276","peaks_source":"https://www.openstreetmap.org/","peaks_retrieval_source":"https://overpass-api.de/api/interpreter","peaks_license_name":"Open Data Commons Open Database License (ODbL) 1.0","peaks_license":"https://opendatacommons.org/licenses/odbl/1-0/","peaks_attribution":"© OpenStreetMap contributors","peaks_retrieved_at":"2026-07-31T14:22:56.113Z","features":[{"type":"Feature","properties":{"name":"Gunung Rantemario OSM route candidate","trailhead_name":"Karangan Trailhead","destination_name":"Gunung Rantemario","distance_m":7871.121735471453,"trailhead_snap_m":7.511059515463547,"summit_snap_m":12.822512028105086,"osm_way_ids":[1422453091],"osm_way_urls":["https://www.openstreetmap.org/way/1422453091"],"osm_way_names":["Jalur Pendakian Gunung Latimojong"],"osm_foot_access_override_way_ids":[]},"geometry":{"type":"LineString","coordinates":[[119.989685,-3.41717],[119.9897441,-3.4171371],[119.9897897,-3.4171639],[119.9898407,-3.4171853],[119.9900311,-3.417188],[119.9900848,-3.4172014],[119.9901786,-3.417263],[119.9902162,-3.4173031],[119.9902725,-3.417437],[119.9903396,-3.4175227],[119.9903879,-3.417603],[119.9904147,-3.4176539],[119.9904844,-3.4177503],[119.9905246,-3.4177931],[119.9905756,-3.4178199],[119.9906507,-3.4178279],[119.990699,-3.417852],[119.9908036,-3.4178761],[119.9908546,-3.4178949],[119.9908975,-3.4179323],[119.9909458,-3.4179564],[119.9910021,-3.4179564],[119.9910584,-3.4179457],[119.9911121,-3.417943],[119.9911684,-3.4179457],[119.9912247,-3.4179538],[119.9912783,-3.4179698],[119.9913266,-3.4179993],[119.9913642,-3.4180368],[119.9914393,-3.4181412],[119.9914902,-3.4181626],[119.9915975,-3.4181894],[119.9916512,-3.418192],[119.9916726,-3.4181439],[119.9916458,-3.4180957],[119.9916378,-3.4180421],[119.9916512,-3.4179832],[119.9916968,-3.4179538],[119.9918094,-3.4179457],[119.9918658,-3.4179484],[119.9919704,-3.4179404],[119.9921715,-3.4178788],[119.9923298,-3.4178092],[119.9923781,-3.4177824],[119.9924692,-3.4177048],[119.9925068,-3.4176592],[119.9925283,-3.417603],[119.9925631,-3.4175575],[119.9926087,-3.4175307],[119.9927214,-3.4175066],[119.992952,-3.4176057],[119.9930593,-3.4176084],[119.9931639,-3.4175789],[119.9932149,-3.4175709],[119.9932632,-3.417595],[119.9933088,-3.4176244],[119.993349,-3.4176619],[119.9933946,-3.4176914],[119.9934483,-3.4177048],[119.9934992,-3.4177021],[119.9936897,-3.4177021],[119.9937353,-3.4176726],[119.9937835,-3.4176539],[119.9938425,-3.4176432],[119.9938989,-3.4176432],[119.9940088,-3.4176646],[119.9940491,-3.4177048],[119.9940813,-3.4177503],[119.9941537,-3.4178306],[119.9942154,-3.417927],[119.9942717,-3.418026],[119.9942905,-3.4180823],[119.9943119,-3.4181305],[119.9943522,-3.418168],[119.9944058,-3.4181813],[119.9944594,-3.4181706],[119.9944916,-3.4181224],[119.9945077,-3.4180689],[119.994548,-3.4179671],[119.9945319,-3.4179136],[119.994505,-3.4178654],[119.9944568,-3.4178333],[119.9944165,-3.4177931],[119.9943495,-3.4176994],[119.9942851,-3.4175923],[119.9942207,-3.4174986],[119.9941805,-3.4174531],[119.9941161,-3.4173594],[119.9940759,-3.4173165],[119.994033,-3.4172817],[119.9939927,-3.4172389],[119.9939632,-3.4171934],[119.9939525,-3.4171693],[119.9939606,-3.417113],[119.9939954,-3.4170622],[119.9940544,-3.41703],[119.9941698,-3.4169845],[119.9942154,-3.4169578],[119.9942636,-3.4169337],[119.9943978,-3.4168881],[119.9944487,-3.416864],[119.9944943,-3.4168266],[119.9945372,-3.4167837],[119.9946257,-3.4167168],[119.9946794,-3.4166954],[119.994733,-3.4166954],[119.994784,-3.4167087],[119.9948242,-3.4167462],[119.9950495,-3.4168132],[119.9950951,-3.4168453],[119.9951622,-3.4168614],[119.9952748,-3.4168694],[119.9953714,-3.416931],[119.9955296,-3.4170059],[119.9955779,-3.4170515],[119.9956262,-3.4170756],[119.9956772,-3.4170943],[119.9957389,-3.417113],[119.9958971,-3.4171478],[119.9959454,-3.4171773],[119.9960339,-3.4172469],[119.9961251,-3.4173138],[119.9961653,-3.4173487],[119.9962109,-3.4173728],[119.9963129,-3.4174102],[119.9963585,-3.4174424],[119.9964121,-3.4174504],[119.9964604,-3.4174236],[119.9964684,-3.4173701],[119.996455,-3.4173165],[119.9964255,-3.4172657],[119.996404,-3.4172148],[119.996396,-3.4171586],[119.9963745,-3.4170997],[119.9962163,-3.4168132],[119.9961439,-3.4167168],[119.9961117,-3.4166686],[119.9960822,-3.4166177],[119.9960607,-3.4165535],[119.9960849,-3.4165053],[119.9961224,-3.4164651],[119.9961761,-3.416441],[119.9962324,-3.416433],[119.9964362,-3.4164249],[119.9964765,-3.4163901],[119.9965221,-3.4163607],[119.9965757,-3.4163553],[119.9966937,-3.4163553],[119.9967447,-3.4163607],[119.9968708,-3.4163607],[119.9969217,-3.416358],[119.99708,-3.4163366],[119.9971309,-3.4163259],[119.9972302,-3.4162857],[119.9972811,-3.4162643],[119.9973267,-3.4162348],[119.9973375,-3.4161813],[119.9973375,-3.4160099],[119.9973643,-3.4159617],[119.9973965,-3.4159162],[119.9974072,-3.4158627],[119.9973857,-3.4158118],[119.9972838,-3.4156672],[119.997257,-3.4156137],[119.9972436,-3.4155601],[119.9972463,-3.4155066],[119.9972355,-3.415362],[119.9972033,-3.4153058],[119.9971148,-3.4152362],[119.9969915,-3.4151264],[119.9969512,-3.4150809],[119.9969298,-3.4150273],[119.9969405,-3.4149684],[119.9969888,-3.4148693],[119.9970773,-3.4147622],[119.9971041,-3.4147114],[119.997139,-3.4146605],[119.9971604,-3.4146016],[119.9971846,-3.4145507],[119.9972221,-3.4144436],[119.9972892,-3.414275],[119.9973133,-3.4142241],[119.9973589,-3.4141866],[119.9974099,-3.4141679],[119.9975225,-3.4141491],[119.9975762,-3.4141464],[119.9976325,-3.4141518],[119.9976835,-3.4141786],[119.9977693,-3.4142482],[119.9978176,-3.4142723],[119.9979208,-3.4143017],[119.9979436,-3.4142897],[119.9979517,-3.4142642],[119.9980321,-3.4141438],[119.9980751,-3.4141009],[119.9981475,-3.4140072],[119.9981716,-3.413959],[119.9981743,-3.4139055],[119.9981636,-3.4137984],[119.9981394,-3.4136913],[119.9981341,-3.4136377],[119.9981824,-3.4135467],[119.998236,-3.4135333],[119.9982843,-3.413552],[119.9983218,-3.4135949],[119.9983647,-3.4136297],[119.9984211,-3.4136431],[119.9985337,-3.4136431],[119.9985874,-3.4136377],[119.9986437,-3.4136431],[119.998692,-3.4136698],[119.9987429,-3.4136832],[119.9989709,-3.4136939],[119.9990219,-3.4137261],[119.9990809,-3.4137207],[119.9992391,-3.4136939],[119.9993572,-3.4136538],[119.9994108,-3.4136511],[119.9994644,-3.4136538],[119.9995181,-3.4136618],[119.9996817,-3.4136698],[119.9999607,-3.4136725],[120.0000519,-3.4136458],[120.0001994,-3.413536],[120.0002933,-3.4134503],[120.0003415,-3.4134101],[120.0003818,-3.4133673],[120.0004193,-3.4133218],[120.0004488,-3.4132709],[120.0006473,-3.4130165],[120.0006902,-3.4129844],[120.0007653,-3.4128934],[120.0008565,-3.4128184],[120.0009611,-3.4126845],[120.0011918,-3.4124034],[120.0012293,-3.4123525],[120.0012669,-3.4123124],[120.0013018,-3.4122695],[120.001342,-3.4122294],[120.0013876,-3.4122026],[120.0014359,-3.4121785],[120.001637,-3.4121571],[120.0016934,-3.4121357],[120.0017551,-3.4121169],[120.0018704,-3.4121035],[120.0019321,-3.4121009],[120.0021091,-3.4120794],[120.00227,-3.412042],[120.0023264,-3.4120339],[120.00238,-3.4120205],[120.002431,-3.4120125],[120.0026053,-3.4120125],[120.0027797,-3.412042],[120.0029406,-3.4120902],[120.0029969,-3.4120982],[120.0031069,-3.4120955],[120.0031659,-3.4120848],[120.0032195,-3.4120687],[120.0032651,-3.4120393],[120.0033456,-3.411959],[120.0034341,-3.4118974],[120.0036272,-3.4117956],[120.0036836,-3.4117822],[120.0037345,-3.4117635],[120.0038794,-3.4116832],[120.0039276,-3.4116537],[120.0039625,-3.4116055],[120.0039545,-3.4115466],[120.0039116,-3.4115065],[120.0038633,-3.4114663],[120.0038311,-3.4114208],[120.0038204,-3.4113672],[120.0038525,-3.4113217],[120.0038928,-3.4112762],[120.0039357,-3.4112441],[120.0040296,-3.4111932],[120.0042334,-3.4110486],[120.0042897,-3.4110379],[120.0043407,-3.4110192],[120.0043917,-3.4109951],[120.004448,-3.4109817],[120.0045043,-3.4109737],[120.0046116,-3.4109496],[120.0047672,-3.4108853],[120.0048101,-3.4108505],[120.0048423,-3.4108023],[120.0048557,-3.4107461],[120.0048637,-3.4106925],[120.0048691,-3.4106363],[120.0048557,-3.4105185],[120.0048557,-3.4104114],[120.0049683,-3.4102347],[120.005022,-3.4101945],[120.0050783,-3.4101597],[120.0051266,-3.4101249],[120.0051749,-3.4100954],[120.0052741,-3.4100446],[120.0053278,-3.4100365],[120.0053734,-3.410066],[120.0054163,-3.4100981],[120.0054833,-3.4101865],[120.0055289,-3.4102266],[120.0056282,-3.4102829],[120.0056764,-3.4103043],[120.0057837,-3.4103391],[120.0058401,-3.4103498],[120.005891,-3.4103418],[120.0059903,-3.4102855],[120.0060466,-3.4102695],[120.0060976,-3.4102829],[120.0061485,-3.410307],[120.0062048,-3.410315],[120.0063094,-3.410315],[120.0063604,-3.410307],[120.0064006,-3.4102722],[120.006583,-3.4102159],[120.0067627,-3.4102159],[120.0068191,-3.4102079],[120.006921,-3.4101704],[120.0070256,-3.4101624],[120.0070685,-3.4101276],[120.00709,-3.4099348],[120.0070873,-3.4098759],[120.0070417,-3.4098331],[120.0069827,-3.4098143],[120.0069264,-3.4098036],[120.0068781,-3.4097715],[120.0068486,-3.4096644],[120.0068325,-3.4095492],[120.0068164,-3.4094957],[120.0067976,-3.4094448],[120.0067869,-3.4093886],[120.0067815,-3.409335],[120.0067681,-3.4092788],[120.0067681,-3.4092226],[120.0068968,-3.4089468],[120.0069237,-3.4088397],[120.0068968,-3.4087326],[120.0068378,-3.4086309],[120.0068164,-3.4085238],[120.0068003,-3.4084167],[120.0068057,-3.4083042],[120.0069398,-3.4082078],[120.0070578,-3.4081757],[120.0071543,-3.4081114],[120.0071973,-3.4080097],[120.0072294,-3.4077527],[120.0073367,-3.407742],[120.007444,-3.4077259],[120.0075459,-3.4076884],[120.0076371,-3.4076241],[120.0077122,-3.4075492],[120.0079268,-3.4073243],[120.0081253,-3.4072332],[120.0082165,-3.4071743],[120.0083077,-3.4069708],[120.0083774,-3.4068798],[120.0086349,-3.4066924],[120.0087315,-3.4066335],[120.0088173,-3.4065639],[120.0089085,-3.406505],[120.0089943,-3.40643],[120.0091016,-3.4063979],[120.0092089,-3.4063818],[120.0094879,-3.4062372],[120.0095898,-3.406189],[120.0098124,-3.4060926],[120.0098714,-3.4060766],[120.0099787,-3.4060873],[120.0100377,-3.4060846],[120.0100887,-3.4060712],[120.0101343,-3.4060444],[120.0101691,-3.4060043],[120.0102121,-3.4059695],[120.0102469,-3.4059266],[120.0102898,-3.4058838],[120.0103247,-3.405841],[120.0104052,-3.4057633],[120.0104454,-3.4057205],[120.0104856,-3.4056723],[120.0105903,-3.4056723],[120.0106359,-3.4056401],[120.0106841,-3.4056134],[120.0107351,-3.4055946],[120.0107887,-3.4055652],[120.0108343,-3.405533],[120.010888,-3.405525],[120.0109389,-3.4055116],[120.0109953,-3.4054956],[120.0110435,-3.4054741],[120.0110918,-3.40545],[120.0111857,-3.4053804],[120.0112313,-3.4053349],[120.0113574,-3.4052733],[120.0114083,-3.4052519],[120.0114647,-3.4052358],[120.0115263,-3.4052251],[120.01158,-3.4052198],[120.0116926,-3.4052171],[120.011749,-3.4051957],[120.0117946,-3.4051555],[120.0118294,-3.4051154],[120.0120065,-3.405035],[120.0120547,-3.4050083],[120.012103,-3.4049895],[120.0122157,-3.4049547],[120.0122666,-3.4049467],[120.0123739,-3.4049386],[120.0124302,-3.4049386],[120.0124893,-3.4049601],[120.0125402,-3.4049627],[120.0125965,-3.4049494],[120.0126502,-3.4049467],[120.0126985,-3.4049654],[120.0127548,-3.4049681],[120.0128084,-3.4049654],[120.0128674,-3.4049574],[120.0129184,-3.4049386],[120.0129667,-3.4049092],[120.013015,-3.4048878],[120.0130767,-3.4048664],[120.0131437,-3.4048556],[120.013251,-3.404853],[120.0134495,-3.4047191],[120.0134763,-3.4046709],[120.0135112,-3.4046281],[120.0135541,-3.4045906],[120.0136641,-3.4045504],[120.0137231,-3.4045317],[120.0137848,-3.4045236],[120.0138384,-3.4045102],[120.013884,-3.4044754],[120.0139269,-3.404438],[120.0140047,-3.4043496],[120.0141013,-3.4042157],[120.0141495,-3.404197],[120.0141951,-3.4041649],[120.0142086,-3.4041113],[120.0141844,-3.4040015],[120.0142005,-3.403948],[120.0142622,-3.4038436],[120.0143051,-3.4038087],[120.0144982,-3.4037472],[120.0145492,-3.4037632],[120.0146082,-3.4037739],[120.0146592,-3.40379],[120.0147074,-3.4038221],[120.0147584,-3.4038462],[120.014812,-3.403865],[120.014863,-3.4038757],[120.0152412,-3.403865],[120.0152868,-3.4038944],[120.0154477,-3.4039025],[120.0155041,-3.4038971],[120.015606,-3.4038409],[120.0156489,-3.4038114],[120.0156972,-3.40379],[120.0157937,-3.4038489],[120.0158447,-3.4038516],[120.015901,-3.4038409],[120.0160485,-3.4037498],[120.0161397,-3.4036776],[120.0162095,-3.4035812],[120.0162604,-3.403549],[120.0163195,-3.4035303],[120.0164294,-3.4035303],[120.0165394,-3.4035437],[120.0165957,-3.403541],[120.0166467,-3.4035249],[120.016695,-3.4034982],[120.0167352,-3.403458],[120.016762,-3.4034071],[120.0167754,-3.4033536],[120.0168747,-3.403201],[120.0169954,-3.4030778],[120.0170329,-3.4030296],[120.0170651,-3.4029787],[120.0171509,-3.4027672],[120.0171778,-3.402711],[120.0172716,-3.4026199],[120.0173146,-3.4025744],[120.0173628,-3.4025343],[120.0174969,-3.4024138],[120.0175452,-3.4023897],[120.0176471,-3.4023522],[120.0177973,-3.4022719],[120.0178483,-3.4022585],[120.0180736,-3.4022237],[120.0181299,-3.4022076],[120.0181782,-3.4021862],[120.0182694,-3.4021353],[120.018307,-3.4020952],[120.0184196,-3.4019104],[120.0184545,-3.4018676],[120.0184813,-3.4018194],[120.0185055,-3.4017632],[120.0185564,-3.4015945],[120.0185752,-3.4015409],[120.018602,-3.4014901],[120.0186369,-3.4014392],[120.0188434,-3.4013589],[120.0188971,-3.4013455],[120.0189453,-3.4013214],[120.0189882,-3.4012866],[120.0190285,-3.4012464],[120.0191304,-3.4011179],[120.019168,-3.4010777],[120.0192189,-3.401059],[120.0192672,-3.4010376],[120.0193208,-3.4010242],[120.0194952,-3.4009653],[120.0195515,-3.4009679],[120.0196159,-3.4009653],[120.0196668,-3.4009492],[120.0197124,-3.4009144],[120.01975,-3.4008769],[120.0197768,-3.4008314],[120.0198144,-3.4007912],[120.01986,-3.4007591],[120.019919,-3.400735],[120.0199726,-3.400727],[120.0200799,-3.400735],[120.0201309,-3.4007216],[120.0201791,-3.4006922],[120.0203669,-3.4005556],[120.0204205,-3.4005288],[120.0205252,-3.4004913],[120.0205788,-3.400478],[120.020737,-3.4004271],[120.0207907,-3.4004164],[120.0208497,-3.400411],[120.0209087,-3.4004003],[120.0209624,-3.4003976],[120.021016,-3.4004003],[120.021075,-3.4003896],[120.0211233,-3.4003548],[120.0211689,-3.400328],[120.0212494,-3.4002423],[120.0212923,-3.4002075],[120.0213405,-3.4001861],[120.0214854,-3.4001299],[120.0215417,-3.4001352],[120.0216061,-3.4001352],[120.0216731,-3.4001245],[120.0217214,-3.4001004],[120.0217643,-3.4000683],[120.0217992,-3.4000255],[120.0218394,-3.3999826],[120.0219226,-3.3999103],[120.0219682,-3.3998675],[120.0220057,-3.3998273],[120.022113,-3.3997791],[120.0221586,-3.3997524],[120.0223571,-3.3995864],[120.0224054,-3.3995516],[120.0224617,-3.3995408],[120.0225234,-3.3995355],[120.0225797,-3.3995355],[120.022628,-3.3995542],[120.0226817,-3.3995623],[120.022738,-3.3995783],[120.0227916,-3.3995837],[120.0230733,-3.3995864],[120.0231269,-3.3995783],[120.0232369,-3.3995489],[120.0232878,-3.3995248],[120.0233549,-3.3994364],[120.0233817,-3.3993829],[120.0234568,-3.3992035],[120.0235158,-3.3991633],[120.0236365,-3.3990937],[120.0238726,-3.3989143],[120.024071,-3.3988126],[120.0241166,-3.3987778],[120.0241622,-3.3987537],[120.0243607,-3.3986867],[120.024468,-3.398684],[120.024519,-3.398668],[120.0245726,-3.3986385],[120.0246289,-3.3986144],[120.0246772,-3.3985877],[120.0247282,-3.3985555],[120.0247738,-3.398518],[120.0249588,-3.398435],[120.0250876,-3.3984324],[120.0251922,-3.3984243],[120.0252458,-3.3984083],[120.0252888,-3.3983788],[120.0253263,-3.3983386],[120.025388,-3.3982423],[120.0254148,-3.3981887],[120.0254336,-3.3981352],[120.025439,-3.3980789],[120.0254577,-3.3979665],[120.0254926,-3.3978326],[120.0255141,-3.3977817],[120.0255436,-3.3976157],[120.0255838,-3.3975006],[120.0256079,-3.3974524],[120.0256482,-3.3974069],[120.025734,-3.3973399],[120.025911,-3.3971766],[120.0259486,-3.3971311],[120.0259754,-3.3970856],[120.0260451,-3.3969115],[120.0260693,-3.396858],[120.0260988,-3.3968125],[120.0261658,-3.3967241],[120.0261873,-3.3966732],[120.0262141,-3.3966277],[120.0263643,-3.3963038],[120.0264153,-3.3962582],[120.0264502,-3.3962074],[120.026477,-3.3961565],[120.0265172,-3.396111],[120.0265574,-3.3960708],[120.0266084,-3.3960387],[120.0266567,-3.3960199],[120.0267076,-3.3959932],[120.026764,-3.3959744],[120.0268149,-3.395953],[120.0268605,-3.3959235],[120.0269008,-3.3958861],[120.0269169,-3.3958325],[120.0269195,-3.3957763],[120.0269169,-3.3957201],[120.0269249,-3.3956665],[120.0269678,-3.3956371],[120.0270751,-3.395546],[120.0271207,-3.3955005],[120.0271583,-3.395455],[120.0271958,-3.3954148],[120.0272763,-3.3953399],[120.027287,-3.3952863],[120.0272468,-3.3951792],[120.0272951,-3.3950855],[120.0273299,-3.3950426],[120.0273541,-3.3949945],[120.0273702,-3.3949436],[120.0273997,-3.3948927],[120.0274345,-3.3947977],[120.0274533,-3.3947762],[120.0274788,-3.3947669],[120.0275069,-3.3947629],[120.0275338,-3.3947682],[120.0275834,-3.3947936],[120.0276102,-3.394799],[120.0276612,-3.3948177],[120.0276907,-3.3948191],[120.0277175,-3.3948164],[120.0277443,-3.394807],[120.0277658,-3.3947896],[120.0277671,-3.3947629],[120.027747,-3.3947401],[120.0277443,-3.3947133],[120.0277644,-3.3946946],[120.0277886,-3.3946812],[120.0278141,-3.3946772],[120.0278395,-3.3946785],[120.0278664,-3.3946758],[120.0278918,-3.3946624],[120.0279146,-3.3946464],[120.0279348,-3.3946276],[120.0279522,-3.3946062],[120.0279656,-3.3945794],[120.0279844,-3.3945299],[120.0281118,-3.3945299],[120.0282821,-3.3945045],[120.0283076,-3.3944938],[120.0283907,-3.3944188],[120.0284269,-3.3943773],[120.0285195,-3.3943077],[120.0285946,-3.3942675],[120.0287086,-3.3942207],[120.0287944,-3.394222],[120.0288494,-3.3942327],[120.0288749,-3.3942407],[120.028895,-3.3942635],[120.0289178,-3.3942809],[120.0289419,-3.3942903],[120.0290506,-3.3942916],[120.0291739,-3.3942568],[120.0292571,-3.3942233],[120.0293107,-3.3941952],[120.029418,-3.394147],[120.0294408,-3.3941323],[120.0294824,-3.3940935],[120.0294904,-3.3940654],[120.0294663,-3.393981],[120.0294784,-3.3938164],[120.0294837,-3.3937896],[120.0294837,-3.3937026],[120.0294743,-3.3936731],[120.0294422,-3.3936236],[120.029418,-3.3936102],[120.0293899,-3.3936075],[120.0292799,-3.3935874],[120.0292517,-3.3935861],[120.0292236,-3.3935794],[120.0291793,-3.3935459],[120.0291672,-3.3935205],[120.0291538,-3.3934669],[120.0291324,-3.3934482],[120.0290854,-3.3934161],[120.0290465,-3.3933732],[120.0290224,-3.3933063],[120.0290425,-3.3932527],[120.0290425,-3.3932233],[120.0290385,-3.3931925],[120.0290291,-3.3931644],[120.0289889,-3.3931229],[120.028962,-3.3931082],[120.0289057,-3.3930867],[120.0288561,-3.39306],[120.028781,-3.3930252],[120.0287582,-3.3930064],[120.0287502,-3.3929796],[120.0287448,-3.3928966],[120.0287595,-3.3928739],[120.0287609,-3.3928431],[120.0287528,-3.3928136],[120.0287394,-3.3927882],[120.028718,-3.3927668],[120.0286992,-3.3927427],[120.0286724,-3.3926891],[120.0286549,-3.3926677],[120.0285879,-3.3926115],[120.0285356,-3.3925834],[120.0285128,-3.3925673],[120.02849,-3.3925459],[120.0284712,-3.3925218],[120.0284551,-3.3924669],[120.0285342,-3.3922125],[120.0285423,-3.3921563],[120.028553,-3.3920438],[120.028553,-3.3919903],[120.0285289,-3.3919367],[120.0285155,-3.3918778],[120.0285289,-3.3918243],[120.0286308,-3.3915271],[120.0286362,-3.3914628],[120.0286335,-3.3914066],[120.0286147,-3.391353],[120.0285423,-3.3912674],[120.028435,-3.3911255],[120.0283733,-3.3910291],[120.0283384,-3.3909835],[120.0283143,-3.39093],[120.0282875,-3.3906783],[120.0282875,-3.3906194],[120.0282821,-3.3905605],[120.0282714,-3.3905043],[120.0282472,-3.3904507],[120.0282177,-3.3904052],[120.0281373,-3.3903222],[120.0281265,-3.3902687],[120.0281078,-3.3902124],[120.0280192,-3.3901428],[120.0279817,-3.3901],[120.0279388,-3.3900625],[120.0278878,-3.3900437],[120.0277483,-3.3900223],[120.0276464,-3.3898831],[120.0276035,-3.3898376],[120.027566,-3.3897921],[120.0275552,-3.3897358],[120.0274989,-3.3895538],[120.0274774,-3.3895029],[120.0274426,-3.38946],[120.0273997,-3.3894199],[120.0273541,-3.3893851],[120.027279,-3.389294],[120.0272119,-3.3892003],[120.0271663,-3.3891602],[120.0269678,-3.3889674],[120.0269169,-3.3889406],[120.0268605,-3.388946],[120.0268123,-3.3889701],[120.0267559,-3.3889781],[120.0266969,-3.3889647],[120.0266513,-3.3889326],[120.0266138,-3.3888871],[120.0265628,-3.3888576],[120.0265038,-3.3888496],[120.0263938,-3.3888737],[120.0263348,-3.388879],[120.0260183,-3.3887987],[120.0259539,-3.3887933],[120.0258493,-3.3887398],[120.0258064,-3.388705],[120.0257367,-3.3886166],[120.0256991,-3.3885738],[120.0255892,-3.3884078],[120.0256026,-3.3883515],[120.0256053,-3.3882873],[120.0255999,-3.3882311],[120.0255865,-3.3881775],[120.0255543,-3.388132],[120.0255141,-3.3880865],[120.0254229,-3.3880115],[120.0253531,-3.3879151],[120.025337,-3.3878616],[120.0253397,-3.3878053],[120.0253504,-3.3877491],[120.025329,-3.3876956],[120.0252941,-3.3876474],[120.0252083,-3.3875751],[120.0251681,-3.3875349],[120.0251305,-3.3874921],[120.025101,-3.3874465],[120.0250769,-3.3873984],[120.0250286,-3.3873662],[120.0250018,-3.3873153],[120.0249696,-3.3871761],[120.0249857,-3.3871226],[120.0249884,-3.387069],[120.0249884,-3.3869619],[120.0249562,-3.3869057],[120.0249213,-3.3868575],[120.0248972,-3.3868093],[120.0248784,-3.3867584],[120.0248784,-3.3867022],[120.0248703,-3.3866486],[120.0248489,-3.3865978],[120.0248489,-3.386172],[120.0248301,-3.3859016],[120.0248328,-3.3858427],[120.0247765,-3.385741],[120.024755,-3.3855803],[120.0247523,-3.3855268],[120.0247389,-3.3854732],[120.0246987,-3.3854304],[120.0245887,-3.3853741],[120.0245485,-3.3853367],[120.0245136,-3.3852911],[120.0244921,-3.3852349],[120.02446,-3.3851894],[120.0244144,-3.3851546],[120.0243567,-3.3850341],[120.024299,-3.385134]]}}]}
