{"type":"FeatureCollection","peaks_destination_id":"vMER7Abxjt6yLXX5XuuQ","peaks_trailhead_id":"194DF2D864865A0B8DFE","peaks_source":"https://www.openstreetmap.org/","peaks_retrieval_source":"https://overpass-api.de/api/interpreter","peaks_license_name":"Open Data Commons Open Database License (ODbL) 1.0","peaks_license":"https://opendatacommons.org/licenses/odbl/1-0/","peaks_attribution":"© OpenStreetMap contributors","peaks_retrieved_at":"2026-07-31T14:30:24.591Z","features":[{"type":"Feature","properties":{"name":"Gunung Raung OSM route candidate","trailhead_name":"Gunung Raung Pos 1 Trailhead","destination_name":"Gunung Raung","distance_m":10844.210451813751,"trailhead_snap_m":3.1693309382201456,"summit_snap_m":8.879058661467967,"osm_way_ids":[815504438],"osm_way_urls":["https://www.openstreetmap.org/way/815504438"],"osm_way_names":["Jalur pendakian Gunung Raung via Kalibaru"],"osm_foot_access_override_way_ids":[]},"geometry":{"type":"LineString","coordinates":[[114.00135,-8.20376],[114.0013611,-8.2037863],[114.0018654,-8.2031863],[114.0021014,-8.2028943],[114.0024877,-8.2026022],[114.0028524,-8.2024589],[114.0032119,-8.2021297],[114.0037429,-8.2013067],[114.0038717,-8.2008979],[114.0044188,-8.1999793],[114.0049446,-8.199528],[114.0052557,-8.1989333],[114.0052342,-8.1985829],[114.0052986,-8.1981953],[114.0055561,-8.1979511],[114.0054542,-8.1977971],[114.005481,-8.1976006],[114.0053469,-8.1973564],[114.0055937,-8.1971546],[114.0058833,-8.1967883],[114.006114,-8.1964644],[114.0064412,-8.1960874],[114.0066022,-8.1957423],[114.0067041,-8.1950308],[114.0069133,-8.1943511],[114.0070957,-8.1941281],[114.0076643,-8.1936237],[114.0077877,-8.1932361],[114.0078682,-8.1931405],[114.0080237,-8.1929122],[114.0080023,-8.1925777],[114.007954,-8.1920892],[114.0080827,-8.1914521],[114.0083992,-8.1906344],[114.0090269,-8.1898061],[114.0091932,-8.1897052],[114.0095097,-8.189445],[114.0098798,-8.1894025],[114.0096921,-8.1891211],[114.0099442,-8.1890627],[114.0098262,-8.1888291],[114.0100139,-8.1887494],[114.0101373,-8.1884149],[114.0106523,-8.1876397],[114.01106,-8.187045],[114.0111351,-8.1864609],[114.0113282,-8.186068],[114.0117466,-8.185622],[114.0120792,-8.1853034],[114.0124333,-8.1848255],[114.012841,-8.1844751],[114.0131199,-8.1840397],[114.0135383,-8.1835936],[114.0138173,-8.1832432],[114.0143001,-8.1828927],[114.0145093,-8.1821494],[114.0147185,-8.1815919],[114.0148258,-8.1809494],[114.0149438,-8.1807423],[114.0150511,-8.1805564],[114.0151584,-8.1803971],[114.0152389,-8.1800998],[114.0153784,-8.1798608],[114.0155554,-8.1796962],[114.0156519,-8.1794361],[114.0157914,-8.1791334],[114.0159631,-8.1790007],[114.0160114,-8.1787936],[114.0162098,-8.1784537],[114.0163118,-8.1781351],[114.0165263,-8.1778272],[114.0168589,-8.1775351],[114.0170842,-8.1771528],[114.0171593,-8.1769404],[114.0173417,-8.1766431],[114.0175456,-8.1763882],[114.0177762,-8.1762236],[114.0179962,-8.1760749],[114.0181303,-8.1758307],[114.0182161,-8.1755758],[114.0183234,-8.1752678],[114.0184575,-8.1749705],[114.0184361,-8.1745563],[114.0186882,-8.1741793],[114.0188706,-8.1740731],[114.0190852,-8.1739987],[114.0194982,-8.1739616],[114.0197933,-8.1739934],[114.0199542,-8.1738819],[114.0200347,-8.173558],[114.0201366,-8.1733881],[114.0203512,-8.1732607],[114.0204209,-8.173096],[114.0206569,-8.1729421],[114.0208286,-8.1726713],[114.0209252,-8.1722677],[114.0213489,-8.171673],[114.0212309,-8.1711579],[114.0212738,-8.1709721],[114.0213382,-8.1707491],[114.0215474,-8.170611],[114.021821,-8.1705207],[114.0221268,-8.1704305],[114.0223467,-8.1703455],[114.0224808,-8.1701756],[114.0227115,-8.1700003],[114.0231353,-8.1695915],[114.0235537,-8.1690074],[114.0239131,-8.1683914],[114.0241653,-8.1680675],[114.0243906,-8.1677542],[114.0247124,-8.1672392],[114.0253186,-8.1666285],[114.0255332,-8.1664373],[114.0258872,-8.1661028],[114.0262413,-8.1657364],[114.0264559,-8.1652107],[114.0266007,-8.1649877],[114.0266865,-8.1647859],[114.0267348,-8.1645788],[114.0267777,-8.1642815],[114.0268582,-8.1639788],[114.026987,-8.1636761],[114.0272927,-8.1631876],[114.0275019,-8.1629274],[114.0276253,-8.1627734],[114.0278399,-8.162476],[114.0282851,-8.1618441],[114.0285534,-8.1616636],[114.0288377,-8.1613556],[114.0290201,-8.1612069],[114.0291542,-8.1610529],[114.0293902,-8.1607874],[114.029535,-8.1605538],[114.0297228,-8.1603573],[114.029991,-8.1602246],[114.0301466,-8.1600493],[114.0302807,-8.1596511],[114.0303665,-8.1593484],[114.0304792,-8.1588015],[114.0304899,-8.158451],[114.0304363,-8.1578244],[114.0305382,-8.1571606],[114.0305597,-8.1569323],[114.0306777,-8.1566349],[114.0307045,-8.1563429],[114.030683,-8.156088],[114.0307581,-8.1558862],[114.0309298,-8.1556313],[114.0310854,-8.1552383],[114.0311873,-8.1550631],[114.0312785,-8.1548242],[114.0313321,-8.1544578],[114.0313482,-8.1540595],[114.031418,-8.1537356],[114.0315896,-8.153178],[114.0317398,-8.1524186],[114.0317398,-8.1522062],[114.0317559,-8.1519726],[114.0317506,-8.1516646],[114.0317398,-8.1513566],[114.0318686,-8.1511283],[114.0318096,-8.1508946],[114.0318042,-8.150661],[114.0321314,-8.1503689],[114.0325338,-8.1501406],[114.0328878,-8.1498219],[114.0331989,-8.1496308],[114.0334135,-8.1495989],[114.0335369,-8.1495246],[114.0337515,-8.1493546],[114.0339661,-8.1492909],[114.0341002,-8.1491953],[114.0342879,-8.1489776],[114.0343201,-8.1487333],[114.034422,-8.1485475],[114.0343898,-8.1483351],[114.0344274,-8.1481067],[114.0344381,-8.1479262],[114.0345454,-8.1478359],[114.0344649,-8.1477456],[114.0345293,-8.1476235],[114.0345615,-8.1472783],[114.0346634,-8.1470181],[114.0346259,-8.1466358],[114.0345937,-8.1463756],[114.0348512,-8.1460092],[114.0350497,-8.145733],[114.0352267,-8.1455737],[114.0354359,-8.1452976],[114.0356719,-8.1451117],[114.0357739,-8.1448993],[114.0356559,-8.1445064],[114.0357792,-8.1440231],[114.0359133,-8.1435452],[114.0360475,-8.1431628],[114.0361226,-8.1429557],[114.0363103,-8.1427062],[114.0364391,-8.142515],[114.0365678,-8.1422973],[114.0365893,-8.1420636],[114.0367019,-8.1419043],[114.0368253,-8.1415697],[114.0368789,-8.1413095],[114.036954,-8.1411502],[114.0369809,-8.1409962],[114.0370399,-8.140821],[114.0371954,-8.1406245],[114.0373295,-8.140359],[114.0374154,-8.1402209],[114.0376621,-8.14012],[114.0377963,-8.1399395],[114.037984,-8.1398332],[114.0382522,-8.1396474],[114.0383971,-8.139111],[114.0385151,-8.1390048],[114.0386224,-8.1387712],[114.0388745,-8.1386597],[114.0390998,-8.138665],[114.0392017,-8.1386543],[114.0394163,-8.1385747],[114.0395182,-8.1383888],[114.0396362,-8.1381499],[114.0398991,-8.1380012],[114.0401941,-8.1378896],[114.040398,-8.1377197],[114.0407145,-8.1377888],[114.0408808,-8.1378153],[114.0409613,-8.1377516],[114.0411115,-8.1375923],[114.0412563,-8.1376135],[114.0413314,-8.1375763],[114.0413582,-8.1374754],[114.0414602,-8.1373427],[114.0415701,-8.1370267],[114.0417364,-8.1368754],[114.0418303,-8.1366975],[114.0418893,-8.1365143],[114.0419456,-8.1363974],[114.0420717,-8.1362886],[114.0422112,-8.1360522],[114.0421951,-8.1358159],[114.0422031,-8.1357363],[114.0422755,-8.1356274],[114.0422836,-8.135415],[114.0421683,-8.1352982],[114.0421495,-8.1347857],[114.0422514,-8.1346344],[114.0423909,-8.1344644],[114.042592,-8.1342255],[114.0424794,-8.1340688],[114.0424982,-8.1338882],[114.0425089,-8.1336466],[114.0426671,-8.1335563],[114.0426081,-8.1334209],[114.0426395,-8.1331855],[114.0426549,-8.1330683],[114.0426465,-8.1329324],[114.0426756,-8.132794],[114.0427082,-8.1326917],[114.0427281,-8.1326489],[114.0427359,-8.1325868],[114.0428025,-8.1325504],[114.0428385,-8.1324296],[114.0428754,-8.1323362],[114.0430196,-8.1321607],[114.0431804,-8.1319786],[114.0432193,-8.1317701],[114.0432623,-8.1314331],[114.0432905,-8.1311119],[114.043393,-8.1305015],[114.0436612,-8.1298848],[114.0437139,-8.1295589],[114.0437347,-8.1292178],[114.0437928,-8.1288241],[114.0438858,-8.1284686],[114.0438433,-8.1280549],[114.043804,-8.1277584],[114.0439264,-8.1275634],[114.0441142,-8.1274599],[114.0443784,-8.1273683],[114.0445327,-8.1274015],[114.0445487,-8.1271731],[114.044597,-8.1269195],[114.044656,-8.1267814],[114.04477,-8.1267417],[114.0448894,-8.1267828],[114.0449832,-8.1267191],[114.0450959,-8.1265704],[114.0451938,-8.1264894],[114.0452421,-8.1264974],[114.0453534,-8.1264589],[114.0453735,-8.1263341],[114.0455237,-8.1261986],[114.0456914,-8.1261083],[114.0458174,-8.1260274],[114.0458187,-8.1259185],[114.0459234,-8.1259118],[114.0460722,-8.1257844],[114.0461259,-8.1257419],[114.0462345,-8.1257565],[114.046314,-8.12577]]}}]}
