{"type":"FeatureCollection","peaks_destination_id":"wDFtTKWGTP96rsoi2tNA","peaks_trailhead_id":"16A5041A156C538CEEB6","peaks_source":"https://www.openstreetmap.org/","peaks_retrieval_source":"https://overpass-api.de/api/interpreter","peaks_license_name":"Open Data Commons Open Database License (ODbL) 1.0","peaks_license":"https://opendatacommons.org/licenses/odbl/1-0/","peaks_attribution":"© OpenStreetMap contributors","peaks_retrieved_at":"2026-07-30T17:37:18.834Z","features":[{"type":"Feature","properties":{"name":"Haleakala OSM route candidate","trailhead_name":"Haleakalā Summit Parking","destination_name":"Haleakala","distance_m":108.86917129005114,"trailhead_snap_m":8.629334172254936,"summit_snap_m":5.977474228642998,"osm_way_ids":[44754692,290257948,290257941,290257945],"osm_way_urls":["https://www.openstreetmap.org/way/44754692","https://www.openstreetmap.org/way/290257948","https://www.openstreetmap.org/way/290257941","https://www.openstreetmap.org/way/290257945"],"osm_way_names":[],"osm_foot_access_override_way_ids":[]},"geometry":{"type":"LineString","coordinates":[[-156.25295,20.71007],[-156.2529999,20.710008],[-156.2530425,20.7099898],[-156.253056,20.7099877],[-156.2530696,20.709987],[-156.2530832,20.7099879],[-156.2530965,20.7099903],[-156.2531095,20.7099942],[-156.2531219,20.7099995],[-156.2531335,20.7100061],[-156.2531443,20.710014],[-156.2531539,20.710023],[-156.2531623,20.710033],[-156.2531694,20.7100438],[-156.2531751,20.7100554],[-156.2531793,20.7100675],[-156.2532766,20.7100523],[-156.2532862,20.7100505],[-156.2533216,20.7100455],[-156.2533734,20.710029],[-156.2533982,20.7100122],[-156.2534262,20.7099936],[-156.2534664,20.7099527],[-156.2534949,20.7099036],[-156.2535074,20.7098551],[-156.2535047,20.7098033],[-156.2534869,20.7097624],[-156.2534655,20.7097324],[-156.2534235,20.709699],[-156.2533762,20.7096848],[-156.253331,20.709718]]}}]}
