{"type":"FeatureCollection","peaks_destination_id":"CEC465B416BA3239C06C","peaks_trailhead_id":"79A191B26C3EFE510A06","peaks_source":"https://www.openstreetmap.org/","peaks_retrieval_source":"https://api.openstreetmap.org/api/0.6","peaks_license_name":"Open Data Commons Open Database License (ODbL) 1.0","peaks_license":"https://opendatacommons.org/licenses/odbl/1-0/","peaks_attribution":"© OpenStreetMap contributors","peaks_retrieved_at":"2026-07-31T16:32:02.118Z","features":[{"type":"Feature","properties":{"name":"Haute Cime OSM route candidate","trailhead_name":"Van d'en Haut Parking","destination_name":"Haute Cime","distance_m":10979.962783302151,"trailhead_snap_m":5.38476067769092,"summit_snap_m":28.457826926638873,"osm_way_ids":[836240046,813427500,813427182,1426480243,323093817,288460183,813427637,813427897,1426480244,288459227,288458860,43138644,295630248,288458872,366982960,1429002359,366982962,366982959,37331555,1313482395,1313482396,25872358,1313482394,1313482393],"osm_way_urls":["https://www.openstreetmap.org/way/836240046","https://www.openstreetmap.org/way/813427500","https://www.openstreetmap.org/way/813427182","https://www.openstreetmap.org/way/1426480243","https://www.openstreetmap.org/way/323093817","https://www.openstreetmap.org/way/288460183","https://www.openstreetmap.org/way/813427637","https://www.openstreetmap.org/way/813427897","https://www.openstreetmap.org/way/1426480244","https://www.openstreetmap.org/way/288459227","https://www.openstreetmap.org/way/288458860","https://www.openstreetmap.org/way/43138644","https://www.openstreetmap.org/way/295630248","https://www.openstreetmap.org/way/288458872","https://www.openstreetmap.org/way/366982960","https://www.openstreetmap.org/way/1429002359","https://www.openstreetmap.org/way/366982962","https://www.openstreetmap.org/way/366982959","https://www.openstreetmap.org/way/37331555","https://www.openstreetmap.org/way/1313482395","https://www.openstreetmap.org/way/1313482396","https://www.openstreetmap.org/way/25872358","https://www.openstreetmap.org/way/1313482394","https://www.openstreetmap.org/way/1313482393"],"osm_way_names":[],"osm_foot_access_override_way_ids":[]},"geometry":{"type":"LineString","coordinates":[[6.9863612,46.1416127],[6.9863531,46.1415646],[6.986223,46.1416195],[6.986139,46.1416648],[6.9857253,46.1420509],[6.9856417,46.1421427],[6.9855944,46.1421701],[6.985525,46.1421897],[6.9854635,46.1421952],[6.9853247,46.1422291],[6.98526,46.1422651],[6.9852395,46.1422936],[6.9852395,46.1423143],[6.9852758,46.1423438],[6.9853594,46.1423679],[6.9854162,46.1423963],[6.9854304,46.1424225],[6.9854083,46.1424509],[6.9853594,46.142463],[6.9853637,46.1425096],[6.9851121,46.1424604],[6.9850629,46.1424728],[6.9849446,46.1425121],[6.9848515,46.1425231],[6.9847726,46.1425132],[6.9847095,46.1424881],[6.9846906,46.1424487],[6.9847001,46.1424072],[6.9847316,46.1423646],[6.9847506,46.1423329],[6.9847379,46.1422914],[6.9846985,46.142275],[6.9846559,46.1422804],[6.9845834,46.1423253],[6.9844619,46.1424171],[6.9843815,46.1425089],[6.9843278,46.1425733],[6.9843136,46.142628],[6.9843263,46.1426728],[6.9843893,46.1427679],[6.9844572,46.1428269],[6.9845203,46.1428531],[6.9846039,46.1428804],[6.9846411,46.142897],[6.9846658,46.1429257],[6.984769,46.1428807],[6.9848854,46.1427999],[6.9849391,46.142786],[6.9850038,46.1427967],[6.9850347,46.1428163],[6.9850939,46.1429108],[6.985159,46.1431419],[6.9851981,46.1432639],[6.9852087,46.1433197],[6.9851653,46.1433695],[6.9850732,46.1434169],[6.9849605,46.143458],[6.9848486,46.1434863],[6.9847542,46.1435339],[6.9846315,46.1435663],[6.984415,46.1436166],[6.9843694,46.1436501],[6.9843241,46.1436543],[6.9842664,46.1436422],[6.984233,46.1436603],[6.9841766,46.143662],[6.9841421,46.1436182],[6.9841092,46.1435548],[6.9840846,46.143506],[6.984016,46.1434742],[6.9839306,46.1435069],[6.9838902,46.1435768],[6.9838821,46.1436635],[6.9838498,46.1436887],[6.9837731,46.143616],[6.9837166,46.1435544],[6.9836601,46.1435404],[6.9836399,46.1436411],[6.9835995,46.1436523],[6.983543,46.1435684],[6.9834582,46.1434705],[6.9834178,46.1434313],[6.9833532,46.1435069],[6.9832765,46.1435628],[6.9832038,46.1435069],[6.9830706,46.1434565],[6.9829374,46.1434369],[6.9827315,46.1434062],[6.9825821,46.1433838],[6.9823318,46.1431852],[6.9822107,46.1431069],[6.9820941,46.143162],[6.9819656,46.1431145],[6.9819039,46.1429727],[6.9818302,46.1428918],[6.9817859,46.142759],[6.9817967,46.1426428],[6.9817921,46.1426134],[6.9817348,46.1426221],[6.9816828,46.1426297],[6.9816276,46.1426505],[6.9815818,46.1426549],[6.9815345,46.1426494],[6.9815329,46.142621],[6.9815629,46.1425904],[6.9816339,46.142539],[6.9816859,46.14248],[6.9817396,46.1424013],[6.9817932,46.1423401],[6.9818547,46.1422855],[6.9818926,46.1422538],[6.9819115,46.142233],[6.9819131,46.1422133],[6.9818831,46.1421926],[6.9818484,46.142198],[6.9817033,46.1422275],[6.9815724,46.1422494],[6.9814982,46.1422702],[6.9814336,46.1422822],[6.9813989,46.1422756],[6.9813862,46.1422549],[6.9814099,46.1422232],[6.9814556,46.142198],[6.9815329,46.142162],[6.9816149,46.1421357],[6.9816418,46.142115],[6.9816481,46.142092],[6.9816213,46.1420789],[6.9815582,46.1420811],[6.9814635,46.1421051],[6.9814083,46.1421172],[6.9813657,46.1421183],[6.9813295,46.142103],[6.9813247,46.1420789],[6.9813563,46.1420582],[6.9814351,46.1420363],[6.9815156,46.1420122],[6.9815377,46.1419882],[6.9815329,46.1419707],[6.9815077,46.1419663],[6.9814383,46.1419576],[6.9812711,46.1419576],[6.9811985,46.1419707],[6.9811291,46.1420144],[6.9810787,46.1420713],[6.9810298,46.142151],[6.9810156,46.1422144],[6.9810057,46.1422984],[6.9810091,46.1423332],[6.9809868,46.1423664],[6.9809589,46.1423703],[6.9809276,46.1423533],[6.9809212,46.1422397],[6.9809001,46.1421227],[6.9808836,46.1421052],[6.9808607,46.1421057],[6.9808418,46.1421177],[6.9808284,46.1421369],[6.9808213,46.1421757],[6.9807913,46.1423057],[6.9807692,46.1423931],[6.9807597,46.14245],[6.9807408,46.1424817],[6.9807045,46.142509],[6.9806698,46.1425123],[6.9806383,46.1424992],[6.9806241,46.1424696],[6.9805831,46.1423429],[6.9805657,46.1422511],[6.9805437,46.1422238],[6.9805026,46.1422117],[6.9804616,46.1422216],[6.9804332,46.1422489],[6.9804238,46.1423068],[6.9804332,46.1423866],[6.9804411,46.1424718],[6.9804569,46.1425669],[6.9804541,46.1426765],[6.9804478,46.1427355],[6.9804494,46.1427781],[6.9804809,46.1428174],[6.9805014,46.1428459],[6.9805062,46.1428732],[6.9804998,46.1429136],[6.9804588,46.1429879],[6.9804431,46.1430535],[6.9804368,46.143165],[6.980432,46.1432087],[6.9804266,46.1432444],[6.9804116,46.1432649],[6.9803867,46.1432717],[6.9803635,46.143272],[6.9803453,46.1432597],[6.9803315,46.1432296],[6.9803167,46.1431906],[6.9803001,46.1431622],[6.980271,46.1431414],[6.9802229,46.1431332],[6.9801984,46.1431332],[6.9801732,46.1431436],[6.9801628,46.1431749],[6.9801533,46.1432262],[6.9801707,46.1432907],[6.9801849,46.1433442],[6.9801833,46.1434153],[6.9801533,46.1435268],[6.9801218,46.1436393],[6.9800839,46.1437038],[6.980064,46.143721],[6.9799786,46.1438021],[6.9798713,46.1438752],[6.9797768,46.143938],[6.9797278,46.1439496],[6.9796552,46.1439376],[6.9796373,46.143882],[6.9796989,46.1436975],[6.9797087,46.1436139],[6.9796916,46.143578],[6.9796392,46.1435614],[6.9795304,46.1436063],[6.9794676,46.1436436],[6.9794155,46.1436895],[6.9793903,46.1437646],[6.9793698,46.1438119],[6.9793277,46.1438552],[6.9792688,46.1438775],[6.979176,46.1438937],[6.9791093,46.1438774],[6.9790764,46.1438523],[6.9790649,46.1438103],[6.979072,46.1437593],[6.9790663,46.1436842],[6.9790035,46.1436565],[6.978895,46.1436842],[6.9787237,46.1437237],[6.978581,46.1437119],[6.9783241,46.1436288],[6.9780557,46.1435615],[6.9777588,46.1435141],[6.9774505,46.1434626],[6.9772221,46.1434508],[6.9769309,46.1434547],[6.9767653,46.1434152],[6.9761887,46.1432688],[6.9758632,46.1433044],[6.9752123,46.1431739],[6.9748754,46.1430829],[6.9744701,46.1430275],[6.974236,46.1430235],[6.973979,46.1429958],[6.9738077,46.1429048],[6.973528,46.1426873],[6.9733224,46.1425093],[6.972997,46.1423075],[6.9726601,46.1421453],[6.9722833,46.1420622],[6.9719635,46.1419594],[6.9718322,46.1419633],[6.9716438,46.1419831],[6.9715068,46.1419554],[6.9714725,46.1418486],[6.9715442,46.1417959],[6.9706772,46.1412604],[6.9700922,46.1411062],[6.9699699,46.141137],[6.9698921,46.1411793],[6.969792,46.1411948],[6.9696698,46.1411793],[6.9696531,46.1411331],[6.9696753,46.1410561],[6.9697198,46.1409791],[6.9696865,46.1409175],[6.9695975,46.1409021],[6.969503,46.1409367],[6.9693808,46.1409675],[6.9692919,46.1409598],[6.9692418,46.1408982],[6.9692529,46.1408251],[6.969164,46.1408097],[6.9690973,46.1406595],[6.9690973,46.1405362],[6.9690473,46.1404785],[6.9689862,46.1404669],[6.9688861,46.1405247],[6.968775,46.1405401],[6.968586,46.1405632],[6.9683415,46.1405902],[6.9681121,46.1406144],[6.9679252,46.1407291],[6.9678127,46.1408447],[6.967746,46.1408909],[6.9675959,46.1409102],[6.9675125,46.1409525],[6.9674736,46.1410219],[6.9674959,46.1410835],[6.9676293,46.141122],[6.9677349,46.1411682],[6.9677515,46.1412529],[6.9676959,46.1413107],[6.9676404,46.1413992],[6.9676126,46.1415071],[6.967657,46.1416264],[6.9677682,46.1417073],[6.9678738,46.1417997],[6.9680239,46.141896],[6.9680961,46.141973],[6.9681072,46.1421155],[6.9681628,46.1421964],[6.9683129,46.1421925],[6.9685018,46.1421925],[6.9686852,46.1422426],[6.9688686,46.1423273],[6.9689242,46.1424428],[6.9689853,46.1425506],[6.9690965,46.1426392],[6.9692577,46.1426431],[6.9693346,46.1426611],[6.9694022,46.1426931],[6.9695189,46.1427701],[6.9695513,46.1428096],[6.9695224,46.1428323],[6.9693966,46.1428163],[6.9692675,46.1427697],[6.9692269,46.1427836],[6.9692119,46.1428121],[6.9692466,46.1429596],[6.9694101,46.1431504],[6.9694325,46.1432382],[6.9697642,46.1434706],[6.9699233,46.1435628],[6.9700729,46.1437334],[6.9701078,46.1437857],[6.9701033,46.1438449],[6.9700808,46.144007],[6.9701135,46.1443856],[6.9702064,46.1445505],[6.9705722,46.145123],[6.9706833,46.1454138],[6.9707204,46.1457634],[6.9706148,46.145982],[6.9704846,46.1461798],[6.9703347,46.1462428],[6.9699089,46.1462685],[6.9695234,46.1462983],[6.96925,46.1463475],[6.9690388,46.1464271],[6.9688547,46.1464544],[6.9686393,46.1464536],[6.9682496,46.1463867],[6.9679891,46.1463907],[6.967756,46.1464282],[6.9675022,46.1465106],[6.9671781,46.1466603],[6.9670235,46.1467226],[6.9668814,46.146742],[6.9665933,46.1467468],[6.9661057,46.1467299],[6.9652679,46.1467992],[6.9641697,46.146743],[6.9638034,46.146699],[6.9632071,46.1467078],[6.9627792,46.1467012],[6.9622799,46.1466883],[6.9621356,46.146699],[6.961869,46.146748],[6.9616413,46.1467795],[6.9614433,46.1467658],[6.9611825,46.1467105],[6.9607029,46.1466818],[6.9603548,46.1466309],[6.9603085,46.1466241],[6.9601246,46.1466055],[6.9598095,46.146528],[6.9596787,46.1465073],[6.9594387,46.146522],[6.9593328,46.1465323],[6.9589758,46.1465146],[6.9587563,46.1465389],[6.95855,46.1466608],[6.9584426,46.1466949],[6.9583273,46.1466873],[6.9582668,46.1466295],[6.9582779,46.1464755],[6.9582908,46.1464149],[6.9582557,46.1463369],[6.9581056,46.1461752],[6.9578833,46.1459441],[6.9576999,46.1457632],[6.9574498,46.1455745],[6.9573609,46.1454436],[6.9572886,46.1452703],[6.957272,46.1451471],[6.9571942,46.1450662],[6.9570663,46.14502],[6.9568829,46.1450238],[6.956744,46.1450046],[6.9564439,46.1449314],[6.9561437,46.1448698],[6.9559159,46.1447736],[6.9557158,46.144608],[6.9554767,46.1445265],[6.9553716,46.1444878],[6.9550554,46.1444393],[6.954777,46.1443464],[6.9545521,46.1442672],[6.9543547,46.1441828],[6.9538151,46.1440053],[6.9536494,46.1439234],[6.9535708,46.1439719],[6.9536898,46.1440262],[6.9537304,46.1441021],[6.953801,46.14417],[6.9538169,46.1444001],[6.9533636,46.144991],[6.9533001,46.1450859],[6.9532849,46.1451691],[6.9531404,46.1451691],[6.9530126,46.1451229],[6.9528848,46.1450806],[6.9527514,46.1450921],[6.9525958,46.1451191],[6.9523345,46.1451229],[6.9518889,46.1450982],[6.9515724,46.1450759],[6.9513578,46.1451056],[6.951154,46.1451651],[6.9509179,46.1452431],[6.9507409,46.1453546],[6.950595,46.1455109],[6.9505504,46.1455678],[6.9503671,46.1456235],[6.9500781,46.1457467],[6.9499077,46.1458294],[6.9498002,46.1458815],[6.9495168,46.1460047],[6.94925,46.1460663],[6.9489277,46.1461395],[6.9488246,46.1462073],[6.9486057,46.1462849],[6.9484058,46.1463424],[6.9483162,46.1463767],[6.9482552,46.1464244],[6.9480551,46.1466631],[6.9477828,46.1467825],[6.947566,46.1468788],[6.9471825,46.146975],[6.9469769,46.1471329],[6.9468768,46.1472638],[6.9468157,46.1473716],[6.9466657,46.1474448],[6.9464322,46.1475487],[6.9462711,46.1476103],[6.9460932,46.1477066],[6.9459487,46.1477682],[6.9457613,46.1478338],[6.9456844,46.1478308],[6.9456493,46.1478408],[6.945525,46.1478207],[6.9453516,46.1477613],[6.9451118,46.1477577],[6.9449693,46.1477647],[6.9448588,46.1477883],[6.9447657,46.1477808],[6.9446569,46.1477985],[6.944571,46.147791],[6.9444331,46.1478062],[6.9443438,46.1477923],[6.9442293,46.1477384],[6.9440794,46.1476838],[6.9440618,46.1476789],[6.9439922,46.1476594],[6.9439243,46.1476434],[6.9438683,46.1476287],[6.9438571,46.1475597],[6.943704,46.1474238],[6.9435435,46.1472217],[6.9434415,46.1469843],[6.9432738,46.1466711],[6.9429092,46.1464538],[6.942581,46.146176],[6.9426175,46.1460648],[6.9424571,46.1459587],[6.9421435,46.1457617],[6.9418956,46.1455344],[6.9417352,46.1454637],[6.9415291,46.1453813],[6.9413888,46.1453325],[6.9412555,46.1453177],[6.9410498,46.1451707],[6.9410965,46.1448699],[6.9409473,46.144422],[6.9408858,46.1443582],[6.9405582,46.1443476],[6.9403983,46.144366],[6.9401354,46.1443288],[6.9399842,46.1441952],[6.9398125,46.1440949],[6.9396151,46.1439683],[6.9395228,46.1437864],[6.9395765,46.1435782],[6.939539,46.1434991],[6.9394532,46.1434444],[6.9393673,46.1433478],[6.9392396,46.1432695],[6.9390632,46.1431738],[6.938806,46.1430914],[6.9384768,46.1429835],[6.938156,46.1428421],[6.9379788,46.1427601],[6.9378225,46.1427644],[6.9376376,46.1427912],[6.9374135,46.142798],[6.9369463,46.1427896],[6.9367014,46.142798],[6.9365831,46.142784],[6.9363287,46.1428258],[6.9362041,46.1428096],[6.9358857,46.1428271],[6.9357256,46.1428537],[6.9354582,46.1428133],[6.9353653,46.1428342],[6.9351754,46.1428154],[6.9350502,46.1428245],[6.934933,46.1427839],[6.9348285,46.1428055],[6.934716,46.1427601],[6.9345764,46.1427555],[6.9343016,46.142719],[6.9341644,46.1427486],[6.9341028,46.1428334],[6.9338439,46.1428956],[6.9335834,46.1429029],[6.9334478,46.1429488],[6.9333244,46.1430247],[6.9331085,46.1430328],[6.9328292,46.1430123],[6.9326749,46.1431663],[6.9325475,46.1432863],[6.932549,46.1434072],[6.9322755,46.1434555],[6.9320127,46.1434722],[6.9318356,46.1434481],[6.9316988,46.1435057],[6.9315916,46.1434946],[6.931487,46.1435727],[6.9313314,46.1435987],[6.9312281,46.1435244],[6.9310444,46.1434909],[6.9309317,46.1434909],[6.9307279,46.1434519],[6.9305277,46.1434238],[6.9302289,46.1435113],[6.9300101,46.1435464],[6.9298937,46.1436098],[6.9297687,46.1437286],[6.9296416,46.1438068],[6.9295139,46.143855],[6.9294887,46.1439778],[6.9292446,46.1441042],[6.9291132,46.1442584],[6.9289173,46.1443644],[6.9286261,46.1445723],[6.9282737,46.1447713],[6.9280591,46.1449033],[6.9276953,46.1449068],[6.9270782,46.1450099],[6.9267263,46.1450594],[6.9268341,46.1449333],[6.9268775,46.1447961],[6.9270067,46.1447164],[6.9270448,46.1445402],[6.9269426,46.1444524],[6.926913,46.1445514],[6.9263032,46.1445879],[6.9261806,46.1446489],[6.9258918,46.1446356],[6.9254933,46.1446225],[6.9252106,46.1447546],[6.9251221,46.1448624],[6.9252508,46.1451337],[6.9251975,46.1451655],[6.9249538,46.145109],[6.9247208,46.145112],[6.9247081,46.1452146],[6.9245655,46.1452319],[6.9244811,46.1451225],[6.9244059,46.1452786],[6.9244231,46.1453435],[6.9245132,46.1454143],[6.9246312,46.1455406],[6.9246231,46.1457227],[6.9247035,46.1458574],[6.9246365,46.1459587],[6.9246311,46.1460563],[6.9245507,46.1461966],[6.9243388,46.1461223],[6.9241564,46.1461186],[6.9239921,46.1460089],[6.9239215,46.1460385],[6.9239043,46.1461632],[6.9238574,46.1463578],[6.9237461,46.1464075],[6.9236737,46.1465144],[6.9235288,46.1463899],[6.9234441,46.1464993],[6.923443,46.1466129],[6.9233947,46.1466259],[6.923223,46.1464717],[6.9231034,46.146713],[6.923046,46.1467449],[6.9229039,46.1466111],[6.9227922,46.1468134],[6.9227407,46.1467967],[6.922641,46.1466687],[6.922574,46.1468006],[6.9224919,46.146897],[6.9223781,46.1467338],[6.922346,46.1468117],[6.9222977,46.146847],[6.9222387,46.1469288],[6.9221663,46.14686],[6.9221609,46.1467615],[6.9221072,46.1467392],[6.9220681,46.1468301],[6.922008,46.1469548],[6.9220331,46.1471106],[6.9219624,46.1471759],[6.9218953,46.1473618],[6.9218203,46.1475178],[6.9216578,46.1475883],[6.9215359,46.147843],[6.9217382,46.1480138],[6.9217791,46.1480503],[6.9216038,46.1481766],[6.9216895,46.1482589],[6.921565,46.1483003],[6.9214703,46.1483964],[6.9214847,46.1485006],[6.921367,46.1485746],[6.9214133,46.1486352],[6.9213298,46.1487425],[6.9211975,46.1488812],[6.9211041,46.1489293],[6.9210385,46.1489458],[6.9210458,46.1489679],[6.9209967,46.1489784],[6.921003,46.1490108],[6.9209481,46.1490201],[6.9209784,46.1490831],[6.9208918,46.1491009],[6.9209324,46.1491428],[6.9207335,46.1491487],[6.9208338,46.1491981],[6.9208932,46.1492557],[6.9209498,46.1493636],[6.9209882,46.1494583],[6.9210095,46.1495105],[6.9210282,46.1495427],[6.9210288,46.1495581],[6.9210145,46.1495669],[6.9209757,46.1495752],[6.9209518,46.1495883],[6.9209375,46.1496036],[6.9209383,46.1496223],[6.9209426,46.1496352],[6.9210276,46.1497544],[6.9210208,46.149766],[6.9209499,46.1497861],[6.9209397,46.1497922],[6.9209408,46.1498064],[6.9209527,46.1498243],[6.9209363,46.1498569],[6.9209323,46.1498863],[6.9209149,46.1499053],[6.9208872,46.1499203],[6.9208905,46.1499377],[6.9209248,46.150003],[6.9209464,46.1500458],[6.9210486,46.1501512],[6.9210868,46.1501781],[6.9211566,46.1502173],[6.9212377,46.1502787],[6.9212478,46.1502907],[6.9212491,46.150304],[6.9212429,46.1503278],[6.921301,46.1503688],[6.9213249,46.1503968],[6.9213931,46.1504201],[6.9214923,46.1504536],[6.9215345,46.1504744],[6.9215593,46.1504909],[6.9216214,46.150544],[6.9218616,46.1507083],[6.9219427,46.1508358],[6.9222428,46.150988],[6.9223142,46.1510404],[6.9223403,46.1510711],[6.9224171,46.1511243],[6.9224121,46.1511338],[6.9223484,46.1511458],[6.9223446,46.1511576],[6.9223715,46.1512421],[6.9223774,46.1512804],[6.9224426,46.1513633],[6.92249,46.1514105],[6.9225155,46.1514498],[6.922547,46.1514762],[6.9225695,46.1515133],[6.9226112,46.151538],[6.9226584,46.1515799],[6.9226842,46.1516092],[6.9227808,46.1516354],[6.9228197,46.1516543],[6.9229461,46.1516999],[6.9230591,46.1517444],[6.923132,46.1517887],[6.9231556,46.1518057],[6.9231711,46.1518358],[6.9231812,46.1518663],[6.9232133,46.1518802],[6.9232275,46.1518969],[6.9232392,46.1519443],[6.9232722,46.1519972],[6.9232858,46.152019],[6.9232916,46.1520618],[6.9233253,46.1521031],[6.9233298,46.1521325],[6.9233405,46.1521497],[6.9233406,46.1521799],[6.9233991,46.1522127],[6.9234835,46.1522932],[6.923493,46.1523111],[6.9234886,46.1523212],[6.923463,46.1523286],[6.9234347,46.1523407],[6.9234215,46.1523587],[6.9234211,46.1523713],[6.9234906,46.1524135],[6.9235132,46.1524275],[6.92355,46.1524403],[6.9236071,46.1524616],[6.9236692,46.1524919],[6.9237325,46.1525088],[6.923808,46.1525548],[6.9238365,46.1525633],[6.9238624,46.152566],[6.9239607,46.1525957],[6.9240172,46.1526996],[6.9241299,46.1527515],[6.9242298,46.1527903],[6.9244178,46.1528345],[6.9245127,46.1528703],[6.9245845,46.1529326],[6.9245954,46.1529471],[6.9246175,46.1530302],[6.9246478,46.1530573],[6.9246919,46.1530761],[6.9250374,46.1532476],[6.9251506,46.153284],[6.9252092,46.153315],[6.9252823,46.1533478],[6.9253929,46.1534805],[6.925486,46.1536114],[6.92551,46.153666],[6.9255115,46.1537332],[6.9255494,46.1538028],[6.9255667,46.1539215],[6.9255572,46.153994],[6.9255722,46.1540369],[6.9255459,46.154057],[6.9254643,46.1540486],[6.9254156,46.1540332],[6.9253893,46.1540413],[6.9253187,46.154033],[6.9252162,46.1540274],[6.9251797,46.1540167],[6.9251103,46.1540456],[6.9251147,46.1540777],[6.9251323,46.1540875],[6.9252339,46.1541212],[6.9252376,46.1541318],[6.9252277,46.154148],[6.9252061,46.154157],[6.9251619,46.1541695],[6.9251131,46.1541757],[6.9250624,46.154193],[6.9249663,46.1542147],[6.9248828,46.1542203],[6.9248116,46.1542376],[6.9247605,46.1542364],[6.924716,46.1542232],[6.9246201,46.1542182],[6.92454,46.1542223],[6.9244965,46.1542295],[6.9243866,46.1542345],[6.9242957,46.1542287],[6.923966,46.1541391],[6.923937,46.1541402],[6.9238899,46.1541556],[6.9238142,46.1541688],[6.9236766,46.1541552],[6.9236167,46.1540961],[6.9235432,46.154085],[6.9234798,46.1540879],[6.9233945,46.1540953],[6.9233437,46.154095],[6.9232874,46.1541019],[6.9232517,46.1541008],[6.9232128,46.1541087],[6.9231747,46.1541077],[6.9231501,46.1541156],[6.9231117,46.1541179],[6.9230578,46.1541291],[6.9230978,46.1541834],[6.9230195,46.1541886],[6.9229283,46.1542162],[6.9229508,46.1542485],[6.9229015,46.1542531],[6.9228936,46.1542829],[6.922848,46.1542803],[6.9228587,46.1543057],[6.9228299,46.1543187],[6.923024,46.1544617],[6.9229624,46.1544866],[6.923034,46.1545335],[6.9230256,46.1545718],[6.9230432,46.1545863],[6.923084,46.1546044],[6.9230883,46.1546101],[6.923084,46.1546195],[6.9230536,46.1546421],[6.9230645,46.1546869],[6.9230277,46.1547085],[6.9230114,46.154719],[6.9229852,46.1547321],[6.922985,46.154741],[6.9229991,46.1547508],[6.9230243,46.1547533],[6.9230416,46.1547594],[6.9230434,46.1547702],[6.9230148,46.1547978],[6.9229905,46.1548149],[6.9229737,46.1548237],[6.922962,46.1548427],[6.9229529,46.1548597],[6.9229548,46.1548778],[6.9229398,46.1548937],[6.9229207,46.1549053],[6.9229136,46.154918],[6.922933,46.1549349],[6.9229156,46.1549733],[6.9228787,46.1550077],[6.9228868,46.1550394],[6.9228589,46.1550719],[6.9228221,46.1551342],[6.9227705,46.1552037],[6.9227735,46.1552176],[6.9227872,46.1552316],[6.9228697,46.1552405],[6.9229405,46.1552522],[6.9230297,46.1552867],[6.9230991,46.1552976],[6.9231218,46.1553012],[6.9231527,46.1553333],[6.9231794,46.1553568],[6.9231839,46.1553812],[6.9231743,46.1553974],[6.9231145,46.1554295],[6.9230723,46.1554692],[6.9230051,46.1555646],[6.9229912,46.1556044],[6.9229971,46.155649],[6.9230159,46.1556611],[6.923109,46.1556609],[6.923134,46.1556773],[6.923105,46.1557165],[6.9230483,46.1557664],[6.9230332,46.155816],[6.9229665,46.1558844],[6.9229953,46.155904],[6.923037,46.155997],[6.9231371,46.1560008],[6.9231599,46.1560419],[6.9231235,46.1560634],[6.9230774,46.1561433],[6.9231628,46.1561544],[6.923015,46.1563468],[6.9231018,46.1563183],[6.9230656,46.1563839],[6.9231563,46.1563905],[6.9231707,46.1563983],[6.9231734,46.156419],[6.9231963,46.1564255],[6.9232257,46.1564292],[6.9232411,46.1564361],[6.9232083,46.1564598],[6.9231543,46.1565086],[6.9231016,46.156577],[6.9233118,46.1566297],[6.9232275,46.1566906],[6.923196,46.1567621],[6.9231188,46.1568296],[6.9230722,46.1569125],[6.9230074,46.1569955],[6.9229592,46.15706],[6.922897,46.157131],[6.9228974,46.1571759],[6.9228671,46.1572454],[6.9228428,46.1572792],[6.9228225,46.1573186],[6.9228218,46.157329],[6.9228211,46.15735],[6.9228438,46.1573558],[6.9229005,46.1573534],[6.9230045,46.1573535],[6.9231816,46.1573801],[6.9230732,46.1575127],[6.9231483,46.157577],[6.9232344,46.157695],[6.9232441,46.1577575],[6.9233599,46.1579628],[6.9233998,46.1579918],[6.9234353,46.1580232],[6.923469,46.1580686],[6.9234903,46.1581073],[6.9235257,46.1581587],[6.9235498,46.1582245],[6.9235545,46.1582925],[6.9235491,46.1583777],[6.9235591,46.1584271],[6.9235526,46.1584606],[6.9235686,46.1585116],[6.923568,46.1585461],[6.9235525,46.1585923],[6.9235269,46.1586743],[6.9234313,46.1587035],[6.9233957,46.158767],[6.9234968,46.1587757],[6.9234983,46.1587872],[6.9234417,46.158819],[6.9233586,46.1588822],[6.923346,46.1589208],[6.9232877,46.1589676],[6.9232579,46.1590063],[6.9232476,46.1590134],[6.9232354,46.1590346],[6.9232121,46.1590534],[6.9231249,46.1591142],[6.9232548,46.1591424],[6.9233978,46.1592447],[6.9233445,46.1593129],[6.9233348,46.1593636],[6.9232421,46.159557],[6.9232044,46.1596155],[6.9231407,46.1596724],[6.9232274,46.1597373],[6.9231279,46.1598637],[6.9230422,46.1598583],[6.9229827,46.1599027],[6.9228938,46.1599895],[6.922754,46.1601138],[6.9226129,46.1602062],[6.9224625,46.1602874],[6.9222712,46.1603736],[6.9224896,46.1604843],[6.9226355,46.1605695],[6.9227581,46.1606601],[6.9230381,46.1608026],[6.9229863,46.161056]]}}]}
