{"type":"FeatureCollection","peaks_destination_id":"KLeNLAdXik6q0Nc8AW54","peaks_trailhead_id":"6BA4F01A240515DAFC48","peaks_source":"https://www.openstreetmap.org/","peaks_retrieval_source":"https://api.openstreetmap.org/api/0.6","peaks_license_name":"Open Data Commons Open Database License (ODbL) 1.0","peaks_license":"https://opendatacommons.org/licenses/odbl/1-0/","peaks_attribution":"© OpenStreetMap contributors","peaks_retrieved_at":"2026-07-31T06:52:48.535Z","features":[{"type":"Feature","properties":{"name":"Hayford Peak OSM route candidate","trailhead_name":"Hidden Forest Parking","destination_name":"Hayford Peak","distance_m":11656.11874251722,"trailhead_snap_m":38.91457225446503,"summit_snap_m":16.17304362478684,"osm_way_ids":[14297592,1241640023,1241641157,1241641156,494325576,1241643752],"osm_way_urls":["https://www.openstreetmap.org/way/14297592","https://www.openstreetmap.org/way/1241640023","https://www.openstreetmap.org/way/1241641157","https://www.openstreetmap.org/way/1241641156","https://www.openstreetmap.org/way/494325576","https://www.openstreetmap.org/way/1241643752"],"osm_way_names":["Hidden Forest Trail","Hayford Peak Path"],"osm_foot_access_override_way_ids":[]},"geometry":{"type":"LineString","coordinates":[[-115.288051,36.628928],[-115.287615,36.628921],[-115.2874025,36.628939],[-115.2872009,36.6290604],[-115.286826,36.6292109],[-115.2864906,36.6294965],[-115.2860827,36.6296241],[-115.2855657,36.6297282],[-115.2849809,36.6297592],[-115.2841061,36.6294082],[-115.2835182,36.6293138],[-115.2825244,36.6287825],[-115.2815369,36.6281793],[-115.280057,36.627362],[-115.279676,36.62715],[-115.278947,36.626745],[-115.2774765,36.6258305],[-115.2766162,36.6253018],[-115.2755741,36.6248272],[-115.2722454,36.6231442],[-115.2705663,36.6223628],[-115.2690216,36.6218352],[-115.2674738,36.6217622],[-115.2657671,36.6216535],[-115.2654151,36.6216526],[-115.2650209,36.6216994],[-115.2646079,36.6216149],[-115.26425,36.6216748],[-115.2639151,36.6217808],[-115.2630216,36.6220634],[-115.2622141,36.6223536],[-115.2615436,36.6224996],[-115.2611146,36.6225231],[-115.2609554,36.6225072],[-115.2607695,36.6225144],[-115.2605693,36.6224861],[-115.2602135,36.622458],[-115.259876,36.6224151],[-115.2592604,36.6223348],[-115.2588041,36.6223022],[-115.2583569,36.6223498],[-115.25736,36.6224628],[-115.2567932,36.6225318],[-115.256154,36.6225552],[-115.2554469,36.6226171],[-115.2552671,36.6226351],[-115.2550183,36.622613],[-115.2545913,36.6225228],[-115.2541167,36.6223303],[-115.2539128,36.6224103],[-115.2535994,36.6225895],[-115.2533528,36.622677],[-115.2530299,36.6228209],[-115.2528191,36.6229499],[-115.2525178,36.6229655],[-115.2523971,36.6231227],[-115.252193,36.623185],[-115.251702,36.6231522],[-115.2514835,36.6231824],[-115.2511578,36.6230986],[-115.2509969,36.6230021],[-115.2503666,36.6230064],[-115.2494379,36.6231307],[-115.2487919,36.6233113],[-115.2478156,36.6236424],[-115.2474011,36.6238787],[-115.2463766,36.6243367],[-115.245979,36.6245451],[-115.2454367,36.6247113],[-115.2447887,36.6246851],[-115.2447259,36.6246812],[-115.2444094,36.6246231],[-115.2440447,36.6245606],[-115.2437979,36.6244293],[-115.243409,36.6240741],[-115.2430603,36.6236996],[-115.2429342,36.6235252],[-115.2427438,36.6232454],[-115.2424032,36.6229698],[-115.2421776,36.6228294],[-115.241966,36.6227416],[-115.2413078,36.6226641],[-115.2410418,36.6227209],[-115.240248,36.6223268],[-115.2395751,36.6220105],[-115.2392199,36.6220747],[-115.2386881,36.622472],[-115.2382679,36.6225938],[-115.2380821,36.6228342],[-115.2378454,36.6234468],[-115.2374224,36.6234986],[-115.2372292,36.6235187],[-115.2369682,36.6234226],[-115.2363494,36.6236393],[-115.2356329,36.6241209],[-115.2354375,36.6241775],[-115.2349755,36.6242119],[-115.2345278,36.6242402],[-115.2340803,36.6242141],[-115.2335331,36.6241193],[-115.2330878,36.6240677],[-115.2327177,36.6240225],[-115.232108,36.6239764],[-115.2320364,36.6240418],[-115.2315766,36.6242058],[-115.2311942,36.6241925],[-115.2306792,36.6241861],[-115.2304351,36.6241236],[-115.230073,36.6240591],[-115.2295634,36.6240289],[-115.2293006,36.6241323],[-115.2286702,36.6242507],[-115.2284047,36.624298],[-115.2278656,36.6243109],[-115.2266264,36.6243833],[-115.2264847,36.6245345],[-115.2264542,36.6249298],[-115.2256206,36.6253119],[-115.2250056,36.625767],[-115.2245235,36.6262763],[-115.223904,36.6265626],[-115.2237771,36.6265915],[-115.2229571,36.626795],[-115.2220524,36.6268055],[-115.2218118,36.6267477],[-115.2214927,36.626907],[-115.2210045,36.6269845],[-115.2202002,36.627117],[-115.2186646,36.6277542],[-115.2177387,36.628028],[-115.217405,36.6280629],[-115.2163369,36.6282895],[-115.2142721,36.6283169],[-115.2124487,36.628064],[-115.2117428,36.6280607],[-115.2107152,36.6283815],[-115.2099028,36.6286957],[-115.2089229,36.6290905],[-115.2083685,36.6296309],[-115.208289,36.6298906],[-115.2082676,36.6299717],[-115.2082652,36.630423],[-115.2081524,36.6307213],[-115.2081292,36.6307523],[-115.2081282,36.6307731],[-115.2081203,36.6308249],[-115.2079296,36.6311961],[-115.2078412,36.6313501],[-115.2077915,36.6313792],[-115.2077064,36.631418],[-115.2077156,36.631604],[-115.2077839,36.6317716],[-115.2078268,36.6320902],[-115.2082184,36.6323808],[-115.208382,36.6327187],[-115.2084142,36.6328414],[-115.208551,36.633048],[-115.2087227,36.6332525],[-115.2089185,36.6334139],[-115.2090204,36.6335797],[-115.2090365,36.6337217],[-115.2090552,36.6340876],[-115.2091706,36.634305],[-115.2091277,36.6344557],[-115.2092403,36.6345999],[-115.209294,36.6348625],[-115.2092806,36.6350626],[-115.209688,36.6356809],[-115.2097095,36.6364535],[-115.208937,36.6386402],[-115.2087522,36.6395243],[-115.2086824,36.6399806],[-115.2088512,36.6409819],[-115.2089506,36.6413967],[-115.2098864,36.6421656],[-115.2101332,36.6429532],[-115.2100664,36.6436952],[-115.2097953,36.6440637],[-115.2091384,36.6454728],[-115.2091516,36.6456304],[-115.2096182,36.646177],[-115.2095461,36.6463982],[-115.2097017,36.6472978],[-115.2098197,36.647513],[-115.2097929,36.6482489],[-115.2098382,36.6486648],[-115.2100718,36.6490021],[-115.209825,36.6499361],[-115.2096344,36.6503303],[-115.2097017,36.6511799],[-115.2096451,36.6517764],[-115.2087468,36.6522988],[-115.207907,36.6529126],[-115.206188,36.6539386],[-115.205968,36.6539816],[-115.2056354,36.6542183],[-115.205453,36.6541925],[-115.2052438,36.6543431],[-115.2050185,36.6543646],[-115.2046455,36.6549267],[-115.204289,36.6552511],[-115.2036989,36.6554147],[-115.2030522,36.6558649],[-115.2026635,36.6563313],[-115.2019501,36.6566928],[-115.2014459,36.657161],[-115.201303,36.6573785],[-115.2008241,36.6576078],[-115.200786,36.65775]]}}]}
