{"type":"FeatureCollection","peaks_destination_id":"cwsCKDGqQxw9n7zFKNn4","peaks_trailhead_id":"6951A7AEFD81D4CAE9AB","peaks_source":"https://www.openstreetmap.org/","peaks_retrieval_source":"https://overpass-api.de/api/interpreter","peaks_license_name":"Open Data Commons Open Database License (ODbL) 1.0","peaks_license":"https://opendatacommons.org/licenses/odbl/1-0/","peaks_attribution":"© OpenStreetMap contributors","peaks_retrieved_at":"2026-07-30T17:05:23.066Z","features":[{"type":"Feature","properties":{"name":"Humphreys Peak OSM route candidate","trailhead_name":"Humphreys Trail No. 151 Trailhead","destination_name":"Humphreys Peak","distance_m":7773.2402249965535,"trailhead_snap_m":2.762785370540251,"summit_snap_m":4.715108608794199,"osm_way_ids":[956148606,206194345,956148601],"osm_way_urls":["https://www.openstreetmap.org/way/956148606","https://www.openstreetmap.org/way/206194345","https://www.openstreetmap.org/way/956148601"],"osm_way_names":["Humphreys Peak Trail"],"osm_foot_access_override_way_ids":[]},"geometry":{"type":"LineString","coordinates":[[-111.7117222,35.3312222],[-111.7117526,35.3312237],[-111.7116255,35.3312318],[-111.7116227,35.3312739],[-111.7114645,35.331414],[-111.7113384,35.331484],[-111.7112928,35.3315628],[-111.7112177,35.3316087],[-111.7111828,35.3316437],[-111.7111346,35.3316919],[-111.7110246,35.3318188],[-111.7108968,35.3319957],[-111.7108744,35.332228],[-111.7108208,35.3324971],[-111.7107146,35.3326316],[-111.710601,35.3327747],[-111.7105857,35.3328101],[-111.7104945,35.3330219],[-111.7103702,35.333252],[-111.7101556,35.3334533],[-111.71,35.3336743],[-111.7099517,35.3338013],[-111.7098793,35.3339851],[-111.7098015,35.3341251],[-111.7097479,35.3342914],[-111.7097076,35.3343592],[-111.7096942,35.3344424],[-111.7096567,35.3345343],[-111.7095789,35.3346459],[-111.7095494,35.3347159],[-111.709485,35.334775],[-111.7094244,35.33486],[-111.709367,35.3349084],[-111.7093198,35.3349825],[-111.7092635,35.3350941],[-111.7092168,35.3352082],[-111.7092141,35.3353679],[-111.7090703,35.3356346],[-111.708955,35.3357483],[-111.7088343,35.3358993],[-111.7087152,35.3359959],[-111.7085688,35.33607],[-111.7084899,35.3361929],[-111.7084202,35.3362935],[-111.7083665,35.3364314],[-111.70827,35.336648],[-111.7082002,35.3367596],[-111.7081305,35.3368602],[-111.7079339,35.3370537],[-111.7076611,35.3372265],[-111.7072698,35.3375214],[-111.7067116,35.3377245],[-111.706513,35.3379246],[-111.7062826,35.3379892],[-111.7061262,35.3380279],[-111.7060153,35.3378947],[-111.7059123,35.3375779],[-111.7058506,35.3373985],[-111.7057004,35.3372387],[-111.7055486,35.3370984],[-111.7054134,35.3370156],[-111.7053126,35.3369365],[-111.705105,35.3367246],[-111.7050164,35.3366524],[-111.7049252,35.3365648],[-111.704826,35.336462],[-111.704693,35.3363566],[-111.7045428,35.3363085],[-111.7043649,35.3363023],[-111.7043936,35.3360972],[-111.7042871,35.3360025],[-111.7042762,35.3358822],[-111.7042129,35.3355777],[-111.7041796,35.3354051],[-111.7041125,35.3351732],[-111.704009,35.3348841],[-111.7039597,35.3347422],[-111.7039167,35.3346349],[-111.7038255,35.3345934],[-111.7037637,35.3345944],[-111.7036968,35.3345955],[-111.7036228,35.334709],[-111.7035745,35.3348053],[-111.7034532,35.3349451],[-111.7033224,35.3350219],[-111.703222,35.3351119],[-111.7030756,35.335256],[-111.7029334,35.3354201],[-111.7027268,35.3355585],[-111.7024975,35.3357184],[-111.702328,35.3358652],[-111.7021329,35.3359535],[-111.7019222,35.3359737],[-111.7018085,35.3360353],[-111.701724,35.3361383],[-111.7018293,35.3362744],[-111.7017607,35.3363787],[-111.7017817,35.3365014],[-111.7018085,35.3366764],[-111.7018246,35.3368121],[-111.7018166,35.3369543],[-111.7017388,35.3371753],[-111.7016208,35.3374576],[-111.7015483,35.3376217],[-111.7013686,35.3379061],[-111.7012678,35.3380327],[-111.7011836,35.3381533],[-111.7010226,35.3383612],[-111.7009502,35.3385078],[-111.7008681,35.3386125],[-111.7006632,35.3388141],[-111.7005452,35.3389016],[-111.7004873,35.3389254],[-111.7003977,35.3388995],[-111.7003237,35.3388532],[-111.7002727,35.3387307],[-111.7002083,35.3385819],[-111.7001616,35.3384597],[-111.7000608,35.3382449],[-111.700057,35.338184],[-111.700057,35.3380264],[-111.7000232,35.3378511],[-111.6999873,35.3377332],[-111.6999363,35.3376173],[-111.699872,35.3374882],[-111.6997915,35.3373744],[-111.6997405,35.3372344],[-111.6996896,35.3371315],[-111.6995957,35.3370309],[-111.6995083,35.3369146],[-111.699409,35.3368468],[-111.6993248,35.3367814],[-111.6991907,35.3367224],[-111.6990094,35.3366586],[-111.6988527,35.336532],[-111.6987653,35.3364923],[-111.6987052,35.336462],[-111.6986462,35.3363745],[-111.6985936,35.3362932],[-111.6985335,35.3362563],[-111.6984558,35.3362541],[-111.6983672,35.3362497],[-111.6982325,35.3363062],[-111.6980246,35.336252],[-111.6980357,35.3361162],[-111.6981151,35.3359456],[-111.6981537,35.335814],[-111.6981698,35.3356915],[-111.6981993,35.335558],[-111.6983082,35.3352323],[-111.6983388,35.3351685],[-111.698363,35.3350175],[-111.6983603,35.3348644],[-111.6983576,35.3347221],[-111.6983324,35.3345671],[-111.6983002,35.3344577],[-111.6982492,35.3343395],[-111.6982181,35.3342692],[-111.6980668,35.3340398],[-111.6979944,35.3339304],[-111.6979005,35.3337816],[-111.6978254,35.3336481],[-111.6977342,35.3335474],[-111.6976645,35.3335146],[-111.697584,35.3335365],[-111.6975599,35.3336284],[-111.6974751,35.3338119],[-111.6974258,35.3340354],[-111.6973679,35.3342626],[-111.6973437,35.3344508],[-111.6972327,35.3346678],[-111.6971104,35.3348687],[-111.6969618,35.3350397],[-111.6968089,35.3351404],[-111.6965069,35.3353304],[-111.6963084,35.3355252],[-111.6961866,35.335718],[-111.6960686,35.3358581],[-111.6959935,35.335915],[-111.6958755,35.3359916],[-111.6956931,35.3360134],[-111.6955241,35.3361119],[-111.6954447,35.3361816],[-111.6954072,35.3362713],[-111.6953321,35.3363654],[-111.695221,35.3364817],[-111.695096,35.3365382],[-111.6949394,35.3366152],[-111.6948332,35.3366323],[-111.6947007,35.3366655],[-111.6946443,35.3367158],[-111.6946604,35.3367836],[-111.694742,35.3368599],[-111.6948294,35.3369105],[-111.6948922,35.3369584],[-111.694978,35.3370196],[-111.6950279,35.3370943],[-111.6950681,35.3371578],[-111.6950735,35.3372278],[-111.6951245,35.3372956],[-111.6952264,35.3374816],[-111.6952827,35.3375495],[-111.6953642,35.3377023],[-111.6953455,35.3381005],[-111.6952934,35.3384181],[-111.695155,35.3386935],[-111.695052,35.3390679],[-111.6949877,35.3391795],[-111.6949126,35.3392189],[-111.6948144,35.3392033],[-111.6947677,35.3391555],[-111.6947355,35.3390395],[-111.6946561,35.3389123],[-111.6946095,35.3386478],[-111.6945129,35.3384684],[-111.6944442,35.3383346],[-111.6943788,35.3382562],[-111.6942994,35.3381443],[-111.6942699,35.3380524],[-111.6941964,35.3380199],[-111.6941535,35.3379652],[-111.6940607,35.3379036],[-111.6939641,35.3377307],[-111.6938273,35.3376476],[-111.6935484,35.3375054],[-111.6934266,35.3374247],[-111.6932603,35.3373416],[-111.6931166,35.3372953],[-111.6930484,35.3372759],[-111.6929385,35.3372584],[-111.6928483,35.3372275],[-111.6925939,35.3372322],[-111.6925407,35.3371619],[-111.6926188,35.3370394],[-111.6926111,35.3369127],[-111.6924342,35.3368252],[-111.6923537,35.3367814],[-111.6922704,35.3367089],[-111.6923411,35.3365625],[-111.6923766,35.3362655],[-111.6924353,35.335917],[-111.6925748,35.3354362],[-111.6926261,35.3350892],[-111.6925855,35.3347943],[-111.6926032,35.3346218],[-111.6925495,35.3344599],[-111.6924583,35.3343877],[-111.692343,35.3344161],[-111.6922582,35.3345821],[-111.6921249,35.3348083],[-111.6918425,35.3351226],[-111.6917449,35.3352476],[-111.691659,35.3354095],[-111.6915501,35.3355514],[-111.6914793,35.3356699],[-111.6914311,35.3357093],[-111.6913463,35.3357527],[-111.691298,35.3358074],[-111.6911762,35.3359018],[-111.6911183,35.3359562],[-111.6911049,35.3359978],[-111.6910555,35.3360659],[-111.6909241,35.336195],[-111.6908705,35.3362454],[-111.6907337,35.336346],[-111.6907079,35.336396],[-111.6906908,35.3364795],[-111.6906248,35.3365514],[-111.6904632,35.336699],[-111.6903811,35.3367826],[-111.6902659,35.3368583],[-111.6902899,35.3367377],[-111.6903144,35.3366104],[-111.6903843,35.3362836],[-111.6904419,35.3359677],[-111.6904735,35.3356808],[-111.6904735,35.3356043],[-111.6904762,35.3355211],[-111.6904896,35.3353789],[-111.6905084,35.3352804],[-111.6904842,35.3351491],[-111.6904601,35.3350879],[-111.6904065,35.3349675],[-111.6903555,35.3348691],[-111.6902723,35.3347881],[-111.6902214,35.3347334],[-111.69015,35.3346981],[-111.6900041,35.3346481],[-111.6898646,35.3345605],[-111.6896823,35.3344971],[-111.689473,35.3344446],[-111.6892665,35.3344205],[-111.6889876,35.3344052],[-111.6888186,35.3343964],[-111.6885836,35.334372],[-111.688317,35.3343527],[-111.6880837,35.3343045],[-111.6878128,35.3342761],[-111.6875537,35.3342539],[-111.687389,35.3342258],[-111.6870886,35.3341951],[-111.6867624,35.334186],[-111.6866256,35.3341948],[-111.6864261,35.3342192],[-111.6862222,35.3342433],[-111.6861133,35.3342364],[-111.6859969,35.3342367],[-111.6858682,35.3342433],[-111.6857635,35.3342214],[-111.6855822,35.3341882],[-111.6854497,35.3341842],[-111.6853612,35.3341995],[-111.6852459,35.3341798],[-111.6851021,35.3341598],[-111.6850179,35.3341273],[-111.6849144,35.3341029],[-111.6847953,35.3340485],[-111.6846622,35.3340088],[-111.6846005,35.3339629],[-111.6845324,35.3339238],[-111.6844922,35.3338822],[-111.6844412,35.3338647],[-111.6843903,35.3337947],[-111.6843286,35.3337553],[-111.6842588,35.3337247],[-111.6842186,35.3336722],[-111.684158,35.3336346],[-111.684129,35.3335569],[-111.6840955,35.3335257],[-111.6840841,35.3334492],[-111.6840412,35.3333786],[-111.6839594,35.3332949],[-111.6839419,35.3333354],[-111.6839434,35.3334552],[-111.6839406,35.333558],[-111.68393,35.3336565],[-111.6839166,35.3337331],[-111.6839155,35.3338013],[-111.6839466,35.3339207],[-111.6839396,35.3340857],[-111.6839587,35.3341527],[-111.6839607,35.3342533],[-111.6839627,35.3342796],[-111.6839413,35.3342856],[-111.6839037,35.3342599],[-111.6838092,35.3341948],[-111.6836771,35.3341297],[-111.6835718,35.334069],[-111.6834799,35.334017],[-111.6833914,35.3339585],[-111.6833297,35.3338578],[-111.6832915,35.3337429],[-111.6832774,35.3336806],[-111.683272,35.333598],[-111.6832718,35.3335059],[-111.6832392,35.3334431],[-111.6832191,35.3333786],[-111.6832037,35.333331],[-111.6831453,35.3332462],[-111.6830823,35.3333496],[-111.6830427,35.3334185],[-111.6830139,35.3334765],[-111.6829805,35.3335537],[-111.6829526,35.3335978],[-111.6829016,35.3337137],[-111.6828399,35.3337312],[-111.6828222,35.3336521],[-111.6827954,35.3335515],[-111.6827917,35.3334424],[-111.6827632,35.3333721],[-111.6827246,35.3333002],[-111.6826602,35.3332542],[-111.6825798,35.3332214],[-111.6825234,35.333287],[-111.6824619,35.3333157],[-111.6823947,35.3333527],[-111.682341,35.3333943],[-111.6823035,35.3333571],[-111.6822686,35.3333658],[-111.6822284,35.3334096],[-111.6822043,35.3334555],[-111.6822043,35.3334993],[-111.6821774,35.3335299],[-111.6821426,35.333635],[-111.6821184,35.3336568],[-111.6820996,35.3336984],[-111.6820836,35.3337444],[-111.6820809,35.3337969],[-111.6820594,35.3338844],[-111.6820433,35.3339282],[-111.6820219,35.3339676],[-111.6820219,35.3340201],[-111.6820219,35.334066],[-111.6820433,35.334147],[-111.6820701,35.3342061],[-111.6820701,35.3342367],[-111.6820889,35.3342914],[-111.6820996,35.334333],[-111.6820943,35.3343833],[-111.6820782,35.3344271],[-111.6820487,35.3344643],[-111.6820498,35.3345033],[-111.6820551,35.3345624],[-111.6820578,35.3345865],[-111.6820353,35.3346284],[-111.6820471,35.3346806],[-111.6820272,35.3347006],[-111.6819988,35.3347309],[-111.6819816,35.3347815],[-111.6819773,35.3348162],[-111.681936,35.3348275],[-111.6819586,35.3348709],[-111.6819237,35.3349322],[-111.6819237,35.3349913],[-111.6819119,35.3350485],[-111.6819156,35.3351072],[-111.6819146,35.3351382],[-111.6819092,35.3352016],[-111.6818805,35.3352463],[-111.681987,35.3353111],[-111.682031,35.3353764],[-111.6820299,35.3354161],[-111.6820406,35.3354664],[-111.6820782,35.3354949],[-111.6821318,35.3355146],[-111.6822069,35.3355299],[-111.6822767,35.3355605],[-111.6822928,35.3355846],[-111.682333,35.3356721],[-111.6823652,35.3357071],[-111.6824296,35.3357421],[-111.6824886,35.3357684],[-111.6825127,35.3358099],[-111.6825261,35.3358406],[-111.6825261,35.3358734],[-111.6825637,35.3358975],[-111.682628,35.3359675],[-111.682679,35.3360069],[-111.6826951,35.3360353],[-111.6827112,35.3360659],[-111.6827327,35.3360966],[-111.682789,35.3361228],[-111.682789,35.3361644],[-111.6827782,35.336206],[-111.682797,35.3362629],[-111.6828319,35.3363001],[-111.6828909,35.336357],[-111.6829698,35.3363982],[-111.6830223,35.3364226],[-111.6830529,35.3364507],[-111.6831039,35.3364857],[-111.6831629,35.3365361],[-111.6832058,35.3365776],[-111.6832997,35.3366236],[-111.6833238,35.336652],[-111.6833442,35.3367267],[-111.6833721,35.3367658],[-111.6834096,35.3368052],[-111.683481,35.3368537],[-111.6835545,35.3368774],[-111.683599,35.3369346],[-111.6836071,35.3369696],[-111.6835625,35.3369715],[-111.6834917,35.3369543],[-111.6834579,35.3369759],[-111.6835223,35.3370327],[-111.6836242,35.3370393],[-111.6837358,35.3371162],[-111.6837771,35.3371465],[-111.6838361,35.3371487],[-111.6838361,35.3372078],[-111.6838029,35.3372497],[-111.6838189,35.3372956],[-111.6838511,35.3373525],[-111.6838522,35.3374003],[-111.6838388,35.3374835],[-111.6838297,35.3375341],[-111.6838039,35.3375885],[-111.6837841,35.3376457],[-111.6837546,35.3376873],[-111.6837342,35.3377657],[-111.6837315,35.3378051],[-111.6837396,35.3378554],[-111.6837492,35.3379345],[-111.6837492,35.3379696],[-111.6837143,35.3380067],[-111.6837036,35.338079],[-111.6837009,35.3381402],[-111.6836832,35.3382012],[-111.6836553,35.3382387],[-111.6836205,35.3382978],[-111.6836097,35.3383525],[-111.6835883,35.3384137],[-111.6835518,35.3384506],[-111.6835518,35.3384768],[-111.6835759,35.338514],[-111.6835883,35.3385734],[-111.6835893,35.3386103],[-111.6835722,35.3386697],[-111.6835464,35.3387022],[-111.6835411,35.3387525],[-111.6835132,35.3387857],[-111.6834606,35.3388182],[-111.6834418,35.3388576],[-111.6834311,35.3389166],[-111.6834166,35.3389914],[-111.6834139,35.3390285],[-111.6834552,35.3390501],[-111.6834622,35.3390898],[-111.6834847,35.3391398],[-111.6834847,35.3391858],[-111.6835051,35.3392145],[-111.6835062,35.339247],[-111.6834767,35.3392689],[-111.6834998,35.3392955],[-111.6834982,35.3393433],[-111.683525,35.3393695],[-111.6835319,35.339429],[-111.6835507,35.3394815],[-111.6835668,35.3395143],[-111.683548,35.3395362],[-111.6835545,35.339573],[-111.6835598,35.3396146],[-111.6835464,35.3396474],[-111.6835572,35.3397043],[-111.6835759,35.3397524],[-111.6835625,35.3397831],[-111.6835598,35.3398159],[-111.6835775,35.3398447],[-111.6835625,35.339864],[-111.6835733,35.3399122],[-111.6835974,35.3399384],[-111.6835974,35.3399647],[-111.6835936,35.3400044],[-111.6835936,35.3400503],[-111.683591,35.3400963],[-111.6835867,35.3401397],[-111.6835867,35.3401813],[-111.6835733,35.3402054],[-111.6835411,35.3402579],[-111.6835411,35.3402907],[-111.6835625,35.3403279],[-111.6835695,35.3403501],[-111.683533,35.3403738],[-111.68354,35.340396],[-111.6835293,35.3404223],[-111.6835105,35.3404442],[-111.6835116,35.3404723],[-111.6834874,35.3405226],[-111.6834847,35.3405642],[-111.6834686,35.3406058],[-111.6834864,35.3406236],[-111.6834874,35.3406517],[-111.6834874,35.340667],[-111.6834579,35.3406911],[-111.6834568,35.340733],[-111.6834579,35.3407808],[-111.6834542,35.340838],[-111.6834381,35.3408708],[-111.6833989,35.340888],[-111.6833453,35.340888],[-111.6832863,35.3408771],[-111.6832433,35.3409011],[-111.6831994,35.3409496],[-111.6831752,35.3409715],[-111.6831457,35.3409999],[-111.6830894,35.3410087],[-111.6830384,35.3410284],[-111.6830143,35.341048],[-111.6829805,35.3410543],[-111.6829338,35.3410765],[-111.682907,35.3410984],[-111.6828748,35.3411246],[-111.6828732,35.3411615],[-111.6828587,35.3411815],[-111.6828196,35.3412118],[-111.6828222,35.3412424],[-111.6828491,35.3412556],[-111.6828491,35.3412796],[-111.682848,35.3413106],[-111.6828238,35.3413281],[-111.6828131,35.3413544],[-111.6827943,35.3413675],[-111.6827782,35.3414025],[-111.6827471,35.3414284],[-111.6826828,35.3414525],[-111.6826506,35.3414853],[-111.682628,35.3415119],[-111.6825959,35.341525],[-111.6825529,35.3415753],[-111.6825315,35.341606],[-111.6824778,35.3416169],[-111.6824537,35.3416366],[-111.6824161,35.3416607],[-111.682385,35.3416669],[-111.6823706,35.3417066],[-111.6823464,35.3417394],[-111.6823073,35.3417632],[-111.6822804,35.3417872],[-111.6822552,35.3418335],[-111.6822563,35.3418704],[-111.6822177,35.3419101],[-111.6821839,35.3419448],[-111.682157,35.3419798],[-111.6821399,35.3420085],[-111.6821318,35.3420436],[-111.6821157,35.3420786],[-111.6820621,35.3420873],[-111.6820363,35.3421154],[-111.6820337,35.3421482],[-111.6820149,35.3421767],[-111.6820004,35.3422076],[-111.6819897,35.3422514],[-111.6819666,35.3423036],[-111.6819425,35.342332],[-111.6818824,35.3423433],[-111.6818529,35.3423564],[-111.6818245,35.3423736],[-111.6818164,35.3424174],[-111.6818164,35.3424524],[-111.6817751,35.3424811],[-111.6817483,35.3425205],[-111.6817333,35.3425727],[-111.6817134,35.3426124],[-111.6816474,35.3426449],[-111.6816045,35.342669],[-111.681582,35.3426977],[-111.6815643,35.3427324],[-111.6815176,35.3427524],[-111.6814838,35.3428024],[-111.6814221,35.3428177],[-111.6813486,35.3428531],[-111.681295,35.3428531],[-111.6812306,35.3428662],[-111.6811861,35.3428768],[-111.6811394,35.3428903],[-111.6810938,35.3428815],[-111.6810375,35.3428859],[-111.6809635,35.3429009],[-111.6809018,35.3429053],[-111.6808723,35.3429403],[-111.6808471,35.342969],[-111.6808213,35.3429731],[-111.680772,35.3429712],[-111.6807623,35.3429884],[-111.6807167,35.3430125],[-111.6806872,35.3430387],[-111.6806352,35.343039],[-111.6806175,35.343065],[-111.6805906,35.3431],[-111.6805762,35.3431309],[-111.6805397,35.3431656],[-111.6805155,35.3431809],[-111.6804742,35.34319],[-111.6804458,35.3432203],[-111.6804136,35.3432422],[-111.6803884,35.3432775],[-111.6803669,35.3433103],[-111.6803197,35.3433166],[-111.68025,35.3433385],[-111.6802033,35.3433585],[-111.6801953,35.3433847],[-111.6801722,35.3434063],[-111.6801309,35.3434175],[-111.6801266,35.3434544],[-111.6800773,35.3434635],[-111.6800247,35.3435113],[-111.6800247,35.3435376],[-111.6799871,35.3435463],[-111.6799415,35.343566],[-111.6799324,35.343597],[-111.6798466,35.3436166],[-111.6798182,35.3436294],[-111.6797742,35.3436626],[-111.6797404,35.3437126],[-111.6796894,35.3437563],[-111.679632,35.3437961],[-111.6796224,35.3438395],[-111.6795955,35.3438767],[-111.6795462,35.3438814],[-111.6795043,35.3438964],[-111.6794775,35.3439314],[-111.6794373,35.3439598],[-111.6793906,35.3439733],[-111.6793729,35.3440079],[-111.6793584,35.3440389],[-111.6793112,35.3440408],[-111.6792806,35.344063],[-111.6792764,35.3440976],[-111.6792672,35.3441483],[-111.6792743,35.3441926],[-111.6792361,35.3442289],[-111.6792173,35.3442574],[-111.679161,35.3442946],[-111.6791154,35.3443164],[-111.6790779,35.3443864],[-111.6790457,35.3444499],[-111.6790097,35.3444896],[-111.6789749,35.3445246],[-111.6788998,35.3445465],[-111.6788622,35.344529],[-111.6788365,35.3444849],[-111.6788043,35.344463],[-111.6787641,35.3444608],[-111.6787496,35.3444743],[-111.6787227,35.3445443],[-111.6787093,35.3445815],[-111.6786691,35.344634],[-111.6786139,35.3446643],[-111.6785709,35.3447212],[-111.6784958,35.3447824],[-111.6784449,35.3448284],[-111.6784315,35.34487],[-111.6783875,35.3449272],[-111.6783606,35.344995],[-111.6783483,35.3450319],[-111.6783499,35.3450628],[-111.678351,35.3451194],[-111.6783392,35.3451503],[-111.6783392,35.3451941],[-111.6783215,35.34522],[-111.6782786,35.3452681],[-111.6782265,35.3452969],[-111.6782169,35.3453228],[-111.6782115,35.3453907],[-111.6782104,35.3454479],[-111.6781836,35.3455091],[-111.6781648,35.3455595],[-111.6781552,35.3456226],[-111.6781498,35.3456707],[-111.6781005,35.3457585],[-111.6780774,35.3458545],[-111.6780629,35.3459336],[-111.6780093,35.3460802],[-111.6779889,35.346222],[-111.6779594,35.3463861],[-111.677977,35.346426]]}}]}
