{"type":"FeatureCollection","peaks_destination_id":"0DBABC022BE0C28EC0A2","peaks_trailhead_id":"0504EA4C0CB9E07CA37B","peaks_source":"https://www.openstreetmap.org/","peaks_retrieval_source":"https://overpass-api.de/api/interpreter","peaks_license_name":"Open Data Commons Open Database License (ODbL) 1.0","peaks_license":"https://opendatacommons.org/licenses/odbl/1-0/","peaks_attribution":"© OpenStreetMap contributors","peaks_retrieved_at":"2026-07-31T14:09:11.766Z","features":[{"type":"Feature","properties":{"name":"Hvannadalshnúkur OSM route candidate","trailhead_name":"Sandfell Trailhead","destination_name":"Hvannadalshnúkur","distance_m":11390.490989710166,"trailhead_snap_m":2.997669738951746,"summit_snap_m":0,"osm_way_ids":[620059053,620059052,593504932,620059054],"osm_way_urls":["https://www.openstreetmap.org/way/620059053","https://www.openstreetmap.org/way/620059052","https://www.openstreetmap.org/way/593504932","https://www.openstreetmap.org/way/620059054"],"osm_way_names":["Sandfellsleið"],"osm_foot_access_override_way_ids":[]},"geometry":{"type":"LineString","coordinates":[[-16.793203,63.944761],[-16.7932543,63.9447462],[-16.7932027,63.9452668],[-16.7927396,63.9458305],[-16.7927371,63.945942],[-16.7923287,63.9461427],[-16.792265,63.9471024],[-16.7922467,63.9472959],[-16.7923373,63.9474578],[-16.792358,63.9476135],[-16.792491,63.9475743],[-16.7924814,63.9476615],[-16.7924791,63.9476828],[-16.7923734,63.947799],[-16.7923605,63.9479268],[-16.7922608,63.9479931],[-16.792249,63.9483654],[-16.7918172,63.948741],[-16.792104,63.9490171],[-16.791946,63.9492676],[-16.7921864,63.9496566],[-16.7919296,63.9497884],[-16.7919032,63.9499042],[-16.7915844,63.9502178],[-16.7916054,63.9503428],[-16.7915137,63.9504036],[-16.7915391,63.9509357],[-16.7911319,63.9512081],[-16.7909746,63.9514817],[-16.7908405,63.9515221],[-16.790672,63.9516012],[-16.7905665,63.9516042],[-16.7905439,63.9517172],[-16.7902523,63.9519955],[-16.7901788,63.9520163],[-16.7899046,63.95227],[-16.789855,63.9523021],[-16.78962,63.9525675],[-16.7895801,63.9526633],[-16.7893742,63.9528043],[-16.7889343,63.9530827],[-16.7886141,63.9532066],[-16.7880943,63.9534375],[-16.7877494,63.9530762],[-16.7875518,63.9528511],[-16.7872062,63.9530465],[-16.7867522,63.9531323],[-16.7860618,63.953116],[-16.7858842,63.9531405],[-16.7856377,63.9531305],[-16.7855058,63.9531492],[-16.7854316,63.953138],[-16.7852162,63.9532504],[-16.7851152,63.9532867],[-16.7846966,63.9535573],[-16.7840506,63.9538135],[-16.7837664,63.9538303],[-16.7834221,63.9538739],[-16.7830438,63.9538593],[-16.7827861,63.9538481],[-16.7827706,63.9537954],[-16.7825991,63.953753],[-16.782119,63.9536982],[-16.7816479,63.9537126],[-16.7798522,63.953951],[-16.7792668,63.9539051],[-16.7784907,63.9537081],[-16.7771091,63.9536906],[-16.7765037,63.9535499],[-16.7764648,63.9534462],[-16.7759227,63.9531019],[-16.7746082,63.9529742],[-16.770684,63.9535926],[-16.7687708,63.9543959],[-16.7680429,63.9545954],[-16.7677792,63.9545922],[-16.7675477,63.9547056],[-16.7673837,63.9546892],[-16.7672676,63.9547552],[-16.7671862,63.9548944],[-16.7669546,63.9550244],[-16.766704,63.9550323],[-16.766562,63.9551005],[-16.7663767,63.9551441],[-16.7662653,63.9552012],[-16.7659615,63.9552673],[-16.7654682,63.9554569],[-16.7653192,63.9557313],[-16.7652805,63.9559718],[-16.7648604,63.9560366],[-16.7639884,63.95657],[-16.7632123,63.9572086],[-16.7621953,63.957992],[-16.7614986,63.9584212],[-16.7600144,63.9591007],[-16.7588121,63.9594864],[-16.7572913,63.9598876],[-16.7535274,63.9613069],[-16.7520844,63.9615081],[-16.7493427,63.9621972],[-16.7453258,63.9632184],[-16.7446647,63.9632935],[-16.7430334,63.9639073],[-16.7421552,63.9644053],[-16.7404568,63.9651182],[-16.7391602,63.9658611],[-16.7383687,63.966326],[-16.7374821,63.9664481],[-16.736889,63.9667531],[-16.73634,63.9668105],[-16.7323496,63.9688846],[-16.7315453,63.9694147],[-16.7298452,63.9699569],[-16.7288566,63.9706353],[-16.7223572,63.9736303],[-16.7185211,63.9748163],[-16.7114766,63.9769751],[-16.7043255,63.9798596],[-16.6925188,63.9840597],[-16.6886984,63.9870882],[-16.6772852,63.9913293],[-16.6741327,63.9931338],[-16.6718153,63.9949876],[-16.6700768,63.9983252],[-16.6697688,64.0006219],[-16.6711455,64.0031468],[-16.6752116,64.0077748],[-16.6786721,64.0099369],[-16.6800754,64.0102761],[-16.6803757,64.0112766],[-16.6824707,64.0115024],[-16.6817323,64.0132249],[-16.6769602,64.0141503],[-16.6769602,64.0141503]]}}]}
