{"type":"FeatureCollection","peaks_destination_id":"57A3C9C3D3091A48A558","peaks_trailhead_id":"DA84BCB70D20490C1FB6","peaks_source":"https://www.openstreetmap.org/","peaks_retrieval_source":"https://api.openstreetmap.org/api/0.6","peaks_license_name":"Open Data Commons Open Database License (ODbL) 1.0","peaks_license":"https://opendatacommons.org/licenses/odbl/1-0/","peaks_attribution":"© OpenStreetMap contributors","peaks_retrieved_at":"2026-07-31T15:32:59.419Z","features":[{"type":"Feature","properties":{"name":"Imarivolanitra OSM route candidate","trailhead_name":"Pic Boby Base Camp","destination_name":"Imarivolanitra","distance_m":4351.124410698478,"trailhead_snap_m":0,"summit_snap_m":0,"osm_way_ids":[55859911],"osm_way_urls":["https://www.openstreetmap.org/way/55859911"],"osm_way_names":[],"osm_foot_access_override_way_ids":[]},"geometry":{"type":"LineString","coordinates":[[46.900257,-22.1800608],[46.900257,-22.1800608],[46.9002375,-22.1801166],[46.9001747,-22.1801689],[46.9001965,-22.1802547],[46.9002568,-22.1803872],[46.9002621,-22.1805484],[46.900299,-22.180733],[46.900333,-22.181049],[46.900433,-22.181299],[46.900517,-22.181816],[46.900501,-22.182083],[46.900566,-22.182367],[46.900566,-22.182568],[46.900715,-22.182817],[46.900833,-22.183149],[46.9004714,-22.1838055],[46.9003623,-22.1838886],[46.9003481,-22.1842761],[46.900417,-22.184433],[46.900433,-22.184717],[46.900452,-22.184984],[46.900585,-22.185284],[46.900715,-22.185551],[46.900768,-22.185734],[46.900734,-22.185984],[46.9007724,-22.1861194],[46.9006815,-22.186418],[46.9007856,-22.1865952],[46.9007675,-22.1868296],[46.900867,-22.186966],[46.900818,-22.187117],[46.900883,-22.187384],[46.900902,-22.187567],[46.900848,-22.187916],[46.9008448,-22.1880895],[46.9007482,-22.1882223],[46.900734,-22.188366],[46.9006797,-22.1886126],[46.9005941,-22.1888207],[46.900603,-22.1891032],[46.900623,-22.1894558],[46.900554,-22.1895633],[46.9005251,-22.189737],[46.900465,-22.190045],[46.9004764,-22.1903269],[46.9004921,-22.1906583],[46.9004856,-22.1908506],[46.9004346,-22.1909678],[46.9003492,-22.1912456],[46.9004149,-22.1915255],[46.9003593,-22.1917941],[46.9002886,-22.1921331],[46.9001453,-22.1922088],[46.900066,-22.1924507],[46.9001844,-22.1926068],[46.9001647,-22.1927792],[46.9001113,-22.1928585],[46.9001196,-22.1933414],[46.9001662,-22.1936567],[46.9001789,-22.1939191],[46.9001066,-22.1941768],[46.9001607,-22.1943213],[46.9001307,-22.1944807],[46.900239,-22.1946798],[46.9003333,-22.1948118],[46.9004026,-22.1949119],[46.9004544,-22.1951059],[46.9003698,-22.1952449],[46.9002453,-22.1954549],[46.9003033,-22.19561],[46.900349,-22.195784],[46.900452,-22.19595],[46.900665,-22.196199],[46.9007344,-22.196326],[46.9008571,-22.1964805],[46.9008601,-22.196632],[46.900848,-22.1968],[46.9007438,-22.1968274],[46.9007772,-22.1971179],[46.90065,-22.197201],[46.900501,-22.1973],[46.9002872,-22.197443],[46.9001404,-22.1976739],[46.8998361,-22.1977188],[46.899685,-22.197687],[46.899532,-22.197733],[46.899517,-22.197983],[46.8993469,-22.198058],[46.899017,-22.198099],[46.898834,-22.197983],[46.8988431,-22.1978667],[46.8989298,-22.1976434],[46.8987501,-22.1972806],[46.8985658,-22.1972056],[46.898399,-22.197117],[46.8981468,-22.1970251],[46.8979227,-22.1969216],[46.897682,-22.1966],[46.897385,-22.196367],[46.897148,-22.196266],[46.896767,-22.196184],[46.896435,-22.195967],[46.896217,-22.195868],[46.8961018,-22.195925],[46.8957861,-22.1958196],[46.8954623,-22.1957473],[46.8949098,-22.1956819],[46.8948242,-22.1956067],[46.8945821,-22.1955316],[46.8943929,-22.1955955],[46.894234,-22.195566],[46.894085,-22.195467],[46.893848,-22.195217],[46.893665,-22.195217],[46.893398,-22.195101],[46.893234,-22.195066],[46.892918,-22.195116],[46.892735,-22.195084],[46.892532,-22.195101],[46.8921168,-22.1949703],[46.8920382,-22.1949852],[46.8919837,-22.1949725],[46.891828,-22.1949402],[46.8914699,-22.1948935],[46.8912819,-22.1948979],[46.891102,-22.1948922],[46.8909622,-22.1948212],[46.8908223,-22.1948265],[46.8906341,-22.1946971],[46.8905303,-22.1945966],[46.8903088,-22.194464],[46.8902017,-22.1943966],[46.8899383,-22.1943708],[46.8898371,-22.1944935],[46.8897889,-22.1946084],[46.8897642,-22.1947232],[46.8896422,-22.1948366],[46.889556,-22.1948755],[46.8894518,-22.1949486],[46.889282,-22.195232],[46.8891564,-22.1953626],[46.8889065,-22.195664],[46.8888485,-22.1957728],[46.8887634,-22.1958891],[46.8887153,-22.196005],[46.8885776,-22.1961009],[46.888283,-22.196117],[46.888016,-22.196301],[46.887867,-22.196383],[46.8876902,-22.1963959],[46.887451,-22.196367],[46.8872738,-22.1964123],[46.887037,-22.1963844],[46.886768,-22.196266],[46.8865736,-22.1962946],[46.8864182,-22.1962512],[46.8862102,-22.1963118],[46.8858233,-22.1963616],[46.8856679,-22.1965026],[46.8855802,-22.1967596],[46.8855152,-22.196973],[46.885483,-22.197117],[46.885349,-22.197001],[46.885284,-22.196817],[46.885235,-22.1966],[46.885181,-22.196417],[46.885368,-22.196383],[46.885468,-22.196083],[46.8853,-22.195932],[46.885418,-22.195717],[46.885468,-22.195566],[46.885551,-22.19515],[46.885483,-22.19495],[46.885567,-22.194683],[46.885384,-22.194633],[46.885233,-22.194633],[46.885233,-22.194633]]}}]}
