{"type":"FeatureCollection","peaks_destination_id":"0FEDD2B9EC2B88DF3DC8","peaks_trailhead_id":"7140073B00C6B9DFB290","peaks_source":"https://www.openstreetmap.org/","peaks_retrieval_source":"https://overpass-api.de/api/interpreter","peaks_license_name":"Open Data Commons Open Database License (ODbL) 1.0","peaks_license":"https://opendatacommons.org/licenses/odbl/1-0/","peaks_attribution":"© OpenStreetMap contributors","peaks_retrieved_at":"2026-07-31T15:51:25.902Z","features":[{"type":"Feature","properties":{"name":"Jebel M'Goun جبل مكون OSM route candidate","trailhead_name":"Arousse South Trailhead","destination_name":"Jebel M'Goun جبل مكون","distance_m":18341.082217959036,"trailhead_snap_m":0,"summit_snap_m":0,"osm_way_ids":[224287472,398536006,398536002,1460453873,1273864354,396352142,1273864353,368682167,1074245310,397538294,397582808,300368077],"osm_way_urls":["https://www.openstreetmap.org/way/224287472","https://www.openstreetmap.org/way/398536006","https://www.openstreetmap.org/way/398536002","https://www.openstreetmap.org/way/1460453873","https://www.openstreetmap.org/way/1273864354","https://www.openstreetmap.org/way/396352142","https://www.openstreetmap.org/way/1273864353","https://www.openstreetmap.org/way/368682167","https://www.openstreetmap.org/way/1074245310","https://www.openstreetmap.org/way/397538294","https://www.openstreetmap.org/way/397582808","https://www.openstreetmap.org/way/300368077"],"osm_way_names":[],"osm_foot_access_override_way_ids":[]},"geometry":{"type":"LineString","coordinates":[[-6.4869283,31.6115961],[-6.4869283,31.6115961],[-6.4869552,31.6113499],[-6.4870142,31.6108103],[-6.4867138,31.610061],[-6.4859842,31.6091473],[-6.4843105,31.6082884],[-6.4836668,31.6075575],[-6.4816068,31.6063696],[-6.4809417,31.6056934],[-6.4808459,31.604513],[-6.4812635,31.6038476],[-6.4811133,31.6026963],[-6.4811133,31.6018922],[-6.4806412,31.6009418],[-6.4807056,31.6000829],[-6.4811777,31.5993335],[-6.4814781,31.598109],[-6.481859,31.5974813],[-6.4817785,31.5973414],[-6.482551,31.5959158],[-6.4820575,31.5944171],[-6.4813708,31.5938322],[-6.4804267,31.5923883],[-6.4804959,31.5921341],[-6.4802893,31.5920747],[-6.4803485,31.5917696],[-6.4803394,31.5908619],[-6.4804825,31.5906268],[-6.4804899,31.5902711],[-6.4804036,31.590204],[-6.4804792,31.5899332],[-6.4803436,31.5896897],[-6.4803784,31.5890606],[-6.4803235,31.5886903],[-6.4800738,31.5882875],[-6.4801574,31.5881434],[-6.48007,31.5879758],[-6.4801214,31.5876847],[-6.4799117,31.587435],[-6.4804705,31.5858931],[-6.480584,31.585511],[-6.4801183,31.5853044],[-6.4798797,31.5849597],[-6.4799075,31.5846174],[-6.4796937,31.5839969],[-6.4778088,31.580891],[-6.4778733,31.5799878],[-6.4778146,31.5796905],[-6.4777867,31.5795045],[-6.4778242,31.5792943],[-6.4778575,31.5790644],[-6.4778457,31.578915],[-6.4777223,31.5785676],[-6.4775238,31.578202],[-6.4772771,31.5778821],[-6.4770357,31.577681],[-6.4768919,31.5775426],[-6.4768543,31.5774466],[-6.4768533,31.5772377],[-6.4768704,31.5770307],[-6.4768103,31.5768493],[-6.476585,31.5765933],[-6.4765207,31.5765431],[-6.4764882,31.5764835],[-6.4764509,31.5764151],[-6.4763973,31.57615],[-6.4762524,31.5757524],[-6.4760647,31.5753594],[-6.4759849,31.5749682],[-6.4761773,31.5745766],[-6.4760797,31.5745991],[-6.4759348,31.5746859],[-6.4757379,31.5748063],[-6.4757202,31.5747225],[-6.4757149,31.5744802],[-6.475672,31.5742928],[-6.4755915,31.5740643],[-6.4755448,31.5740019],[-6.4754483,31.5739882],[-6.4753571,31.5740202],[-6.4753179,31.5740826],[-6.4752873,31.5741573],[-6.4752213,31.5742426],[-6.475121,31.5743493],[-6.4750728,31.5744224],[-6.4749853,31.5744802],[-6.4749156,31.5745305],[-6.4748888,31.5746082],[-6.4748045,31.5745961],[-6.4746044,31.5744528],[-6.4744811,31.5743203],[-6.4744114,31.5737187],[-6.47437,31.5733612],[-6.4741173,31.5731921],[-6.4736392,31.573169],[-6.473189,31.572652],[-6.4729794,31.5727705],[-6.4727831,31.5726974],[-6.4725025,31.5725482],[-6.4722714,31.572177],[-6.4713854,31.5716309],[-6.4710697,31.5717232],[-6.4707526,31.5717803],[-6.4704027,31.5716953],[-6.4700264,31.5717917],[-6.4697749,31.5719384],[-6.4696278,31.5720206],[-6.4695488,31.5721025],[-6.4694774,31.5720037],[-6.4693743,31.5719153],[-6.4691527,31.5718164],[-6.4689755,31.5717509],[-6.4688323,31.571775],[-6.4687696,31.5718493],[-6.4687588,31.5719407],[-6.4687106,31.5720596],[-6.4686247,31.572151],[-6.4685282,31.5721921],[-6.4683442,31.5722225],[-6.468151,31.5722453],[-6.468033,31.5723048],[-6.4678372,31.572268],[-6.4674969,31.5723319],[-6.4670296,31.5725233],[-6.4667048,31.572669],[-6.466377,31.5727827],[-6.4662815,31.5728515],[-6.4663135,31.5730244],[-6.4662819,31.5731257],[-6.4660591,31.5733005],[-6.4657263,31.5734976],[-6.4656099,31.5736729],[-6.4655187,31.5737963],[-6.4654635,31.5739227],[-6.4654849,31.5740323],[-6.4655654,31.5741192],[-6.4655134,31.5742716],[-6.4654222,31.5744316],[-6.4652988,31.574523],[-6.465054,31.5745377],[-6.4647605,31.5745486],[-6.4644352,31.5746464],[-6.4642247,31.5749725],[-6.4638483,31.5752117],[-6.4633124,31.5751573],[-6.4625532,31.5753747],[-6.4618005,31.5758856],[-6.4610987,31.5761682],[-6.4609265,31.575978],[-6.4609839,31.5757497],[-6.4606203,31.5756139],[-6.4605182,31.5754399],[-6.4600589,31.5752932],[-6.4596953,31.5754834],[-6.4592934,31.5753747],[-6.4591849,31.5750323],[-6.4588723,31.574978],[-6.4582408,31.5749943],[-6.4580111,31.574853],[-6.4578835,31.5746573],[-6.4577368,31.5745867],[-6.4572647,31.574429],[-6.4571244,31.5741247],[-6.4570032,31.574016],[-6.4568373,31.5735268],[-6.4562632,31.5731572],[-6.4561164,31.5731518],[-6.4556635,31.5730159],[-6.4555295,31.5727877],[-6.4551404,31.5725757],[-6.4549884,31.5724682],[-6.4555452,31.5717783],[-6.4555496,31.5717705],[-6.4555495,31.5717618],[-6.4555447,31.5717541],[-6.4555364,31.5717491],[-6.4555264,31.5717478],[-6.4554991,31.5717443],[-6.4554921,31.5717434],[-6.4554867,31.5717395],[-6.4554847,31.5717337],[-6.4554866,31.5717279],[-6.4555326,31.5716195],[-6.4555361,31.5716121],[-6.4555338,31.571603],[-6.4555288,31.5715984],[-6.455517,31.5715975],[-6.4555019,31.5716038],[-6.455493,31.5716038],[-6.4554898,31.5716019],[-6.4554879,31.5715991],[-6.4554864,31.5715909],[-6.4555105,31.5715084],[-6.4555122,31.5714941],[-6.455506,31.5714812],[-6.455492,31.5714778],[-6.4554756,31.5714847],[-6.4554096,31.5715115],[-6.4553998,31.5715164],[-6.4553903,31.5715158],[-6.4553854,31.5715132],[-6.4553825,31.5715036],[-6.4553913,31.5714773],[-6.4553896,31.5714715],[-6.4553846,31.5714698],[-6.4553794,31.5714701],[-6.4553722,31.5714725],[-6.4552599,31.5715118],[-6.4552527,31.5715137],[-6.4552449,31.5715141],[-6.4552367,31.5715085],[-6.455233,31.5715004],[-6.4552246,31.5714755],[-6.4552236,31.5714712],[-6.4552201,31.5714678],[-6.4552151,31.5714665],[-6.45521,31.5714674],[-6.4551657,31.5714762],[-6.455159,31.571477],[-6.4551526,31.5714752],[-6.4551478,31.571471],[-6.4551458,31.5714655],[-6.4550381,31.571109],[-6.455031,31.5710539],[-6.4550337,31.5709911],[-6.4550404,31.5709237],[-6.4550563,31.5708673],[-6.4551035,31.570798],[-6.4551202,31.5707763],[-6.4551236,31.5707477],[-6.4551062,31.5707175],[-6.4550807,31.5706869],[-6.4550703,31.5706694],[-6.4550693,31.5706523],[-6.4550798,31.5706325],[-6.4551196,31.5705783],[-6.4551263,31.5705706],[-6.4551261,31.57056],[-6.4551185,31.5705526],[-6.4551061,31.5705497],[-6.4550079,31.570546],[-6.4549984,31.5705439],[-6.4549902,31.5705392],[-6.4549842,31.5705326],[-6.4549709,31.5705177],[-6.4549684,31.570514],[-6.4549678,31.5705098],[-6.454969,31.5705056],[-6.4549721,31.5705023],[-6.4550569,31.5704603],[-6.4550783,31.5704452],[-6.4550941,31.5704309],[-6.4551022,31.5704154],[-6.4551314,31.5703324],[-6.4551743,31.5702218],[-6.4552159,31.5701487],[-6.4552335,31.5700618],[-6.4552369,31.570047],[-6.4552346,31.5700344],[-6.4552289,31.5700281],[-6.4552175,31.5700293],[-6.4551947,31.5700644],[-6.4551869,31.5700695],[-6.4551789,31.57007],[-6.4551735,31.5700676],[-6.4551734,31.57006],[-6.4551881,31.5700019],[-6.4551891,31.5699964],[-6.4551866,31.5699911],[-6.4551819,31.5699869],[-6.4551733,31.5699866],[-6.455147,31.570015],[-6.4551407,31.5700177],[-6.4551372,31.5700176],[-6.455135,31.5700146],[-6.4551342,31.5700089],[-6.4551877,31.5697898],[-6.4553258,31.5695637],[-6.4553975,31.5694878],[-6.4554627,31.5693408],[-6.4554609,31.5692989],[-6.4554542,31.5692703],[-6.4554542,31.5692446],[-6.4554524,31.569216],[-6.4554629,31.569196],[-6.4554857,31.5691732],[-6.4555329,31.5691329],[-6.4555454,31.5691215],[-6.4555476,31.5691181],[-6.4555477,31.5691135],[-6.455544,31.5691081],[-6.455537,31.5691036],[-6.4555011,31.5690852],[-6.4554962,31.56908],[-6.4554944,31.5690719],[-6.4554966,31.5690649],[-6.4555012,31.5690601],[-6.4555663,31.5690169],[-6.4555738,31.5690109],[-6.4555753,31.5690061],[-6.4555732,31.5689999],[-6.4555705,31.5689971],[-6.4555421,31.5689785],[-6.455537,31.5689739],[-6.4555361,31.5689695],[-6.4555365,31.5689645],[-6.4555383,31.5689613],[-6.455543,31.5689578],[-6.4556349,31.5688978],[-6.4556456,31.5688875],[-6.4556479,31.5688738],[-6.4556433,31.5688669],[-6.4556313,31.5688624],[-6.4554666,31.5688609],[-6.4554573,31.5688604],[-6.4554491,31.5688585],[-6.4554461,31.5688525],[-6.4554496,31.5688449],[-6.4554733,31.5688274],[-6.4554894,31.5688134],[-6.4554962,31.5688025],[-6.4555034,31.5687825],[-6.455505,31.5687627],[-6.455519,31.5687374],[-6.4555207,31.568729],[-6.455516,31.5687236],[-6.4555075,31.5687221],[-6.4555029,31.5687218],[-6.4554964,31.56872],[-6.4554925,31.5687165],[-6.4554942,31.5687105],[-6.4554974,31.568705],[-6.455544,31.5686447],[-6.4555655,31.5685841],[-6.4555957,31.5685127],[-6.4555984,31.5685059],[-6.4555951,31.5684994],[-6.4555875,31.5684963],[-6.4555794,31.5684984],[-6.4555628,31.5685042],[-6.4554914,31.5685307],[-6.4554827,31.568534],[-6.4554676,31.568533],[-6.4554605,31.568527],[-6.4554612,31.5685176],[-6.4554972,31.5684682],[-6.4555001,31.5684563],[-6.4554956,31.5684494],[-6.4554877,31.5684467],[-6.4554709,31.5684499],[-6.4553774,31.5684855],[-6.4553611,31.5684852],[-6.4553489,31.56848],[-6.4553452,31.568473],[-6.4553454,31.5684656],[-6.4553583,31.5684322],[-6.4553782,31.5684036],[-6.4554776,31.5683419],[-6.4554928,31.5683265],[-6.4554991,31.5682956],[-6.455491,31.5682693],[-6.4554763,31.5682511],[-6.4554749,31.5682328],[-6.4554823,31.5682122],[-6.4555096,31.5681905],[-6.4557483,31.568038],[-6.4558277,31.5679825],[-6.4558663,31.5679146],[-6.4558759,31.5678328],[-6.4558481,31.5677546],[-6.4556303,31.5674496],[-6.4556121,31.5674182],[-6.4556198,31.5673872],[-6.4556625,31.5673295],[-6.4556558,31.5672575],[-6.4556359,31.5672204],[-6.4556153,31.5671984],[-6.4556198,31.5671724],[-6.4557237,31.5670891],[-6.4558224,31.566899],[-6.4558717,31.5667856],[-6.4560058,31.5667262],[-6.4561743,31.5667162],[-6.4563803,31.5666467],[-6.4565208,31.5666485],[-6.4566442,31.5666165],[-6.4567236,31.566537],[-6.456818,31.5662628],[-6.4567783,31.5662097],[-6.4568051,31.5661073],[-6.4567665,31.5660434],[-6.4569483,31.565899],[-6.4567392,31.565854],[-6.4568319,31.5657709],[-6.456637,31.5657199],[-6.4567123,31.5656604],[-6.4565143,31.5655851],[-6.4567941,31.5655592],[-6.4567446,31.5655114],[-6.4562743,31.5651946],[-6.4562667,31.5650783],[-6.4555763,31.5648585],[-6.4550159,31.5645326],[-6.4552228,31.5644925],[-6.4551515,31.5644417],[-6.4546394,31.5643823],[-6.4542259,31.5642638],[-6.4536873,31.5642832],[-6.4530273,31.5641281],[-6.4521321,31.564141],[-6.4518134,31.5640505],[-6.4514493,31.5641798],[-6.4507058,31.564141],[-6.4503265,31.5641927],[-6.4499927,31.5642574],[-6.4496741,31.5642315],[-6.4488244,31.5639471],[-6.4483237,31.5639148],[-6.4479427,31.5639973],[-6.4478815,31.5637835],[-6.4474437,31.5636691],[-6.4473448,31.5636097],[-6.4471943,31.5635829],[-6.4472652,31.5635052],[-6.4471747,31.5634447],[-6.4471138,31.5635001],[-6.4469589,31.5634113],[-6.4469109,31.563376],[-6.4469066,31.5633076],[-6.4472211,31.563166],[-6.4474512,31.5627771],[-6.4477075,31.5626074],[-6.4477783,31.562426],[-6.4476671,31.5624563],[-6.4476096,31.562332],[-6.4474361,31.5624086],[-6.4473602,31.5623181],[-6.4471857,31.5623957],[-6.4469733,31.5623375],[-6.446626,31.5624146],[-6.4465405,31.5621851],[-6.4463909,31.5622621],[-6.4463829,31.5620441],[-6.4459491,31.5621694],[-6.4459354,31.5619097],[-6.4458376,31.5619642],[-6.4458076,31.5618432],[-6.4457247,31.5618694],[-6.44571,31.5617601],[-6.4454556,31.5618576],[-6.4454711,31.5615412],[-6.4453491,31.5615813],[-6.4453456,31.5614603],[-6.4451424,31.560932],[-6.4451263,31.5605983],[-6.4450297,31.5604154],[-6.4451391,31.5602943],[-6.4451606,31.5601709],[-6.445107,31.5600155],[-6.4452121,31.5599583],[-6.4452657,31.5598761],[-6.4452357,31.5596909],[-6.4451298,31.5595302],[-6.4451207,31.559747],[-6.4448761,31.5594879],[-6.4448868,31.5596731],[-6.4445437,31.5592201],[-6.4445276,31.5590601],[-6.4445952,31.5589299],[-6.4446993,31.5587996],[-6.444681,31.5586785],[-6.4446081,31.558539],[-6.4448119,31.5583928],[-6.4449192,31.5580545],[-6.4449685,31.557876],[-6.4451336,31.5579568],[-6.4450902,31.557873],[-6.4453018,31.5578747],[-6.4453966,31.5577437],[-6.4458151,31.5575745],[-6.4459545,31.5574785],[-6.4464856,31.5571357],[-6.446698,31.5569094],[-6.4466483,31.556676],[-6.4463118,31.5566658],[-6.4461388,31.5564884],[-6.4464265,31.5560981],[-6.446434,31.5560256],[-6.4464416,31.5558663],[-6.4463472,31.5554667],[-6.4463786,31.5551772],[-6.4462688,31.5546873],[-6.446619,31.5543311],[-6.4466869,31.5540104],[-6.4469169,31.5535963],[-6.4472461,31.5531821],[-6.4472775,31.5527858],[-6.4473402,31.5521489],[-6.4474865,31.5514853],[-6.4476746,31.5510489],[-6.4481032,31.5503764],[-6.4484794,31.5501493],[-6.4486624,31.5497707],[-6.4493104,31.5493655],[-6.4500211,31.5487553],[-6.4507005,31.54835],[-6.4517771,31.5478468],[-6.4521377,31.5476642],[-6.4523206,31.547397],[-6.4527334,31.5470095],[-6.4531097,31.5463815],[-6.453256,31.5456912],[-6.453277,31.5450187],[-6.453094,31.5441279],[-6.4528693,31.5435177],[-6.4528187,31.5434008],[-6.4525819,31.5428541],[-6.4526185,31.542382],[-6.4528693,31.5418743],[-6.4531202,31.5414021],[-6.4535121,31.5411126],[-6.4537839,31.5408008],[-6.4539981,31.540449],[-6.4543692,31.5398121],[-6.4544424,31.5392464],[-6.4547873,31.5389391],[-6.454897,31.5379324],[-6.4551583,31.5369481],[-6.4553105,31.5366389],[-6.4557096,31.5351145],[-6.4562048,31.5342263],[-6.4565005,31.5338105],[-6.4567953,31.5330812],[-6.4569781,31.5324317],[-6.4569882,31.5318892],[-6.4572026,31.5315364],[-6.45721,31.5307364],[-6.4569772,31.5302434],[-6.4571499,31.5295772],[-6.4574128,31.5290102],[-6.4575469,31.5286261],[-6.4577615,31.5279951],[-6.458137,31.5270531],[-6.4582711,31.5267513],[-6.4585929,31.5263992],[-6.4587861,31.5259237],[-6.458829,31.5257271],[-6.4588262,31.5256884],[-6.4588129,31.525503],[-6.4587271,31.5252698],[-6.45849,31.5248935],[-6.4585114,31.5246283],[-6.458395,31.524401],[-6.4582233,31.5241907],[-6.4577711,31.5238601],[-6.4575798,31.5235586],[-6.4572994,31.523481],[-6.4573073,31.52324],[-6.4570906,31.5232117],[-6.4570592,31.5231046],[-6.4569225,31.5231408],[-6.4568726,31.5230085],[-6.4567783,31.5230353],[-6.4567647,31.5229789],[-6.4566601,31.5230069],[-6.4566139,31.5229329],[-6.456397,31.52299],[-6.456194,31.5219944],[-6.4559875,31.5216288],[-6.4558692,31.5215153],[-6.4558056,31.5211568],[-6.4560422,31.5206755],[-6.4559709,31.5206459],[-6.4559543,31.5205404],[-6.4557659,31.52034],[-6.4556788,31.5203278],[-6.4556291,31.5202144],[-6.4555194,31.5201154],[-6.4553796,31.5198316],[-6.4553464,31.519578],[-6.4552392,31.5193465],[-6.4551468,31.5192945],[-6.4546919,31.5182629],[-6.4547456,31.517833],[-6.4547551,31.5176045],[-6.4546687,31.5173642],[-6.4546128,31.5173083],[-6.4544827,31.5170098],[-6.4544529,31.5166356],[-6.4546544,31.5161775],[-6.4548835,31.5152942],[-6.454671,31.5147896],[-6.4544823,31.5144416],[-6.45459,31.5139916],[-6.4545096,31.5136531],[-6.4543606,31.513499],[-6.4542599,31.5130326],[-6.454097,31.5130495],[-6.4539347,31.5123403],[-6.4537103,31.5120708],[-6.4532612,31.5114368],[-6.4531953,31.5111973],[-6.4530442,31.5111258],[-6.4529241,31.5108864],[-6.4526227,31.5107499],[-6.4523587,31.5105619],[-6.4521148,31.5102263],[-6.4521018,31.5100294],[-6.4519735,31.50979],[-6.451457,31.5094025],[-6.4512168,31.5093473],[-6.451109,31.5090245],[-6.4509655,31.5090386],[-6.4509149,31.5089141],[-6.4506164,31.5089298],[-6.4506011,31.5088976],[-6.450552,31.5089095],[-6.4505303,31.5088635],[-6.4504923,31.5088799],[-6.4504361,31.508711],[-6.4503457,31.50851],[-6.4503675,31.5083716],[-6.4503248,31.5083786],[-6.4503049,31.5082616],[-6.4502445,31.5082948],[-6.4502124,31.5082341],[-6.4501474,31.5082381],[-6.4501455,31.5081827],[-6.4500656,31.5081812],[-6.4499676,31.5080922],[-6.4498743,31.5081073],[-6.4498329,31.5080269],[-6.4497687,31.508044],[-6.4497201,31.5079364],[-6.4495396,31.507995],[-6.4494444,31.5079402],[-6.449333,31.5079381],[-6.4492686,31.5078384],[-6.4491844,31.5079019],[-6.4491284,31.5078457],[-6.4488641,31.507898],[-6.4487051,31.5077813],[-6.4483653,31.5079355],[-6.4478513,31.5081072],[-6.4476431,31.5079565],[-6.4474267,31.5081437],[-6.4471666,31.508322],[-6.4471419,31.5084316],[-6.4470673,31.5085079],[-6.4471272,31.5086514],[-6.4471034,31.5087651],[-6.44699,31.5089423],[-6.4464809,31.5093082],[-6.4464315,31.5094783],[-6.4463344,31.5096278],[-6.4461894,31.5095901],[-6.4459435,31.509877],[-6.4459059,31.5100325],[-6.4457504,31.5101834],[-6.4455063,31.5102778],[-6.4454553,31.5104349],[-6.4453517,31.5106164],[-6.445254,31.5107004],[-6.4451633,31.5107034],[-6.4450101,31.5105554],[-6.444883,31.5103977],[-6.4448372,31.5103854],[-6.4448294,31.5103324],[-6.4447846,31.5103449],[-6.4447863,31.5102951],[-6.4447243,31.5102832],[-6.4447262,31.510193],[-6.4446533,31.5101457],[-6.4446714,31.510101],[-6.4446259,31.51008],[-6.444664,31.510001],[-6.4446178,31.5099891],[-6.4446245,31.5099357],[-6.4445393,31.5099233],[-6.4445655,31.5098678],[-6.4445199,31.5098381],[-6.4445179,31.5098009],[-6.444538,31.5097535],[-6.4445219,31.5096026],[-6.4444343,31.5095788],[-6.44442,31.5094791],[-6.4443234,31.5093053],[-6.4442161,31.509191],[-6.4441533,31.5090927],[-6.4441533,31.5090927]]}}]}
