{
  "type": "FeatureCollection",
  "peaks_destination_id": "0B0D31ACF975E37AA8BA",
  "peaks_trailhead_id": "B784FCE13C6832C3F0D1",
  "peaks_source": "https://www.openstreetmap.org/",
  "peaks_retrieval_source": "https://overpass-api.de/api/interpreter",
  "peaks_license_name": "Open Data Commons Open Database License (ODbL) 1.0",
  "peaks_license": "https://opendatacommons.org/licenses/odbl/1-0/",
  "peaks_attribution": "© OpenStreetMap contributors",
  "peaks_retrieved_at": "2026-07-31T14:38:36.105Z",
  "features": [
    {
      "type": "Feature",
      "properties": {
        "name": "Kaçkar Dağı via Olgunlar",
        "trailhead_name": "Olgunlar (Kaçkar Pansiyon)",
        "destination_name": "Kaçkar Dağı",
        "distance_m": 12073.845713606535,
        "trailhead_snap_m": 25.427787680466878,
        "summit_snap_m": 4.664191245029473,
        "osm_way_ids": [
          29184828,
          312921909,
          359223161,
          359223155,
          359223160,
          359223153,
          385093495,
          385085665,
          968203075,
          74288388
        ],
        "osm_way_urls": [
          "https://www.openstreetmap.org/way/29184828",
          "https://www.openstreetmap.org/way/312921909",
          "https://www.openstreetmap.org/way/359223161",
          "https://www.openstreetmap.org/way/359223155",
          "https://www.openstreetmap.org/way/359223160",
          "https://www.openstreetmap.org/way/359223153",
          "https://www.openstreetmap.org/way/385093495",
          "https://www.openstreetmap.org/way/385085665",
          "https://www.openstreetmap.org/way/968203075",
          "https://www.openstreetmap.org/way/74288388"
        ],
        "osm_way_names": [],
        "osm_foot_access_override_way_ids": []
      },
      "geometry": {
        "type": "LineString",
        "coordinates": [
          [
            41.241392,
            40.859516
          ],
          [
            41.2411929,
            40.8596881
          ],
          [
            41.2410817,
            40.8596097
          ],
          [
            41.2410459,
            40.8595828
          ],
          [
            41.2410249,
            40.8595849
          ],
          [
            41.2407561,
            40.8595233
          ],
          [
            41.2406806,
            40.8593934
          ],
          [
            41.2406647,
            40.8593661
          ],
          [
            41.240559,
            40.8591506
          ],
          [
            41.2402246,
            40.8589748
          ],
          [
            41.2401351,
            40.8587667
          ],
          [
            41.2400836,
            40.8586585
          ],
          [
            41.2400482,
            40.8586044
          ],
          [
            41.2400256,
            40.858548
          ],
          [
            41.2400433,
            40.8584988
          ],
          [
            41.2400853,
            40.8584298
          ],
          [
            41.240135,
            40.8583112
          ],
          [
            41.2400515,
            40.8582532
          ],
          [
            41.2396932,
            40.858004
          ],
          [
            41.2395644,
            40.8577251
          ],
          [
            41.2393713,
            40.856974
          ],
          [
            41.2390065,
            40.856502
          ],
          [
            41.2385197,
            40.8550337
          ],
          [
            41.2381641,
            40.8545869
          ],
          [
            41.2379404,
            40.8538234
          ],
          [
            41.2370821,
            40.8530423
          ],
          [
            41.2363117,
            40.8523111
          ],
          [
            41.2359595,
            40.8520388
          ],
          [
            41.2357235,
            40.8518027
          ],
          [
            41.2352085,
            40.8515453
          ],
          [
            41.2348866,
            40.8513596
          ],
          [
            41.2343931,
            40.851159
          ],
          [
            41.2335777,
            40.8508801
          ],
          [
            41.2327409,
            40.8502578
          ],
          [
            41.2323976,
            40.8498072
          ],
          [
            41.2318182,
            40.8493566
          ],
          [
            41.2317538,
            40.8492064
          ],
          [
            41.2314749,
            40.8489918
          ],
          [
            41.2303591,
            40.8484768
          ],
          [
            41.2300587,
            40.848112
          ],
          [
            41.2293291,
            40.8479404
          ],
          [
            41.228857,
            40.8477043
          ],
          [
            41.228385,
            40.8476614
          ],
          [
            41.2281704,
            40.847597
          ],
          [
            41.2276769,
            40.8472966
          ],
          [
            41.2270761,
            40.8470391
          ],
          [
            41.22684,
            40.846846
          ],
          [
            41.2258315,
            40.8465027
          ],
          [
            41.2254453,
            40.8461379
          ],
          [
            41.2252522,
            40.8458804
          ],
          [
            41.2250161,
            40.8458161
          ],
          [
            41.2247157,
            40.8454942
          ],
          [
            41.223793,
            40.8451509
          ],
          [
            41.2227631,
            40.8443569
          ],
          [
            41.2220764,
            40.8439063
          ],
          [
            41.2219262,
            40.8437561
          ],
          [
            41.2215614,
            40.8436488
          ],
          [
            41.2213039,
            40.8435201
          ],
          [
            41.2205744,
            40.8433913
          ],
          [
            41.2203169,
            40.8432411
          ],
          [
            41.2202954,
            40.8430266
          ],
          [
            41.2201667,
            40.8429193
          ],
          [
            41.2199736,
            40.8429193
          ],
          [
            41.2194157,
            40.8425974
          ],
          [
            41.2191796,
            40.8423828
          ],
          [
            41.2184286,
            40.8420395
          ],
          [
            41.2174416,
            40.8412241
          ],
          [
            41.2162185,
            40.8403014
          ],
          [
            41.2152444,
            40.8397259
          ],
          [
            41.2151027,
            40.8396577
          ],
          [
            41.2149096,
            40.8395326
          ],
          [
            41.2147379,
            40.8393353
          ],
          [
            41.2145423,
            40.8392988
          ],
          [
            41.2142816,
            40.8392592
          ],
          [
            41.2140083,
            40.8392715
          ],
          [
            41.2136865,
            40.8392285
          ],
          [
            41.2129998,
            40.8390354
          ],
          [
            41.2123363,
            40.8386514
          ],
          [
            41.2119913,
            40.8384561
          ],
          [
            41.2117982,
            40.8381127
          ],
          [
            41.2113905,
            40.8378553
          ],
          [
            41.2107033,
            40.8375882
          ],
          [
            41.2105738,
            40.8374601
          ],
          [
            41.2104992,
            40.8371903
          ],
          [
            41.2104668,
            40.8369208
          ],
          [
            41.2101536,
            40.8367414
          ],
          [
            41.2093899,
            40.8364167
          ],
          [
            41.2084412,
            40.8361341
          ],
          [
            41.2081718,
            40.8359884
          ],
          [
            41.2078929,
            40.8357309
          ],
          [
            41.2076569,
            40.8356237
          ],
          [
            41.207335,
            40.8355593
          ],
          [
            41.2065682,
            40.8354301
          ],
          [
            41.2062307,
            40.8352928
          ],
          [
            41.2057257,
            40.8348941
          ],
          [
            41.2056398,
            40.8347224
          ],
          [
            41.2049317,
            40.8342289
          ],
          [
            41.204567,
            40.8338856
          ],
          [
            41.2043953,
            40.8336925
          ],
          [
            41.2043095,
            40.8334993
          ],
          [
            41.2043095,
            40.8333062
          ],
          [
            41.2042236,
            40.8331989
          ],
          [
            41.2037184,
            40.8329113
          ],
          [
            41.2035915,
            40.8328584
          ],
          [
            41.2034941,
            40.8327153
          ],
          [
            41.2033222,
            40.8323616
          ],
          [
            41.2028287,
            40.8320556
          ],
          [
            41.2024369,
            40.8317665
          ],
          [
            41.2014771,
            40.8306026
          ],
          [
            41.2013281,
            40.8304576
          ],
          [
            41.2010264,
            40.8301734
          ],
          [
            41.2007046,
            40.829873
          ],
          [
            41.2000608,
            40.8294438
          ],
          [
            41.1998892,
            40.8292293
          ],
          [
            41.1995841,
            40.8290436
          ],
          [
            41.199058,
            40.8289361
          ],
          [
            41.1983228,
            40.8284783
          ],
          [
            41.1980653,
            40.8283495
          ],
          [
            41.1978078,
            40.8280706
          ],
          [
            41.1969066,
            40.827577
          ],
          [
            41.1966062,
            40.8271693
          ],
          [
            41.1963272,
            40.8270406
          ],
          [
            41.1961413,
            40.8269495
          ],
          [
            41.1958981,
            40.8268904
          ],
          [
            41.1954474,
            40.8267616
          ],
          [
            41.1948895,
            40.8266758
          ],
          [
            41.1945248,
            40.8264612
          ],
          [
            41.1943316,
            40.8262896
          ],
          [
            41.1940742,
            40.8262037
          ],
          [
            41.1935163,
            40.8261394
          ],
          [
            41.1931515,
            40.8259248
          ],
          [
            41.1924863,
            40.8259677
          ],
          [
            41.1922717,
            40.8259248
          ],
          [
            41.1919498,
            40.8257746
          ],
          [
            41.1911917,
            40.825533
          ],
          [
            41.1908161,
            40.8255159
          ],
          [
            41.1905893,
            40.8253729
          ],
          [
            41.1902673,
            40.8253524
          ],
          [
            41.1898754,
            40.825336
          ],
          [
            41.1894822,
            40.8252596
          ],
          [
            41.1893525,
            40.825221
          ],
          [
            41.1888243,
            40.8250269
          ],
          [
            41.1886024,
            40.8249377
          ],
          [
            41.1879802,
            40.8247232
          ],
          [
            41.1877441,
            40.82453
          ],
          [
            41.1874866,
            40.8244442
          ],
          [
            41.186564,
            40.8239292
          ],
          [
            41.1856413,
            40.823543
          ],
          [
            41.1851907,
            40.8234142
          ],
          [
            41.1849546,
            40.8233964
          ],
          [
            41.184783,
            40.8233713
          ],
          [
            41.1843109,
            40.823307
          ],
          [
            41.1836672,
            40.8230065
          ],
          [
            41.1834741,
            40.823028
          ],
          [
            41.182766,
            40.822792
          ],
          [
            41.1825728,
            40.822792
          ],
          [
            41.1821866,
            40.8226632
          ],
          [
            41.1818762,
            40.8225984
          ],
          [
            41.1813588,
            40.8223594
          ],
          [
            41.1810175,
            40.8222935
          ],
          [
            41.1807704,
            40.8223199
          ],
          [
            41.1804914,
            40.8223199
          ],
          [
            41.1802112,
            40.8223201
          ],
          [
            41.1799104,
            40.8223562
          ],
          [
            41.1796143,
            40.8223995
          ],
          [
            41.1792271,
            40.8223016
          ],
          [
            41.1789421,
            40.8222881
          ],
          [
            41.1783671,
            40.822041
          ],
          [
            41.1778736,
            40.8217191
          ],
          [
            41.177702,
            40.8216547
          ],
          [
            41.1774015,
            40.8216333
          ],
          [
            41.1769938,
            40.8214401
          ],
          [
            41.176672,
            40.8211826
          ],
          [
            41.1764145,
            40.8208393
          ],
          [
            41.1760075,
            40.8204633
          ],
          [
            41.175831,
            40.8201579
          ],
          [
            41.175569,
            40.8199165
          ],
          [
            41.1751175,
            40.8195775
          ],
          [
            41.17474,
            40.8191547
          ],
          [
            41.1743384,
            40.8186461
          ],
          [
            41.174046,
            40.8184578
          ],
          [
            41.1737323,
            40.8181571
          ],
          [
            41.173532,
            40.8180715
          ],
          [
            41.1732602,
            40.8181357
          ],
          [
            41.1730319,
            40.8180407
          ],
          [
            41.1728355,
            40.8180357
          ],
          [
            41.1728442,
            40.817968
          ],
          [
            41.1727547,
            40.8178953
          ],
          [
            41.172746,
            40.817821
          ],
          [
            41.1726652,
            40.8178326
          ],
          [
            41.1726587,
            40.8177467
          ],
          [
            41.1724296,
            40.8177847
          ],
          [
            41.1724841,
            40.8176856
          ],
          [
            41.1724601,
            40.8175865
          ],
          [
            41.172399,
            40.8175469
          ],
          [
            41.1724121,
            40.8175171
          ],
          [
            41.1723423,
            40.8174858
          ],
          [
            41.1723903,
            40.8174081
          ],
          [
            41.1723055,
            40.8173762
          ],
          [
            41.1723813,
            40.8172209
          ],
          [
            41.1724148,
            40.8170442
          ],
          [
            41.1723591,
            40.8168943
          ],
          [
            41.1722302,
            40.8166336
          ],
          [
            41.1720586,
            40.8164405
          ],
          [
            41.1720371,
            40.8162903
          ],
          [
            41.1717796,
            40.8159255
          ],
          [
            41.1715736,
            40.815697
          ],
          [
            41.1714782,
            40.815748
          ],
          [
            41.1714604,
            40.8155686
          ],
          [
            41.1713944,
            40.8155348
          ],
          [
            41.171474,
            40.8154401
          ],
          [
            41.1714129,
            40.8154281
          ],
          [
            41.1713812,
            40.8153768
          ],
          [
            41.1712217,
            40.8152603
          ],
          [
            41.171115,
            40.8151289
          ],
          [
            41.1708663,
            40.8150215
          ],
          [
            41.1707013,
            40.8150114
          ],
          [
            41.1703599,
            40.8148125
          ],
          [
            41.1702155,
            40.8146274
          ],
          [
            41.1699772,
            40.8145308
          ],
          [
            41.1697476,
            40.8143699
          ],
          [
            41.1695095,
            40.8142735
          ],
          [
            41.1692402,
            40.8142713
          ],
          [
            41.169062,
            40.8142928
          ],
          [
            41.1689923,
            40.8143702
          ],
          [
            41.1688409,
            40.8145433
          ],
          [
            41.1686208,
            40.8147072
          ],
          [
            41.1685395,
            40.8148038
          ],
          [
            41.168046,
            40.8151316
          ],
          [
            41.1679816,
            40.8152174
          ],
          [
            41.1678958,
            40.8154105
          ],
          [
            41.1680245,
            40.8155607
          ],
          [
            41.1680031,
            40.8156466
          ],
          [
            41.16781,
            40.8157753
          ],
          [
            41.1675108,
            40.8158397
          ],
          [
            41.1674103,
            40.8159213
          ],
          [
            41.1673652,
            40.8160534
          ],
          [
            41.1672973,
            40.8161898
          ],
          [
            41.1671765,
            40.8162491
          ],
          [
            41.1670804,
            40.8163547
          ],
          [
            41.1670255,
            40.8164334
          ],
          [
            41.1669154,
            40.8165677
          ],
          [
            41.1668051,
            40.8166597
          ],
          [
            41.1667192,
            40.8167346
          ],
          [
            41.1664581,
            40.8169126
          ],
          [
            41.1663938,
            40.8169769
          ],
          [
            41.1663079,
            40.8170628
          ],
          [
            41.1662436,
            40.8171271
          ],
          [
            41.1661577,
            40.8171915
          ],
          [
            41.166029,
            40.8172344
          ],
          [
            41.165881,
            40.8172526
          ],
          [
            41.1657929,
            40.8173203
          ],
          [
            41.1656857,
            40.8173846
          ],
          [
            41.1655784,
            40.817449
          ],
          [
            41.1653746,
            40.8175687
          ],
          [
            41.1651921,
            40.8176207
          ],
          [
            41.1651063,
            40.817685
          ],
          [
            41.1649776,
            40.8177065
          ],
          [
            41.1648703,
            40.8177065
          ],
          [
            41.1647415,
            40.8177494
          ],
          [
            41.1646771,
            40.8177923
          ],
          [
            41.1645913,
            40.8178782
          ],
          [
            41.1644012,
            40.8179669
          ],
          [
            41.1641395,
            40.8180532
          ],
          [
            41.163385,
            40.818221
          ],
          [
            41.1630066,
            40.8181159
          ],
          [
            41.1626485,
            40.8181571
          ],
          [
            41.1626344,
            40.818265
          ],
          [
            41.1627245,
            40.8183287
          ],
          [
            41.1626517,
            40.8184223
          ],
          [
            41.1626638,
            40.8185283
          ],
          [
            41.1626585,
            40.819
          ],
          [
            41.1623876,
            40.819181
          ],
          [
            41.1616608,
            40.8197118
          ],
          [
            41.1611039,
            40.8200769
          ],
          [
            41.160748,
            40.8203686
          ],
          [
            41.1605764,
            40.8210672
          ],
          [
            41.1602257,
            40.8215099
          ],
          [
            41.1602877,
            40.8219736
          ],
          [
            41.160177,
            40.822265
          ],
          [
            41.1584759,
            40.8230924
          ],
          [
            41.1583686,
            40.8231353
          ],
          [
            41.1582398,
            40.8231782
          ],
          [
            41.1581755,
            40.823264
          ],
          [
            41.1581326,
            40.8233284
          ],
          [
            41.1580253,
            40.8233928
          ],
          [
            41.157832,
            40.8235921
          ],
          [
            41.1577932,
            40.8237975
          ],
          [
            41.1575782,
            40.8239386
          ],
          [
            41.1572674,
            40.8240539
          ],
          [
            41.1571378,
            40.8240983
          ],
          [
            41.1569752,
            40.8240967
          ],
          [
            41.1569102,
            40.8241336
          ],
          [
            41.1569528,
            40.8241567
          ],
          [
            41.1569183,
            40.8241921
          ],
          [
            41.156963,
            40.8242121
          ],
          [
            41.1570179,
            40.8242521
          ],
          [
            41.1570545,
            40.8242721
          ],
          [
            41.1569935,
            40.8243213
          ],
          [
            41.1570464,
            40.8243613
          ],
          [
            41.156997,
            40.8243967
          ],
          [
            41.1570897,
            40.824442
          ],
          [
            41.1571026,
            40.8248304
          ],
          [
            41.156996,
            40.8253468
          ],
          [
            41.1570758,
            40.8256655
          ],
          [
            41.1569344,
            40.8265502
          ],
          [
            41.1567279,
            40.8272967
          ],
          [
            41.1562232,
            40.8276612
          ],
          [
            41.1556726,
            40.8281473
          ],
          [
            41.1553744,
            40.8284771
          ],
          [
            41.1552138,
            40.8289458
          ],
          [
            41.1553514,
            40.8293624
          ],
          [
            41.1558791,
            40.8296228
          ],
          [
            41.1561085,
            40.8296922
          ],
          [
            41.1562691,
            40.8298484
          ],
          [
            41.1561544,
            40.8302303
          ],
          [
            41.156315,
            40.8307684
          ],
          [
            41.1565214,
            40.8310115
          ],
          [
            41.1567279,
            40.831185
          ],
          [
            41.1572785,
            40.831619
          ],
          [
            41.1575671,
            40.8315693
          ],
          [
            41.1574064,
            40.8316703
          ],
          [
            41.1576259,
            40.8317337
          ],
          [
            41.1574811,
            40.8318518
          ],
          [
            41.1576817,
            40.8320627
          ],
          [
            41.1581273,
            40.8321397
          ],
          [
            41.1583503,
            40.8320869
          ],
          [
            41.1587512,
            40.8320725
          ],
          [
            41.1589405,
            40.8321274
          ],
          [
            41.1591962,
            40.8322199
          ],
          [
            41.1593432,
            40.832348
          ],
          [
            41.1596841,
            40.8324118
          ],
          [
            41.1589906,
            40.8328081
          ],
          [
            41.1587829,
            40.8332597
          ],
          [
            41.1587926,
            40.8334937
          ],
          [
            41.158583,
            40.8336083
          ],
          [
            41.1585536,
            40.8337127
          ],
          [
            41.1584043,
            40.8337219
          ],
          [
            41.1584246,
            40.8338719
          ],
          [
            41.1582595,
            40.8339181
          ],
          [
            41.1582616,
            40.8341216
          ],
          [
            41.1583567,
            40.83424
          ],
          [
            41.1585144,
            40.8342911
          ],
          [
            41.1584,
            40.8344456
          ],
          [
            41.1586072,
            40.8345356
          ],
          [
            41.1584376,
            40.8346325
          ],
          [
            41.1586776,
            40.8347487
          ],
          [
            41.158763,
            40.8350485
          ],
          [
            41.1591724,
            40.8352478
          ],
          [
            41.1593144,
            40.835199
          ],
          [
            41.1595038,
            40.8352641
          ],
          [
            41.1598938,
            40.8352468
          ],
          [
            41.1601232,
            40.8353509
          ],
          [
            41.1603526,
            40.8354551
          ],
          [
            41.160582,
            40.8354898
          ],
          [
            41.1608863,
            40.8354773
          ],
          [
            41.1611377,
            40.8354712
          ],
          [
            41.161366,
            40.835454
          ],
          [
            41.1613152,
            40.8354708
          ]
        ]
      }
    }
  ]
}
