{"type":"FeatureCollection","peaks_destination_id":"tdccj4iVajlJRYd6dxug","peaks_trailhead_id":"7AC55BF2CB3506D28244","peaks_source":"https://www.openstreetmap.org/","peaks_retrieval_source":"https://api.openstreetmap.org/api/0.6","peaks_license_name":"Open Data Commons Open Database License (ODbL) 1.0","peaks_license":"https://opendatacommons.org/licenses/odbl/1-0/","peaks_attribution":"© OpenStreetMap contributors","peaks_retrieved_at":"2026-07-30T17:05:09.827Z","features":[{"type":"Feature","properties":{"name":"Lassen Peak OSM route candidate","trailhead_name":"Lassen Peak Trailhead","destination_name":"Lassen Peak","distance_m":3906.308393017411,"trailhead_snap_m":10.872001925915782,"summit_snap_m":4.0139213152670985,"osm_way_ids":[27030041,1090587090],"osm_way_urls":["https://www.openstreetmap.org/way/27030041","https://www.openstreetmap.org/way/1090587090"],"osm_way_names":["Lassen Peak Trail"],"osm_foot_access_override_way_ids":[]},"geometry":{"type":"LineString","coordinates":[[-121.5057073,40.4748645],[-121.505678,40.4747693],[-121.5057724,40.4750293],[-121.5059235,40.4754906],[-121.5060054,40.4756904],[-121.5060332,40.4758808],[-121.5060007,40.4761433],[-121.5059968,40.4763547],[-121.5060231,40.4766226],[-121.5060775,40.4768488],[-121.5061629,40.4770378],[-121.5061861,40.4771167],[-121.506163,40.4771318],[-121.5060577,40.4770865],[-121.5057358,40.4767671],[-121.5055649,40.4765619],[-121.5053939,40.4763068],[-121.5052402,40.4761678],[-121.5050856,40.4761038],[-121.5049421,40.4761],[-121.5049463,40.4761636],[-121.5050339,40.4762943],[-121.5050949,40.4763751],[-121.5051315,40.4765335],[-121.5051579,40.4766693],[-121.5051216,40.4767674],[-121.5048439,40.4768523],[-121.5046179,40.4768987],[-121.5043439,40.4769095],[-121.5041375,40.4768956],[-121.5040143,40.476944],[-121.5038522,40.4771031],[-121.5037481,40.4771882],[-121.5035892,40.4772737],[-121.5034155,40.4775073],[-121.5027314,40.4779424],[-121.5025395,40.4780657],[-121.5019819,40.4782585],[-121.5017426,40.4783571],[-121.5014312,40.4784654],[-121.5012056,40.4786207],[-121.5009998,40.4787777],[-121.5007453,40.479043],[-121.500673,40.4791821],[-121.5007038,40.4792316],[-121.5008264,40.4791777],[-121.5010124,40.4791467],[-121.5018537,40.4790424],[-121.5020537,40.4789625],[-121.5022072,40.4790019],[-121.502746,40.4790306],[-121.5030324,40.4790393],[-121.5033846,40.4790834],[-121.5034045,40.4791184],[-121.5031492,40.4791624],[-121.5028601,40.4792732],[-121.5023989,40.4795313],[-121.5023153,40.4796269],[-121.5022092,40.4796913],[-121.5020636,40.4798724],[-121.5019732,40.4800576],[-121.5019585,40.4802639],[-121.5019879,40.4803456],[-121.5020514,40.4802565],[-121.5022352,40.4800231],[-121.5023369,40.4799374],[-121.5027977,40.47982],[-121.5029987,40.4798432],[-121.5031161,40.4798188],[-121.5032184,40.47984],[-121.5036101,40.4800098],[-121.503669,40.4800636],[-121.503454,40.4800363],[-121.5032241,40.4800377],[-121.503076,40.4800614],[-121.5029292,40.480178],[-121.5028092,40.4802891],[-121.5027734,40.4804009],[-121.5027725,40.4804802],[-121.5027847,40.4805269],[-121.5028548,40.4804433],[-121.5029474,40.4803824],[-121.5031004,40.4803462],[-121.5031752,40.4803432],[-121.5032494,40.4803701],[-121.5033807,40.4804551],[-121.5034868,40.480549],[-121.5037313,40.4807145],[-121.503975,40.4808633],[-121.5043594,40.4810487],[-121.5046278,40.48113],[-121.5048218,40.4812119],[-121.5045743,40.4812236],[-121.5042568,40.4811998],[-121.5039373,40.4812093],[-121.5037933,40.4812063],[-121.5037285,40.4812377],[-121.5038014,40.4812907],[-121.5040051,40.4814172],[-121.5040996,40.4814035],[-121.5044137,40.481535],[-121.5045279,40.4816265],[-121.504779,40.4816482],[-121.5047083,40.4816824],[-121.5046033,40.4817276],[-121.5048678,40.4818435],[-121.5046716,40.4818858],[-121.5046954,40.4820271],[-121.5047514,40.4820494],[-121.504802,40.4820105],[-121.5051148,40.4820683],[-121.5049219,40.4821128],[-121.5049108,40.4821732],[-121.504996,40.4822783],[-121.5051128,40.4822413],[-121.5053293,40.4823032],[-121.5051924,40.4823347],[-121.5051509,40.4823704],[-121.5051717,40.4824163],[-121.5052169,40.4823759],[-121.5052975,40.4823907],[-121.5053737,40.4824469],[-121.505291,40.4824826],[-121.5054657,40.4825459],[-121.5053939,40.4825982],[-121.5054021,40.4826913],[-121.5054295,40.4827637],[-121.5054318,40.4828045],[-121.5055145,40.4828493],[-121.5055745,40.4827768],[-121.5057148,40.4827786],[-121.5056313,40.4828317],[-121.5056237,40.4828873],[-121.5057329,40.4828748],[-121.5058293,40.4828868],[-121.5059418,40.4829288],[-121.505801,40.4829423],[-121.5057572,40.4830037],[-121.5058603,40.4831729],[-121.5059042,40.483102],[-121.505996,40.4831126],[-121.5065936,40.4833879],[-121.5063504,40.4833514],[-121.5061976,40.4833606],[-121.5061086,40.4833966],[-121.5060986,40.4834897],[-121.5061193,40.4835842],[-121.5061295,40.4839016],[-121.5061217,40.484002],[-121.5061698,40.484096],[-121.5061865,40.4842294],[-121.5061447,40.4843518],[-121.5065161,40.4842152],[-121.5069887,40.484103],[-121.507164,40.4840409],[-121.507328,40.4838924],[-121.507347,40.4839407],[-121.5073233,40.4840983],[-121.5072053,40.4842611],[-121.5070205,40.4844034],[-121.5068601,40.4845567],[-121.5067609,40.4846683],[-121.5067244,40.484766],[-121.5070757,40.4845941],[-121.5074136,40.4844895],[-121.5076353,40.4844636],[-121.5078344,40.4845589],[-121.50782,40.4845975],[-121.507651,40.4845876],[-121.5075227,40.4846576],[-121.5074106,40.4847953],[-121.507216,40.4850036],[-121.5072079,40.4850697],[-121.5074207,40.4849456],[-121.5076177,40.4848682],[-121.5077151,40.4849068],[-121.5075033,40.4850863],[-121.5074576,40.4851417],[-121.5074738,40.4851668],[-121.5077283,40.485048],[-121.5077234,40.4850901],[-121.5075889,40.4852047],[-121.5075298,40.4853442],[-121.5074211,40.4854909],[-121.5074594,40.4854975],[-121.507699,40.4853509],[-121.5077828,40.4853355],[-121.5078374,40.4853781],[-121.5078063,40.4854232],[-121.5076975,40.4855451],[-121.5076871,40.4856149],[-121.5077535,40.4856006],[-121.5078414,40.4856158],[-121.5078187,40.4856699],[-121.5076038,40.4859129],[-121.5077799,40.4858475],[-121.5078758,40.4858234],[-121.5079049,40.4858381],[-121.5078216,40.4858795],[-121.5076927,40.4860422],[-121.5075706,40.486209],[-121.5072614,40.4864183],[-121.5071168,40.4866372],[-121.5070684,40.4868284],[-121.5069448,40.486973],[-121.5067326,40.4870623],[-121.5066321,40.4871242],[-121.5064915,40.4872767],[-121.5062555,40.487401],[-121.5061559,40.4874632],[-121.5060502,40.487665],[-121.5059403,40.4879948],[-121.5058102,40.4880956],[-121.5055886,40.4881725],[-121.5053718,40.4881775],[-121.5052512,40.4881993],[-121.5051053,40.4881885],[-121.5050132,40.4881612],[-121.504966,40.488165]]}}]}
