{"type":"FeatureCollection","peaks_destination_id":"R2x4iZi5tF4wfI4dntHz","peaks_trailhead_id":"42D2AE5216434133E5BF","peaks_source":"https://www.openstreetmap.org/","peaks_retrieval_source":"https://api.openstreetmap.org/api/0.6","peaks_license_name":"Open Data Commons Open Database License (ODbL) 1.0","peaks_license":"https://opendatacommons.org/licenses/odbl/1-0/","peaks_attribution":"© OpenStreetMap contributors","peaks_retrieved_at":"2026-07-31T11:20:09.230Z","features":[{"type":"Feature","properties":{"name":"Marmolejo OSM route candidate","trailhead_name":"Marmolejo West Slope Route Start","destination_name":"Marmolejo","distance_m":11154.952392418627,"trailhead_snap_m":0,"summit_snap_m":20.84301484304085,"osm_way_ids":[48706064],"osm_way_urls":["https://www.openstreetmap.org/way/48706064"],"osm_way_names":["Sendero hacia Marmolejo"],"osm_foot_access_override_way_ids":[]},"geometry":{"type":"LineString","coordinates":[[-69.9639815,-33.7395612],[-69.9639815,-33.7395612],[-69.9626124,-33.7369884],[-69.9614928,-33.7357563],[-69.9604912,-33.7341888],[-69.960057,-33.7331001],[-69.9596474,-33.7303496],[-69.9585505,-33.7276917],[-69.9577489,-33.7256666],[-69.9573692,-33.723304],[-69.9574012,-33.7222593],[-69.9564832,-33.721743],[-69.9558453,-33.7211112],[-69.9548702,-33.7204007],[-69.9540749,-33.7187932],[-69.953757,-33.7185413],[-69.9534553,-33.7180565],[-69.9526352,-33.7175077],[-69.9523578,-33.716619],[-69.9518449,-33.7161063],[-69.9516476,-33.7156516],[-69.9517994,-33.7154939],[-69.9517202,-33.7153848],[-69.9514557,-33.7152696],[-69.9512518,-33.7147396],[-69.9511177,-33.7143883],[-69.9506611,-33.713938],[-69.9503817,-33.7137221],[-69.9502098,-33.7134562],[-69.9498242,-33.7132096],[-69.9497695,-33.7130935],[-69.9496625,-33.7130925],[-69.9495557,-33.7129959],[-69.9495087,-33.7129079],[-69.9494139,-33.7129807],[-69.949012,-33.7128278],[-69.9487582,-33.7128532],[-69.9485255,-33.7127686],[-69.9483648,-33.7128024],[-69.9482083,-33.7129547],[-69.9480454,-33.7134318],[-69.9478064,-33.7135681],[-69.9475018,-33.7135808],[-69.9472607,-33.7135427],[-69.9471169,-33.7135723],[-69.9469815,-33.7135215],[-69.9468334,-33.7135215],[-69.9467065,-33.7136188],[-69.9465543,-33.7138303],[-69.9464485,-33.7140546],[-69.9463977,-33.7142788],[-69.9462124,-33.7143957],[-69.9457615,-33.7147818],[-69.9454504,-33.7149613],[-69.9452351,-33.7151049],[-69.9450675,-33.7153029],[-69.9449701,-33.7157181],[-69.9448085,-33.7158676],[-69.9448083,-33.716167],[-69.9446171,-33.7166214],[-69.9444017,-33.7167171],[-69.9444257,-33.7169505],[-69.944306,-33.7171778],[-69.9441834,-33.7172586],[-69.9440847,-33.7173812],[-69.943986,-33.7174111],[-69.9438962,-33.7175278],[-69.9439531,-33.7177072],[-69.9439142,-33.7178748],[-69.9436898,-33.7180243],[-69.9433518,-33.718147],[-69.9428822,-33.718141],[-69.9422241,-33.7184072],[-69.9421942,-33.7185717],[-69.9421075,-33.7186405],[-69.9420237,-33.7187302],[-69.9419519,-33.7189785],[-69.9418652,-33.7192597],[-69.9418652,-33.7193853],[-69.9418323,-33.7195169],[-69.9417665,-33.7197233],[-69.941566,-33.7198579],[-69.9412998,-33.7199297],[-69.9411353,-33.7201212],[-69.9410127,-33.7201391],[-69.9409169,-33.7200763],[-69.9407315,-33.7200913],[-69.9405341,-33.7200733],[-69.9402888,-33.7201451],[-69.9399657,-33.7203306],[-69.9398551,-33.72051],[-69.9396427,-33.7206327],[-69.9394094,-33.7208151],[-69.9389667,-33.720872],[-69.9374857,-33.7210271],[-69.9360816,-33.7213512],[-69.9345985,-33.7219435],[-69.9342854,-33.7220685],[-69.9335495,-33.7221582],[-69.9330949,-33.7221881],[-69.9330252,-33.7221521],[-69.9329214,-33.7220984],[-69.9328034,-33.7221815],[-69.9326581,-33.7222838],[-69.9324095,-33.7229496],[-69.9313726,-33.7232088],[-69.9313585,-33.7232109],[-69.9301846,-33.7233816],[-69.9286725,-33.7239216],[-69.9276631,-33.7238598],[-69.9276141,-33.7238568],[-69.9264477,-33.7240944],[-69.9253676,-33.7251745],[-69.924482,-33.7269458],[-69.9236828,-33.7280042],[-69.9213931,-33.7292354],[-69.9180234,-33.7298619],[-69.9158633,-33.7300995],[-69.9131632,-33.7299267],[-69.9104415,-33.7291922],[-69.9089726,-33.7289978],[-69.907223,-33.729257],[-69.9047389,-33.7297539],[-69.9022548,-33.7299051],[-69.8987555,-33.7311579],[-69.8966287,-33.7319672],[-69.8963146,-33.7320867],[-69.8937873,-33.7324107],[-69.8924048,-33.7322163],[-69.890828,-33.7331452],[-69.8896183,-33.7338796],[-69.8883655,-33.7338796],[-69.886983,-33.7335124],[-69.8859894,-33.7334692],[-69.885039,-33.7337932],[-69.8837213,-33.7344412],[-69.8821661,-33.7344844],[-69.88087,-33.7341604],[-69.8794876,-33.7339012],[-69.8787377,-33.7340186],[-69.8783427,-33.7342247],[-69.878488,-33.734368]]}}]}
