{"type":"FeatureCollection","peaks_destination_id":"ab70WN2UFWgsSODV4zMn","peaks_trailhead_id":"117D943EB317D936A857","peaks_source":"https://www.openstreetmap.org/","peaks_retrieval_source":"https://api.openstreetmap.org/api/0.6","peaks_license_name":"Open Data Commons Open Database License (ODbL) 1.0","peaks_license":"https://opendatacommons.org/licenses/odbl/1-0/","peaks_attribution":"© OpenStreetMap contributors","peaks_retrieved_at":"2026-07-30T20:46:48.373Z","features":[{"type":"Feature","properties":{"name":"Mont Blanc OSM route candidate","trailhead_name":"Nid d'Aigle Route Start","destination_name":"Mont Blanc","distance_m":8716.78534041482,"trailhead_snap_m":12.897088746865865,"summit_snap_m":8.452308177282537,"osm_way_ids":[988113119,1427953477,231098152,1337257106,827318919,988113118,1428262945,1428262943,1428262946,72128532,988113115,440611963,988113113,72128537,130671113,130671115,434063705,25798474,130671106,130671111,130574559,117544153,1161481191],"osm_way_urls":["https://www.openstreetmap.org/way/988113119","https://www.openstreetmap.org/way/1427953477","https://www.openstreetmap.org/way/231098152","https://www.openstreetmap.org/way/1337257106","https://www.openstreetmap.org/way/827318919","https://www.openstreetmap.org/way/988113118","https://www.openstreetmap.org/way/1428262945","https://www.openstreetmap.org/way/1428262943","https://www.openstreetmap.org/way/1428262946","https://www.openstreetmap.org/way/72128532","https://www.openstreetmap.org/way/988113115","https://www.openstreetmap.org/way/440611963","https://www.openstreetmap.org/way/988113113","https://www.openstreetmap.org/way/72128537","https://www.openstreetmap.org/way/130671113","https://www.openstreetmap.org/way/130671115","https://www.openstreetmap.org/way/434063705","https://www.openstreetmap.org/way/25798474","https://www.openstreetmap.org/way/130671106","https://www.openstreetmap.org/way/130671111","https://www.openstreetmap.org/way/130574559","https://www.openstreetmap.org/way/117544153","https://www.openstreetmap.org/way/1161481191"],"osm_way_names":["Les Bosses"],"osm_foot_access_override_way_ids":[]},"geometry":{"type":"LineString","coordinates":[[6.7994305,45.8563914],[6.7995772,45.8564463],[6.7995665,45.8563137],[6.7995081,45.8561898],[6.7995494,45.8561894],[6.7995822,45.8561835],[6.7996205,45.8561725],[6.7996516,45.8561576],[6.7998636,45.8563327],[6.8000406,45.8564411],[6.8002193,45.8565504],[6.8003145,45.8566056],[6.800343,45.8566578],[6.800411,45.8566167],[6.8004754,45.8566428],[6.8004969,45.8566372],[6.8005036,45.8566129],[6.8005398,45.8566111],[6.8007101,45.8566905],[6.8008496,45.8567175],[6.8009569,45.8567063],[6.8009904,45.8567297],[6.801028,45.8567147],[6.8010789,45.8567418],[6.8011098,45.8567288],[6.8012036,45.8567372],[6.8012157,45.8567727],[6.8012519,45.8567923],[6.8012398,45.8568633],[6.8013056,45.8568362],[6.8012908,45.8569062],[6.801378,45.8569352],[6.8014571,45.8569539],[6.8014544,45.8570379],[6.8016006,45.8571528],[6.8016154,45.8571846],[6.8016113,45.8572639],[6.8016475,45.8573433],[6.8016918,45.8573742],[6.8017226,45.8574517],[6.8017696,45.8575918],[6.8017964,45.8576142],[6.8018514,45.8576357],[6.8018903,45.8576376],[6.801901,45.8575348],[6.8022028,45.8573237],[6.8022846,45.8572518],[6.8025058,45.8572957],[6.8030664,45.8576021],[6.8033373,45.8578524],[6.8037879,45.8581681],[6.8040816,45.858452],[6.8043539,45.8586967],[6.8044236,45.8587696],[6.8044612,45.8588573],[6.8044639,45.8589003],[6.8044639,45.859102],[6.8045095,45.8591768],[6.8048796,45.859513],[6.8049225,45.8595784],[6.8049654,45.8596531],[6.8052819,45.8603312],[6.8057949,45.860652],[6.8058023,45.8606613],[6.8057922,45.860679],[6.8057922,45.8607033],[6.8057936,45.8607323],[6.8058076,45.8607346],[6.8058184,45.860729],[6.8058673,45.8607145],[6.8059183,45.8607253],[6.8059485,45.8607407],[6.8059706,45.8607552],[6.8059693,45.8607682],[6.8059659,45.8607841],[6.8059813,45.8607925],[6.8059967,45.8607846],[6.8060102,45.8607729],[6.8060229,45.8607678],[6.8060423,45.860772],[6.8060537,45.8607925],[6.8060692,45.8608005],[6.8060886,45.8608005],[6.8061081,45.8608112],[6.8061262,45.860828],[6.8061376,45.8608532],[6.806163,45.8608532],[6.8061744,45.8608565],[6.8062046,45.8608798],[6.8062254,45.8608812],[6.8062583,45.8608756],[6.8062864,45.8608915],[6.806328,45.8609321],[6.8063387,45.8609597],[6.8063588,45.8609672],[6.8063857,45.860956],[6.8064018,45.8609578],[6.8064165,45.86097],[6.8064373,45.8609695],[6.8064574,45.8609723],[6.8064728,45.8609606],[6.8064829,45.8609648],[6.8064889,45.8609859],[6.806503,45.8609952],[6.8065278,45.8609957],[6.806552,45.8610041],[6.8066063,45.8610316],[6.8066552,45.8610517],[6.8066794,45.8610713],[6.806739,45.8610919],[6.8067699,45.8610989],[6.8068141,45.8611059],[6.8068363,45.861118],[6.8068557,45.8611194],[6.8068799,45.8611161],[6.8069047,45.8611152],[6.8069134,45.8611287],[6.806898,45.8611535],[6.8068812,45.8611754],[6.8068872,45.8611904],[6.8069087,45.8611969],[6.8069328,45.8612002],[6.806963,45.8611983],[6.8069771,45.8612091],[6.8069764,45.8612151],[6.8069684,45.8612305],[6.8069771,45.861238],[6.8069945,45.8612333],[6.8070227,45.8612287],[6.8070207,45.8612422],[6.8070093,45.861267],[6.8070146,45.8612842],[6.8070106,45.8613039],[6.8070039,45.8613202],[6.8070187,45.861323],[6.807079,45.8613127],[6.8070897,45.861316],[6.8070944,45.8613286],[6.8070897,45.8613473],[6.8071052,45.8613482],[6.807134,45.8613356],[6.8071588,45.8613239],[6.8071796,45.8613342],[6.8071803,45.8613478],[6.8071964,45.8613832],[6.8071615,45.8614169],[6.8071555,45.8614388],[6.807128,45.8614598],[6.8071105,45.8614631],[6.8070877,45.8614813],[6.8070871,45.8614944],[6.8070991,45.8615037],[6.8071266,45.8615028],[6.8071407,45.8615112],[6.8071762,45.8615261],[6.8072225,45.8615341],[6.8072695,45.8615429],[6.807307,45.8615696],[6.8073385,45.8615775],[6.8073633,45.8615967],[6.807413,45.8616135],[6.8074459,45.8616292],[6.8074552,45.8616391],[6.807486,45.8616382],[6.8075182,45.8616261],[6.8075544,45.8616209],[6.8075708,45.8616349],[6.8075906,45.8616499],[6.8076155,45.861656],[6.8076322,45.8616494],[6.807649,45.8616518],[6.8076879,45.8616382],[6.8077053,45.8616382],[6.8077154,45.861649],[6.8077187,45.8616662],[6.8077429,45.8616798],[6.8077321,45.8616914],[6.8077308,45.8617036],[6.8077355,45.8617125],[6.8077449,45.8617125],[6.8077583,45.8617069],[6.807773,45.8617003],[6.8077945,45.8617059],[6.807816,45.8617157],[6.8078166,45.8617358],[6.8077999,45.8617522],[6.8077965,45.8617648],[6.8078099,45.8617722],[6.8078105,45.8617848],[6.8077637,45.8618195],[6.8076612,45.8618541],[6.8077219,45.8619255],[6.8077846,45.8620433],[6.8076124,45.8620461],[6.8079786,45.8624737],[6.8080895,45.8625857],[6.8080929,45.8625969],[6.808115,45.8626006],[6.8081237,45.8626095],[6.8081217,45.8626207],[6.8081479,45.862638],[6.8082022,45.8626739],[6.8082692,45.8627356],[6.8082833,45.8627566],[6.8083048,45.8627673],[6.8083323,45.8627735],[6.8083511,45.8627818],[6.8083584,45.8627958],[6.8083698,45.8628094],[6.8083926,45.8628164],[6.8084181,45.8628178],[6.8084516,45.8628341],[6.8084684,45.862835],[6.8084892,45.8628322],[6.8085019,45.8628392],[6.8085106,45.8628617],[6.80851,45.8628859],[6.8085328,45.8629144],[6.8085683,45.8629392],[6.8086521,45.8630059],[6.8087178,45.8630368],[6.8088479,45.8630779],[6.8088726,45.8630975],[6.8089043,45.8630849],[6.808917,45.8630615],[6.8089284,45.8630508],[6.8089673,45.8630713],[6.8090035,45.8630596],[6.809027,45.863047],[6.8090491,45.8630428],[6.8090753,45.8630242],[6.8091034,45.8630031],[6.8091477,45.8630027],[6.8091852,45.8629863],[6.8091973,45.8629649],[6.8092322,45.8629466],[6.8092637,45.8629406],[6.8092912,45.8629392],[6.8092939,45.8629261],[6.8092892,45.8629065],[6.8093039,45.8628943],[6.8093146,45.8628789],[6.8093354,45.8628673],[6.8093817,45.8628551],[6.8094112,45.8628598],[6.8094259,45.8628518],[6.8094414,45.8628332],[6.8094702,45.862814],[6.8094769,45.8627963],[6.8095158,45.8627897],[6.8095386,45.8627767],[6.8095567,45.862751],[6.8095339,45.8626996],[6.8095627,45.8626749],[6.8095969,45.8626641],[6.8096258,45.8626534],[6.8096318,45.8626328],[6.8096513,45.8626184],[6.80966,45.8625894],[6.809668,45.8625726],[6.8096953,45.862554],[6.8098498,45.862503],[6.809927,45.8624503],[6.8100294,45.8624101],[6.810118,45.8623475],[6.8103159,45.8622657],[6.8103728,45.8622756],[6.8104244,45.8622533],[6.8105954,45.8622196],[6.8107082,45.8621682],[6.810777,45.8621053],[6.8109846,45.8619669],[6.8110199,45.8617773],[6.8112292,45.8616688],[6.8111023,45.8615686],[6.811101,45.861535],[6.8110768,45.8615173],[6.8110822,45.8614724],[6.8111289,45.861465],[6.8112405,45.8614528],[6.811211,45.8614183],[6.8112995,45.861394],[6.811392,45.861351],[6.8114454,45.8612969],[6.8115033,45.861224],[6.8114899,45.8611904],[6.8115127,45.8611895],[6.811506,45.8611717],[6.8114752,45.86114],[6.8114738,45.8611045],[6.8115066,45.8610599],[6.8115248,45.8609761],[6.8115757,45.8609336],[6.8116805,45.8609012],[6.8118215,45.8608867],[6.8118574,45.8608682],[6.8118782,45.8608389],[6.8120031,45.860842],[6.8120103,45.8607701],[6.812059,45.8607314],[6.8122342,45.8606646],[6.8122913,45.8606064],[6.8126044,45.8603769],[6.8126929,45.8603265],[6.8127841,45.8603283],[6.8128297,45.8603041],[6.8128511,45.8603153],[6.8128696,45.8602929],[6.8129222,45.8602686],[6.8129759,45.8602331],[6.8130094,45.8601892],[6.813118,45.860135],[6.8131247,45.8601677],[6.8131448,45.8601817],[6.8132009,45.8601527],[6.8132253,45.8600986],[6.8132682,45.8600939],[6.8133245,45.8600164],[6.8133487,45.860022],[6.8133876,45.8599557],[6.8134627,45.8599034],[6.8135324,45.8598558],[6.8135686,45.8598819],[6.8135968,45.859838],[6.8136303,45.8598688],[6.8136786,45.8598567],[6.8137161,45.8598259],[6.8137698,45.8598231],[6.8138677,45.8597418],[6.8139519,45.8597008],[6.8137644,45.8595672],[6.8136837,45.8595102],[6.8136115,45.8594915],[6.813582,45.8594373],[6.813641,45.8594626],[6.8136826,45.8594476],[6.8136619,45.859413],[6.8136858,45.8593918],[6.8137607,45.8594197],[6.8138382,45.8594196],[6.8138891,45.8593963],[6.8139106,45.8593617],[6.8139558,45.8593736],[6.8139012,45.8593106],[6.8140434,45.8593411],[6.8141902,45.8593496],[6.8141641,45.8593178],[6.8141046,45.8592351],[6.8141738,45.8591873],[6.8142606,45.8592403],[6.8143544,45.8592835],[6.8143947,45.8592403],[6.814384,45.8592123],[6.814475,45.8591987],[6.8143894,45.859174],[6.8143458,45.8591258],[6.8143451,45.8590563],[6.8143712,45.8590044],[6.8144296,45.859088],[6.8144913,45.8590974],[6.8144698,45.8590638],[6.8144813,45.8590296],[6.8145329,45.8590768],[6.814612,45.8590843],[6.8146911,45.8590656],[6.8146127,45.8590212],[6.8146992,45.8590143],[6.8147045,45.8589526],[6.8147823,45.858962],[6.8148172,45.8588816],[6.8148708,45.858863],[6.8148352,45.8588316],[6.8151176,45.8588275],[6.8150049,45.8587583],[6.8151027,45.8587642],[6.8151071,45.8587228],[6.8151746,45.858699],[6.8153027,45.858693],[6.8154401,45.8586289],[6.8154995,45.8585932],[6.8155286,45.8585757],[6.8155837,45.8585318],[6.8158544,45.8584814],[6.815917,45.8584724],[6.8161368,45.8584408],[6.8159609,45.858395],[6.8160644,45.8583922],[6.8159175,45.8583422],[6.8162006,45.85833],[6.8160061,45.8582964],[6.8159437,45.8581064],[6.8159542,45.857957],[6.8161509,45.8581255],[6.81626,45.8581457],[6.8162354,45.8580676],[6.81633,45.8580616],[6.8162924,45.857985],[6.8163326,45.8579084],[6.8163807,45.8579211],[6.8163872,45.8578797],[6.8164377,45.8578174],[6.8165054,45.8577823],[6.816547,45.8577776],[6.8166143,45.8577496],[6.8166706,45.8577982],[6.8168181,45.8578019],[6.816794,45.8577478],[6.816944,45.8577571],[6.8169093,45.8576936],[6.8171614,45.8577216],[6.8171266,45.8576786],[6.8171581,45.8576493],[6.8172242,45.8576582],[6.8172852,45.8576464],[6.8173524,45.8576113],[6.8173334,45.8575817],[6.8173036,45.8575648],[6.8172555,45.8575465],[6.8172655,45.8575366],[6.8174189,45.8575183],[6.8175037,45.8574992],[6.8175316,45.8574801],[6.8175154,45.8574554],[6.8174908,45.8574404],[6.8175008,45.8574268],[6.8175614,45.857408],[6.8176684,45.8574059],[6.8175955,45.8573781],[6.8175227,45.8573609],[6.8176115,45.8572586],[6.8176477,45.8572426],[6.8176923,45.8572439],[6.8177318,45.8572502],[6.8177821,45.8572342],[6.8178347,45.8572255],[6.8178986,45.8572212],[6.8179523,45.8572324],[6.8180309,45.8572417],[6.8182266,45.8572075],[6.8187961,45.8569342],[6.8191786,45.8566722],[6.8194225,45.8565244],[6.8198045,45.8563201],[6.8201599,45.8561746],[6.8209445,45.8555709],[6.8213269,45.855508],[6.8216085,45.8554221],[6.8218591,45.8555224],[6.822204,45.855607],[6.8224205,45.8555504],[6.8225579,45.8554536],[6.8227968,45.854871],[6.8229067,45.8547906],[6.8231141,45.8548604],[6.8233453,45.8548517],[6.8236202,45.8548149],[6.8240353,45.8546858],[6.8242016,45.854556],[6.8241396,45.8544424],[6.8240783,45.8543465],[6.8240645,45.854266],[6.8240935,45.8542351],[6.8241567,45.8541982],[6.8241671,45.8540955],[6.8242593,45.8540736],[6.8242439,45.8539884],[6.8243654,45.8536721],[6.8244745,45.8536451],[6.8246508,45.8536938],[6.8247006,45.8537346],[6.8248453,45.8538241],[6.8250506,45.8537811],[6.8252076,45.8538655],[6.8252661,45.8539155],[6.8253999,45.8539476],[6.8256721,45.8539176],[6.8258067,45.8539113],[6.8259187,45.8539043],[6.8260571,45.8539243],[6.8262051,45.8539198],[6.826306,45.8538924],[6.82639,45.8539011],[6.8265156,45.8539497],[6.8265422,45.8539419],[6.8265269,45.8539155],[6.82666,45.8538986],[6.8266787,45.8538773],[6.8268318,45.8538773],[6.8269845,45.8538707],[6.8271183,45.8539075],[6.8271713,45.8539035],[6.8271884,45.8538882],[6.8273201,45.8538268],[6.8273934,45.8538696],[6.8275708,45.8537694],[6.8276012,45.853777],[6.8275851,45.8538245],[6.8276396,45.8538696],[6.8277026,45.8537788],[6.8277815,45.8538119],[6.8278244,45.853799],[6.8278423,45.8537373],[6.827896,45.8537509],[6.8280782,45.8536228],[6.8281115,45.8536483],[6.8281123,45.853691],[6.828137,45.8536773],[6.8281489,45.853634],[6.8281827,45.8536713],[6.8282093,45.8536263],[6.8283054,45.8536078],[6.8283309,45.8536535],[6.8284119,45.8536203],[6.8284562,45.8536173],[6.82848,45.8536624],[6.8285107,45.8536369],[6.8285337,45.8536677],[6.8285533,45.8536381],[6.8285928,45.8536323],[6.828729,45.8536026],[6.8287009,45.8535777],[6.8287563,45.8535533],[6.8288202,45.8535403],[6.8288764,45.8536435],[6.8289352,45.8535201],[6.8290307,45.8534324],[6.8290844,45.8533665],[6.8292324,45.8533439],[6.8292643,45.8533936],[6.8293869,45.8534032],[6.8294164,45.8533396],[6.829607,45.8532899],[6.829663,45.8532011],[6.8297496,45.8531894],[6.8299144,45.8531483],[6.8299813,45.8531872],[6.8299777,45.8532592],[6.8300256,45.8532738],[6.8300806,45.8532049],[6.8301387,45.8532225],[6.8302348,45.8533382],[6.830243,45.853364],[6.830299,45.8534083],[6.8305147,45.8532913],[6.8307602,45.8528035],[6.830814,45.8526707],[6.8308483,45.8525306],[6.8308823,45.8524547],[6.8309119,45.8523117],[6.8309424,45.8522151],[6.8309749,45.8521539],[6.8310233,45.8521112],[6.8310485,45.8520323],[6.8309993,45.8519793],[6.8309913,45.8518943],[6.8310209,45.8517922],[6.8310836,45.8516283],[6.8311183,45.8515194],[6.831156,45.85134],[6.8312021,45.8511894],[6.831224,45.851115],[6.8312381,45.8509504],[6.831247,45.850847],[6.8314226,45.8502275],[6.8314968,45.8501354],[6.8317441,45.8500484],[6.8318646,45.8498875],[6.8319251,45.8495477],[6.8319626,45.8491853],[6.8321865,45.8490495],[6.8323561,45.8490549],[6.8325213,45.848941],[6.8327722,45.8485712],[6.8328091,45.8483209],[6.8329994,45.8481383],[6.8334725,45.8480649],[6.8340914,45.8479228],[6.8347782,45.8479343],[6.8351775,45.8479028],[6.8356876,45.8477975],[6.8355554,45.847302],[6.8367301,45.8471224],[6.8366987,45.8465742],[6.8375355,45.8466488],[6.8376106,45.8457595],[6.8383777,45.8458678],[6.838485,45.8455203],[6.8392246,45.8457016],[6.8392629,45.8445451],[6.8400567,45.8447094],[6.8400997,45.8443284],[6.8406844,45.8446421],[6.8409722,45.8449041],[6.8414029,45.8451354],[6.8419128,45.8452326],[6.8421451,45.8444572],[6.8434599,45.844703],[6.8435616,45.8443874],[6.843812,45.8444048],[6.8445066,45.8442703],[6.8449237,45.8440069],[6.8452747,45.8433894],[6.8457597,45.8427077],[6.846664,45.8418231],[6.8476346,45.8412211],[6.8488757,45.8405024],[6.8499069,45.8402003],[6.8504916,45.8399877],[6.8511881,45.8396926],[6.8514696,45.8397634],[6.8515715,45.8393747],[6.8518857,45.8395654],[6.8519819,45.8395673],[6.8519786,45.8394226],[6.8519378,45.8393542],[6.8519658,45.8392739],[6.8521382,45.8393409],[6.8521187,45.8391449],[6.8520623,45.8390253],[6.8519414,45.83877],[6.8519603,45.8386423],[6.8520408,45.8385165],[6.8520525,45.8383816],[6.8523211,45.8381024],[6.8524759,45.8379553],[6.8525886,45.8379243],[6.8527459,45.8378074],[6.852834,45.8377117],[6.8531314,45.8377322],[6.8529958,45.8374071],[6.8534673,45.8374133],[6.853434,45.8372776],[6.8535621,45.8372821],[6.8537607,45.837129],[6.8540879,45.8370498],[6.8541225,45.8369458],[6.8541729,45.8368016],[6.8543442,45.8367445],[6.8544994,45.8366716],[6.8546283,45.8364901],[6.8547974,45.8362973],[6.8548109,45.8360309],[6.8548507,45.8359174],[6.8550083,45.8357073],[6.8552792,45.8356216],[6.8553807,45.8354556],[6.8558291,45.8351506],[6.8561396,45.8348814],[6.8562458,45.8348176],[6.856544,45.8348111],[6.8570754,45.8346395],[6.8574187,45.8344208],[6.8577915,45.8341387],[6.8580584,45.8341564],[6.8584755,45.8340116],[6.8586525,45.8338901],[6.8587008,45.8338004],[6.8588752,45.8337126],[6.8590495,45.8335462],[6.8592466,45.8334463],[6.8591753,45.8333563],[6.8595861,45.8332289],[6.8597234,45.8331697],[6.8597926,45.8330953],[6.8599405,45.8330927],[6.8599631,45.8330175],[6.8600848,45.8330042],[6.860133,45.8329441],[6.8601459,45.8328782],[6.8603079,45.8329135],[6.8604197,45.8329035],[6.8606592,45.8328729],[6.8609309,45.8328276],[6.8615372,45.8327776],[6.8617909,45.8327524],[6.8625885,45.8327579],[6.8632831,45.8326679],[6.8636454,45.8326225],[6.8646306,45.8325888],[6.8648402,45.8326342],[6.864797,45.832704]]}}]}
