{"type":"FeatureCollection","peaks_destination_id":"MsFlUhY0bBEZd8GiPJg1","peaks_trailhead_id":"E1A6D492E12025800989","peaks_source":"https://www.openstreetmap.org/","peaks_retrieval_source":"https://api.openstreetmap.org/api/0.6","peaks_license_name":"Open Data Commons Open Database License (ODbL) 1.0","peaks_license":"https://opendatacommons.org/licenses/odbl/1-0/","peaks_attribution":"© OpenStreetMap contributors","peaks_retrieved_at":"2026-07-30T19:48:29.612Z","features":[{"type":"Feature","properties":{"name":"Mount Kosciuszko OSM route candidate","trailhead_name":"Charlotte Pass Summit Walk Trailhead","destination_name":"Mount Kosciuszko","distance_m":9272.032131600281,"trailhead_snap_m":0,"summit_snap_m":26.04361080366139,"osm_way_ids":[96167443,443016865,443016866,96167442,17312565,1375213497,253122511,1375213493,1526253398,1375213494,289134852,1526253397],"osm_way_urls":["https://www.openstreetmap.org/way/96167443","https://www.openstreetmap.org/way/443016865","https://www.openstreetmap.org/way/443016866","https://www.openstreetmap.org/way/96167442","https://www.openstreetmap.org/way/17312565","https://www.openstreetmap.org/way/1375213497","https://www.openstreetmap.org/way/253122511","https://www.openstreetmap.org/way/1375213493","https://www.openstreetmap.org/way/1526253398","https://www.openstreetmap.org/way/1375213494","https://www.openstreetmap.org/way/289134852","https://www.openstreetmap.org/way/1526253397"],"osm_way_names":["Mount Kosciuszko Summit Walk","Kosciuszko Walk"],"osm_foot_access_override_way_ids":[]},"geometry":{"type":"LineString","coordinates":[[148.3283279,-36.4318081],[148.3283279,-36.4318081],[148.3279705,-36.4321053],[148.3277987,-36.4322077],[148.3276168,-36.4322805],[148.3268566,-36.4325639],[148.326287,-36.432907],[148.325113,-36.43361],[148.3237614,-36.4343765],[148.3230659,-36.4347838],[148.322356,-36.435077],[148.321659,-36.435726],[148.320545,-36.437058],[148.320222,-36.437308],[148.319647,-36.43797],[148.319157,-36.438427],[148.318552,-36.439089],[148.318517,-36.43918],[148.3184988,-36.4392376],[148.3184315,-36.4393504],[148.318424,-36.439363],[148.3178186,-36.4396443],[148.317145,-36.439834],[148.31598,-36.440495],[148.315661,-36.440748],[148.315181,-36.44134],[148.313844,-36.443301],[148.3133974,-36.4442672],[148.3133878,-36.4442879],[148.3131714,-36.4446459],[148.312508,-36.445884],[148.3122379,-36.446481],[148.311874,-36.447055],[148.310474,-36.449174],[148.309512,-36.450292],[148.307686,-36.451629],[148.30595,-36.452799],[148.305172,-36.453381],[148.304221,-36.453845],[148.302958,-36.454667],[148.302105,-36.455283],[148.301402,-36.456456],[148.300893,-36.456882],[148.2976775,-36.45816],[148.296914,-36.4584526],[148.296753,-36.4585119],[148.2964659,-36.4586377],[148.296139,-36.4587],[148.295803,-36.45867],[148.2942006,-36.4582806],[148.2937912,-36.458179],[148.292334,-36.457864],[148.291548,-36.457769],[148.290669,-36.457486],[148.29027,-36.457275],[148.289961,-36.456992],[148.289063,-36.455894],[148.288371,-36.455002],[148.287661,-36.45392],[148.287335,-36.453566],[148.2871407,-36.4531535],[148.2870002,-36.4527504],[148.28661,-36.451896],[148.286255,-36.45145],[148.285804,-36.451117],[148.284768,-36.450649],[148.284204,-36.450477],[148.283859,-36.450419],[148.282979,-36.45038],[148.282767,-36.450333],[148.2826721,-36.4502908],[148.2823639,-36.4501539],[148.282085,-36.45003],[148.281489,-36.449952],[148.28114,-36.449993],[148.280664,-36.450188],[148.280071,-36.450298],[148.279586,-36.450311],[148.279016,-36.4504054],[148.278442,-36.4504615],[148.2775323,-36.4506948],[148.2772876,-36.4507105],[148.2765115,-36.4505938],[148.2761676,-36.4506506],[148.2756698,-36.4509638],[148.275484,-36.451101],[148.275177,-36.451471],[148.2749922,-36.4517657],[148.2748459,-36.4520708],[148.274673,-36.452384],[148.273877,-36.453467],[148.273571,-36.45398],[148.2733501,-36.4544323],[148.2731833,-36.4547336],[148.2730049,-36.4549902],[148.2728262,-36.4551416],[148.2726359,-36.4552483],[148.272364,-36.4553345],[148.2704893,-36.4562],[148.2703953,-36.4562574],[148.269662,-36.456942],[148.269514,-36.4570689],[148.2693167,-36.4571297],[148.269251,-36.4572005],[148.2691564,-36.4573026],[148.2690801,-36.457459],[148.268849,-36.4575926],[148.268717,-36.4576652],[148.2686647,-36.4576706],[148.2684511,-36.4575675],[148.2683304,-36.457468],[148.2682231,-36.457264],[148.268004,-36.456774],[148.2675872,-36.4563212],[148.2674156,-36.45609],[148.2673061,-36.4558629],[148.2671397,-36.455711],[148.26692,-36.4553859],[148.2668179,-36.4553407],[148.2666187,-36.4552847],[148.2662833,-36.4551495],[148.2660616,-36.4550031],[148.2657969,-36.4546329],[148.2657709,-36.4545582],[148.2657683,-36.4544782],[148.2657593,-36.4543445],[148.265731,-36.454281],[148.2656494,-36.4541882],[148.2655823,-36.4540902],[148.2655542,-36.4540062],[148.2655508,-36.4534362],[148.2655435,-36.4532153],[148.2655026,-36.4529971],[148.2653451,-36.4527189],[148.2652294,-36.4526655],[148.2651918,-36.4525923],[148.265095,-36.4524388],[148.2649887,-36.4522572],[148.2648173,-36.4520233],[148.2646772,-36.451893],[148.2646257,-36.4518406],[148.2645534,-36.4518111],[148.2644092,-36.4518018],[148.2642195,-36.4518502],[148.2639109,-36.451957],[148.2636543,-36.452087],[148.2634616,-36.4522755],[148.2633915,-36.4524123],[148.263392,-36.4525718],[148.2633967,-36.4528594],[148.2633689,-36.4530408],[148.2633089,-36.4535233],[148.2632827,-36.4539065],[148.2632469,-36.4541162],[148.2632324,-36.4541688],[148.2631126,-36.4543631],[148.262824,-36.4547318],[148.2626896,-36.4549059],[148.2625916,-36.4550685],[148.2625401,-36.4551938],[148.2624431,-36.4556057],[148.2623825,-36.4558194],[148.2623659,-36.4559767],[148.2623846,-36.4561225],[148.2624278,-36.4563342],[148.2624867,-36.456472],[148.2625843,-36.4565826],[148.262724,-36.4566891],[148.2628997,-36.4567813],[148.2630614,-36.4568409],[148.2631548,-36.456861],[148.2632613,-36.4568623],[148.2635008,-36.45686],[148.2637167,-36.4568153],[148.2638762,-36.4567321],[148.2639692,-36.4566444],[148.264002,-36.4565361],[148.2640046,-36.4564557],[148.2639908,-36.4563155],[148.2639608,-36.4561931],[148.2637996,-36.4560354],[148.2636267,-36.45593],[148.263399,-36.456076]]}}]}
