{"type":"FeatureCollection","peaks_destination_id":"wkv6Ym0z7aan9pDCbcxO","peaks_trailhead_id":"57767D3435314065A8D3","peaks_source":"https://www.openstreetmap.org/","peaks_retrieval_source":"https://api.openstreetmap.org/api/0.6","peaks_license_name":"Open Data Commons Open Database License (ODbL) 1.0","peaks_license":"https://opendatacommons.org/licenses/odbl/1-0/","peaks_attribution":"© OpenStreetMap contributors","peaks_retrieved_at":"2026-07-31T08:08:55.589Z","features":[{"type":"Feature","properties":{"name":"Mount Ellen OSM route candidate","trailhead_name":"Mount Ellen Trailhead","destination_name":"Mount Ellen","distance_m":2998.4341702219654,"trailhead_snap_m":0.047798334951294666,"summit_snap_m":0.14148938543018136,"osm_way_ids":[1335166394],"osm_way_urls":["https://www.openstreetmap.org/way/1335166394"],"osm_way_names":["Mount Ellen Trail"],"osm_foot_access_override_way_ids":[]},"geometry":{"type":"LineString","coordinates":[[-110.802399,38.085843],[-110.8023988,38.0858434],[-110.8025731,38.0861031],[-110.8027354,38.0864876],[-110.8027395,38.0867541],[-110.8027903,38.0870099],[-110.8027778,38.0876208],[-110.8027599,38.0878402],[-110.8028131,38.0880643],[-110.8025617,38.0881826],[-110.8025788,38.0884701],[-110.8025977,38.0887754],[-110.8027291,38.0892981],[-110.8029348,38.0900773],[-110.8031898,38.0906557],[-110.8036686,38.0914519],[-110.8039761,38.0920485],[-110.8042475,38.0925181],[-110.8047066,38.0931448],[-110.8050711,38.0937848],[-110.805195,38.0941882],[-110.805195,38.0945619],[-110.8051633,38.0949359],[-110.8050799,38.0952448],[-110.8049759,38.0953266],[-110.8048798,38.0953531],[-110.8047354,38.0954022],[-110.8047042,38.095517],[-110.8048614,38.0959495],[-110.8049256,38.096206],[-110.8050433,38.0965839],[-110.8049244,38.0973219],[-110.804773,38.0984077],[-110.8046522,38.0988696],[-110.8046256,38.0994726],[-110.8046004,38.0997026],[-110.8045167,38.1000692],[-110.8045792,38.1003761],[-110.8048177,38.1008205],[-110.8049909,38.1011124],[-110.8054327,38.1016251],[-110.8060547,38.102281],[-110.8079211,38.103099],[-110.8087266,38.1034036],[-110.8094116,38.1038701],[-110.8098351,38.1044549],[-110.8101005,38.1053577],[-110.8102942,38.1061257],[-110.8104694,38.1064836],[-110.8117,38.107189],[-110.8128321,38.1080577],[-110.8133522,38.1086364],[-110.813588,38.108935],[-110.813589,38.108934]]}}]}
