{"type":"FeatureCollection","peaks_destination_id":"t1OWpDACiQTxHuy25sFB","peaks_trailhead_id":"9D354DE69E6518EF93B8","peaks_source":"https://www.openstreetmap.org/","peaks_retrieval_source":"https://overpass-api.de/api/interpreter","peaks_license_name":"Open Data Commons Open Database License (ODbL) 1.0","peaks_license":"https://opendatacommons.org/licenses/odbl/1-0/","peaks_attribution":"© OpenStreetMap contributors","peaks_retrieved_at":"2026-07-30T18:20:30.793Z","features":[{"type":"Feature","properties":{"name":"Mount Meru OSM route candidate","trailhead_name":"Momella Gate","destination_name":"Mount Meru","distance_m":16903.76141706532,"trailhead_snap_m":0,"summit_snap_m":4.707731768481128,"osm_way_ids":[627994176,995243972,995243973,627992731,628032174,37856469,499722811,30766012],"osm_way_urls":["https://www.openstreetmap.org/way/627994176","https://www.openstreetmap.org/way/995243972","https://www.openstreetmap.org/way/995243973","https://www.openstreetmap.org/way/627992731","https://www.openstreetmap.org/way/628032174","https://www.openstreetmap.org/way/37856469","https://www.openstreetmap.org/way/499722811","https://www.openstreetmap.org/way/30766012"],"osm_way_names":["Meru Mountain Trail","Mountain Trail"],"osm_foot_access_override_way_ids":[]},"geometry":{"type":"LineString","coordinates":[[36.849656,-3.2334169],[36.849656,-3.2334169],[36.8495267,-3.233394],[36.849418,-3.2333402],[36.8493715,-3.2332592],[36.8492366,-3.2329935],[36.8490955,-3.2328269],[36.8488881,-3.2327871],[36.8487792,-3.232826],[36.8486427,-3.2328697],[36.8484676,-3.2329466],[36.8482092,-3.2330132],[36.8481071,-3.2330619],[36.8479844,-3.2331898],[36.8478176,-3.233284],[36.84767,-3.2333207],[36.8475181,-3.2333254],[36.8474665,-3.2332576],[36.8474245,-3.2332104],[36.8473755,-3.2331755],[36.8473352,-3.2331667],[36.8472617,-3.2331527],[36.8472442,-3.2331073],[36.8472494,-3.2330759],[36.8472319,-3.2330234],[36.8471812,-3.2329797],[36.8471077,-3.2329326],[36.8470587,-3.2328679],[36.8469972,-3.2328232],[36.8469309,-3.2327925],[36.8468195,-3.2327744],[36.8467205,-3.2327579],[36.846579,-3.2327745],[36.8464526,-3.2327806],[36.8463381,-3.2327774],[36.8462307,-3.2327495],[36.8460354,-3.2326879],[36.8458543,-3.2326229],[36.8457178,-3.2325526],[36.8456005,-3.2324826],[36.845478,-3.2324812],[36.8453891,-3.2324666],[36.8452933,-3.2324685],[36.8451841,-3.2324598],[36.845076,-3.2324764],[36.8449335,-3.2325045],[36.8447896,-3.2325294],[36.844686,-3.2325241],[36.8445873,-3.23251],[36.8444716,-3.2325315],[36.8443322,-3.2325735],[36.8441992,-3.2325931],[36.8440264,-3.2326201],[36.8439356,-3.2326429],[36.8438015,-3.2326791],[36.8437421,-3.2326749],[36.843657,-3.2326764],[36.8435613,-3.2326842],[36.8434651,-3.232644],[36.8434047,-3.2325938],[36.8433388,-3.2325984],[36.8432907,-3.2326203],[36.8432195,-3.232642],[36.8430851,-3.2326592],[36.8430042,-3.2326765],[36.8429196,-3.2326812],[36.8428536,-3.2327008],[36.8427792,-3.2327083],[36.8427061,-3.2327293],[36.8425967,-3.2327456],[36.842528,-3.2327496],[36.842475,-3.2327602],[36.8424292,-3.2327582],[36.8424008,-3.2327324],[36.8423336,-3.2327334],[36.8422919,-3.2327296],[36.842252,-3.2327294],[36.8422085,-3.2327601],[36.8421564,-3.2327855],[36.8420534,-3.2328102],[36.8419078,-3.2328345],[36.841774,-3.2328912],[36.8416186,-3.2329456],[36.8414316,-3.2329897],[36.8412774,-3.2329726],[36.8411587,-3.2329555],[36.841051,-3.2329625],[36.8409537,-3.2330061],[36.8407776,-3.2330909],[36.8406281,-3.233152],[36.8404411,-3.2331742],[36.8403299,-3.2331608],[36.8402381,-3.2331442],[36.8401787,-3.2331702],[36.8401114,-3.2332023],[36.8400646,-3.2332412],[36.8400066,-3.2332333],[36.839891,-3.233267],[36.8397892,-3.2333386],[36.839701,-3.2333809],[36.8394751,-3.2334231],[36.8389602,-3.2336576],[36.8383627,-3.2338479],[36.837846,-3.2337705],[36.8370808,-3.2338777],[36.8367339,-3.2338455],[36.8352186,-3.2336328],[36.8344209,-3.2336399],[36.8340183,-3.2335864],[36.8330234,-3.2335312],[36.8323111,-3.2336587],[36.8305166,-3.2334261],[36.8291707,-3.2337017],[36.8284208,-3.2331499],[36.8283447,-3.2330618],[36.82828,-3.2330458],[36.8282346,-3.233055],[36.828219,-3.2330342],[36.8281737,-3.2329843],[36.8281299,-3.232936],[36.8281876,-3.2328449],[36.8282559,-3.2327325],[36.8282506,-3.2323736],[36.8285269,-3.2318943],[36.8281567,-3.2317443],[36.8277544,-3.2318621],[36.8270865,-3.2320924],[36.8269283,-3.2320844],[36.8264562,-3.231988],[36.8261665,-3.2319987],[36.8259251,-3.2320416],[36.8257642,-3.2320094],[36.8254155,-3.2321647],[36.8251902,-3.2321808],[36.8250561,-3.232229],[36.8248737,-3.232154],[36.8246216,-3.2322826],[36.8243533,-3.2322129],[36.8240797,-3.2321915],[36.8236935,-3.2323147],[36.8235648,-3.2323254],[36.8233556,-3.2323147],[36.8229049,-3.2324968],[36.8225831,-3.2324915],[36.8222773,-3.232395],[36.8217838,-3.2323576],[36.8215853,-3.2323736],[36.8214726,-3.2324325],[36.8211615,-3.2323468],[36.8208718,-3.2323736],[36.8191498,-3.2324165],[36.8187851,-3.232395],[36.8179268,-3.2325022],[36.8173957,-3.2323576],[36.8169236,-3.2322933],[36.8159312,-3.2320844],[36.8154323,-3.2320469],[36.8147725,-3.2319987],[36.8143111,-3.2319612],[36.8137693,-3.232138],[36.813646,-3.2322022],[36.8134957,-3.2323897],[36.8129593,-3.2325664],[36.8127394,-3.2326575],[36.8124819,-3.2326789],[36.8123692,-3.2328074],[36.8120313,-3.2327592],[36.8118328,-3.2325825],[36.8112159,-3.2325771],[36.8107653,-3.2326468],[36.8105507,-3.2327378],[36.8103307,-3.2328503],[36.8097675,-3.2329146],[36.8093262,-3.2329171],[36.809043,-3.2330921],[36.8089628,-3.233086],[36.8085551,-3.2330752],[36.8083737,-3.2330064],[36.8081571,-3.2330881],[36.8078305,-3.2332191],[36.8076378,-3.2331395],[36.8073857,-3.2328396],[36.8073707,-3.232669],[36.8072247,-3.2325879],[36.806962,-3.2324871],[36.8066821,-3.2325273],[36.8065104,-3.2323974],[36.8063707,-3.2323904],[36.8061783,-3.2322882],[36.8060285,-3.2321808],[36.8058445,-3.2321054],[36.8058037,-3.2319546],[36.8056678,-3.2317517],[36.8055428,-3.2317032],[36.8054438,-3.2316131],[36.8053335,-3.2316379],[36.8050799,-3.2316067],[36.804918,-3.231522],[36.804741,-3.2315809],[36.8046385,-3.2316285],[36.8045149,-3.2315761],[36.8041938,-3.2316024],[36.8040337,-3.2315483],[36.8039845,-3.2313838],[36.8037065,-3.2312863],[36.8034804,-3.2311364],[36.8033021,-3.2310417],[36.8030386,-3.2309742],[36.8028849,-3.2310132],[36.8027615,-3.2309061],[36.8026762,-3.2311368],[36.8024852,-3.2310941],[36.8022734,-3.2309168],[36.801994,-3.2307464],[36.8018067,-3.230558],[36.8013056,-3.230499],[36.8010181,-3.2303545],[36.8004656,-3.2302848],[36.8003903,-3.2301376],[36.8004636,-3.2299668],[36.8005109,-3.2298656],[36.8005484,-3.2298529],[36.8007659,-3.2297105],[36.8008413,-3.229591],[36.8007293,-3.2295503],[36.800609,-3.2295436],[36.8001396,-3.2295178],[36.7999672,-3.2295606],[36.7998822,-3.2295709],[36.7997998,-3.2294931],[36.7996937,-3.229445],[36.7995989,-3.2293968],[36.7995486,-3.2293482],[36.7995043,-3.2292839],[36.7994279,-3.2291243],[36.7993577,-3.2289722],[36.7993647,-3.2289619],[36.799373,-3.2289252],[36.7994328,-3.2287914],[36.7994698,-3.2287467],[36.7996099,-3.2286446],[36.799664,-3.2285873],[36.7997054,-3.2285287],[36.7997149,-3.2284846],[36.7997166,-3.228421],[36.7997051,-3.2282603],[36.7997011,-3.2280179],[36.7996938,-3.2279055],[36.799671,-3.2278278],[36.7996475,-3.2277789],[36.7995999,-3.2276872],[36.7995892,-3.2276062],[36.7995972,-3.2275485],[36.7996076,-3.2275178],[36.7996254,-3.227487],[36.7996944,-3.2274107],[36.7997279,-3.2273537],[36.799736,-3.2273177],[36.799738,-3.2272738],[36.7997219,-3.2271382],[36.7997146,-3.2270418],[36.799701,-3.2267369],[36.7996743,-3.2266763],[36.7996361,-3.2266401],[36.7995469,-3.2265618],[36.7993793,-3.2264473],[36.799264,-3.2263496],[36.7991961,-3.2262216],[36.7991808,-3.2260938],[36.7991907,-3.2252482],[36.7991754,-3.2251552],[36.7991661,-3.2250869],[36.7991419,-3.2250093],[36.7991071,-3.2249382],[36.7990608,-3.2248774],[36.7989904,-3.2248091],[36.7989505,-3.2247816],[36.7989229,-3.2247742],[36.798872,-3.2247783],[36.7988075,-3.2248188],[36.7987369,-3.2248794],[36.7986618,-3.2249724],[36.798586,-3.2250762],[36.7985357,-3.2251505],[36.7984734,-3.2252067],[36.798407,-3.2252235],[36.7983332,-3.2252181],[36.7982741,-3.2251957],[36.7981902,-3.2251007],[36.7981212,-3.2250276],[36.7980342,-3.2249885],[36.7979255,-3.2249664],[36.7978732,-3.2249637],[36.7978276,-3.2249758],[36.7977906,-3.2250161],[36.7977847,-3.2250675],[36.7978075,-3.225186],[36.7977905,-3.2252305],[36.7977525,-3.2252583],[36.797693,-3.2252971],[36.7971773,-3.2253758],[36.797096,-3.2253835],[36.7970104,-3.2253782],[36.7969432,-3.2253729],[36.7968271,-3.2253439],[36.7966398,-3.2252983],[36.796571,-3.2252643],[36.7965313,-3.2252294],[36.7964965,-3.2251868],[36.7964515,-3.2251093],[36.796432,-3.2250956],[36.7964097,-3.2250869],[36.7963707,-3.2250783],[36.7963595,-3.2250791],[36.7963469,-3.2250836],[36.7963222,-3.2250943],[36.7961654,-3.2252275],[36.7960306,-3.2252891],[36.7959772,-3.2253085],[36.7959596,-3.2253156],[36.7959414,-3.2253206],[36.7959104,-3.2253222],[36.7958287,-3.2253092],[36.7957967,-3.2253082],[36.795767,-3.2253132],[36.7957003,-3.2253383],[36.7956078,-3.2253607],[36.7955287,-3.2253677],[36.7954799,-3.2253651],[36.7954549,-3.2253597],[36.7953728,-3.225311],[36.7953685,-3.2253108],[36.795364,-3.2253117],[36.7953582,-3.2253135],[36.7953385,-3.2253253],[36.7952913,-3.2253818],[36.7952494,-3.2254057],[36.7952185,-3.2254083],[36.7951608,-3.2253934],[36.7950479,-3.2253408],[36.7949754,-3.2252988],[36.7949288,-3.2252637],[36.7949103,-3.2252509],[36.7949057,-3.2252489],[36.7949014,-3.225248],[36.7948966,-3.2252479],[36.7948939,-3.2252492],[36.7948903,-3.2252519],[36.7948787,-3.2252648],[36.7948447,-3.2253022],[36.7948078,-3.2253323],[36.79476,-3.2253651],[36.7947278,-3.2253841],[36.7947048,-3.2253939],[36.7946589,-3.2254019],[36.7946145,-3.2254179],[36.7945839,-3.2254333],[36.7945363,-3.2254684],[36.7945044,-3.2255054],[36.7944732,-3.2255498],[36.7944402,-3.2255977],[36.7944254,-3.2256153],[36.7944185,-3.2256197],[36.7944136,-3.2256211],[36.7943738,-3.2256212],[36.7943212,-3.2256227],[36.7942719,-3.225632],[36.794218,-3.2256434],[36.7941748,-3.2256526],[36.7941156,-3.2256853],[36.7940517,-3.2257149],[36.7939852,-3.2257505],[36.7937493,-3.2259479],[36.793697,-3.225983],[36.7936037,-3.2260256],[36.7934231,-3.2260891],[36.7933158,-3.226128],[36.7932275,-3.2261682],[36.7931723,-3.2261963],[36.7931358,-3.2262271],[36.793075,-3.2263019],[36.7930278,-3.2263603],[36.792893,-3.2264607],[36.7928495,-3.2264841],[36.7927936,-3.2265002],[36.7927653,-3.2265019],[36.7927391,-3.2264952],[36.7927177,-3.226487],[36.7926975,-3.2264722],[36.7926677,-3.22644],[36.7926358,-3.2263985],[36.792595,-3.2263171],[36.7925662,-3.2262674],[36.7925278,-3.2262117],[36.7925146,-3.2262028],[36.7925029,-3.2261981],[36.7924938,-3.2261966],[36.7924817,-3.2261962],[36.7924704,-3.2261976],[36.7924641,-3.2261994],[36.792459,-3.2262033],[36.7924545,-3.2262097],[36.7924441,-3.2262528],[36.7924416,-3.226354],[36.7924411,-3.226438],[36.7924632,-3.2265434],[36.7925166,-3.2267118],[36.7925347,-3.2267798],[36.7925487,-3.2268238],[36.7925515,-3.2268386],[36.7925508,-3.2268428],[36.7925483,-3.2268438],[36.7925448,-3.2268433],[36.7925356,-3.2268391],[36.7925085,-3.2268226],[36.7924616,-3.2267901],[36.7923994,-3.2267507],[36.7923902,-3.2267475],[36.7923868,-3.2267473],[36.7923846,-3.2267475],[36.7923823,-3.2267495],[36.7923805,-3.2267534],[36.7923811,-3.226763],[36.7923945,-3.2268114],[36.7923974,-3.2268317],[36.7923974,-3.2268394],[36.7923965,-3.2268436],[36.7923938,-3.226847],[36.7923888,-3.2268485],[36.7923816,-3.2268484],[36.792375,-3.2268466],[36.7923667,-3.226843],[36.7922941,-3.2267975],[36.7921871,-3.2267346],[36.792115,-3.2266828],[36.7920698,-3.2266278],[36.7920433,-3.2265821],[36.7920173,-3.2265448],[36.7919616,-3.2264764],[36.7919117,-3.2264127],[36.7918411,-3.2263304],[36.7917314,-3.2261992],[36.7916982,-3.2261752],[36.7916628,-3.226157],[36.7916436,-3.2261515],[36.7916241,-3.2261483],[36.7915976,-3.2261458],[36.7915927,-3.2261474],[36.7915881,-3.2261503],[36.7915825,-3.2261568],[36.7915754,-3.2261769],[36.7915613,-3.2262052],[36.7915261,-3.2262612],[36.7914333,-3.2263443],[36.7914108,-3.2263563],[36.7913998,-3.2263582],[36.7913892,-3.2263562],[36.7913729,-3.2263456],[36.7913582,-3.2263212],[36.7913239,-3.2262514],[36.7912573,-3.2261277],[36.7912388,-3.2261025],[36.791221,-3.2260862],[36.7911986,-3.2260804],[36.7911053,-3.2261146],[36.7910842,-3.2261121],[36.7910662,-3.2261081],[36.7910537,-3.2260932],[36.7910014,-3.2258768],[36.7909478,-3.2256231],[36.7909001,-3.2254669],[36.7908499,-3.225336],[36.7907801,-3.2252851],[36.7906943,-3.2252878],[36.7905736,-3.2253494],[36.7905039,-3.2254217],[36.7904549,-3.2254676],[36.7903764,-3.225494],[36.7902759,-3.2255074],[36.790174,-3.225502],[36.790027,-3.2255392],[36.7898011,-3.2255127],[36.7896911,-3.2255395],[36.7896187,-3.2256038],[36.7895463,-3.2257002],[36.7894766,-3.225719],[36.7893586,-3.2256814],[36.7888757,-3.2254671],[36.7887766,-3.2253948],[36.7886698,-3.225173],[36.7885807,-3.225095],[36.7884922,-3.2250521],[36.78835,-3.2249905],[36.7881193,-3.2249316],[36.7875186,-3.2247856],[36.7869795,-3.2246825],[36.786459,-3.224645],[36.7861008,-3.2246311],[36.7857886,-3.2246443],[36.7856392,-3.2246403],[36.7854346,-3.2246184],[36.7852593,-3.2245396],[36.7846218,-3.2237595],[36.7835784,-3.2234293],[36.7835646,-3.2229492],[36.7829865,-3.2225141],[36.7828546,-3.2224163],[36.7821085,-3.2218653],[36.7820647,-3.2209179],[36.7807031,-3.2203657],[36.7793911,-3.2203166],[36.7779887,-3.2205263],[36.7771089,-3.2194123],[36.7751777,-3.2203764],[36.7736338,-3.2190909],[36.773502,-3.2187074],[36.7733557,-3.218446],[36.7733893,-3.2179978],[36.7733065,-3.217946],[36.7732193,-3.2180369],[36.7731671,-3.2181089],[36.7730841,-3.218128],[36.7730366,-3.2181349],[36.7729353,-3.2181583],[36.7729081,-3.2181481],[36.7728718,-3.2181498],[36.7728355,-3.2181368],[36.7727998,-3.2181187],[36.7727727,-3.2180888],[36.7727369,-3.2180584],[36.7726291,-3.218011],[36.7725596,-3.217998],[36.7724819,-3.2179442],[36.7724382,-3.2179166],[36.7723808,-3.2178695],[36.7722825,-3.2178187],[36.7722214,-3.2178091],[36.7721747,-3.2178211],[36.7721008,-3.2177818],[36.7720022,-3.2177546],[36.7719518,-3.2177291],[36.7718798,-3.2177071],[36.7717652,-3.2177015],[36.7717054,-3.217722],[36.7716355,-3.2177201],[36.7715758,-3.2177413],[36.7715489,-3.2177675],[36.7715092,-3.2177866],[36.7714954,-3.2178086],[36.7714365,-3.2178297],[36.7713821,-3.2178133],[36.7713184,-3.2178159],[36.7711631,-3.2177733],[36.7710272,-3.2177473],[36.7709565,-3.2177049],[36.770863,-3.2176747],[36.7707842,-3.2176647],[36.7707441,-3.2176798],[36.7707015,-3.2176771],[36.7706345,-3.2177116],[36.7705209,-3.2177686],[36.7704358,-3.2178495],[36.7703964,-3.2179004],[36.7702934,-3.2179939],[36.7702242,-3.2180605],[36.7701674,-3.2180933],[36.7700549,-3.2181852],[36.7699724,-3.2182111],[36.7698766,-3.2182566],[36.7698591,-3.2182461],[36.7698356,-3.2181897],[36.7696985,-3.218128],[36.7695392,-3.218123],[36.7694363,-3.2181394],[36.769351,-3.2181137],[36.7692505,-3.2181115],[36.7691092,-3.2180388],[36.7689148,-3.2180274],[36.7688622,-3.2179836],[36.7687991,-3.2179581],[36.7687085,-3.2179486],[36.768656,-3.2180029],[36.7686257,-3.2179891],[36.7685876,-3.2179557],[36.7685383,-3.2179351],[36.7685102,-3.2179301],[36.7684929,-3.2179354],[36.7684684,-3.2179528],[36.7684529,-3.2179737],[36.7684442,-3.2179771],[36.7684288,-3.2179746],[36.7684199,-3.2179657],[36.7684024,-3.2179323],[36.7683799,-3.2179173],[36.7683554,-3.2179151],[36.7683292,-3.2179006],[36.768335,-3.2178709],[36.7683287,-3.2178561],[36.7683247,-3.2178341],[36.7682831,-3.2178119],[36.7682447,-3.2177803],[36.7682143,-3.2177785],[36.7682023,-3.2177749],[36.7681831,-3.2177826],[36.7681395,-3.2177879],[36.7681164,-3.2177831],[36.7681002,-3.2177723],[36.7680538,-3.2177512],[36.7680139,-3.2177421],[36.7679717,-3.2177423],[36.7679549,-3.2177478],[36.7679349,-3.2177394],[36.7679065,-3.2177477],[36.7678968,-3.2177593],[36.7678713,-3.2177742],[36.7678068,-3.2177829],[36.7677342,-3.2178047],[36.7677156,-3.2178107],[36.7676994,-3.2178271],[36.7676481,-3.2178674],[36.767571,-3.2179173],[36.7675541,-3.2179226],[36.7675376,-3.2179418],[36.7675401,-3.2179498],[36.7675095,-3.2179689],[36.7674747,-3.2180014],[36.767463,-3.2180349],[36.767448,-3.2180651],[36.7674318,-3.218076],[36.7674177,-3.218108],[36.7674136,-3.218152],[36.7673965,-3.2181691],[36.7674078,-3.2182266],[36.7673772,-3.2182557],[36.7673638,-3.2182716],[36.7673684,-3.2183187],[36.7673778,-3.2183297],[36.7673732,-3.2183526],[36.7673801,-3.2183739],[36.7673976,-3.2184043],[36.7674117,-3.2184078],[36.7674145,-3.2184257],[36.7674202,-3.2184381],[36.7674292,-3.2184441],[36.7674353,-3.2184575],[36.7674462,-3.2184632],[36.7674614,-3.2184905],[36.7674697,-3.2184968],[36.7674725,-3.2185071],[36.7674701,-3.2185221],[36.7674723,-3.2185317],[36.7674697,-3.2185401],[36.7674683,-3.2185506],[36.7674602,-3.2185749],[36.767463,-3.2185848],[36.7674641,-3.2186082],[36.7674584,-3.2186222],[36.7674497,-3.2186311],[36.7674447,-3.2186344],[36.7674379,-3.2186446],[36.7674234,-3.2186617],[36.7674218,-3.2186692],[36.7674148,-3.2186837],[36.7674056,-3.2186907],[36.7673955,-3.2187041],[36.7673817,-3.2187115],[36.7673834,-3.2187274],[36.7673653,-3.2187073],[36.7673588,-3.2186957],[36.7673552,-3.2186934],[36.7673514,-3.2186824],[36.7673479,-3.218679],[36.7673367,-3.2186847],[36.7673264,-3.218685],[36.7673167,-3.2186997],[36.7673201,-3.2187143],[36.767314,-3.2187176],[36.7672967,-3.2187162],[36.7672909,-3.2187071],[36.7673054,-3.2186679],[36.7672963,-3.2186441],[36.7673015,-3.2186367],[36.7672761,-3.2186247],[36.7672576,-3.2186186],[36.7672498,-3.2186149],[36.7672311,-3.2186168],[36.7672228,-3.2186109],[36.767206,-3.2186315],[36.7672063,-3.2186438],[36.7672107,-3.2186488],[36.7672077,-3.2186615],[36.7672115,-3.2186863],[36.7672184,-3.2186949],[36.7672212,-3.2187161],[36.7672344,-3.2187245],[36.7671993,-3.2187269],[36.7671933,-3.2187342],[36.7671883,-3.2187244],[36.767181,-3.2187208],[36.7671621,-3.2187204],[36.7671299,-3.2187101],[36.7671231,-3.2187068],[36.7671181,-3.2187078],[36.7671098,-3.2186895],[36.7671011,-3.21868],[36.7670974,-3.2186698],[36.7671009,-3.2186519],[36.7670905,-3.2186375],[36.7670764,-3.2186248],[36.7670775,-3.2186209],[36.7670736,-3.2186203],[36.7670686,-3.2186238],[36.7670545,-3.2186316],[36.7670541,-3.2186398],[36.7670598,-3.2186515],[36.7670497,-3.2186685],[36.7670497,-3.2186895],[36.767065,-3.2187347],[36.7670528,-3.2187368],[36.7670421,-3.2187281],[36.7670343,-3.2186854],[36.7670201,-3.2186702],[36.767021,-3.2186616],[36.7670084,-3.2186699],[36.7670091,-3.2186805],[36.7670074,-3.2186914],[36.7669999,-3.2187162],[36.7669993,-3.2187237],[36.7669918,-3.218739],[36.767007,-3.2187467],[36.7669967,-3.2187552],[36.7669742,-3.2187471],[36.7669524,-3.21873],[36.7669342,-3.218703],[36.7669212,-3.2187004],[36.7669009,-3.21869],[36.7668895,-3.2186925],[36.766884,-3.2186943],[36.7668828,-3.2187031],[36.766896,-3.2187179],[36.7669114,-3.218736],[36.7669283,-3.2187659],[36.7669489,-3.2187919],[36.7669462,-3.218818],[36.7669494,-3.2188256],[36.766946,-3.2188431],[36.7669486,-3.218855],[36.7669456,-3.2188633],[36.7669478,-3.2188782],[36.7669553,-3.218889],[36.7669575,-3.2189034],[36.7669638,-3.2189148],[36.7669728,-3.2189265],[36.7669686,-3.2189349],[36.7669952,-3.2189492],[36.7669957,-3.2189681],[36.7669862,-3.2189736],[36.7669785,-3.2189693],[36.7669471,-3.2189711],[36.7669318,-3.2189838],[36.7669241,-3.2189775],[36.7669218,-3.2189689],[36.7669144,-3.2189542],[36.7669126,-3.2189413],[36.7669009,-3.2189455],[36.7668941,-3.2189551],[36.7668969,-3.2189737],[36.7669034,-3.2189953],[36.7669037,-3.2190043],[36.7668974,-3.2190135],[36.7669,-3.2190274],[36.766906,-3.2190394],[36.7669051,-3.2190674],[36.7668975,-3.2190758],[36.7669012,-3.219082],[36.7668958,-3.2190916],[36.7668857,-3.2191014],[36.7668857,-3.2191151],[36.7668908,-3.2191236],[36.7668983,-3.2191234],[36.7668979,-3.2191297],[36.766906,-3.2191302],[36.7669017,-3.219152],[36.7668915,-3.2191697],[36.7668983,-3.2191822],[36.7668817,-3.2191749],[36.766867,-3.2191742],[36.7668612,-3.2191644],[36.7668571,-3.2191594],[36.7668674,-3.2191529],[36.7668626,-3.2191405],[36.7668509,-3.2191261],[36.766841,-3.2191057],[36.7668358,-3.2190984],[36.7668265,-3.2190921],[36.7668149,-3.2190904],[36.7668098,-3.2190834],[36.766807,-3.2190746],[36.7668029,-3.2190749],[36.7668029,-3.2190872],[36.7668041,-3.2191027],[36.7668081,-3.2191073],[36.7668084,-3.2191186],[36.7668125,-3.2191468],[36.7668067,-3.2191537],[36.7668068,-3.2191858],[36.7668046,-3.2192078],[36.7668093,-3.2192189],[36.766806,-3.2192314],[36.7668064,-3.2192454],[36.766802,-3.2192703],[36.7667928,-3.2192786],[36.7667939,-3.2192919],[36.7667866,-3.2193037],[36.7667826,-3.2193186],[36.766776,-3.2193329],[36.7667661,-3.2193477],[36.7667539,-3.219348],[36.7667297,-3.2193592],[36.766729,-3.2193535],[36.7667403,-3.2193345],[36.7667434,-3.2193168],[36.766742,-3.2193063],[36.766752,-3.2192987],[36.7667477,-3.21927],[36.7667493,-3.2192532],[36.7667569,-3.2192417],[36.7667562,-3.2192284],[36.7667594,-3.2192154],[36.7667625,-3.2192095],[36.7667538,-3.2191948],[36.7667502,-3.2191851],[36.7667423,-3.2191701],[36.7667243,-3.2191642],[36.7667048,-3.2191596],[36.7667001,-3.2191529],[36.7667009,-3.2191453],[36.7666936,-3.2191289],[36.7666901,-3.2191235],[36.7666714,-3.219123],[36.7666667,-3.2191246],[36.7666568,-3.2191241],[36.7666508,-3.219118],[36.7666309,-3.2191232],[36.7666163,-3.2191283],[36.7666058,-3.2191237],[36.7665958,-3.2191167],[36.7665846,-3.2191075],[36.7665811,-3.2191034],[36.7665696,-3.2191085],[36.766564,-3.2191117],[36.7665374,-3.2191252],[36.7665334,-3.21912],[36.7665172,-3.2191284],[36.7665044,-3.2191363],[36.766482,-3.2191449],[36.7664744,-3.2191472],[36.7664667,-3.2191336],[36.7664557,-3.2191413],[36.7664606,-3.2191465],[36.7664419,-3.2191646],[36.7664362,-3.2191721],[36.7664359,-3.2191838],[36.7664312,-3.2191934],[36.7664254,-3.2191965],[36.7664221,-3.2191915],[36.7664126,-3.2191856],[36.766403,-3.2191964],[36.7663754,-3.2192099],[36.766367,-3.2192307],[36.7663421,-3.2192355],[36.7663342,-3.2192421],[36.7663425,-3.2192496],[36.7663528,-3.2192466],[36.7663927,-3.2192431],[36.7664067,-3.2192454],[36.7664229,-3.2192482],[36.7664339,-3.2192581],[36.7664572,-3.2192614],[36.7664673,-3.2192596],[36.7664744,-3.219264],[36.7664801,-3.2192629],[36.7664905,-3.2192662],[36.7665058,-3.219273],[36.766514,-3.2192788],[36.7665139,-3.2192881],[36.7665262,-3.2192962],[36.7665333,-3.2192963],[36.7665371,-3.2193004],[36.7665434,-3.2193042],[36.7665466,-3.2193101],[36.7665439,-3.2193252],[36.7665519,-3.2193311],[36.766546,-3.219338],[36.7665447,-3.2193448],[36.7665331,-3.2193506],[36.7665201,-3.2193492],[36.7665149,-3.2193518],[36.7665095,-3.2193556],[36.7664888,-3.2193577],[36.7664757,-3.2193503],[36.7664515,-3.2193553],[36.7664196,-3.2193804],[36.7663786,-3.2193898],[36.7663567,-3.2194043],[36.7663498,-3.2194153],[36.766323,-3.21942],[36.7663003,-3.2194428],[36.7662801,-3.2194394],[36.7662691,-3.2194456],[36.7662521,-3.2194604],[36.7662496,-3.2194725],[36.7662265,-3.2194784],[36.766212,-3.2195118],[36.7662309,-3.2195252],[36.7662664,-3.2195169],[36.7662806,-3.2195058],[36.7662924,-3.2195066],[36.7663026,-3.2195133],[36.7663059,-3.2195309],[36.7663281,-3.2195327],[36.7663312,-3.2195524],[36.766321,-3.2195763],[36.7662977,-3.2195578],[36.766269,-3.2195822],[36.766239,-3.2195749],[36.766209,-3.2195992],[36.7661317,-3.2196295],[36.7660771,-3.2196808],[36.7660709,-3.2196998],[36.7660365,-3.2197099],[36.7660081,-3.219739],[36.7659745,-3.2197561],[36.7659755,-3.2197642],[36.7660094,-3.2197705],[36.7660493,-3.2197822],[36.7660601,-3.2198062],[36.7660502,-3.2198275],[36.7659928,-3.2198194],[36.7660039,-3.2198428],[36.765996,-3.2198513],[36.7659638,-3.2198469],[36.7659644,-3.219866],[36.7659705,-3.2198739],[36.765964,-3.2198775],[36.7659508,-3.2198705],[36.7659359,-3.2198726],[36.7659181,-3.2198887],[36.7658913,-3.2199008],[36.7658829,-3.2199262],[36.7658991,-3.2199274],[36.765915,-3.2199354],[36.7659311,-3.2199687],[36.7659029,-3.2199764],[36.7658739,-3.2199681],[36.7658322,-3.2199972],[36.7658004,-3.2200272],[36.7657971,-3.2200476],[36.7657585,-3.2200777],[36.765728,-3.2201619],[36.7656845,-3.2201964],[36.7657015,-3.2202065],[36.7657258,-3.2201788],[36.7657663,-3.2201596],[36.7657761,-3.2201589],[36.765779,-3.2201703],[36.7657732,-3.2201875],[36.7657698,-3.2202392],[36.765782,-3.2202505],[36.7657926,-3.2202749],[36.7657881,-3.2202896],[36.7657667,-3.2202974],[36.7657534,-3.2202983],[36.7657467,-3.2202618],[36.7657278,-3.2202451],[36.7657161,-3.2202403],[36.7657063,-3.2202461],[36.7657273,-3.2202768],[36.7657455,-3.2203661],[36.7657367,-3.2203743],[36.7657266,-3.2203737],[36.7657168,-3.2203617],[36.7656972,-3.2203044],[36.7656887,-3.2203018],[36.7656645,-3.2203074],[36.7656553,-3.2203214],[36.7656338,-3.2203268],[36.7656026,-3.2203134],[36.7655598,-3.2203155],[36.7655421,-3.2203364],[36.7654936,-3.2203424],[36.7654679,-3.2203418],[36.7654598,-3.220339],[36.765441,-3.2203395],[36.7654287,-3.220344],[36.7654276,-3.2203514],[36.7654329,-3.220363],[36.7654621,-3.2203887],[36.7654883,-3.2204178],[36.7655118,-3.2204264],[36.7655228,-3.2204377],[36.7655186,-3.2204551],[36.765499,-3.220462],[36.7654839,-3.2204587],[36.7654716,-3.2204606],[36.7654696,-3.2204698],[36.7654532,-3.2204815],[36.7654478,-3.2204898],[36.7654445,-3.2204986],[36.7654451,-3.2205093],[36.7654511,-3.220517],[36.7654581,-3.2205163],[36.7654804,-3.2205069],[36.7654836,-3.2205113],[36.7654824,-3.2205325],[36.7654722,-3.2205381],[36.7654662,-3.220552],[36.7654531,-3.2205542],[36.7654484,-3.2205648],[36.7654512,-3.2205716],[36.7654593,-3.2205752],[36.7654716,-3.2205722],[36.7654861,-3.2205813],[36.7654975,-3.2205831],[36.7655,-3.2205799],[36.7655083,-3.220579],[36.7655249,-3.2205901],[36.7655313,-3.2205986],[36.7655574,-3.2206018],[36.7655773,-3.2206028],[36.7655982,-3.2206104],[36.7655906,-3.2206229],[36.7655581,-3.2206224],[36.7655413,-3.2206425],[36.7655771,-3.2206564],[36.7655786,-3.2206733],[36.7654971,-3.2206826],[36.7654859,-3.2206926],[36.7654766,-3.2207117],[36.7654702,-3.2207272],[36.7654609,-3.2207423],[36.7654735,-3.2207601],[36.7654875,-3.220769],[36.7655489,-3.2207693],[36.7655512,-3.220781],[36.7655585,-3.2207862],[36.7655592,-3.2207943],[36.7655467,-3.2208003],[36.7655224,-3.2208008],[36.7655102,-3.2208079],[36.7654939,-3.2208093],[36.7654808,-3.2208203],[36.7654815,-3.2208283],[36.7654875,-3.2208339],[36.7655103,-3.2208432],[36.7655181,-3.2208406],[36.7655262,-3.2208467],[36.7655232,-3.2208561],[36.7654936,-3.2208631],[36.7654779,-3.220855],[36.7654639,-3.2208576],[36.7654523,-3.2208659],[36.7654399,-3.2208678],[36.7654333,-3.2208614],[36.7654302,-3.2208647],[36.7654372,-3.2208744],[36.7654572,-3.2208855],[36.76547,-3.2208846],[36.7654867,-3.2208974],[36.7654955,-3.2208956],[36.7655009,-3.2208968],[36.7655043,-3.2209042],[36.7654558,-3.2209125],[36.7654454,-3.2209091],[36.7654286,-3.2209102],[36.7654239,-3.220905],[36.7654097,-3.2209093],[36.7653849,-3.2209313],[36.7653701,-3.220949],[36.7653359,-3.2209482],[36.7653302,-3.2209561],[36.7653004,-3.2209579],[36.7652833,-3.2209739],[36.7652832,-3.2209785],[36.7652901,-3.2209855],[36.7653014,-3.2209892],[36.7653073,-3.2209987],[36.7653062,-3.2210117],[36.7652951,-3.2210187],[36.7652794,-3.2210254],[36.7652553,-3.2210104],[36.7652361,-3.22102],[36.7652363,-3.2210343],[36.7652161,-3.2210335],[36.7652074,-3.221042],[36.765205,-3.2210521],[36.7652079,-3.2210582],[36.7652011,-3.2210686],[36.7651843,-3.2210638],[36.765176,-3.2210639],[36.7651653,-3.2210593],[36.765156,-3.2210615],[36.7651409,-3.2210689],[36.7651374,-3.2210764],[36.7651402,-3.2210888],[36.7651528,-3.2210978],[36.7651663,-3.2210947],[36.7651693,-3.2211127],[36.7651658,-3.2211202],[36.7651577,-3.2211246],[36.765141,-3.221122],[36.7651333,-3.2211173],[36.7651146,-3.2211181],[36.7650788,-3.2211296],[36.7650779,-3.2211392],[36.7650876,-3.2211526],[36.7651018,-3.2211562],[36.7651109,-3.221164],[36.7651223,-3.2211611],[36.7651376,-3.2211809],[36.7651568,-3.2211787],[36.7651882,-3.2211888],[36.7651931,-3.2211953],[36.7651741,-3.2212075],[36.7651462,-3.2212122],[36.7651247,-3.2212194],[36.7651126,-3.2212164],[36.765092,-3.2212278],[36.765088,-3.221239],[36.7651037,-3.221249],[36.7651137,-3.221265],[36.7651354,-3.2212732],[36.7651523,-3.2212737],[36.7651592,-3.221279],[36.7651604,-3.2212871],[36.7651505,-3.2212963],[36.7651178,-3.2213023],[36.7651172,-3.22131],[36.7651527,-3.2213172],[36.7651966,-3.2213619],[36.7651922,-3.2213673],[36.7651669,-3.2213719],[36.7651487,-3.2213666],[36.7651331,-3.221368],[36.7651282,-3.2213829],[36.7651378,-3.2213901],[36.7651336,-3.2213985],[36.7650747,-3.2214037],[36.7650684,-3.221416],[36.7651351,-3.2214451],[36.7651357,-3.221454],[36.7650805,-3.2214672],[36.765076,-3.2214784],[36.7650918,-3.2214903],[36.7651046,-3.2215001],[36.7650963,-3.2215169],[36.7650674,-3.221515],[36.7650455,-3.2215231],[36.7650359,-3.2215516],[36.7650919,-3.2215896],[36.7651221,-3.221594],[36.7650832,-3.2216439],[36.7650525,-3.221641],[36.7650375,-3.2216498],[36.7650417,-3.221668],[36.7650714,-3.2216725],[36.7650914,-3.2216901],[36.7650696,-3.2217361],[36.7650794,-3.221773],[36.7651022,-3.2217819],[36.7650486,-3.2218077],[36.7650487,-3.221822],[36.7649929,-3.2218312],[36.7649934,-3.2218527],[36.7650434,-3.2218801],[36.7650431,-3.2218892],[36.7650056,-3.2218879],[36.7649758,-3.2219029],[36.7649708,-3.2219132],[36.764997,-3.2219213],[36.7649771,-3.2219931],[36.7649333,-3.2219891],[36.7649567,-3.2220076],[36.7649408,-3.2220284],[36.7649232,-3.2220221],[36.7649287,-3.2220626],[36.7648969,-3.2220646],[36.7648612,-3.222082],[36.764857,-3.2221035],[36.7648837,-3.2221075],[36.7648796,-3.2221616],[36.7647634,-3.2221976],[36.7647942,-3.2222716],[36.7647821,-3.2223008],[36.7647882,-3.2223562],[36.7647679,-3.2224122],[36.7647313,-3.2224695],[36.7647278,-3.2225004],[36.7647061,-3.2225558],[36.7647079,-3.2225815],[36.7646925,-3.2226033],[36.7647063,-3.2226234],[36.7647251,-3.2226196],[36.7647456,-3.2226517],[36.7647282,-3.2226635],[36.7646989,-3.2226623],[36.7646845,-3.2227038],[36.7646934,-3.222721],[36.7646698,-3.2227408],[36.7646765,-3.2227518],[36.7646716,-3.2227794],[36.7646493,-3.2227896],[36.764659,-3.2228083],[36.764696,-3.2227901],[36.7646995,-3.2228084],[36.7646746,-3.222822],[36.764665,-3.22285],[36.7646411,-3.2228575],[36.7646579,-3.2228866],[36.7646818,-3.2228817],[36.7647054,-3.2228941],[36.7647048,-3.2229157],[36.7646913,-3.2229383],[36.7646941,-3.2229568],[36.7646803,-3.2229905],[36.7646868,-3.2230312],[36.7647002,-3.22305],[36.7647642,-3.2231088],[36.7647621,-3.2231382],[36.7647438,-3.2231483],[36.7647199,-3.2231802],[36.7646761,-3.2232497],[36.764627,-3.2232937],[36.7645968,-3.2233498],[36.7645817,-3.2233664],[36.7645546,-3.2233575],[36.764533,-3.2233395],[36.7645033,-3.2233262],[36.7643534,-3.2233192],[36.7643308,-3.2233057],[36.7642859,-3.2233046],[36.76426,-3.2232839],[36.7642212,-3.2232776],[36.7642069,-3.2232841],[36.7642067,-3.2233073],[36.764178,-3.2233192],[36.7641543,-3.2233777],[36.764103,-3.2234549],[36.764064,-3.2235195],[36.7640199,-3.2235692],[36.7639839,-3.2236033],[36.7639361,-3.2236201],[36.7638862,-3.2236245],[36.7638228,-3.223617],[36.7637752,-3.2236161],[36.7636248,-3.2236324],[36.7635002,-3.2236314],[36.7634356,-3.2236044],[36.7633979,-3.2235407],[36.7633657,-3.2235301],[36.7632741,-3.2234654],[36.7632358,-3.2234851],[36.7631264,-3.2234676],[36.7630702,-3.2234704],[36.7630352,-3.2234628],[36.7630151,-3.2234697],[36.7629783,-3.2234458],[36.7629663,-3.2234746],[36.762921,-3.2234909],[36.7628585,-3.2234555],[36.7628218,-3.2234889],[36.7627615,-3.2234814],[36.7626556,-3.2234448],[36.7626228,-3.2234452],[36.762585,-3.223536],[36.7625653,-3.2235562],[36.7625304,-3.2236199],[36.7625141,-3.2236369],[36.762513,-3.2236643],[36.7624875,-3.2236926],[36.762466,-3.2237638],[36.7624343,-3.2237931],[36.7623852,-3.2238189],[36.7622948,-3.2238262],[36.7622319,-3.2238247],[36.7621803,-3.2237867],[36.7620528,-3.2237683],[36.7620237,-3.2237346],[36.7618924,-3.2237515],[36.7618742,-3.2237669],[36.7618275,-3.2238188],[36.7616902,-3.2238377],[36.7616086,-3.2238048],[36.761552,-3.2238328],[36.7614745,-3.2238814],[36.7613147,-3.2239596],[36.7612313,-3.2239948],[36.7611235,-3.2239662],[36.7610144,-3.2239274],[36.7609368,-3.223914],[36.7608563,-3.2238796],[36.7608004,-3.2238964],[36.7606457,-3.2238153],[36.7604906,-3.2237242],[36.7603836,-3.2236934],[36.7603189,-3.2237094],[36.760278,-3.2237079],[36.7602234,-3.2237327],[36.7601778,-3.2237637],[36.7601445,-3.2237897],[36.7600964,-3.2238147],[36.7599871,-3.223897],[36.7598521,-3.2240065],[36.7598082,-3.2240344],[36.7597425,-3.2240892],[36.7595989,-3.2241647],[36.7595081,-3.2241954],[36.7593795,-3.2242618],[36.7591788,-3.2242708],[36.7590855,-3.2242935],[36.7590153,-3.2242845],[36.7589252,-3.2242814],[36.7587651,-3.2243299],[36.7586957,-3.224368],[36.7584963,-3.2244345],[36.758334,-3.2245013],[36.7583021,-3.2245105],[36.7582551,-3.2245457],[36.7581988,-3.2245713],[36.7581382,-3.2246208],[36.7580673,-3.2246563],[36.7580297,-3.2246676],[36.7579933,-3.2246838],[36.7579435,-3.224726],[36.7578737,-3.2247752],[36.7578513,-3.2247787],[36.7578271,-3.2247954],[36.757817,-3.2248149],[36.7577658,-3.2248625],[36.757713,-3.2248827],[36.7576674,-3.2248744],[36.7576212,-3.2248483],[36.7575678,-3.2248256],[36.7575395,-3.2247822],[36.7574804,-3.2247527],[36.7574513,-3.2247501],[36.7574223,-3.2247334],[36.7574131,-3.2246679],[36.7573738,-3.2246368],[36.7573496,-3.2245939],[36.7573372,-3.2245851],[36.7572874,-3.2245944],[36.7572114,-3.2246087],[36.7571215,-3.2245561],[36.7570503,-3.2245397],[36.7570009,-3.2245011],[36.7569684,-3.2245194],[36.756774,-3.2245063],[36.7567413,-3.2244786],[36.7567244,-3.2245229],[36.7567372,-3.2245538],[36.756688,-3.2245975],[36.7566891,-3.2246342],[36.7566284,-3.2246581],[36.7566288,-3.2246855],[36.7566028,-3.2247229],[36.7565703,-3.2247821],[36.7565523,-3.2248295],[36.7565451,-3.2248647],[36.756564,-3.224906],[36.7565482,-3.2249304],[36.7565582,-3.224958],[36.756548,-3.2249693],[36.7565525,-3.2249793],[36.7565764,-3.2249746],[36.7565961,-3.2249769],[36.7565931,-3.2249917],[36.7565839,-3.2250018],[36.7565897,-3.2250147],[36.7565705,-3.225017],[36.7565688,-3.2250282],[36.7565781,-3.2250289],[36.7566051,-3.2250482],[36.7565954,-3.2250693],[36.7565936,-3.2251015],[36.7565811,-3.2251333],[36.7565628,-3.2251704],[36.7565653,-3.2251873],[36.7565511,-3.2251982],[36.7565326,-3.2251979],[36.756515,-3.2252248],[36.7564984,-3.2252327],[36.7564907,-3.2252347],[36.7564818,-3.2252627],[36.7564832,-3.2252706],[36.7564512,-3.2252906],[36.7564511,-3.2253031],[36.7564436,-3.2253105],[36.7564314,-3.2253333],[36.7564241,-3.2253409],[36.7564144,-3.22534],[36.7563938,-3.2253688],[36.7563947,-3.2253815],[36.756388,-3.2253916],[36.7563748,-3.225391],[36.7563472,-3.2254122],[36.7563626,-3.2254356],[36.7563526,-3.2254447],[36.7563413,-3.225447],[36.7563373,-3.2254546],[36.756339,-3.225468],[36.7563379,-3.2254716],[36.7563277,-3.2254709],[36.7563253,-3.2254735],[36.7563246,-3.2254815],[36.756319,-3.2254795],[36.7563142,-3.2254814],[36.7563094,-3.2254908],[36.756303,-3.2254888],[36.756301,-3.225492],[36.7563059,-3.2254993],[36.7562964,-3.2255051],[36.7562764,-3.2255294],[36.7562771,-3.2255366],[36.7562717,-3.2255436],[36.7562528,-3.2255522],[36.7562381,-3.2255543],[36.7562265,-3.2255657],[36.7562265,-3.2255763],[36.756234,-3.2255962],[36.75623,-3.2256034],[36.7562165,-3.2256081],[36.7562082,-3.2256168],[36.7561774,-3.2256158],[36.7561401,-3.2256334],[36.7561302,-3.2256302],[36.7561234,-3.2256305],[36.756121,-3.2256265],[36.7560975,-3.2256314],[36.7560679,-3.2256432],[36.7560631,-3.225648],[36.7560315,-3.225652],[36.7560252,-3.2256621],[36.7560186,-3.2256647],[36.7560014,-3.2256647],[36.7559933,-3.2256571],[36.7559547,-3.2256741],[36.7559184,-3.225682],[36.7558826,-3.2256993],[36.7558786,-3.2256915],[36.7558714,-3.2256898],[36.7558693,-3.2256939],[36.7558643,-3.2256872],[36.7558615,-3.2256942],[36.7558588,-3.2256878],[36.7558469,-3.2256999],[36.7558175,-3.2257041],[36.7558076,-3.2257],[36.7557984,-3.2256983],[36.7557874,-3.2257076],[36.7557767,-3.2257105],[36.755775,-3.2257163],[36.7557571,-3.2257111],[36.7557528,-3.2257163],[36.7557329,-3.2257162],[36.7557271,-3.2257257],[36.7556828,-3.2257341],[36.7556803,-3.2257418],[36.7556643,-3.2257487],[36.7556587,-3.2257559],[36.75564,-3.2257575],[36.7555983,-3.2257775],[36.7555794,-3.2257771],[36.7555767,-3.2257893],[36.7555439,-3.225804],[36.7555166,-3.2258068],[36.7555044,-3.2258149],[36.7554842,-3.2258124],[36.7554674,-3.2258196],[36.7553893,-3.2258468],[36.7553778,-3.2258605],[36.755346,-3.2258644],[36.7553307,-3.2258766],[36.755256,-3.2258949],[36.7552425,-3.2258839],[36.755211,-3.2258814],[36.755205,-3.2258928],[36.7551841,-3.2258914],[36.75512,-3.2259141],[36.7550529,-3.225999],[36.7547167,-3.2262829],[36.7543541,-3.226298],[36.7540769,-3.2265103],[36.7537077,-3.2266011],[36.7535963,-3.226642],[36.7535416,-3.2266896],[36.7535094,-3.2267185],[36.7534876,-3.226757],[36.7534711,-3.2267662],[36.7534384,-3.2268454],[36.7534086,-3.2269146],[36.7533816,-3.2269423],[36.7533879,-3.2269821],[36.7533449,-3.2270394],[36.7533181,-3.2270963],[36.7533146,-3.2271118],[36.7532901,-3.2271331],[36.7532645,-3.2271409],[36.7532347,-3.2271791],[36.7531479,-3.2272678],[36.7530212,-3.2274154],[36.75299,-3.2274386],[36.7529844,-3.2274318],[36.7529605,-3.2274425],[36.7529443,-3.2274625],[36.7529003,-3.2274838],[36.7528748,-3.2275247],[36.7528621,-3.2275254],[36.7528587,-3.2275312],[36.7528647,-3.2275427],[36.7528473,-3.2275669],[36.7528454,-3.2275783],[36.7528383,-3.2275804],[36.752828,-3.2275987],[36.7527963,-3.2276256],[36.7527569,-3.2276342],[36.7527383,-3.2276449],[36.7527333,-3.2276681],[36.7527265,-3.2276679],[36.7527259,-3.2276807],[36.7527003,-3.2276845],[36.7526713,-3.227698],[36.7526275,-3.2277079],[36.752594,-3.2277358],[36.7525831,-3.22774],[36.7525578,-3.2277344],[36.7524666,-3.2277768],[36.7524589,-3.2277713],[36.7524359,-3.2277749],[36.7524256,-3.2277883],[36.7523692,-3.2278142],[36.7523456,-3.227809],[36.7523286,-3.2278119],[36.752299,-3.2278385],[36.7522497,-3.2278619],[36.7521929,-3.2278748],[36.7521811,-3.2278896],[36.7521683,-3.227888],[36.7521407,-3.2279022],[36.7521399,-3.2279223],[36.7520934,-3.2279563],[36.7520622,-3.2279623],[36.7520063,-3.2280033],[36.7519819,-3.228046],[36.7519731,-3.2280403],[36.7519534,-3.2280525],[36.7519372,-3.2280889],[36.7518939,-3.2281231],[36.7518554,-3.2281475],[36.7518396,-3.2281713],[36.7517809,-3.2282087],[36.7517354,-3.228245],[36.7517094,-3.2282778],[36.7516765,-3.2282789],[36.751652,-3.2282946],[36.7516197,-3.2283028],[36.7515297,-3.2283565],[36.7515218,-3.2283862],[36.7514987,-3.228405],[36.751377,-3.2284486],[36.7513622,-3.2284795],[36.7513219,-3.2285003],[36.7513182,-3.2285184],[36.7512878,-3.2285414],[36.7512892,-3.2285531],[36.7512272,-3.2286238],[36.7511873,-3.2286309],[36.7511735,-3.2287088],[36.7511375,-3.2287429],[36.751102,-3.2288042],[36.7511053,-3.2288224],[36.7510735,-3.2288791],[36.7510421,-3.2289089],[36.751038,-3.228936],[36.7510043,-3.2289604],[36.7509901,-3.2289822],[36.7509894,-3.2290163],[36.7509256,-3.2290639],[36.7509099,-3.2291017],[36.750851,-3.229138],[36.7508187,-3.2291743],[36.7508105,-3.2292016],[36.7507438,-3.229263],[36.7507373,-3.2292843],[36.7506933,-3.2293452],[36.7506431,-3.2294213],[36.7505604,-3.2294654],[36.7505541,-3.2294878],[36.7505153,-3.2295225],[36.7505125,-3.2295442],[36.7505196,-3.2295704],[36.7504961,-3.2295816],[36.7504726,-3.2296107],[36.7504554,-3.2296192],[36.7504341,-3.2296134],[36.7504025,-3.2296467],[36.7504028,-3.2296668],[36.7504206,-3.2296892],[36.7504187,-3.2297152],[36.7503938,-3.2297281],[36.7503693,-3.2297255],[36.7503534,-3.2297361],[36.7503569,-3.2297481],[36.7503823,-3.2297747],[36.7502927,-3.2298045],[36.7502865,-3.2298491],[36.7502598,-3.2298658],[36.75025,-3.2298807],[36.7502515,-3.2299014],[36.7502309,-3.2299393],[36.7501843,-3.2299997],[36.7501912,-3.2300368],[36.7501781,-3.2300565],[36.7501582,-3.2300623],[36.7501546,-3.2300936],[36.7501253,-3.2301095],[36.75012,-3.2301636],[36.7501023,-3.2301766],[36.7501036,-3.2302077],[36.7500904,-3.2302466],[36.7500738,-3.2302736],[36.7500779,-3.2302839],[36.7500641,-3.2302991],[36.7500468,-3.230308],[36.7500421,-3.2303194],[36.7500479,-3.2303321],[36.7500336,-3.2303405],[36.7500271,-3.23035],[36.7500518,-3.2303614],[36.7500507,-3.2303705],[36.7500345,-3.2303759],[36.7500266,-3.2303903],[36.7500363,-3.230409],[36.7500283,-3.2304118],[36.7500359,-3.230458],[36.7500195,-3.2304726],[36.7499732,-3.2304844],[36.7499621,-3.2305063],[36.7499783,-3.2305283],[36.7499592,-3.2305334],[36.7499467,-3.2305471],[36.7499589,-3.2305463],[36.7499635,-3.2305578],[36.749953,-3.2305799],[36.7499172,-3.2305865],[36.7499312,-3.2306165],[36.7499488,-3.2306249],[36.74996,-3.2306434],[36.7499454,-3.2306698],[36.7499226,-3.2306767],[36.7499216,-3.2306875],[36.7499327,-3.2306908],[36.7499418,-3.2307054],[36.7499283,-3.2307232],[36.7498908,-3.2307323],[36.7498851,-3.2307443],[36.7499029,-3.2307504],[36.7498974,-3.2307627],[36.7498656,-3.2307641],[36.7498637,-3.2307739],[36.7498912,-3.2307982],[36.7498407,-3.2308186],[36.7498417,-3.2308278],[36.7498653,-3.2308401],[36.7498627,-3.230848],[36.7498206,-3.2308497],[36.7498088,-3.2308692],[36.749858,-3.2308893],[36.7498384,-3.2309182],[36.7497536,-3.230945],[36.7497474,-3.2309572],[36.7498064,-3.2309905],[36.7497956,-3.2310014],[36.7497743,-3.2310042],[36.7497756,-3.2310164],[36.7497933,-3.231025],[36.7497893,-3.2310352],[36.7497299,-3.2310497],[36.7497354,-3.2310717],[36.7497847,-3.2310854],[36.7497933,-3.2311044],[36.7497852,-3.2311139],[36.7497459,-3.2311251],[36.7497171,-3.2311235],[36.7496935,-3.2312257],[36.7497123,-3.2312784],[36.7497223,-3.2313441],[36.7497069,-3.2313651],[36.7497088,-3.2313842],[36.7496991,-3.2313963],[36.7496781,-3.2314483],[36.7496775,-3.2314764],[36.7496663,-3.2314972],[36.7496741,-3.2315211],[36.7496596,-3.2315419],[36.7496862,-3.2315537],[36.7496866,-3.2315634],[36.7496754,-3.2315606],[36.7496756,-3.2315987],[36.7496888,-3.2316129],[36.7496844,-3.2316479],[36.7496855,-3.2316791],[36.749646,-3.2317583],[36.749656,-3.2317901],[36.7496354,-3.2318083],[36.749632,-3.2318648],[36.7496168,-3.2318662],[36.7495656,-3.2319234],[36.7494731,-3.231966],[36.7494432,-3.2319906],[36.7494303,-3.2320028],[36.7493766,-3.232019],[36.7493182,-3.2320198],[36.7493015,-3.2320283],[36.7492789,-3.2320281],[36.7492441,-3.2320634],[36.749222,-3.2321124],[36.7492058,-3.2321188],[36.7492076,-3.2321309],[36.7492157,-3.2321381],[36.7492056,-3.23215],[36.7492197,-3.2321766],[36.7492015,-3.2322103],[36.7491686,-3.2322731],[36.749178,-3.2322881],[36.7491185,-3.2323555],[36.7490803,-3.2324243],[36.7490881,-3.2324534],[36.7490476,-3.2324683],[36.7490314,-3.232456],[36.7489963,-3.2324942],[36.7490022,-3.2325622],[36.7490003,-3.2325831],[36.7489842,-3.2326153],[36.749002,-3.2326293],[36.7490026,-3.2326442],[36.7489497,-3.2327047],[36.7489501,-3.2327159],[36.7489969,-3.2327562],[36.7489103,-3.2328143],[36.748879,-3.2329291],[36.7488225,-3.2330228],[36.7487715,-3.2330836],[36.7487094,-3.2331281],[36.7486869,-3.2332038],[36.7487007,-3.2332712],[36.7486723,-3.2333449],[36.7486883,-3.2334216],[36.748708,-3.2335073],[36.7486943,-3.2336938],[36.7486594,-3.2337129],[36.7485871,-3.2337609],[36.748542,-3.2338482],[36.7485281,-3.2339173],[36.7485215,-3.2339731],[36.7485109,-3.2340108],[36.7485366,-3.2340181],[36.7485607,-3.2340248],[36.748562,-3.2340556],[36.7485364,-3.2340765],[36.7485349,-3.2341188],[36.7485495,-3.2341325],[36.748553,-3.2342112],[36.7485721,-3.2342759],[36.7485895,-3.2344443],[36.7486227,-3.2346704],[36.7486151,-3.2347565],[36.7486599,-3.2347998],[36.7486652,-3.2348394],[36.7487294,-3.2348797],[36.7487829,-3.234978],[36.7488041,-3.2350505],[36.7487783,-3.2351749],[36.7487593,-3.2354287],[36.7487656,-3.2355919],[36.7487228,-3.2357233],[36.7487034,-3.2357808],[36.7486018,-3.2358423],[36.7485397,-3.2359334],[36.7485006,-3.235974],[36.7484709,-3.2360292],[36.7484379,-3.2361225],[36.7484078,-3.2362166],[36.7484069,-3.2363072],[36.7483938,-3.2363723],[36.7483769,-3.2364327],[36.7483617,-3.2364927],[36.7483367,-3.2365447],[36.7482786,-3.2366099],[36.7482227,-3.2367081],[36.7481893,-3.2368039],[36.7481765,-3.2368376],[36.7482606,-3.236879],[36.7482498,-3.2369269],[36.7482553,-3.236957],[36.748223,-3.2370058],[36.7481728,-3.237023],[36.7481265,-3.2371383],[36.7480498,-3.2371429],[36.7480807,-3.2371796],[36.7481408,-3.2371892],[36.7481585,-3.2372437],[36.7481543,-3.2373056],[36.7480692,-3.2373615],[36.7480354,-3.2374232],[36.7480118,-3.237517],[36.7480284,-3.2376121],[36.7480699,-3.2376196],[36.7481014,-3.2377443],[36.7481239,-3.2378394],[36.7480077,-3.2380431],[36.7480546,-3.2381284],[36.7479869,-3.2383506],[36.748008,-3.238535],[36.7481034,-3.2386524],[36.7480389,-3.2387582],[36.7480556,-3.2388614],[36.7482024,-3.2389536],[36.7482014,-3.2389838],[36.7481589,-3.2390083],[36.7480964,-3.2389983],[36.7481515,-3.2391565],[36.748165,-3.2392711],[36.748162,-3.2393486],[36.7481687,-3.2394141],[36.7481631,-3.2394705],[36.7481732,-3.239555],[36.7481663,-3.2397752],[36.748121,-3.2399897],[36.748121,-3.2400984],[36.748121,-3.2401969],[36.7481761,-3.2403451],[36.7481359,-3.2404873],[36.7481416,-3.2406244],[36.7481768,-3.2408082],[36.748172,-3.2410315],[36.7481963,-3.2414386],[36.7482733,-3.241686],[36.7485399,-3.2423294],[36.7485421,-3.2424826],[36.7486062,-3.2425652],[36.7486955,-3.2426358],[36.7487293,-3.2427058],[36.7487274,-3.242705],[36.748726,-3.2427064],[36.7487249,-3.242709],[36.7487184,-3.2427088],[36.7487181,-3.242711],[36.7487203,-3.2427158],[36.7487185,-3.2427171],[36.74872,-3.2427176],[36.7487215,-3.2427188],[36.7487251,-3.2427167],[36.7487257,-3.2427189],[36.7487257,-3.2427223],[36.7487247,-3.2427264],[36.7487288,-3.2427275],[36.7487256,-3.24273],[36.7487283,-3.242732],[36.7487275,-3.2427351],[36.7487297,-3.2427384],[36.7487299,-3.242742],[36.7487289,-3.2427483],[36.748731,-3.2427537],[36.7487318,-3.242758],[36.7487337,-3.2427604],[36.7487333,-3.2427699],[36.7487319,-3.2427776],[36.7487344,-3.2427831],[36.7487344,-3.2427863],[36.748739,-3.2427836],[36.7487376,-3.2427886],[36.7487358,-3.2427915],[36.7487354,-3.2427956],[36.7487357,-3.2427997],[36.7487395,-3.2428076],[36.7487389,-3.2428094],[36.7487446,-3.2428099],[36.7487449,-3.2428119],[36.74875,-3.2428144],[36.748754,-3.2428151],[36.7487543,-3.242818],[36.7487574,-3.242816],[36.7487609,-3.242819],[36.748762,-3.2428228],[36.7487639,-3.2428264],[36.7487689,-3.2428226],[36.7487719,-3.2428242],[36.7487733,-3.2428256],[36.7487745,-3.2428293],[36.7487746,-3.2428361],[36.7487755,-3.2428381],[36.7487767,-3.2428379],[36.7487761,-3.2428416],[36.7487781,-3.2428455],[36.7487812,-3.2428471],[36.7487804,-3.2428527],[36.7487846,-3.2428533],[36.7487888,-3.2428553],[36.7487913,-3.2428543],[36.7487937,-3.2428556],[36.7487964,-3.2428531],[36.7488001,-3.2428526],[36.7487991,-3.2428544],[36.7488033,-3.2428541],[36.748805,-3.2428553],[36.7488001,-3.2428584],[36.7488006,-3.2428628],[36.7488021,-3.2428606],[36.7488051,-3.2428613],[36.7488088,-3.2428624],[36.7488081,-3.2428653],[36.7488108,-3.2428663],[36.7488137,-3.2428658],[36.7488165,-3.2428647],[36.7488197,-3.2428638],[36.7488228,-3.2428651],[36.7488266,-3.2428657],[36.748829,-3.2428665],[36.7488307,-3.2428632],[36.7488378,-3.2428667],[36.7488402,-3.2428698],[36.74884,-3.2428724],[36.7488405,-3.2428782],[36.7488459,-3.2428827],[36.7488498,-3.2428851],[36.7488498,-3.2428895],[36.7488547,-3.2428906],[36.7488598,-3.2428903],[36.748861,-3.2428929],[36.7488645,-3.2428952],[36.7488672,-3.2428942],[36.7488748,-3.2428985],[36.7488786,-3.2428963],[36.7488781,-3.2428995],[36.7488795,-3.2429055],[36.7488814,-3.2429059],[36.7488831,-3.2429085],[36.7488885,-3.2429109],[36.7488911,-3.2429139],[36.748902,-3.242909],[36.7489041,-3.2429057],[36.7489052,-3.2429057],[36.7489071,-3.2429024],[36.7489142,-3.2429008],[36.7489082,-3.2428963],[36.7489199,-3.2428949],[36.748931,-3.2428919],[36.7489316,-3.2428846],[36.7489337,-3.2428974],[36.7489338,-3.2429039],[36.7489356,-3.2429049],[36.7489359,-3.2429066],[36.7489378,-3.2429096],[36.7489371,-3.2429119],[36.7489334,-3.2429117],[36.7489304,-3.2429153],[36.7489325,-3.2429201],[36.7489313,-3.2429234],[36.7489303,-3.2429313],[36.7489311,-3.2429405],[36.7489298,-3.2429443],[36.7489332,-3.2429488],[36.7489375,-3.2429529],[36.748939,-3.2429561],[36.7489416,-3.2429572],[36.7489461,-3.2429577],[36.7489487,-3.242959],[36.7489532,-3.2429558],[36.7489583,-3.2429539],[36.7489559,-3.2429566],[36.7489588,-3.2429577],[36.7489537,-3.2429592],[36.7489613,-3.2429649],[36.7489582,-3.2429661],[36.7489623,-3.2429711],[36.7489581,-3.2429764],[36.7489624,-3.2429841],[36.7489646,-3.2429856],[36.7489613,-3.2429853],[36.7489586,-3.2429862],[36.7489588,-3.2429947],[36.7489506,-3.2429994],[36.7489507,-3.2430026],[36.7489442,-3.2430082],[36.7489436,-3.2430101],[36.7489455,-3.2430152],[36.7489399,-3.2430155],[36.7489399,-3.2430185],[36.7489391,-3.2430229],[36.7489402,-3.2430288],[36.7489445,-3.2430315],[36.7489457,-3.2430337],[36.7489502,-3.2430399],[36.7489528,-3.2430396],[36.7489577,-3.2430407],[36.7489572,-3.2430388],[36.7489575,-3.2430342],[36.7489582,-3.243032],[36.7489592,-3.2430306],[36.7489611,-3.2430291],[36.7489627,-3.2430295],[36.7489661,-3.2430294],[36.7489682,-3.2430339],[36.7489726,-3.2430323],[36.7489757,-3.2430267],[36.748977,-3.2430176],[36.7489808,-3.243013],[36.748983,-3.2430072],[36.7489869,-3.2430078],[36.7489877,-3.243005],[36.7489861,-3.2430037],[36.7489895,-3.2429997],[36.7489945,-3.2429965],[36.7489978,-3.2429983],[36.7490013,-3.2429934],[36.7490015,-3.2429975],[36.7490051,-3.2429966],[36.749007,-3.242994],[36.7490098,-3.2430004],[36.7490103,-3.2430072],[36.7490142,-3.2430083],[36.7490158,-3.2430154],[36.7490139,-3.2430201],[36.7490137,-3.2430232],[36.7490178,-3.2430217],[36.7490189,-3.2430298],[36.7490182,-3.2430339],[36.7490231,-3.2430345],[36.7490205,-3.2430379],[36.7490254,-3.2430349],[36.7490263,-3.2430364],[36.7490326,-3.243032],[36.7490355,-3.2430325],[36.7490385,-3.24303],[36.7490398,-3.243028],[36.74904,-3.2430298],[36.7490409,-3.2430324],[36.749043,-3.2430312],[36.7490464,-3.2430298],[36.7490453,-3.2430327],[36.7490462,-3.2430335],[36.7490487,-3.2430305],[36.7490508,-3.2430336],[36.7490502,-3.243035],[36.7490519,-3.243035],[36.7490525,-3.2430344],[36.7490544,-3.243036],[36.7490572,-3.2430346],[36.7490604,-3.2430346],[36.7490583,-3.2430384],[36.7490598,-3.2430381],[36.7490612,-3.2430367],[36.7490631,-3.2430373],[36.7490632,-3.2430404],[36.7490646,-3.2430418],[36.7490666,-3.2430433],[36.7490715,-3.2430445],[36.7490743,-3.2430456],[36.7490801,-3.2430443],[36.7490795,-3.243043],[36.7490839,-3.2430378],[36.7490842,-3.2430402],[36.7490863,-3.2430396],[36.7490876,-3.2430426],[36.749089,-3.2430366],[36.7490939,-3.2430369],[36.7490955,-3.2430329],[36.7491033,-3.243035],[36.7491048,-3.2430287],[36.7490981,-3.2430219],[36.7490993,-3.2430212],[36.7491072,-3.2430222],[36.7490968,-3.2430032],[36.7491001,-3.2430019],[36.7490992,-3.2430002],[36.7490987,-3.2429984],[36.7491016,-3.2429971],[36.7491052,-3.2430033],[36.7491078,-3.2430015],[36.7491103,-3.2430026],[36.74911,-3.2429974],[36.7491118,-3.242997],[36.7491134,-3.2430057],[36.7491142,-3.2430042],[36.7491171,-3.2430042],[36.7491185,-3.243003],[36.7491216,-3.2430035],[36.7491261,-3.2430061],[36.7491274,-3.2430105],[36.7491306,-3.2430107],[36.7491332,-3.2430077],[36.749136,-3.2430083],[36.7491392,-3.243006],[36.7491389,-3.2430107],[36.7491359,-3.243019],[36.7491392,-3.2430226],[36.749138,-3.2430283],[36.7491397,-3.2430305],[36.7491427,-3.2430292],[36.7491454,-3.2430309],[36.7491477,-3.2430308],[36.7491472,-3.2430334],[36.7491495,-3.2430306],[36.7491507,-3.2430287],[36.7491506,-3.243032],[36.7491523,-3.243031],[36.749155,-3.2430288],[36.7491564,-3.2430311],[36.7491601,-3.243032],[36.7491612,-3.2430363],[36.7491654,-3.2430377],[36.7491681,-3.2430421],[36.7491719,-3.2430392],[36.7491744,-3.2430365],[36.749175,-3.2430392],[36.7491722,-3.2430541],[36.749174,-3.2430581],[36.7491708,-3.2430604],[36.7491699,-3.2430619],[36.7491714,-3.2430633],[36.7491749,-3.2430648],[36.7491749,-3.2430679],[36.7491733,-3.2430742],[36.7491735,-3.2430769],[36.74917,-3.2430834],[36.7491708,-3.2430853],[36.7491732,-3.2430883],[36.7491803,-3.2430939],[36.7491827,-3.2430936],[36.7491857,-3.2430979],[36.7491899,-3.2430992],[36.7491899,-3.2431037],[36.7491914,-3.2431045],[36.7491926,-3.2431084],[36.7491938,-3.2431145],[36.7491929,-3.2431185],[36.7491962,-3.2431238],[36.7491944,-3.2431246],[36.7491917,-3.2431265],[36.7491923,-3.2431278],[36.749191,-3.2431292],[36.7491884,-3.2431298],[36.7491908,-3.243131],[36.7491962,-3.2431382],[36.7492023,-3.2431398],[36.749203,-3.2431419],[36.7492052,-3.2431448],[36.7492054,-3.2431465],[36.7492114,-3.2431487],[36.7492125,-3.2431519],[36.7492121,-3.2431546],[36.7492164,-3.2431568],[36.7492177,-3.2431568],[36.7492213,-3.2431587],[36.7492238,-3.2431616],[36.7492303,-3.2431641],[36.7492328,-3.2431639],[36.7492333,-3.2431698],[36.7492371,-3.2431719],[36.749239,-3.2431712],[36.7492423,-3.2431795],[36.7492397,-3.2431851],[36.7492408,-3.2431853],[36.7492447,-3.2431823],[36.7492426,-3.2431908],[36.7492473,-3.2431847],[36.7492457,-3.2431921],[36.7492493,-3.2431908],[36.749251,-3.2431873],[36.7492624,-3.2431849],[36.7492627,-3.2431754],[36.7492676,-3.2431653],[36.7492771,-3.2431631],[36.7492862,-3.2431765],[36.7492933,-3.2431762],[36.7492979,-3.2431788],[36.7492981,-3.2431818],[36.7493049,-3.2431872],[36.7493055,-3.2431917],[36.7493167,-3.2431936],[36.7493173,-3.2432041],[36.7493211,-3.2432062],[36.7493331,-3.2432101],[36.7493546,-3.2432125],[36.7493605,-3.2432061],[36.7493511,-3.2432288],[36.7493627,-3.2432439],[36.7493671,-3.2432416],[36.7493676,-3.2432521],[36.7493816,-3.2432642],[36.7493871,-3.2432509],[36.7493878,-3.2432382],[36.7493887,-3.2432296],[36.7493954,-3.2432218],[36.7493952,-3.2432149],[36.7494043,-3.2432224],[36.7494031,-3.2432317],[36.7494102,-3.2432344],[36.7494151,-3.2432467],[36.7494194,-3.2432467],[36.7494212,-3.2432542],[36.7494285,-3.2432571],[36.749435,-3.2432508],[36.749439,-3.2432426],[36.7494443,-3.243239],[36.7494558,-3.2432486],[36.749453,-3.2432639],[36.7494776,-3.243281],[36.7494748,-3.2433093],[36.7494778,-3.2433229],[36.749483,-3.2433306],[36.7494989,-3.2433284],[36.7495093,-3.2433248],[36.7495192,-3.2433202],[36.7495226,-3.2433094],[36.7495183,-3.2433056],[36.7495203,-3.243299],[36.7495308,-3.2432974],[36.7495374,-3.2433113],[36.7495483,-3.2433144],[36.7495587,-3.2433202],[36.7495617,-3.2433272],[36.7495703,-3.243326],[36.7495821,-3.243329],[36.7495971,-3.2433378],[36.7496071,-3.2433274],[36.7496224,-3.243335],[36.7496268,-3.2433292],[36.7496277,-3.2433149],[36.7496253,-3.2433083],[36.7496267,-3.2433012],[36.7496312,-3.2433056],[36.749634,-3.2433105],[36.749639,-3.2433099],[36.7496512,-3.2433256],[36.7496534,-3.2433334],[36.7496519,-3.2433378],[36.7496569,-3.2433413],[36.7496615,-3.2433373],[36.7496631,-3.2433312],[36.7496756,-3.2433343],[36.7496978,-3.2433517],[36.7497098,-3.2433412],[36.7497168,-3.2433397],[36.7497228,-3.2433433],[36.7497259,-3.2433376],[36.7497318,-3.2433344],[36.7497305,-3.2433449],[36.749734,-3.243347],[36.749732,-3.2433579],[36.7497424,-3.2433675],[36.7497417,-3.2433744],[36.7497525,-3.2433846],[36.7497512,-3.2433903],[36.7497684,-3.2433973],[36.7497713,-3.2434231],[36.7497851,-3.2434331],[36.749804,-3.243471]]}}]}
