{"type":"FeatureCollection","peaks_destination_id":"0O1nLlAchTkwWlUimyJP","peaks_trailhead_id":"3B4048A3FF9EA9CAA5F2","peaks_source":"https://www.openstreetmap.org/","peaks_retrieval_source":"https://api.openstreetmap.org/api/0.6","peaks_license_name":"Open Data Commons Open Database License (ODbL) 1.0","peaks_license":"https://opendatacommons.org/licenses/odbl/1-0/","peaks_attribution":"© OpenStreetMap contributors","peaks_retrieved_at":"2026-07-31T10:43:13.277Z","features":[{"type":"Feature","properties":{"name":"Mount Phelps OSM route candidate","trailhead_name":"FR 5730-113 Lower Route Start","destination_name":"Mount Phelps","distance_m":4130.4191254281795,"trailhead_snap_m":36.486897188783274,"summit_snap_m":50.02660523894821,"osm_way_ids":[6464740,428767804,428767805,428767806],"osm_way_urls":["https://www.openstreetmap.org/way/6464740","https://www.openstreetmap.org/way/428767804","https://www.openstreetmap.org/way/428767805","https://www.openstreetmap.org/way/428767806"],"osm_way_names":[],"osm_foot_access_override_way_ids":[]},"geometry":{"type":"LineString","coordinates":[[-121.538281,47.680235],[-121.5378067,47.6803105],[-121.5378494,47.6804632],[-121.5378952,47.6805391],[-121.53796,47.6805977],[-121.5380339,47.6806325],[-121.5381264,47.6806586],[-121.5382389,47.680663],[-121.5383332,47.6806495],[-121.5384305,47.6806131],[-121.5385751,47.6805438],[-121.5387305,47.6804682],[-121.5388482,47.6804283],[-121.5389858,47.6804008],[-121.5391803,47.6803979],[-121.5393593,47.6804126],[-121.5395077,47.680444],[-121.539613,47.6804992],[-121.5396962,47.6805557],[-121.5397779,47.6806205],[-121.5398584,47.6806814],[-121.5399842,47.6807289],[-121.5401944,47.6807846],[-121.5404216,47.6808091],[-121.5407279,47.680811],[-121.5410189,47.6807817],[-121.5412657,47.6807639],[-121.5414932,47.6807211],[-121.541622,47.6806886],[-121.5417293,47.6806272],[-121.5418902,47.6805405],[-121.5419659,47.6804626],[-121.5420753,47.6804123],[-121.5422174,47.6803635],[-121.5423971,47.6803437],[-121.5426916,47.6803189],[-121.5430945,47.6802606],[-121.5435869,47.6801741],[-121.5439431,47.6801051],[-121.5443768,47.6799848],[-121.5448132,47.6798608],[-121.5450907,47.6798261],[-121.5452592,47.6797998],[-121.5455106,47.6797402],[-121.5457565,47.679687],[-121.545942,47.679657],[-121.5460762,47.6796568],[-121.5462118,47.6796695],[-121.5463238,47.6796639],[-121.5464274,47.6796409],[-121.5465113,47.6795997],[-121.5465953,47.6795335],[-121.5466835,47.6794643],[-121.5467893,47.6794164],[-121.5471795,47.6792813],[-121.5481149,47.6789989],[-121.5487606,47.6787685],[-121.5492583,47.6785557],[-121.5498299,47.678316],[-121.550782,47.677961],[-121.5509157,47.6779309],[-121.5510201,47.6779301],[-121.5511491,47.6779376],[-121.5512679,47.6779334],[-121.5513526,47.6779143],[-121.5513959,47.6778664],[-121.551431,47.677782],[-121.5515067,47.6776874],[-121.5516396,47.6776039],[-121.551862,47.6775089],[-121.5522718,47.6773858],[-121.5529805,47.6772174],[-121.5540092,47.6770378],[-121.5547545,47.6769205],[-121.5555614,47.6768219],[-121.5559387,47.6767532],[-121.556314,47.6766529],[-121.5565035,47.6766092],[-121.5567122,47.6765647],[-121.5568636,47.6765516],[-121.5570146,47.6765452],[-121.5572511,47.676556],[-121.5574245,47.6765786],[-121.5574766,47.676586],[-121.5575171,47.6765776],[-121.557556,47.6765514],[-121.5576302,47.6764801],[-121.5578051,47.6763505],[-121.5580315,47.6762573],[-121.5586028,47.6761165],[-121.5592608,47.6759708],[-121.5596928,47.6758754],[-121.5597633,47.675893],[-121.5598712,47.6759137],[-121.5600586,47.6759342],[-121.5603755,47.6759669],[-121.560571,47.6759965],[-121.5607332,47.6760432],[-121.5608882,47.6761247],[-121.5609916,47.676158],[-121.5611115,47.6761739],[-121.5612397,47.6761502],[-121.56142,47.676114],[-121.5615981,47.6761157],[-121.5618325,47.6761447],[-121.5620381,47.6761763],[-121.5620183,47.6762032],[-121.5619583,47.6762516],[-121.5619254,47.6763465],[-121.5619763,47.6764554],[-121.5618924,47.6765442],[-121.5618774,47.6766007],[-121.5619314,47.6766774],[-121.5618564,47.6767601],[-121.5618714,47.6768368],[-121.5619853,47.6768933],[-121.5620033,47.67697],[-121.5620303,47.6770406],[-121.5621142,47.6770729],[-121.562252,47.6771576],[-121.562264,47.677321],[-121.5623899,47.6774199],[-121.5625068,47.677547],[-121.5625187,47.6776358],[-121.5626626,47.6777004],[-121.5627045,47.6778013],[-121.5627015,47.6778517],[-121.5625787,47.6779344],[-121.5625727,47.6780333],[-121.5626206,47.6781665],[-121.5625697,47.6782835],[-121.5627285,47.6783884],[-121.5627675,47.6784893],[-121.5629563,47.6785155],[-121.5630372,47.6785882],[-121.5629922,47.678683],[-121.5628903,47.6787597],[-121.5629023,47.678913],[-121.5628903,47.6790644],[-121.5628843,47.6791774],[-121.5629353,47.6793327],[-121.5629982,47.6794215],[-121.5629772,47.6795446],[-121.5631241,47.6796414],[-121.563196,47.6797988],[-121.563226,47.6799219],[-121.5632739,47.6800873],[-121.5632889,47.6802286],[-121.5632949,47.6803617],[-121.5634447,47.6805574],[-121.5634447,47.6807249],[-121.5634148,47.6808621],[-121.5635077,47.6809912],[-121.5636156,47.6811224],[-121.5635766,47.6812051],[-121.563634,47.6813428],[-121.5635394,47.6815006],[-121.5634739,47.6816645],[-121.5633882,47.6818372],[-121.5639171,47.6821108],[-121.564814,47.6823069],[-121.5661173,47.6822656],[-121.5671828,47.6821624],[-121.5681257,47.6823069],[-121.5687007,47.6826836],[-121.5692296,47.6830036],[-121.5698889,47.6831068],[-121.5694826,47.683303],[-121.568969,47.6836849],[-121.5684711,47.6842725],[-121.5682764,47.6844512],[-121.5680889,47.684556],[-121.567788,47.684699],[-121.5677314,47.6848157],[-121.5677066,47.6849468],[-121.5676429,47.685166],[-121.5675261,47.6852827],[-121.5674978,47.6854519],[-121.5674483,47.6855805],[-121.5672182,47.685683],[-121.5670519,47.6857831],[-121.567013,47.6858688],[-121.5670307,47.6860189],[-121.5670236,47.6861738],[-121.5669386,47.6862882],[-121.5668254,47.6863787],[-121.5668962,47.6864835],[-121.5669174,47.6865621],[-121.5669103,47.686636],[-121.5668289,47.6866455],[-121.5666059,47.6865621],[-121.5663476,47.6865359],[-121.5661494,47.6865097],[-121.5659901,47.6864811],[-121.565884,47.6864978],[-121.5659937,47.6865764],[-121.566022,47.6866479],[-121.5659087,47.6867218],[-121.5659052,47.6868075],[-121.565884,47.68691],[-121.5658202,47.6869767],[-121.5657636,47.6871435],[-121.5656716,47.6872197],[-121.5655548,47.6872173],[-121.5654451,47.6871792],[-121.5653212,47.6871482],[-121.5651761,47.687215],[-121.5651761,47.6873174],[-121.565215,47.6874246],[-121.5651867,47.687539],[-121.5651407,47.6876057],[-121.5650275,47.6876605],[-121.5649284,47.6876748],[-121.5649988,47.6877546],[-121.5651246,47.6879367],[-121.565351,47.68836]]}}]}
