{"type":"FeatureCollection","peaks_destination_id":"wFCH3a5ICakJST9TckbG","peaks_trailhead_id":"35CC2D02AAC7D0193EA4","peaks_source":"https://www.openstreetmap.org/","peaks_retrieval_source":"https://overpass-api.de/api/interpreter","peaks_license_name":"Open Data Commons Open Database License (ODbL) 1.0","peaks_license":"https://opendatacommons.org/licenses/odbl/1-0/","peaks_attribution":"© OpenStreetMap contributors","peaks_retrieved_at":"2026-07-30T17:37:17.548Z","features":[{"type":"Feature","properties":{"name":"Mount Arvon OSM route candidate","trailhead_name":"Mount Arvon Summit Parking","destination_name":"Mount Arvon","distance_m":82.33219753003787,"trailhead_snap_m":0,"summit_snap_m":12.37449774758114,"osm_way_ids":[87100696,1521712115],"osm_way_urls":["https://www.openstreetmap.org/way/87100696","https://www.openstreetmap.org/way/1521712115"],"osm_way_names":[],"osm_foot_access_override_way_ids":[]},"geometry":{"type":"LineString","coordinates":[[-88.1545601,46.7559732],[-88.1545601,46.7559732],[-88.1545396,46.7560458],[-88.1546681,46.7560032],[-88.1547755,46.7559722],[-88.1550445,46.755895],[-88.1552848,46.755828],[-88.155447,46.755822]]}}]}
