{"type":"FeatureCollection","peaks_destination_id":"KansQVLr6wEWz93KbaJv","peaks_trailhead_id":"79A77B72222615113F64","peaks_source":"https://www.openstreetmap.org/","peaks_retrieval_source":"https://api.openstreetmap.org/api/0.6","peaks_license_name":"Open Data Commons Open Database License (ODbL) 1.0","peaks_license":"https://opendatacommons.org/licenses/odbl/1-0/","peaks_attribution":"© OpenStreetMap contributors","peaks_retrieved_at":"2026-07-31T07:06:54.422Z","features":[{"type":"Feature","properties":{"name":"Mount Timpanogos OSM route candidate","trailhead_name":"Timpooneke Trailhead","destination_name":"Mount Timpanogos","distance_m":11403.951353952929,"trailhead_snap_m":20.411650666050726,"summit_snap_m":3.9420531981309033,"osm_way_ids":[604044880,1148666330,10211192,604044888],"osm_way_urls":["https://www.openstreetmap.org/way/604044880","https://www.openstreetmap.org/way/1148666330","https://www.openstreetmap.org/way/10211192","https://www.openstreetmap.org/way/604044888"],"osm_way_names":["Timpooneke Trailhead Road","Timpooneke Trail","Timpanogos Summit Trail"],"osm_foot_access_override_way_ids":[]},"geometry":{"type":"LineString","coordinates":[[-111.6387683,40.4315007],[-111.6385532,40.4314177],[-111.6385413,40.431415],[-111.6385341,40.4314118],[-111.6385291,40.431405],[-111.6385271,40.4313983],[-111.6385406,40.4312503],[-111.6385449,40.4312439],[-111.6385527,40.4312393],[-111.6385613,40.4312373],[-111.6391207,40.4312654],[-111.6391362,40.4311836],[-111.6391493,40.431161],[-111.6391534,40.4311333],[-111.6391549,40.4310908],[-111.6391514,40.4310719],[-111.639142,40.4310551],[-111.639097,40.4309682],[-111.6390897,40.4309501],[-111.6390891,40.4309334],[-111.6390914,40.4308902],[-111.6391177,40.430836],[-111.639144,40.4307907],[-111.6391543,40.4307777],[-111.639175,40.4307648],[-111.6392018,40.4307561],[-111.6392409,40.43075],[-111.6392716,40.4307392],[-111.6392853,40.4307223],[-111.6392884,40.4307028],[-111.639278,40.430632],[-111.6392836,40.4305579],[-111.6392988,40.4305225],[-111.6393057,40.430487],[-111.6392958,40.4304477],[-111.6392714,40.4304162],[-111.6391621,40.4303173],[-111.6391261,40.43026],[-111.6391025,40.4301963],[-111.6390623,40.4295755],[-111.639008,40.4291384],[-111.63902,40.4289315],[-111.6390388,40.4288568],[-111.6391414,40.4287704],[-111.6392205,40.4287114],[-111.6393101,40.4286671],[-111.6394162,40.4285859],[-111.6394164,40.4285404],[-111.6393649,40.4284891],[-111.6392839,40.4284511],[-111.6392468,40.4284217],[-111.6391878,40.4283625],[-111.6391572,40.4283291],[-111.6391243,40.4282852],[-111.6391042,40.428225],[-111.6390921,40.428128],[-111.6391317,40.4280382],[-111.6391364,40.4279412],[-111.6390827,40.4278238],[-111.6390027,40.4276989],[-111.6389383,40.4274988],[-111.638903,40.427346],[-111.6389044,40.4272031],[-111.6389544,40.426921],[-111.6389982,40.4268162],[-111.6390398,40.4267692],[-111.6390948,40.4267335],[-111.6391851,40.4266882],[-111.639228,40.4266433],[-111.6392629,40.4265902],[-111.6392897,40.4264861],[-111.6392705,40.426419],[-111.6392839,40.4263823],[-111.6393174,40.4263384],[-111.6393299,40.4262962],[-111.6393243,40.4261748],[-111.6392939,40.4260511],[-111.6392437,40.4258974],[-111.6392039,40.4257796],[-111.6390832,40.4255469],[-111.6390572,40.4254135],[-111.6390814,40.425243],[-111.6392021,40.4251113],[-111.6393791,40.4249336],[-111.6394207,40.4248703],[-111.6394448,40.4248131],[-111.6394624,40.4247751],[-111.6394856,40.4247407],[-111.6395206,40.4247121],[-111.6395471,40.4246942],[-111.6395818,40.4246733],[-111.6396218,40.4246614],[-111.6397409,40.4246351],[-111.6398656,40.4246249],[-111.6401154,40.4245936],[-111.6401964,40.4245727],[-111.6402833,40.4245399],[-111.6403527,40.4245038],[-111.6403769,40.4244803],[-111.6404185,40.4244528],[-111.640452,40.4244395],[-111.6405633,40.4243456],[-111.6409972,40.4239124],[-111.6410471,40.4238503],[-111.6410971,40.4238096],[-111.6411543,40.4237757],[-111.6412144,40.423746],[-111.6413438,40.4236952],[-111.6414526,40.423642],[-111.6415517,40.4235931],[-111.6417797,40.4234043],[-111.642013,40.4232031],[-111.6421498,40.4230541],[-111.6422276,40.4229755],[-111.6425025,40.4227785],[-111.6425588,40.4227392],[-111.6426027,40.4226956],[-111.6426498,40.4226625],[-111.6426885,40.4226262],[-111.6427894,40.4225532],[-111.6428975,40.4224633],[-111.6429618,40.4224273],[-111.6430952,40.4223199],[-111.6431355,40.4222704],[-111.6431653,40.422217],[-111.643193,40.4221679],[-111.6431999,40.4221474],[-111.6431969,40.4221364],[-111.6431836,40.4221271],[-111.6431559,40.4221013],[-111.6431309,40.4220683],[-111.6431156,40.4220497],[-111.6431096,40.4220318],[-111.6431096,40.4220086],[-111.6431203,40.4219698],[-111.6431978,40.4217624],[-111.643302,40.4213452],[-111.6433043,40.4212916],[-111.6432744,40.421228],[-111.6432642,40.4211895],[-111.643222,40.4208128],[-111.6432129,40.4207715],[-111.6430519,40.4205361],[-111.6427534,40.4202067],[-111.6425559,40.4200264],[-111.6424979,40.4199964],[-111.6420874,40.4198388],[-111.6419929,40.4197832],[-111.6418769,40.4196786],[-111.641672,40.419331],[-111.6414189,40.4189602],[-111.6414053,40.4188992],[-111.6414058,40.4187844],[-111.6414194,40.4187296],[-111.6414544,40.4186422],[-111.6414525,40.4185952],[-111.6414238,40.4185359],[-111.6412539,40.4182743],[-111.6412343,40.4182251],[-111.6412264,40.418175],[-111.641235,40.4178942],[-111.6412299,40.417844],[-111.6412283,40.4178202],[-111.6412234,40.4178093],[-111.6412194,40.4178006],[-111.6412078,40.4177872],[-111.6411864,40.4177723],[-111.6411697,40.4177647],[-111.6411509,40.4177637],[-111.641121,40.4177641],[-111.6410612,40.417766],[-111.6410509,40.4177656],[-111.6410361,40.4177588],[-111.6410371,40.417751],[-111.6410447,40.4177451],[-111.6410551,40.4177397],[-111.6410806,40.4177352],[-111.6411271,40.4177227],[-111.6411847,40.4177054],[-111.6412306,40.4176967],[-111.6412577,40.4176893],[-111.6412801,40.4176884],[-111.6412993,40.4176913],[-111.6413182,40.4177036],[-111.6413277,40.4177159],[-111.6413442,40.4177375],[-111.6413624,40.4177678],[-111.6413933,40.4177958],[-111.6414242,40.4178172],[-111.6414548,40.4178763],[-111.6414725,40.4179388],[-111.6415047,40.4180389],[-111.6415527,40.4180676],[-111.6415974,40.4181318],[-111.6416395,40.4181794],[-111.6417471,40.4182695],[-111.6418548,40.4183311],[-111.6419447,40.4183927],[-111.6422071,40.4184908],[-111.6423456,40.4185503],[-111.6424591,40.4186024],[-111.642596,40.4187127],[-111.6426733,40.4187788],[-111.6427127,40.4188003],[-111.6427381,40.4188058],[-111.6427489,40.418807],[-111.6427606,40.4188075],[-111.6427694,40.4188028],[-111.6427711,40.4187929],[-111.642769,40.4187828],[-111.6427685,40.4187731],[-111.6427662,40.4187253],[-111.64275,40.4186506],[-111.6427235,40.4185893],[-111.6427221,40.4185579],[-111.6426949,40.4185131],[-111.64269,40.418479],[-111.6426946,40.4184544],[-111.6426881,40.4184299],[-111.6426666,40.4184106],[-111.6426353,40.4183786],[-111.6425902,40.4183444],[-111.6425253,40.4183271],[-111.6424523,40.4182886],[-111.6423715,40.4182352],[-111.6423115,40.4181647],[-111.64228,40.4180963],[-111.6422727,40.4179878],[-111.6422761,40.4178493],[-111.6422931,40.4177555],[-111.6422929,40.4177283],[-111.6422892,40.4177037],[-111.6422698,40.4176742],[-111.6422432,40.4176331],[-111.6422235,40.4175977],[-111.6421608,40.4175007],[-111.6421264,40.4174615],[-111.6418798,40.4172002],[-111.6417846,40.4170993],[-111.641677,40.4170077],[-111.6416358,40.4169845],[-111.6416002,40.4169786],[-111.6415565,40.4169779],[-111.6415202,40.4169809],[-111.6414813,40.4169881],[-111.6414299,40.4170161],[-111.6412801,40.4171229],[-111.6412556,40.4171369],[-111.6412257,40.4171436],[-111.6411487,40.4171522],[-111.6410497,40.417175],[-111.640974,40.4172018],[-111.6409592,40.4172037],[-111.6409376,40.4172043],[-111.6409202,40.417201],[-111.6409121,40.4171958],[-111.6409114,40.4171862],[-111.6409217,40.4171774],[-111.6409557,40.4171634],[-111.6409971,40.4171482],[-111.6410278,40.417133],[-111.6410626,40.417107],[-111.6411135,40.4170627],[-111.6411736,40.4170212],[-111.6414082,40.4168832],[-111.6414692,40.4168564],[-111.6415088,40.4168455],[-111.6415701,40.4168408],[-111.6416203,40.4168427],[-111.6416882,40.4168474],[-111.6417662,40.4168684],[-111.6418197,40.4168948],[-111.6419637,40.4170064],[-111.6420436,40.4170793],[-111.6420981,40.417129],[-111.6422782,40.4172599],[-111.6424364,40.417363],[-111.6427012,40.4175334],[-111.6427745,40.4175837],[-111.6428406,40.4176254],[-111.6428893,40.4176681],[-111.642951,40.4177161],[-111.6429878,40.4177363],[-111.64301,40.4177475],[-111.6430173,40.4177487],[-111.6430261,40.4177472],[-111.6430316,40.4177417],[-111.6430337,40.4177347],[-111.6430315,40.4177252],[-111.6430255,40.4177099],[-111.6430132,40.4176913],[-111.6429806,40.4176559],[-111.6428349,40.4175256],[-111.6426843,40.417376],[-111.6425864,40.4172802],[-111.6424793,40.4172002],[-111.6424165,40.4171445],[-111.6423869,40.4171099],[-111.6423675,40.4170702],[-111.6423587,40.4170164],[-111.6423685,40.4168734],[-111.6423671,40.416847],[-111.6423665,40.416836],[-111.6423535,40.4167967],[-111.6423218,40.4167561],[-111.6422801,40.4167112],[-111.6422644,40.4166736],[-111.6422671,40.4166209],[-111.6422785,40.4165796],[-111.6423052,40.4165469],[-111.6423478,40.4165201],[-111.6423943,40.4164737],[-111.6424525,40.4164251],[-111.6425489,40.4163858],[-111.6426121,40.4163741],[-111.642678,40.416356],[-111.6427421,40.4163324],[-111.642875,40.4162577],[-111.6429428,40.4162172],[-111.6430292,40.4161932],[-111.643082,40.4161671],[-111.6431469,40.4160946],[-111.6431711,40.4160594],[-111.6431952,40.4160242],[-111.6432225,40.4159627],[-111.6432379,40.4159145],[-111.6432427,40.4158877],[-111.6432456,40.415856],[-111.6432387,40.4158265],[-111.6431443,40.4156502],[-111.6430532,40.415526],[-111.6429269,40.4153912],[-111.6428435,40.4153255],[-111.642782,40.4152759],[-111.6427395,40.4152616],[-111.6426105,40.4152374],[-111.6425823,40.4152218],[-111.6425118,40.4152011],[-111.6424528,40.415178],[-111.6423855,40.415175],[-111.6423504,40.4151666],[-111.6423318,40.4151448],[-111.6423356,40.4151209],[-111.6422702,40.4149801],[-111.642254,40.4149489],[-111.6422295,40.4149],[-111.6422148,40.4148817],[-111.6422099,40.414855],[-111.6422107,40.4148151],[-111.642217,40.4147815],[-111.6421964,40.414731],[-111.6421879,40.414704],[-111.6421014,40.4146408],[-111.642027,40.4145989],[-111.6417368,40.4145629],[-111.6416355,40.414562],[-111.6415367,40.4145526],[-111.641391,40.4145042],[-111.6412204,40.4144612],[-111.6410302,40.4144106],[-111.6407624,40.4142874],[-111.6407276,40.4142584],[-111.6407088,40.414239],[-111.6406996,40.4142245],[-111.6406979,40.4142055],[-111.6407228,40.4141623],[-111.64073,40.4141468],[-111.640726,40.4141314],[-111.6407068,40.4141243],[-111.6406228,40.4140995],[-111.6405784,40.4140823],[-111.6405429,40.4140613],[-111.6405196,40.414031],[-111.640518,40.413993],[-111.6405242,40.4139468],[-111.6405279,40.4138956],[-111.6405613,40.4138512],[-111.6406057,40.4138124],[-111.6406975,40.4137358],[-111.640818,40.4136707],[-111.6409341,40.4135983],[-111.6410269,40.4135699],[-111.6411119,40.4135141],[-111.6412203,40.4134362],[-111.6412379,40.413418],[-111.6412522,40.4133974],[-111.6412632,40.4133536],[-111.6412803,40.413252],[-111.6412752,40.4131778],[-111.6412758,40.4131388],[-111.6412722,40.4131199],[-111.6412614,40.4131025],[-111.6412408,40.4130938],[-111.641221,40.4130784],[-111.6410931,40.4129159],[-111.6410026,40.4128481],[-111.6409322,40.4127644],[-111.6407415,40.4126166],[-111.6407129,40.4125691],[-111.6405098,40.4124131],[-111.6403767,40.4123444],[-111.6402052,40.412283],[-111.6400776,40.4122647],[-111.6399819,40.4122421],[-111.6399489,40.4122339],[-111.6399139,40.4122108],[-111.639895,40.4121827],[-111.6398741,40.4121552],[-111.6398161,40.4121134],[-111.6397659,40.4120544],[-111.6397433,40.4120147],[-111.6397319,40.4119698],[-111.6397328,40.41193],[-111.6397427,40.4118975],[-111.6397533,40.4118803],[-111.639766,40.4118674],[-111.6397749,40.4118621],[-111.639788,40.4118691],[-111.6398092,40.4119247],[-111.6398263,40.4119484],[-111.6398448,40.4119624],[-111.6398637,40.4119714],[-111.639884,40.411975],[-111.6398968,40.4119713],[-111.6399026,40.4119602],[-111.639903,40.4119475],[-111.6398968,40.4119275],[-111.6398914,40.4119013],[-111.6398933,40.4118776],[-111.6399134,40.4118252],[-111.6399243,40.4117728],[-111.6399355,40.4117469],[-111.6399523,40.4117242],[-111.6399762,40.411682],[-111.6399916,40.4116306],[-111.6399968,40.4116051],[-111.6399965,40.4115813],[-111.6400053,40.4115659],[-111.6400236,40.4115553],[-111.6400427,40.4115548],[-111.6400549,40.4115657],[-111.6400585,40.4115767],[-111.6400643,40.4115853],[-111.6400789,40.4115976],[-111.6400933,40.4116055],[-111.640112,40.411609],[-111.6401218,40.4116057],[-111.6401348,40.4115968],[-111.640146,40.411587],[-111.6401553,40.4115785],[-111.6401688,40.4115756],[-111.6401856,40.4115776],[-111.6401991,40.4115852],[-111.6402087,40.4115933],[-111.6402235,40.4115989],[-111.6402702,40.4116094],[-111.6403387,40.4116328],[-111.6403599,40.4116389],[-111.6403929,40.4116409],[-111.640427,40.4116361],[-111.6404802,40.4116216],[-111.6405261,40.4116136],[-111.6406976,40.4116237],[-111.6407746,40.4116364],[-111.6408156,40.4116346],[-111.640843,40.4116303],[-111.6409274,40.4116415],[-111.6410048,40.4116532],[-111.6411044,40.4116417],[-111.6411168,40.4116422],[-111.6411291,40.411644],[-111.6411362,40.411649],[-111.6411404,40.4116579],[-111.6411387,40.4116693],[-111.6411507,40.411699],[-111.641153,40.4117291],[-111.6411568,40.4117379],[-111.6411758,40.4117524],[-111.641198,40.4117632],[-111.6412069,40.4117767],[-111.6412248,40.4117942],[-111.6412396,40.4118038],[-111.6412576,40.4118118],[-111.6412783,40.4118193],[-111.6413002,40.4118245],[-111.641326,40.4118195],[-111.6413567,40.4118168],[-111.6413731,40.4118122],[-111.6413905,40.4118028],[-111.6414143,40.4117973],[-111.6414439,40.4117982],[-111.6414743,40.4117954],[-111.6415058,40.4117861],[-111.6415394,40.4117639],[-111.6415738,40.4117489],[-111.6415984,40.4117296],[-111.6416185,40.4116993],[-111.6416514,40.411671],[-111.6416826,40.4116415],[-111.6417031,40.4116345],[-111.6417173,40.4116269],[-111.6417219,40.4116169],[-111.6417919,40.4113978],[-111.6418295,40.4112648],[-111.6418395,40.4112158],[-111.6418519,40.4111646],[-111.6418664,40.4111376],[-111.6418875,40.4111149],[-111.6419053,40.4111036],[-111.6419348,40.4110902],[-111.6419622,40.4110819],[-111.641994,40.4110765],[-111.6420446,40.4110726],[-111.6420806,40.4110744],[-111.6421023,40.4110769],[-111.6421352,40.4110866],[-111.6421607,40.4111044],[-111.6421797,40.4111336],[-111.6422211,40.411199],[-111.6422333,40.4112143],[-111.6422357,40.4112241],[-111.6422339,40.411234],[-111.6422327,40.4112777],[-111.6422399,40.4113215],[-111.6422814,40.4114355],[-111.6422939,40.4114732],[-111.6422958,40.4114884],[-111.6422904,40.4115036],[-111.6422775,40.4115212],[-111.6422695,40.4115337],[-111.6422614,40.4115461],[-111.6422603,40.4115825],[-111.6422757,40.411657],[-111.6422801,40.4116922],[-111.6422763,40.4117249],[-111.6422572,40.4117899],[-111.6422527,40.4118306],[-111.6422594,40.4118791],[-111.6422705,40.4119032],[-111.6423809,40.412037],[-111.6423963,40.41207],[-111.642419,40.4121501],[-111.6424378,40.4122885],[-111.6424902,40.4124249],[-111.6425754,40.4126351],[-111.6426097,40.4126776],[-111.6426454,40.4127084],[-111.6426832,40.4127413],[-111.6427252,40.4127678],[-111.6428214,40.4128015],[-111.6429314,40.4128222],[-111.6429789,40.4128323],[-111.6430734,40.4128415],[-111.6431496,40.4128484],[-111.6431944,40.4128446],[-111.6432331,40.4128501],[-111.6432618,40.4128656],[-111.6432782,40.4128789],[-111.6432946,40.4128875],[-111.6433426,40.4128922],[-111.6433858,40.4129068],[-111.6434545,40.4129322],[-111.6434842,40.4129343],[-111.6435055,40.4129312],[-111.6435169,40.4129198],[-111.6435484,40.4129098],[-111.6435778,40.4129029],[-111.6436016,40.4128985],[-111.643634,40.4128928],[-111.643672,40.4128968],[-111.6437111,40.4129098],[-111.6437668,40.4129309],[-111.6438425,40.4129343],[-111.6438945,40.412936],[-111.6439396,40.4129453],[-111.6439674,40.4129666],[-111.6440256,40.4130291],[-111.644071,40.4130717],[-111.6440973,40.4131174],[-111.6442714,40.413221],[-111.6443563,40.4132615],[-111.6443723,40.4132721],[-111.6443798,40.4132892],[-111.6443863,40.4133363],[-111.6444129,40.413492],[-111.6444523,40.4135638],[-111.6445054,40.4136292],[-111.6445732,40.4136917],[-111.6446346,40.4137235],[-111.6446843,40.4137496],[-111.6447447,40.4138162],[-111.6448271,40.4138587],[-111.6449023,40.4139366],[-111.6449569,40.4139634],[-111.6450094,40.4139975],[-111.6450559,40.414051],[-111.6451478,40.4141741],[-111.6452181,40.4142394],[-111.6453086,40.4142955],[-111.645502,40.4144076],[-111.6455643,40.4144495],[-111.6456035,40.4144653],[-111.6456508,40.4144749],[-111.6457186,40.4144771],[-111.6457724,40.4144833],[-111.6457915,40.4144933],[-111.6458076,40.4145131],[-111.6458532,40.4145544],[-111.6458979,40.414587],[-111.6459457,40.4146436],[-111.6459737,40.4146556],[-111.6459887,40.4146738],[-111.6460426,40.4147285],[-111.6460932,40.4147538],[-111.6461812,40.4147915],[-111.6462235,40.4148121],[-111.646234,40.4148201],[-111.6462408,40.4148281],[-111.646243,40.414842],[-111.646239,40.414854],[-111.6462312,40.4148624],[-111.6462246,40.4148723],[-111.6462205,40.4148837],[-111.6462192,40.4149062],[-111.6462167,40.414918],[-111.64621,40.4149297],[-111.6460795,40.4151254],[-111.645899,40.4153818],[-111.6458628,40.4154531],[-111.6458479,40.4155098],[-111.6458245,40.4156038],[-111.6457031,40.4162603],[-111.6456989,40.4163008],[-111.6456978,40.4163255],[-111.6457031,40.4163352],[-111.6457138,40.4163369],[-111.6457255,40.4163312],[-111.6457351,40.416319],[-111.6457691,40.4162558],[-111.6462793,40.4154375],[-111.6463197,40.4153905],[-111.6463878,40.4153273],[-111.6464815,40.4152576],[-111.6465922,40.415196],[-111.6466731,40.415149],[-111.6469563,40.4150063],[-111.6470861,40.4149302],[-111.6471628,40.4148767],[-111.6480037,40.4143061],[-111.6480377,40.4142721],[-111.6480505,40.4142413],[-111.6480675,40.4142008],[-111.6480888,40.414157],[-111.6481186,40.4141181],[-111.6481591,40.4140776],[-111.6482016,40.4140306],[-111.6482229,40.4139917],[-111.6483315,40.4137534],[-111.6484081,40.413627],[-111.6484571,40.413567],[-111.6485962,40.4134288],[-111.6486475,40.4133714],[-111.6488063,40.4131816],[-111.6489327,40.4130705],[-111.6490077,40.4129903],[-111.6491121,40.412818],[-111.6492409,40.4124872],[-111.649273,40.4123116],[-111.6492804,40.412243],[-111.6492984,40.4121809],[-111.6493261,40.4121439],[-111.6493601,40.4121069],[-111.6493819,40.4120868],[-111.6493974,40.4120667],[-111.6494123,40.4120297],[-111.64942,40.4119689],[-111.6494179,40.4119113],[-111.6493713,40.41183],[-111.6493421,40.4117828],[-111.649332,40.4117333],[-111.6493257,40.4116682],[-111.6493642,40.4115028],[-111.6494405,40.4112753],[-111.6495225,40.4111414],[-111.6495881,40.4110447],[-111.6496035,40.4110147],[-111.6495994,40.4109892],[-111.6495785,40.4109588],[-111.649547,40.4109318],[-111.6494938,40.4109052],[-111.6494113,40.4108843],[-111.6493306,40.4108512],[-111.6492704,40.4108003],[-111.6491775,40.4107615],[-111.6490358,40.4107834],[-111.6488251,40.4107401],[-111.6486546,40.4106746],[-111.6484941,40.4106894],[-111.6479507,40.4105003],[-111.6476518,40.4104712],[-111.6471752,40.4103203],[-111.64702,40.4102162],[-111.6466824,40.4099759],[-111.6465711,40.4098514],[-111.6465608,40.4097965],[-111.6464701,40.4097312],[-111.6463638,40.4096974],[-111.6463146,40.4096536],[-111.6462647,40.4095522],[-111.6461587,40.4094988],[-111.6461391,40.4094772],[-111.6461355,40.4094524],[-111.646145,40.4094394],[-111.6461622,40.4094329],[-111.6461968,40.4094364],[-111.6462246,40.4094445],[-111.646395,40.4094881],[-111.6465144,40.4095535],[-111.6466847,40.4095729],[-111.6468273,40.409637],[-111.6468711,40.4097036],[-111.6470791,40.4098261],[-111.6471638,40.4099714],[-111.647205,40.410046],[-111.6472222,40.4100782],[-111.6472364,40.4100922],[-111.6472531,40.4100937],[-111.6472603,40.4100848],[-111.6472618,40.410072],[-111.6472178,40.4099556],[-111.647198,40.4098147],[-111.6470301,40.4095679],[-111.6469658,40.4094344],[-111.6467794,40.4092502],[-111.6466308,40.4089794],[-111.6465236,40.408867],[-111.6464875,40.4088303],[-111.6464662,40.4088029],[-111.6464682,40.4087682],[-111.646485,40.4087317],[-111.6464945,40.4086915],[-111.6464821,40.4086587],[-111.6464485,40.4086145],[-111.6464214,40.4085882],[-111.646356,40.4085561],[-111.64631,40.4085391],[-111.646269,40.4085296],[-111.646208,40.4085218],[-111.6461519,40.4085595],[-111.6460947,40.4085917],[-111.6460037,40.4086103],[-111.6459249,40.4086401],[-111.6457605,40.4086755],[-111.6454804,40.4086926],[-111.6452672,40.4087484],[-111.6452239,40.4087498],[-111.645177,40.4087475],[-111.6451343,40.4087344],[-111.6450561,40.4086935],[-111.6449315,40.4086319],[-111.6448436,40.4085546],[-111.6447815,40.4085406],[-111.6446953,40.4084963],[-111.6446375,40.4084481],[-111.6445953,40.4084119],[-111.644574,40.4083808],[-111.6445802,40.4083548],[-111.6446013,40.4083386],[-111.6446477,40.4083343],[-111.6447133,40.4083423],[-111.6447419,40.4083393],[-111.6447682,40.4083262],[-111.6447778,40.4083081],[-111.644786,40.4082779],[-111.6447864,40.4082349],[-111.6447533,40.4081698],[-111.6446879,40.408097],[-111.6444282,40.4079105],[-111.6442008,40.4077733],[-111.6440638,40.4077039],[-111.643992,40.4076853],[-111.6439607,40.4076718],[-111.6439352,40.4076485],[-111.6438295,40.4074939],[-111.6436156,40.4073693],[-111.64352,40.407284],[-111.6434846,40.4072207],[-111.6434534,40.4071427],[-111.6434039,40.4070729],[-111.6433184,40.4069762],[-111.6432937,40.4069413],[-111.6432783,40.4068909],[-111.6432774,40.4068194],[-111.6432663,40.4067015],[-111.6432188,40.4065167],[-111.6431341,40.4063009],[-111.643028,40.4060674],[-111.6429771,40.4060125],[-111.6429265,40.4059653],[-111.6428969,40.4059396],[-111.6428857,40.4059251],[-111.642887,40.4059117],[-111.6429002,40.4059072],[-111.6429176,40.4059101],[-111.6429413,40.4059203],[-111.6429773,40.405945],[-111.6430349,40.4059622],[-111.6431611,40.4061072],[-111.6432504,40.4061519],[-111.6433002,40.406195],[-111.6433585,40.4062229],[-111.6433983,40.4062611],[-111.6434265,40.4063086],[-111.6434467,40.4063324],[-111.6434593,40.4063396],[-111.6434668,40.4063305],[-111.6434657,40.4063159],[-111.6434515,40.4062259],[-111.6434237,40.4061453],[-111.6433641,40.4060135],[-111.6433167,40.4058863],[-111.6431952,40.4056291],[-111.6428876,40.4049777],[-111.6428253,40.4048566],[-111.6427884,40.4047959],[-111.6427356,40.4047382],[-111.6426338,40.4046534],[-111.6425968,40.4046202],[-111.6425698,40.404583],[-111.6425462,40.4045348],[-111.6425209,40.4045059],[-111.6424915,40.4044846],[-111.6424757,40.4044754],[-111.6424598,40.4044719],[-111.6424358,40.4044722],[-111.6422089,40.4045022],[-111.642151,40.4045098],[-111.642093,40.4045282],[-111.642052,40.4045598],[-111.6420109,40.4046016],[-111.6419773,40.404623],[-111.6419444,40.4046388],[-111.6419102,40.4046413],[-111.6418759,40.4046458],[-111.6418399,40.4046583],[-111.6418148,40.4046626],[-111.6417823,40.4046626],[-111.6417119,40.4046626],[-111.6416589,40.4046646],[-111.6416234,40.4046732],[-111.641575,40.4046938],[-111.6415299,40.4047233],[-111.6414117,40.4048056],[-111.6413855,40.4048259],[-111.6413747,40.4048471],[-111.6413719,40.4048821],[-111.6413633,40.4049124],[-111.6413425,40.4049453],[-111.6412816,40.4049815],[-111.6412309,40.40501],[-111.6411206,40.4050444],[-111.6410838,40.4050593],[-111.641066,40.4050638],[-111.6410568,40.4050625],[-111.6410525,40.4050542],[-111.6410508,40.4050452],[-111.6410728,40.4048638],[-111.641072,40.4048509],[-111.6410677,40.4048438],[-111.641061,40.40484],[-111.6410458,40.404838],[-111.641028,40.4048419],[-111.6410069,40.4048528],[-111.6409326,40.4049075],[-111.6409097,40.4049178],[-111.6408743,40.4049268],[-111.6408337,40.4049352],[-111.6408016,40.4049493],[-111.6406571,40.4050259],[-111.6406242,40.4050432],[-111.6405963,40.4050529],[-111.6405566,40.4050709],[-111.6405287,40.4050889],[-111.640353,40.405206],[-111.6403353,40.405224],[-111.6403251,40.4052285],[-111.6403175,40.4052292],[-111.6403099,40.405224],[-111.6403082,40.4052169],[-111.6403108,40.405206],[-111.6403817,40.4050426],[-111.6404071,40.4050008],[-111.6404272,40.4049795],[-111.6404602,40.4049495],[-111.64049,40.4049268],[-111.6405071,40.4049114],[-111.640522,40.404892],[-111.6405294,40.4048701],[-111.6405369,40.4048514],[-111.6405496,40.4048344],[-111.6405677,40.4048117],[-111.6405826,40.4047907],[-111.6405954,40.4047582],[-111.6406007,40.4047404],[-111.640605,40.4047218],[-111.6406071,40.4047039],[-111.6405954,40.4045272],[-111.6405975,40.4045102],[-111.6406018,40.4044908],[-111.6406146,40.4044624],[-111.6406422,40.4044048],[-111.6406987,40.4043003],[-111.6407136,40.4042792],[-111.6407317,40.4042573],[-111.6407668,40.4042281],[-111.6408221,40.4041836],[-111.6408424,40.4041609],[-111.6408658,40.4041341],[-111.6408828,40.4041025],[-111.6408977,40.4040725],[-111.6409839,40.403908],[-111.641001,40.403878],[-111.6410286,40.4038496],[-111.641068,40.4037929],[-111.6411031,40.4037556],[-111.6411298,40.4037215],[-111.6411447,40.4036899],[-111.6411574,40.4036721],[-111.6411691,40.4036591],[-111.6411915,40.4036478],[-111.641226,40.4036334],[-111.6412383,40.4036283],[-111.6412649,40.4036137],[-111.6412905,40.403591],[-111.6413448,40.4035481],[-111.6413767,40.4035294],[-111.6413937,40.4035229],[-111.641415,40.4035156],[-111.641431,40.4035124],[-111.6414429,40.4035121],[-111.6414608,40.4035116],[-111.641481,40.4035148],[-111.6415039,40.4035235],[-111.6415333,40.403537],[-111.6415661,40.4035554],[-111.6416117,40.4036003],[-111.6416238,40.4036115],[-111.6416359,40.4036182],[-111.6416473,40.4036187],[-111.6416573,40.4036141],[-111.6416613,40.4036074],[-111.64166,40.4035982],[-111.6416486,40.4035696],[-111.6416359,40.403538],[-111.641605,40.4034032],[-111.6415909,40.4033378],[-111.6415876,40.4033123],[-111.6415883,40.4033031],[-111.6415916,40.403299],[-111.6415997,40.4032975],[-111.6416126,40.4033016],[-111.6416243,40.4033105],[-111.6416691,40.403351],[-111.641684,40.4033688],[-111.6417052,40.4034005],[-111.6417489,40.4034564],[-111.6417925,40.4034953],[-111.6418255,40.4035196],[-111.6418617,40.4035391],[-111.6419309,40.4035601],[-111.6419777,40.4035699],[-111.6420203,40.4035764],[-111.6420661,40.4035723],[-111.6422194,40.4035415],[-111.6422598,40.4035301],[-111.6422907,40.4035285],[-111.642701,40.4035123],[-111.6429068,40.403499],[-111.6430893,40.4035052],[-111.6431703,40.4035279],[-111.6432677,40.4035844],[-111.6434956,40.4036724],[-111.6435827,40.4036897],[-111.6436133,40.403698],[-111.6436261,40.4037003],[-111.6436373,40.4036988],[-111.6436429,40.4036954],[-111.6436409,40.4036885],[-111.6436364,40.4036822],[-111.6436124,40.4036656],[-111.6435599,40.4036234],[-111.6434366,40.4035131],[-111.6433547,40.4033905],[-111.6433299,40.4033415],[-111.6432919,40.403291],[-111.6432768,40.4032656],[-111.6432689,40.4032438],[-111.6432669,40.4032187],[-111.6432679,40.4030966],[-111.6432614,40.4030582],[-111.6432273,40.4029534],[-111.6432293,40.4029376],[-111.6432381,40.4029205],[-111.6432576,40.4029103],[-111.6432771,40.402904],[-111.6433059,40.4029004],[-111.6433429,40.4029025],[-111.6433816,40.4029136],[-111.643471,40.4029512],[-111.6435674,40.4029998],[-111.6436527,40.4030592],[-111.6436812,40.4030829],[-111.6436969,40.4030918],[-111.6437183,40.403098],[-111.6437584,40.403103],[-111.6438416,40.4031168],[-111.6439743,40.4031447],[-111.6440025,40.4031493],[-111.6440288,40.4031501],[-111.6440636,40.4031458],[-111.6440959,40.4031345],[-111.64412,40.4031301],[-111.6441864,40.4031266],[-111.6442291,40.4031246],[-111.6442681,40.4031173],[-111.6443039,40.4031035],[-111.6443463,40.4030762],[-111.6443671,40.4030543],[-111.6443816,40.4030325],[-111.6443953,40.4029993],[-111.6444078,40.4029167],[-111.6444294,40.4026679],[-111.6444407,40.4025931],[-111.6444573,40.4025478],[-111.6445316,40.4023355],[-111.6445456,40.4022876],[-111.6445501,40.4022293],[-111.6445385,40.4021628],[-111.6445202,40.4020302],[-111.6445144,40.401976],[-111.6445193,40.4019273],[-111.6445464,40.4018825],[-111.6445886,40.4018463],[-111.644668,40.4019289],[-111.6446883,40.4019472],[-111.6447118,40.4019631],[-111.6447442,40.4019663],[-111.644783,40.4019567],[-111.6452712,40.4018259],[-111.6453379,40.4018178],[-111.6454482,40.4018259],[-111.6456735,40.4018586],[-111.6458301,40.4018529],[-111.6459611,40.4018365],[-111.6460706,40.4018425],[-111.6461204,40.4018468],[-111.6461483,40.4018589],[-111.6461695,40.4018797],[-111.6461935,40.4019208],[-111.6462119,40.4019771],[-111.6462072,40.4020219],[-111.6461778,40.402071],[-111.6461058,40.4021403],[-111.6460588,40.4021739],[-111.6460275,40.4022258],[-111.6460276,40.4023202],[-111.6459967,40.4027032],[-111.6459954,40.402835],[-111.6460074,40.4029586],[-111.6460427,40.403123],[-111.6460566,40.4031618],[-111.6460723,40.4031853],[-111.6460919,40.4032077],[-111.646124,40.4032113],[-111.6461533,40.4032118],[-111.6464234,40.4032094],[-111.646484,40.403208],[-111.646534,40.4032055],[-111.6466021,40.403184],[-111.6470468,40.4029575],[-111.6471105,40.40291],[-111.6471305,40.4028759],[-111.6471603,40.4028512],[-111.6472187,40.4027924],[-111.6472845,40.4027533],[-111.6474435,40.4026712],[-111.6477335,40.4025572],[-111.6481272,40.4024155],[-111.6482088,40.4023653],[-111.6482834,40.4023208],[-111.6483736,40.4022478],[-111.6484255,40.4021813],[-111.6484303,40.4020963],[-111.6484362,40.4019934],[-111.6484487,40.4019241],[-111.6484502,40.4018895],[-111.6484493,40.4018685],[-111.6484557,40.4018543],[-111.6484679,40.4018399],[-111.6485024,40.4018296],[-111.6485253,40.4018179],[-111.6485441,40.4018229],[-111.6485547,40.4018341],[-111.6485807,40.4018562],[-111.6486239,40.4018709],[-111.6486982,40.4018856],[-111.6487191,40.4018899],[-111.6487384,40.4018855],[-111.648747,40.4018721],[-111.6487401,40.4018513],[-111.6487206,40.4017948],[-111.6487182,40.401771],[-111.6487256,40.4017509],[-111.6487573,40.401723],[-111.6489136,40.4016339],[-111.6493321,40.4014828],[-111.6495813,40.401442],[-111.6498309,40.4014011],[-111.6498969,40.4013868],[-111.6499432,40.4013731],[-111.6499664,40.4013556],[-111.6499724,40.4013374],[-111.6499586,40.4013161],[-111.6499329,40.401299],[-111.6498833,40.4012614],[-111.6497929,40.4012182],[-111.6497695,40.4011985],[-111.6497612,40.4011723],[-111.6497829,40.4011339],[-111.6498165,40.4011037],[-111.6499441,40.4010575],[-111.6501689,40.4009967],[-111.6503713,40.4009219],[-111.6505069,40.4008537],[-111.6507322,40.4006331],[-111.6510809,40.4003961],[-111.6511764,40.4003475],[-111.6512374,40.4003273],[-111.6513223,40.4003267],[-111.6514671,40.4003757],[-111.6515485,40.4004247],[-111.6516204,40.400468],[-111.6518265,40.4005922],[-111.6520625,40.400821],[-111.6522021,40.4010727],[-111.6522276,40.4011221],[-111.6522649,40.4011696],[-111.6522851,40.4012079],[-111.6522959,40.4012221],[-111.6523052,40.4012236],[-111.6523173,40.4012208],[-111.6523252,40.4012112],[-111.6523302,40.4011804],[-111.6523415,40.401111],[-111.6523579,40.401049],[-111.6523584,40.4009832],[-111.6523389,40.4008989],[-111.6523396,40.400877],[-111.6523458,40.4008537],[-111.6523605,40.4008273],[-111.6523881,40.4007986],[-111.6524122,40.4007767],[-111.6524206,40.4007614],[-111.6524324,40.400733],[-111.6524702,40.4005636],[-111.6524924,40.400339],[-111.6525726,40.4000591],[-111.6525883,40.4000325],[-111.6526186,40.4000114],[-111.6526351,40.3999824],[-111.6526365,40.3999304],[-111.6526365,40.3997711],[-111.652599,40.3996322],[-111.6525955,40.3995191],[-111.6525902,40.3994552],[-111.6525702,40.3993874],[-111.6525354,40.399297],[-111.6525039,40.3991912],[-111.6524964,40.3991449],[-111.6524888,40.3990802],[-111.6524739,40.398999],[-111.6524807,40.398921],[-111.6524877,40.3988769],[-111.6524942,40.3988532],[-111.6525044,40.3988444],[-111.6525243,40.3988368],[-111.6525471,40.3988332],[-111.6525596,40.3988371],[-111.6525669,40.3988488],[-111.6525699,40.3988629],[-111.6525696,40.3988839],[-111.6525745,40.3989076],[-111.6525973,40.3989473],[-111.6526715,40.3990414],[-111.6527681,40.3991829],[-111.6528015,40.3992238],[-111.6528508,40.3992599],[-111.6528834,40.3993002],[-111.6529033,40.3993382],[-111.6529307,40.3993748],[-111.6530022,40.3994437],[-111.6530459,40.399487],[-111.6531592,40.3995914],[-111.6532151,40.3996806],[-111.6532258,40.399744],[-111.6532555,40.3998253],[-111.6532615,40.3998413],[-111.653276,40.3998574],[-111.6533046,40.3998825],[-111.6533109,40.3998928],[-111.6533157,40.3998979],[-111.6533242,40.3998988],[-111.6533299,40.3998889],[-111.6533332,40.3998755],[-111.6533346,40.3998293],[-111.6533275,40.3997563],[-111.6533345,40.3997037],[-111.6533324,40.3996484],[-111.6533129,40.3996196],[-111.6532892,40.3995909],[-111.6532358,40.3994588],[-111.6532054,40.3994012],[-111.653205,40.3993896],[-111.6532153,40.3993817],[-111.6532324,40.3993854],[-111.6532473,40.3993928],[-111.6533362,40.3994452],[-111.6533771,40.3994832],[-111.6534679,40.3996287],[-111.6535116,40.399678],[-111.6535583,40.3997119],[-111.6536299,40.3997534],[-111.6537416,40.3998365],[-111.6538045,40.3998941],[-111.6538469,40.3999375],[-111.6538786,40.399981],[-111.6538895,40.4000444],[-111.6538982,40.4001694],[-111.6539031,40.4001844],[-111.6539187,40.4002068],[-111.6539724,40.4002593],[-111.6540057,40.4002979],[-111.6540282,40.4003442],[-111.6540338,40.4003825],[-111.6540338,40.4004152],[-111.6540204,40.4004478],[-111.6539668,40.4004969],[-111.6538997,40.400599],[-111.6538788,40.4006311],[-111.6538805,40.4006453],[-111.6538923,40.4006556],[-111.6539076,40.4006543],[-111.6539261,40.4006453],[-111.6539669,40.4006167],[-111.6540447,40.4005942],[-111.6541252,40.400582],[-111.6542834,40.4005799],[-111.6543961,40.4005779],[-111.6544714,40.400551],[-111.6545269,40.4005101],[-111.6546604,40.4003784],[-111.6547073,40.4003118],[-111.6547501,40.4002409],[-111.6547471,40.4001482],[-111.65473,40.4000587],[-111.6547256,40.3999627],[-111.654734,40.3998732],[-111.6546735,40.3997167],[-111.6546637,40.3996211],[-111.65467,40.3995342],[-111.6546875,40.3995025],[-111.6547068,40.3994689],[-111.6547172,40.3994381],[-111.6547177,40.3993917],[-111.6547272,40.3992099],[-111.6548464,40.3989452],[-111.6548806,40.3988704],[-111.654895,40.3987988],[-111.6549126,40.3986967],[-111.6549164,40.3985945],[-111.6548628,40.3983127],[-111.6548789,40.398088],[-111.6548359,40.3979409],[-111.6548413,40.3975446],[-111.6546903,40.3969656],[-111.654733,40.39684],[-111.654753,40.396754],[-111.654734,40.396549],[-111.65471,40.396456],[-111.6546214,40.3962863],[-111.6546174,40.3961775],[-111.654476,40.395997],[-111.654262,40.3957307],[-111.6540045,40.3955305],[-111.6538972,40.3953426],[-111.6537738,40.395269],[-111.6536772,40.3950893],[-111.6535807,40.3949994],[-111.6532427,40.3945868],[-111.652835,40.3939167],[-111.6528297,40.3937819],[-111.652776,40.3937002],[-111.652776,40.3936226],[-111.6528189,40.3935572],[-111.6528189,40.3934877],[-111.6527224,40.3933856],[-111.6526794,40.393308],[-111.6526955,40.3932017],[-111.6526634,40.3931405],[-111.6525722,40.3931241],[-111.6525239,40.3931813],[-111.6524488,40.3931813],[-111.6523737,40.3930996],[-111.6523039,40.3931323],[-111.6522932,40.3932099],[-111.6523308,40.3932875],[-111.6522878,40.3933161],[-111.6521645,40.3932467],[-111.6521323,40.3931731],[-111.652084,40.3931037],[-111.6517407,40.3929607],[-111.6514403,40.3929648],[-111.6512364,40.3929117],[-111.6511399,40.3927973],[-111.6509146,40.392736],[-111.6508234,40.3926829],[-111.6506195,40.3926175],[-111.6504479,40.3926338],[-111.650303,40.3926175],[-111.6501582,40.3925685],[-111.6499758,40.3924173],[-111.6496164,40.3923192],[-111.6492784,40.3922784],[-111.6491067,40.3922947],[-111.6488653,40.3922048],[-111.6487205,40.3921885],[-111.6482645,40.3920373],[-111.6479266,40.3919883],[-111.6478139,40.3920169],[-111.6476852,40.3919597],[-111.6476208,40.3919679],[-111.6476101,40.3920292],[-111.6476476,40.3921027],[-111.6475779,40.3921436],[-111.6474813,40.3920659],[-111.6474277,40.3919679],[-111.6472775,40.3919107],[-111.6471756,40.3918984],[-111.6471112,40.391927],[-111.6471058,40.3920169],[-111.6470414,40.3920537],[-111.6468966,40.3920332],[-111.6468322,40.3919801],[-111.6466713,40.391927],[-111.6463924,40.3916165],[-111.6462046,40.3914776],[-111.6461724,40.3913223],[-111.6460383,40.3911058],[-111.6460182,40.3909127],[-111.6460609,40.3908264],[-111.646082,40.390858]]}}]}
