{"type":"FeatureCollection","peaks_destination_id":"CJwKO6Takf7FBKct07qa","peaks_trailhead_id":"0A0AE3B2C06A453E88D3","peaks_source":"https://www.openstreetmap.org/","peaks_retrieval_source":"https://api.openstreetmap.org/api/0.6","peaks_license_name":"Open Data Commons Open Database License (ODbL) 1.0","peaks_license":"https://opendatacommons.org/licenses/odbl/1-0/","peaks_attribution":"© OpenStreetMap contributors","peaks_retrieved_at":"2026-07-31T07:58:24.927Z","features":[{"type":"Feature","properties":{"name":"Mount Lemmon OSM route candidate","trailhead_name":"Mount Lemmon Ski Valley Trailhead","destination_name":"Mount Lemmon","distance_m":3241.8501587231813,"trailhead_snap_m":44.57242130076136,"summit_snap_m":2.9829389441626826,"osm_way_ids":[643214501,1185437069,1091147100,643214499,38407418,1370122555,1370122556],"osm_way_urls":["https://www.openstreetmap.org/way/643214501","https://www.openstreetmap.org/way/1185437069","https://www.openstreetmap.org/way/1091147100","https://www.openstreetmap.org/way/643214499","https://www.openstreetmap.org/way/38407418","https://www.openstreetmap.org/way/1370122555","https://www.openstreetmap.org/way/1370122556"],"osm_way_names":["East Ski Run Road","Aspen Meadow"],"osm_foot_access_override_way_ids":[]},"geometry":{"type":"LineString","coordinates":[[-110.780888,32.44869],[-110.7813285,32.44854],[-110.7819786,32.448704],[-110.7822597,32.4488348],[-110.7824072,32.4489502],[-110.7825172,32.4490996],[-110.7825816,32.4492399],[-110.7827023,32.4494866],[-110.7827452,32.4496496],[-110.782764,32.4499167],[-110.7827452,32.4501362],[-110.7826942,32.4503377],[-110.7826138,32.4505685],[-110.7826272,32.4506885],[-110.7826486,32.4508628],[-110.7826942,32.451114],[-110.7827398,32.4512724],[-110.7828042,32.4514852],[-110.7828149,32.4518926],[-110.7829261,32.4520753],[-110.7830858,32.4522887],[-110.7832146,32.4523385],[-110.7833621,32.4523611],[-110.7835016,32.4523181],[-110.7836035,32.4522593],[-110.7836598,32.4521778],[-110.7836518,32.4520737],[-110.7836285,32.4519805],[-110.7835767,32.4518813],[-110.7834774,32.4518111],[-110.7832843,32.451664],[-110.7831475,32.4515305],[-110.783118,32.451406],[-110.78311,32.4512091],[-110.7831565,32.4509853],[-110.7834211,32.4502471],[-110.7834721,32.4500819],[-110.7834962,32.4499529],[-110.7834901,32.4497039],[-110.7835177,32.4495523],[-110.7835472,32.4494187],[-110.7835498,32.4492625],[-110.7835203,32.4491562],[-110.7833567,32.4488166],[-110.7833004,32.4486061],[-110.7832887,32.4484888],[-110.7833353,32.4483504],[-110.7834184,32.4482304],[-110.7835096,32.4481535],[-110.7836598,32.4480697],[-110.7838342,32.4480018],[-110.7843196,32.4478637],[-110.784722,32.4477687],[-110.7849312,32.4477189],[-110.7851484,32.4476306],[-110.7854837,32.4474948],[-110.7858281,32.4474065],[-110.7860228,32.4473816],[-110.7861489,32.4473816],[-110.7863266,32.4473458],[-110.786503,32.4473047],[-110.786625,32.4472452],[-110.7867309,32.4471802],[-110.7868034,32.4471055],[-110.7868543,32.4470195],[-110.7869053,32.4468633],[-110.7869563,32.4467659],[-110.787026,32.4466822],[-110.7872383,32.4464941],[-110.787779,32.446063],[-110.7880586,32.4458108],[-110.7881632,32.4456795],[-110.7882527,32.4455228],[-110.7883719,32.4452156],[-110.7883805,32.4451],[-110.7883617,32.445014],[-110.7882866,32.4449234],[-110.7881549,32.4448531],[-110.7877731,32.4448112],[-110.787421,32.4447844],[-110.7872553,32.4447718],[-110.7871319,32.4447627],[-110.7869938,32.4447344],[-110.7868409,32.4446869],[-110.7867108,32.4446213],[-110.7865342,32.4444826],[-110.7865062,32.4444576],[-110.7861918,32.4441765],[-110.7861435,32.4441176],[-110.7861047,32.4440384],[-110.7860912,32.4439818],[-110.7861033,32.4439343],[-110.7861274,32.4438664],[-110.7863246,32.4436242],[-110.7866153,32.443192],[-110.7869715,32.4428071],[-110.7871145,32.442687],[-110.7871655,32.4426135],[-110.7871708,32.4425365],[-110.7871574,32.4424482],[-110.787026,32.4422422],[-110.7869455,32.4421087],[-110.7868919,32.4419921],[-110.7868101,32.4419106],[-110.7866921,32.441828],[-110.78657,32.4417986],[-110.7862696,32.4417329],[-110.7860993,32.4417035],[-110.7860336,32.4416662],[-110.7858056,32.4414964],[-110.7857117,32.44145],[-110.7856299,32.4414375],[-110.7852571,32.4413877],[-110.7850472,32.4413708],[-110.7849828,32.4413753],[-110.7849238,32.4413843],[-110.7846301,32.4414964],[-110.7844779,32.4415315],[-110.784384,32.4415303],[-110.7843002,32.4415111],[-110.7841822,32.4414675],[-110.7840997,32.4414126],[-110.784034,32.4413391],[-110.7839904,32.4412791],[-110.7839575,32.4411908],[-110.7839488,32.4411093],[-110.7839535,32.4410561],[-110.783987,32.4409537],[-110.7839213,32.4409431],[-110.784026,32.4408076],[-110.7840923,32.4407477],[-110.7841949,32.4406917],[-110.7842955,32.440613],[-110.7843337,32.4405779],[-110.7844014,32.4405394],[-110.7845289,32.4404993],[-110.7846291,32.4404695],[-110.7849084,32.4403612],[-110.7850244,32.4403114],[-110.7851491,32.4402825],[-110.7852437,32.4402327],[-110.7853711,32.4401603],[-110.785477,32.4401246],[-110.7854569,32.4401733],[-110.7854582,32.440231],[-110.785507,32.4402796],[-110.785601,32.4403198],[-110.7856649,32.4403988],[-110.7857738,32.4405336],[-110.7859788,32.4407039],[-110.786334,32.4409667],[-110.7865486,32.4411274],[-110.7868758,32.4412338],[-110.7871521,32.4412995],[-110.7873371,32.4412564],[-110.7875061,32.44127],[-110.7878414,32.4413493],[-110.7879299,32.441433],[-110.7880077,32.4415213],[-110.7880399,32.4416797],[-110.788123,32.4418971],[-110.7882518,32.4421528],[-110.7882464,32.4423362],[-110.7882303,32.4425195],[-110.7881632,32.4427052],[-110.7882786,32.4428772],[-110.7884288,32.4429858],[-110.788451,32.443005]]}}]}
