{"type":"FeatureCollection","peaks_destination_id":"gWG6bkBwWp3T5txyxW8l","peaks_trailhead_id":"E6C902B0AC4C4E4F9D36","peaks_source":"https://www.openstreetmap.org/","peaks_retrieval_source":"https://api.openstreetmap.org/api/0.6","peaks_license_name":"Open Data Commons Open Database License (ODbL) 1.0","peaks_license":"https://opendatacommons.org/licenses/odbl/1-0/","peaks_attribution":"© OpenStreetMap contributors","peaks_retrieved_at":"2026-07-31T08:04:53.242Z","features":[{"type":"Feature","properties":{"name":"Mount Nebo OSM route candidate","trailhead_name":"North Nebo Peak Trailhead","destination_name":"Mount Nebo","distance_m":7065.020673435453,"trailhead_snap_m":0.02037541917343592,"summit_snap_m":7.942950452930285,"osm_way_ids":[172593577],"osm_way_urls":["https://www.openstreetmap.org/way/172593577"],"osm_way_names":["Nebo Peak North Trail"],"osm_foot_access_override_way_ids":[]},"geometry":{"type":"LineString","coordinates":[[-111.722264,39.848467],[-111.7222642,39.8484671],[-111.7224275,39.8484397],[-111.72248,39.8484374],[-111.722546,39.8484448],[-111.7226365,39.848466],[-111.7226759,39.8484709],[-111.7227099,39.8484709],[-111.7228611,39.8484472],[-111.7228952,39.8484464],[-111.7229207,39.848453],[-111.7230878,39.8484897],[-111.7231198,39.8484922],[-111.7233954,39.8484955],[-111.7234785,39.8485028],[-111.7235498,39.8485044],[-111.7238106,39.8485478],[-111.7240788,39.8486123],[-111.7241384,39.8486213],[-111.7242693,39.8486164],[-111.7243396,39.848614],[-111.7243673,39.8486197],[-111.7244013,39.8486287],[-111.7245514,39.8487194],[-111.7246738,39.8487823],[-111.7246941,39.8487921],[-111.7247324,39.8487978],[-111.7247707,39.8487946],[-111.7249027,39.8487897],[-111.7249942,39.8487798],[-111.7250975,39.8487578],[-111.7251241,39.8487537],[-111.7251443,39.8487545],[-111.7251762,39.8487619],[-111.7252007,39.8487741],[-111.7252337,39.8487954],[-111.7252976,39.8488518],[-111.7254211,39.8489907],[-111.7254892,39.8490577],[-111.7255956,39.8491353],[-111.7257255,39.8492032],[-111.7260459,39.8493511],[-111.7261694,39.8494091],[-111.7262183,39.8494312],[-111.7262471,39.8494402],[-111.7263216,39.8494549],[-111.7268517,39.8495685],[-111.7268953,39.8495758],[-111.7269102,39.849575],[-111.726973,39.8495742],[-111.7270081,39.8495774],[-111.7270518,39.8495864],[-111.7270933,39.8495995],[-111.7272476,39.8496412],[-111.7273083,39.8496526],[-111.7274137,39.8496649],[-111.7275031,39.8496755],[-111.7275382,39.849682],[-111.7277075,39.8497164],[-111.7278309,39.8497523],[-111.7280992,39.8498291],[-111.728278,39.8499019],[-111.7283397,39.8499207],[-111.7283834,39.8499297],[-111.7284473,39.8499337],[-111.7288517,39.8499664],[-111.7289997,39.8499869],[-111.7292275,39.8500138],[-111.7292977,39.8500285],[-111.7296107,39.8501062],[-111.7296575,39.8501143],[-111.7297086,39.8501176],[-111.7297693,39.8501119],[-111.7302834,39.8500596],[-111.7303611,39.8500588],[-111.7304431,39.8500604],[-111.7305144,39.8500563],[-111.7305878,39.8500481],[-111.7306272,39.85004],[-111.7306506,39.8500367],[-111.7306836,39.8500359],[-111.7308241,39.8500293],[-111.7308444,39.8500318],[-111.7309114,39.8500571],[-111.7310221,39.8500825],[-111.7310658,39.8500849],[-111.731119,39.8500841],[-111.7312872,39.8500759],[-111.7313276,39.8500678],[-111.7315171,39.8500343],[-111.7315639,39.8500318],[-111.7315927,39.8500343],[-111.731698,39.850058],[-111.7317374,39.8500759],[-111.7318077,39.8501013],[-111.7319152,39.850138],[-111.7319695,39.8501601],[-111.7322366,39.8503145],[-111.7328391,39.850697],[-111.7329881,39.8508016],[-111.7330818,39.85088],[-111.7331254,39.850907],[-111.7331712,39.8509307],[-111.7333053,39.850992],[-111.7333596,39.8510141],[-111.7333979,39.8510353],[-111.7334448,39.8510655],[-111.7337439,39.8512625],[-111.7338152,39.8512976],[-111.7338599,39.8513221],[-111.7338961,39.8513467],[-111.73396,39.8513875],[-111.7339813,39.8514055],[-111.7339898,39.8514243],[-111.7339972,39.8514406],[-111.7340089,39.8514529],[-111.7340334,39.851466],[-111.7340792,39.8514774],[-111.7340994,39.8514864],[-111.7341271,39.8515027],[-111.7342112,39.851564],[-111.734241,39.8515926],[-111.7342942,39.8516596],[-111.7343059,39.8516678],[-111.7343315,39.8516743],[-111.7344571,39.8517021],[-111.7344709,39.8517103],[-111.734489,39.8517299],[-111.7345028,39.8517471],[-111.7345113,39.8517552],[-111.7346572,39.8518533],[-111.7346785,39.8518713],[-111.7347008,39.851904],[-111.7347178,39.8519211],[-111.7347498,39.8519399],[-111.7349265,39.8520543],[-111.7349499,39.8520649],[-111.7350627,39.852096],[-111.7351936,39.8521205],[-111.7352607,39.8521401],[-111.7353012,39.8521614],[-111.7353821,39.8522112],[-111.7354661,39.8522733],[-111.7354768,39.8522782],[-111.7354906,39.852279],[-111.7355183,39.8522774],[-111.7355577,39.8522676],[-111.7355896,39.8522545],[-111.735613,39.8522504],[-111.7356354,39.8522504],[-111.7357642,39.8522578],[-111.7357887,39.852257],[-111.7358089,39.8522521],[-111.7358227,39.8522464],[-111.7358376,39.8522357],[-111.735884,39.8522046],[-111.7359195,39.8521884],[-111.7359541,39.852178],[-111.7359913,39.8521715],[-111.7360099,39.8521715],[-111.7360547,39.8521754],[-111.7361755,39.8521968],[-111.7362042,39.8522],[-111.7362321,39.8521955],[-111.7362861,39.8521864],[-111.7363681,39.8521806],[-111.7364551,39.8521747],[-111.736532,39.8521644],[-111.7365945,39.8521495],[-111.7366334,39.852141],[-111.736646,39.8521352],[-111.7366545,39.8521242],[-111.7366672,39.8521086],[-111.7366815,39.8520989],[-111.7367018,39.8520917],[-111.736739,39.8520872],[-111.7367593,39.852082],[-111.7367745,39.8520755],[-111.7367838,39.8520684],[-111.7368674,39.8519659],[-111.7368894,39.8519458],[-111.7369113,39.8519283],[-111.7371935,39.8517175],[-111.7372121,39.8517006],[-111.737229,39.8516799],[-111.7372679,39.851641],[-111.7372966,39.8516027],[-111.7373185,39.8515618],[-111.7373338,39.8515242],[-111.7374394,39.8512083],[-111.7374486,39.8511902],[-111.7374664,39.851172],[-111.73749,39.8511565],[-111.7375213,39.8511428],[-111.7375467,39.851137],[-111.7376269,39.8511312],[-111.7376539,39.8511299],[-111.7376683,39.8511331],[-111.7377182,39.8511545],[-111.7377528,39.8511642],[-111.7377976,39.8511675],[-111.7378415,39.8511681],[-111.7378897,39.8511694],[-111.7379361,39.8511733],[-111.7379767,39.8511792],[-111.7379936,39.8511831],[-111.7381473,39.8512285],[-111.7381938,39.8512362],[-111.7382774,39.8512447],[-111.7383476,39.851246],[-111.7384135,39.8512401],[-111.738465,39.8512343],[-111.7385343,39.8512395],[-111.7386635,39.8512382],[-111.7387083,39.8512427],[-111.7387438,39.8512492],[-111.7387658,39.851257],[-111.7387793,39.8512661],[-111.7388021,39.8512933],[-111.7388122,39.8513037],[-111.7388266,39.8513102],[-111.7389525,39.8513426],[-111.7389736,39.8513517],[-111.738993,39.8513621],[-111.7390015,39.8513698],[-111.7390429,39.8514217],[-111.7390699,39.851447],[-111.7391062,39.8514788],[-111.7391172,39.8514847],[-111.7391324,39.8514892],[-111.7391941,39.8514937],[-111.7392127,39.8514924],[-111.7392338,39.8514853],[-111.7393783,39.8514399],[-111.7394501,39.8514178],[-111.7394687,39.8514146],[-111.7394856,39.8514146],[-111.7395287,39.8514185],[-111.7395472,39.8514191],[-111.7395743,39.8514159],[-111.7396005,39.8514094],[-111.7396207,39.8514068],[-111.7396343,39.8514068],[-111.7396503,39.8514101],[-111.7396681,39.8514178],[-111.739701,39.8514412],[-111.739723,39.851449],[-111.7397432,39.8514516],[-111.7397661,39.8514509],[-111.739788,39.8514483],[-111.7398641,39.8514328],[-111.7399046,39.8514172],[-111.7399232,39.8514094],[-111.739935,39.8514081],[-111.7399528,39.8514107],[-111.7399722,39.851414],[-111.7399882,39.8514146],[-111.7400136,39.8514101],[-111.7400541,39.8513984],[-111.7400677,39.8513951],[-111.7400829,39.8513951],[-111.7400947,39.8514003],[-111.7401065,39.8514107],[-111.7401336,39.8514425],[-111.7401462,39.8514535],[-111.7401606,39.8514594],[-111.7401775,39.8514632],[-111.7402307,39.8514645],[-111.7402721,39.8514697],[-111.7403955,39.8514963],[-111.7404284,39.8514989],[-111.7404478,39.8514976],[-111.7404698,39.851495],[-111.7404901,39.8514885],[-111.7405053,39.8514814],[-111.7405306,39.8514652],[-111.7405619,39.8514386],[-111.740583,39.8514185],[-111.7405965,39.8514075],[-111.7406084,39.8514049],[-111.7406261,39.8514062],[-111.7406472,39.8514094],[-111.7406717,39.8514165],[-111.7408111,39.8514548],[-111.7408534,39.8514632],[-111.7408669,39.8514697],[-111.7408998,39.8514872],[-111.7409201,39.851495],[-111.7409539,39.8515009],[-111.7409852,39.8515009],[-111.741013,39.8515041],[-111.7410375,39.8515112],[-111.7410578,39.851521],[-111.7410832,39.8515346],[-111.7410967,39.8515391],[-111.7411161,39.8515424],[-111.7411448,39.8515385],[-111.7411938,39.8515223],[-111.7412395,39.8515015],[-111.7412589,39.851484],[-111.7412876,39.8514736],[-111.7413113,39.8514665],[-111.7413425,39.8514555],[-111.7413594,39.8514451],[-111.7413848,39.8514263],[-111.7414118,39.8514133],[-111.7414363,39.8514029],[-111.7414574,39.8514003],[-111.7414887,39.8514016],[-111.7415326,39.8514088],[-111.7415495,39.8514159],[-111.7415673,39.8514308],[-111.7416044,39.8514665],[-111.7416146,39.851473],[-111.7416315,39.8514782],[-111.7416551,39.8514788],[-111.7418494,39.8514645],[-111.7419018,39.8514574],[-111.7419212,39.8514516],[-111.7419457,39.8514405],[-111.7419736,39.8514315],[-111.7419888,39.8514289],[-111.7421096,39.8514321],[-111.7421434,39.8514295],[-111.7421705,39.851425],[-111.7421848,39.8514191],[-111.7422076,39.8514062],[-111.7422195,39.8513997],[-111.742249,39.8513932],[-111.7423031,39.8513841],[-111.7423597,39.8513783],[-111.7423977,39.8513724],[-111.7424197,39.8513653],[-111.7424586,39.8513491],[-111.7426132,39.8513115],[-111.7426605,39.8512959],[-111.7426934,39.851292],[-111.7427551,39.8512836],[-111.7428075,39.8512765],[-111.7428354,39.8512771],[-111.7428979,39.8512849],[-111.7429781,39.8512953],[-111.7430026,39.8512953],[-111.743028,39.8512894],[-111.7430947,39.8512641],[-111.7431209,39.8512583],[-111.7431488,39.8512563],[-111.743164,39.8512589],[-111.7432274,39.8512849],[-111.7432451,39.8512868],[-111.7432662,39.8512855],[-111.7432848,39.8512797],[-111.7433017,39.8512745],[-111.7433237,39.8512719],[-111.7433642,39.8512739],[-111.7433963,39.8512732],[-111.7434166,39.8512667],[-111.7434361,39.851255],[-111.7435281,39.8512064],[-111.7436261,39.8511681],[-111.7436675,39.8511662],[-111.7436836,39.851161],[-111.7437385,39.8511318],[-111.7437562,39.8511227],[-111.7437715,39.8511208],[-111.7438002,39.8511247],[-111.7438264,39.851126],[-111.7438475,39.8511227],[-111.743932,39.8510916],[-111.7440021,39.8510754],[-111.7440562,39.8510624],[-111.7440781,39.8510559],[-111.7440916,39.8510462],[-111.7441381,39.8510164],[-111.7441508,39.8510027],[-111.7441559,39.8509917],[-111.7441618,39.8509813],[-111.744177,39.8509762],[-111.7441922,39.8509781],[-111.7442006,39.8509839],[-111.7442234,39.8510105],[-111.7442302,39.8510164],[-111.744242,39.8510177],[-111.7442539,39.8510151],[-111.7444583,39.8509606],[-111.7445284,39.850947],[-111.7445605,39.8509398],[-111.7445952,39.8509275],[-111.7446518,39.850897],[-111.7446712,39.8508892],[-111.7446949,39.8508847],[-111.7447194,39.8508821],[-111.7447295,39.8508834],[-111.7447422,39.8508879],[-111.7448089,39.8509106],[-111.7449137,39.8509418],[-111.74495,39.8509483],[-111.7449868,39.8509492],[-111.7450189,39.8509518],[-111.7450814,39.8509713],[-111.7451473,39.8510024],[-111.7451946,39.8510258],[-111.7452402,39.8510569],[-111.7452825,39.8510958],[-111.7453315,39.8511425],[-111.7454954,39.8513137],[-111.7458029,39.8516692],[-111.7458789,39.851747],[-111.7459161,39.8517729],[-111.7459753,39.8518015],[-111.7460564,39.8518171],[-111.7461104,39.8518248],[-111.7464788,39.8518378],[-111.7465498,39.8518443],[-111.7466072,39.8518534],[-111.7467052,39.8518754],[-111.7468133,39.8518988],[-111.7469266,39.8519195],[-111.7469857,39.851926],[-111.7470212,39.8519221],[-111.7470617,39.8519117],[-111.7470854,39.8518988],[-111.7471192,39.8518689],[-111.7471361,39.8518482],[-111.7471411,39.8518261],[-111.7471327,39.8517937],[-111.7471175,39.8517652],[-111.7470516,39.8516899],[-111.747011,39.8516497],[-111.7469806,39.8516017],[-111.7469266,39.8514889],[-111.7468911,39.8514396],[-111.7468421,39.8513721],[-111.7468066,39.851328],[-111.7466782,39.8512126],[-111.7466258,39.8511516],[-111.7465971,39.8511114],[-111.7465819,39.8510621],[-111.7465768,39.8510141],[-111.7465785,39.8509661],[-111.7465835,39.8508065],[-111.7465751,39.8507572],[-111.746565,39.85073],[-111.7465261,39.8506431],[-111.7464788,39.8505393],[-111.7464653,39.8505017],[-111.7464534,39.8504394],[-111.7464112,39.8503538],[-111.7463673,39.8502773],[-111.74632,39.8502163],[-111.7462743,39.8501683],[-111.7462659,39.8501463],[-111.7462676,39.8501255],[-111.7462828,39.8501099],[-111.7463098,39.8500931],[-111.7464104,39.8500652],[-111.7464397,39.8500568],[-111.7464549,39.8500471],[-111.7464659,39.8500328],[-111.7464735,39.8500218],[-111.7464802,39.8500017],[-111.7465022,39.8498538],[-111.7465056,39.8498447],[-111.7465183,39.8498324],[-111.746547,39.849811],[-111.7465571,39.8498026],[-111.7465614,39.8497935],[-111.7465656,39.8497494],[-111.7465698,39.8497351],[-111.7465782,39.8497254],[-111.7465935,39.8497157],[-111.7466315,39.8496962],[-111.7466551,39.84968],[-111.7466644,39.8496683],[-111.7467075,39.8495457],[-111.7467168,39.8494984],[-111.7467734,39.8493868],[-111.7467979,39.849344],[-111.7468131,39.8492915],[-111.746819,39.8492299],[-111.7468123,39.8491922],[-111.746792,39.8491475],[-111.7467776,39.8491274],[-111.7467692,39.849117],[-111.7467666,39.8491021],[-111.7467709,39.8490936],[-111.7467903,39.849082],[-111.7468064,39.8490619],[-111.7468131,39.8490398],[-111.746852,39.8488264],[-111.7468596,39.8487881],[-111.7468917,39.8486662],[-111.7468934,39.8486487],[-111.7468883,39.8486312],[-111.7468841,39.8486182],[-111.7468849,39.848602],[-111.7468968,39.8485819],[-111.7469415,39.8485079],[-111.7469483,39.8484969],[-111.7469559,39.8484755],[-111.7469787,39.8483672],[-111.7469846,39.8483529],[-111.7469948,39.8483425],[-111.7470117,39.8483341],[-111.7470345,39.8483263],[-111.7470556,39.8483179],[-111.7470691,39.8483069],[-111.7470843,39.8482809],[-111.7471198,39.8482096],[-111.7471325,39.8481739],[-111.7471865,39.8480539],[-111.7471992,39.8480345],[-111.7472153,39.8480156],[-111.7472296,39.8479994],[-111.7472364,39.8479819],[-111.7472414,39.847967],[-111.7472507,39.8479573],[-111.7472668,39.8479469],[-111.7472786,39.8479352],[-111.7472845,39.8479229],[-111.7472871,39.8479138],[-111.7472879,39.8478989],[-111.7472913,39.8478905],[-111.7473006,39.8478827],[-111.7473133,39.8478788],[-111.7473293,39.8478736],[-111.7473361,39.8478684],[-111.7473428,39.8478593],[-111.7473513,39.8478451],[-111.7473589,39.8478347],[-111.7473741,39.8478256],[-111.7473876,39.8478146],[-111.7474721,39.8477095],[-111.7475,39.8476628],[-111.7475524,39.8475454],[-111.7475642,39.8475305],[-111.7475752,39.8475207],[-111.747587,39.8475117],[-111.7475988,39.8475039],[-111.7476115,39.847489],[-111.7476216,39.8474779],[-111.7476698,39.8474436],[-111.7476934,39.8474228],[-111.7477171,39.8473917],[-111.7477272,39.8473754],[-111.7477518,39.8473127],[-111.7477667,39.8472759],[-111.7477773,39.8472461],[-111.7477981,39.8471444],[-111.7478029,39.8470913],[-111.7478024,39.847079],[-111.7478008,39.8470659],[-111.7478029,39.8470598],[-111.7478205,39.8470336],[-111.7478407,39.8470124],[-111.747855,39.8470014],[-111.7478753,39.8469932],[-111.7479237,39.8469834],[-111.7479407,39.8469752],[-111.7479461,39.8469683],[-111.7479477,39.8469601],[-111.7479413,39.8469274],[-111.7479381,39.8469196],[-111.7479296,39.8469131],[-111.7478912,39.8468812],[-111.7478678,39.8468583],[-111.7478561,39.8468395],[-111.7478519,39.8468093],[-111.7478582,39.8467717],[-111.747871,39.8467447],[-111.7479152,39.8466877],[-111.748058,39.8465295],[-111.7480791,39.8465035],[-111.748085,39.8464893],[-111.7480922,39.846447],[-111.7480989,39.8464311],[-111.7481069,39.8464172],[-111.7481183,39.8464064],[-111.7482947,39.8463384],[-111.7483201,39.8463312],[-111.7483523,39.8463276],[-111.7484294,39.846325],[-111.7484462,39.846325],[-111.7484811,39.8463307],[-111.7484992,39.8463348],[-111.7485119,39.8463343],[-111.7485226,39.8463317],[-111.7485307,39.8463276],[-111.7485817,39.8462895],[-111.7486661,39.8462401],[-111.7486809,39.8462323],[-111.7488304,39.8461752],[-111.7488452,39.8461685],[-111.7488566,39.8461608],[-111.7488687,39.8461505],[-111.7488821,39.8461433],[-111.7488948,39.8461407],[-111.7489142,39.8461381],[-111.748933,39.8461381],[-111.7489833,39.8461392],[-111.7490088,39.8461376],[-111.749069,39.846124],[-111.7490977,39.8461134],[-111.7491121,39.8461073],[-111.7491355,39.8460909],[-111.7491573,39.8460811],[-111.7491749,39.8460787],[-111.7491892,39.8460791],[-111.7492717,39.8460885],[-111.7492797,39.8460934],[-111.7492839,39.8460979],[-111.7492901,39.846109],[-111.7492918,39.8461194],[-111.7492901,39.8462186],[-111.7492825,39.8462563],[-111.7492614,39.8463146],[-111.7492547,39.8463335],[-111.749253,39.8463445],[-111.749253,39.8463575],[-111.7492927,39.846709],[-111.7492961,39.8467395],[-111.7492986,39.8467629],[-111.7493104,39.8467992],[-111.7493265,39.8468426],[-111.749351,39.8469691],[-111.7493611,39.8470087],[-111.7493763,39.8470457],[-111.7493873,39.8470911],[-111.7493907,39.8471027],[-111.7493966,39.8471099],[-111.749405,39.8471138],[-111.7494211,39.8471183],[-111.7494481,39.8471248],[-111.7494676,39.84713],[-111.7494811,39.8471352],[-111.7494904,39.8471417],[-111.7494997,39.847143],[-111.7495081,39.8471423],[-111.7495174,39.8471371],[-111.749547,39.8471144],[-111.7495571,39.8471092],[-111.7495672,39.8471073],[-111.7495774,39.8471073],[-111.7495934,39.8471105],[-111.7496061,39.8471138],[-111.7496179,39.8471144],[-111.7496315,39.8471112],[-111.7496433,39.847104],[-111.7496712,39.8470859],[-111.749694,39.8470729],[-111.7497016,39.8470625],[-111.7497354,39.8470016],[-111.7497421,39.8469925],[-111.7497556,39.8469776],[-111.7497742,39.8469451],[-111.7497835,39.8469328],[-111.7497928,39.8469276],[-111.749803,39.8469263],[-111.7498123,39.8469283],[-111.749841,39.8469373],[-111.7498494,39.8469367],[-111.7498562,39.8469315],[-111.7498596,39.8469231],[-111.749868,39.8469004],[-111.7498756,39.8468906],[-111.7499075,39.8468744],[-111.7499223,39.8468641],[-111.749929,39.8468538],[-111.7499317,39.8468384],[-111.7499343,39.8468209],[-111.7499719,39.8467653],[-111.7499853,39.8467365],[-111.7499947,39.8467056],[-111.7500041,39.8466922],[-111.7500229,39.8466767],[-111.750039,39.8466675],[-111.7500564,39.8466541],[-111.7500698,39.8466376],[-111.7500953,39.8465964],[-111.7501033,39.8465563],[-111.7501047,39.8464924],[-111.7501154,39.8464451],[-111.7501342,39.8464059],[-111.7502348,39.8462608],[-111.750271,39.8462144],[-111.7503212,39.8461744],[-111.7504294,39.846105],[-111.7504632,39.8460836],[-111.750486,39.8460699],[-111.7505079,39.8460622],[-111.7505172,39.846055],[-111.7505367,39.8460304],[-111.7505519,39.8460193],[-111.7505628,39.8460155],[-111.7505755,39.8460161],[-111.7505865,39.84602],[-111.7506068,39.8460336],[-111.7506161,39.8460336],[-111.7506237,39.8460284],[-111.7506287,39.846018],[-111.7506456,39.8459927],[-111.7506532,39.8459889],[-111.7506693,39.8459869],[-111.7506904,39.8459863],[-111.7507149,39.8459739],[-111.7507369,39.8459584],[-111.7507622,39.8459357],[-111.7508737,39.8458124],[-111.7508813,39.8458053],[-111.7508923,39.8458027],[-111.7509075,39.845802],[-111.7509278,39.8458053],[-111.7509405,39.8458027],[-111.7509456,39.8457962],[-111.7509549,39.8457437],[-111.7509608,39.8457307],[-111.7509701,39.845721],[-111.7510131,39.8457073],[-111.7510191,39.8456996],[-111.7510191,39.8456911],[-111.7510115,39.8456769],[-111.7510098,39.8456678],[-111.7510148,39.8456619],[-111.7510233,39.845658],[-111.7510351,39.8456522],[-111.7510427,39.845647],[-111.7510545,39.8456204],[-111.7510647,39.8456062],[-111.7510816,39.8455932],[-111.7511103,39.8455627],[-111.7511272,39.84554],[-111.7511297,39.8455303],[-111.7511221,39.8455108],[-111.751123,39.8455024],[-111.7511323,39.8454959],[-111.7511492,39.8454946],[-111.7511627,39.8454946],[-111.7511711,39.8454894],[-111.7511754,39.8454771],[-111.7511754,39.8454648],[-111.7511551,39.8454122],[-111.7511585,39.8454025],[-111.7511644,39.8453986],[-111.7511754,39.8453999],[-111.7511906,39.8454044],[-111.7512041,39.8454025],[-111.7512117,39.8453986],[-111.7512159,39.8453908],[-111.7512277,39.8453668],[-111.7512531,39.8453298],[-111.751308,39.845265],[-111.7513291,39.8452468],[-111.7513426,39.8452403],[-111.7513578,39.8452384],[-111.7513798,39.845241],[-111.7514144,39.8452507],[-111.7515158,39.8452676],[-111.7516671,39.8452903],[-111.7517025,39.8452987],[-111.7517338,39.8453097],[-111.7517591,39.8453208],[-111.751787,39.8453389],[-111.751831,39.8453759],[-111.7518512,39.8453895],[-111.7518614,39.845394],[-111.7518724,39.8453966],[-111.7518859,39.8453979],[-111.7518977,39.8454025],[-111.7519129,39.8454148],[-111.7519222,39.8454174],[-111.7519306,39.8454155],[-111.751934,39.845409],[-111.7519332,39.8453999],[-111.751874,39.8452682],[-111.7518707,39.8452598],[-111.7518639,39.845252],[-111.7518495,39.845241],[-111.7518301,39.845226],[-111.7518284,39.8452202],[-111.7518301,39.8452144],[-111.7518377,39.8452111],[-111.7518555,39.8452118],[-111.7518884,39.8452209],[-111.7519535,39.8452455],[-111.751967,39.8452487],[-111.7519754,39.8452494],[-111.7519813,39.8452449],[-111.7519813,39.8452325],[-111.7519644,39.8451767],[-111.751956,39.8451476],[-111.7519433,39.8451287],[-111.7519061,39.8450678],[-111.7518833,39.8450405],[-111.7518724,39.8450191],[-111.7518639,39.8449789],[-111.7518563,39.8449458],[-111.7518571,39.8449367],[-111.7518647,39.8449329],[-111.751874,39.8449329],[-111.7518825,39.8449348],[-111.7519011,39.8449413],[-111.7519323,39.8449614],[-111.7519754,39.8449893],[-111.751994,39.8449977],[-111.7520075,39.8450023],[-111.7520295,39.8450049],[-111.7520565,39.8450133],[-111.7520684,39.8450191],[-111.7521089,39.845047],[-111.752223,39.8451534],[-111.7522525,39.8451722],[-111.7522669,39.8451806],[-111.7522897,39.8451904],[-111.7523083,39.8452027],[-111.7523167,39.8452124],[-111.7523573,39.845265],[-111.7523793,39.8452935],[-111.7523995,39.8453084],[-111.7525018,39.845361],[-111.752517,39.8453668],[-111.752533,39.8453707],[-111.7526538,39.8453843],[-111.7526673,39.8453824],[-111.7526741,39.8453765],[-111.7526766,39.8453688],[-111.7526741,39.8453532],[-111.7526428,39.8452715],[-111.7526412,39.8452585],[-111.752642,39.8452449],[-111.7526505,39.8451476],[-111.7526555,39.8450963],[-111.7526589,39.8450762],[-111.7526555,39.8450619],[-111.7526479,39.845036],[-111.7526445,39.8450256],[-111.7526479,39.8450165],[-111.7526564,39.8450042],[-111.7526555,39.8449886],[-111.7526403,39.8449413],[-111.752631,39.8449043],[-111.7525964,39.8447921],[-111.7525871,39.8447739],[-111.7525077,39.8446708],[-111.7523252,39.8444288],[-111.7522737,39.844362],[-111.7522483,39.844316],[-111.7521968,39.8442265],[-111.7521875,39.8441921],[-111.7521723,39.8441661],[-111.7521664,39.844148],[-111.7521554,39.8440812],[-111.7521292,39.8440124],[-111.7521106,39.8439741],[-111.7520717,39.8439158],[-111.7520194,39.8438502],[-111.7519771,39.8437679],[-111.7519281,39.843703],[-111.7519104,39.8436874],[-111.7518918,39.8436751],[-111.7518698,39.8436686],[-111.7518453,39.8436556],[-111.7518259,39.8436375],[-111.7517997,39.8436057],[-111.7517676,39.8435817],[-111.7517389,39.8435596],[-111.7516949,39.8435337],[-111.7516865,39.8435272],[-111.751684,39.8435175],[-111.7516797,39.8434876],[-111.7516738,39.8434649],[-111.7516586,39.8434403],[-111.7516341,39.8434007],[-111.7516223,39.8433761],[-111.7516155,39.8433514],[-111.7515657,39.843284],[-111.7515243,39.8432308],[-111.751504,39.843212],[-111.7514905,39.8431951],[-111.7514787,39.8430894],[-111.7514846,39.8430407],[-111.7514837,39.843018],[-111.751477,39.8429985],[-111.7514525,39.8429547],[-111.7514302,39.8429235],[-111.7514249,39.842891],[-111.7514035,39.8428483],[-111.7513444,39.8427628],[-111.7512684,39.8426655],[-111.7512548,39.8426461],[-111.7512481,39.8426292],[-111.7512346,39.842576],[-111.7512279,39.8424965],[-111.7512178,39.8423564],[-111.7512212,39.8422448],[-111.751233,39.8420489],[-111.7512364,39.8419672],[-111.7512347,39.8419386],[-111.7512313,39.8419075],[-111.7512195,39.8418829],[-111.7511941,39.8418478],[-111.7511806,39.8418193],[-111.7511722,39.8417895],[-111.7511739,39.8417518],[-111.751184,39.841722],[-111.7511992,39.8416883],[-111.7513124,39.8414664],[-111.7513226,39.8414327],[-111.7513259,39.8413912],[-111.7513378,39.8412017],[-111.7513259,39.8410422],[-111.7512938,39.840845],[-111.7512685,39.8407386],[-111.7512617,39.8406802],[-111.75126,39.8406011],[-111.7512651,39.8405777],[-111.7512803,39.8405518],[-111.7512989,39.8405271],[-111.7513073,39.840505],[-111.7513107,39.8404739],[-111.751309,39.8404376],[-111.7512955,39.8403896],[-111.7512837,39.8403649],[-111.7512634,39.8403455],[-111.751247,39.8403318],[-111.7512406,39.8403211],[-111.7512374,39.8403064],[-111.7512087,39.840201],[-111.7511799,39.840049],[-111.7511576,39.8399525],[-111.7511469,39.83991],[-111.7511256,39.839852],[-111.7510958,39.8397662],[-111.7510767,39.839691],[-111.7510671,39.8396289],[-111.751066,39.8395529],[-111.751065,39.8394515],[-111.7510607,39.8394303],[-111.7510564,39.8394066],[-111.7510564,39.8393771],[-111.7510799,39.8392071],[-111.7510831,39.8391883],[-111.7510958,39.839163],[-111.7511065,39.8391352],[-111.7511129,39.8391066],[-111.7511224,39.839078],[-111.7511533,39.8390257],[-111.7511863,39.8389767],[-111.7512321,39.838917],[-111.75128,39.838868],[-111.7513577,39.838805],[-111.7514066,39.8387797],[-111.7514226,39.8387715],[-111.7514396,39.8387584],[-111.7514588,39.8387404],[-111.7516078,39.8385941],[-111.7516291,39.838568],[-111.7516366,39.8385492],[-111.7516696,39.8384593],[-111.7518069,39.8380817],[-111.7518233,39.8380204],[-111.7518254,39.8379746],[-111.7518191,39.8379403],[-111.7517956,39.8378945],[-111.7516594,39.8377229],[-111.7516189,39.8376444],[-111.7515977,39.8375872],[-111.7515679,39.837494],[-111.7515536,39.8374165],[-111.7515456,39.837397],[-111.7515335,39.8373877],[-111.7515241,39.8373774],[-111.7515174,39.837364],[-111.7515201,39.8373537],[-111.7515228,39.8373341],[-111.7515187,39.8373197],[-111.7514852,39.8372322],[-111.7514463,39.8371653],[-111.7514168,39.8371024],[-111.7513954,39.8370448],[-111.7513766,39.8369809],[-111.7513672,39.836915],[-111.7513578,39.8368481],[-111.7513578,39.8367883],[-111.7513632,39.8367266],[-111.7513873,39.8365659],[-111.7513967,39.8365113],[-111.7514101,39.8364691],[-111.7514262,39.8364351],[-111.7514906,39.8363486],[-111.7515027,39.8363311],[-111.7515094,39.8363064],[-111.7515161,39.8362601],[-111.7515174,39.8361849],[-111.7515187,39.8361478],[-111.7515268,39.8361149],[-111.7515469,39.836015],[-111.751555,39.8359645],[-111.751555,39.8359285],[-111.7515536,39.8358193],[-111.7515576,39.8357966],[-111.751571,39.8357482],[-111.7515831,39.8357163],[-111.7516019,39.8356751],[-111.7516327,39.835601],[-111.7516529,39.8355485],[-111.7516596,39.8355176],[-111.7516596,39.8354661],[-111.7516622,39.8354403],[-111.7516716,39.8353991],[-111.7516783,39.83536],[-111.7516864,39.8353003],[-111.7517025,39.8351932],[-111.7517145,39.8351561],[-111.7517293,39.8351252],[-111.7517481,39.8350861],[-111.751787,39.8350181],[-111.7518004,39.8349893],[-111.7518044,39.8349676],[-111.7518044,39.8349388],[-111.751799,39.8349069],[-111.7517856,39.834875],[-111.7517253,39.8347771],[-111.7516676,39.834703],[-111.7516448,39.8346669],[-111.7516354,39.8346463],[-111.7516287,39.8346113],[-111.7516274,39.8345691],[-111.751626,39.8345392],[-111.7516193,39.8345145],[-111.7515979,39.8344507],[-111.7515965,39.8344362],[-111.7515979,39.8344126],[-111.7516354,39.8342601],[-111.7516394,39.8342385],[-111.7516381,39.83422],[-111.7516193,39.8341839],[-111.7515442,39.8340696],[-111.7515053,39.8339945],[-111.7514691,39.8338987],[-111.751339,39.8336206],[-111.7512626,39.8334661],[-111.7511821,39.8332921],[-111.7511781,39.8332694],[-111.7511794,39.8332313],[-111.7511781,39.8332046],[-111.7511741,39.833184],[-111.7511647,39.8331592],[-111.7510212,39.8329162],[-111.7509702,39.8327978],[-111.7508978,39.8326618],[-111.7508013,39.8324878],[-111.7507798,39.8324373],[-111.7507744,39.8324075],[-111.7507691,39.8323426],[-111.7507583,39.8322931],[-111.7507449,39.8322489],[-111.7507275,39.8322159],[-111.7506738,39.8321397],[-111.7506068,39.8320491],[-111.7505639,39.8319739],[-111.7505143,39.831874],[-111.7504257,39.8316773],[-111.7504137,39.831633],[-111.7504123,39.8316052],[-111.7504137,39.8315774],[-111.7504311,39.8315125],[-111.7504338,39.831496],[-111.7504338,39.8314806],[-111.7504271,39.8314631],[-111.7504271,39.8314445],[-111.7504351,39.8314188],[-111.7504445,39.8313971],[-111.7504633,39.8313735],[-111.7504754,39.831359],[-111.7504834,39.8313446],[-111.7504955,39.8313127],[-111.7504982,39.8312684],[-111.7505022,39.8312509],[-111.7505089,39.8312334],[-111.750538,39.8311955],[-111.7505935,39.8311292],[-111.7506217,39.8310966],[-111.7506645,39.8310627],[-111.750728,39.8310165],[-111.7507537,39.8309921],[-111.7507984,39.8309488],[-111.7508367,39.8309177],[-111.7508804,39.8308883],[-111.7509879,39.8308205],[-111.7510975,39.83076],[-111.7511273,39.8307485],[-111.7512497,39.8307027],[-111.7512742,39.8306978],[-111.7513157,39.8306946],[-111.751468,39.8306921],[-111.7514882,39.8306901],[-111.7514983,39.830684],[-111.751501,39.8306752],[-111.7515184,39.8306186],[-111.7515224,39.8306108],[-111.7515291,39.8306072],[-111.7515385,39.8306067],[-111.7515754,39.830617],[-111.7515841,39.8306175],[-111.7515908,39.8306155],[-111.7515935,39.8306103],[-111.7516015,39.8305985],[-111.7516109,39.8305908],[-111.751623,39.8305892],[-111.7516619,39.8305872],[-111.7516773,39.8305861],[-111.7516854,39.8305825],[-111.7516907,39.8305769],[-111.7517001,39.8305408],[-111.7517048,39.8305346],[-111.7517162,39.830529],[-111.7517216,39.8305212],[-111.751733,39.830514],[-111.7517484,39.8305125],[-111.7517692,39.830514],[-111.7517792,39.8305115],[-111.7517826,39.8305058],[-111.7517839,39.8304873],[-111.751788,39.8304806],[-111.7517947,39.8304775],[-111.7518805,39.83046],[-111.7518892,39.8304553],[-111.7518912,39.8304486],[-111.7518926,39.8304265],[-111.7518926,39.8304167],[-111.7518986,39.8304095],[-111.751912,39.830408],[-111.7519248,39.830411],[-111.7519362,39.83041],[-111.7519402,39.8304059],[-111.7519442,39.830392],[-111.7519469,39.8303827],[-111.7519536,39.8303771],[-111.7519677,39.830374],[-111.7520575,39.8303729],[-111.752081,39.8303745],[-111.7520917,39.8303724],[-111.7521063,39.8303682],[-111.7521249,39.8303546],[-111.7521637,39.8303014],[-111.7521815,39.8302916],[-111.7522068,39.8302851],[-111.7522482,39.8302774],[-111.7522626,39.8302709],[-111.7522702,39.8302637],[-111.7522719,39.8302553],[-111.7522727,39.8302352],[-111.7522778,39.830228],[-111.7522904,39.8302255],[-111.7523302,39.8302229],[-111.7523479,39.8302222],[-111.7523606,39.8302183],[-111.7523673,39.8302118],[-111.7523834,39.8302053],[-111.7523986,39.8302021],[-111.7524358,39.8301956],[-111.7524459,39.830195],[-111.7524603,39.8301982],[-111.7524712,39.8301989],[-111.7524805,39.8301956],[-111.7524873,39.8301865],[-111.7525219,39.830095],[-111.7525295,39.830086],[-111.7525574,39.8300821],[-111.7525785,39.8300775],[-111.7525895,39.8300717],[-111.7525988,39.8300639],[-111.7526242,39.830036],[-111.7526335,39.8300302],[-111.7526461,39.8300295],[-111.7527306,39.8300328],[-111.7527458,39.8300321],[-111.7527568,39.8300282],[-111.7527644,39.8300198],[-111.7527762,39.8300029],[-111.7527855,39.8299945],[-111.7528033,39.8299893],[-111.7528269,39.829988],[-111.7529089,39.8299964],[-111.752941,39.8300023],[-111.7529613,39.8300029],[-111.75299,39.8299997],[-111.7529976,39.8299938],[-111.753001,39.8299867],[-111.7530035,39.8299569],[-111.7530052,39.829938],[-111.7530162,39.8299238],[-111.753044,39.8299011],[-111.7530685,39.8298822],[-111.7531184,39.8298492],[-111.7531404,39.8298355],[-111.7531877,39.8298284],[-111.7532156,39.8298219],[-111.7532341,39.8298115],[-111.7532443,39.8297972],[-111.7532569,39.8297797],[-111.7532637,39.8297402],[-111.7532713,39.8297291],[-111.753284,39.8297207],[-111.7532992,39.8297168],[-111.7533904,39.829698],[-111.7534082,39.8296895],[-111.7534242,39.8296766],[-111.7534589,39.8296545],[-111.7534893,39.8296396],[-111.7535028,39.8296273],[-111.7535205,39.829611],[-111.753594,39.8295468],[-111.7536143,39.8295312],[-111.7536236,39.829517],[-111.7536304,39.8294975],[-111.753643,39.8294878],[-111.7536616,39.8294826],[-111.7536768,39.8294735],[-111.7536819,39.8294625],[-111.7536912,39.8294469],[-111.7537039,39.8294378],[-111.7537537,39.8294145],[-111.7537664,39.8294034],[-111.7537909,39.8293762],[-111.753834,39.8293314],[-111.7538568,39.8293158],[-111.7538923,39.8292951],[-111.753921,39.8292789],[-111.7539362,39.8292672],[-111.7539447,39.8292561],[-111.7539556,39.8292386],[-111.7539658,39.8292133],[-111.7539793,39.8291958],[-111.7539903,39.8291867],[-111.7540518,39.8291478],[-111.7540692,39.8291272],[-111.754088,39.8290983],[-111.7541108,39.8290798],[-111.7541457,39.8290406],[-111.7542006,39.8289974],[-111.7542529,39.8289603],[-111.7542945,39.8289335],[-111.7543334,39.8289119],[-111.7543763,39.8288965],[-111.7543887,39.8288922],[-111.7543929,39.8288881],[-111.7543935,39.8288816],[-111.7543871,39.8288722],[-111.7543658,39.8288522],[-111.7543467,39.8288258],[-111.7543406,39.8288093],[-111.7543406,39.8288037],[-111.754346,39.828799],[-111.7543675,39.8287939],[-111.7543976,39.8287939],[-111.7544184,39.8287913],[-111.7544251,39.8287882],[-111.7544271,39.8287805],[-111.7544278,39.8287707],[-111.7544312,39.828765],[-111.7544412,39.8287604],[-111.7544647,39.8287517],[-111.7544748,39.8287465],[-111.7544815,39.8287408],[-111.7544848,39.8287321],[-111.7544815,39.8287254],[-111.754456,39.828696],[-111.7544526,39.8286893],[-111.7544526,39.8286821],[-111.754464,39.8286749],[-111.7544808,39.8286729],[-111.7544989,39.8286729],[-111.7545103,39.8286703],[-111.754519,39.8286657],[-111.7545317,39.82866],[-111.7545378,39.8286507],[-111.7545378,39.8286379],[-111.7545378,39.8286276],[-111.7545411,39.8286214],[-111.7545485,39.8286173],[-111.7545599,39.8286126],[-111.7545653,39.8286044],[-111.754568,39.828592],[-111.7545659,39.8285822],[-111.7545619,39.8285688],[-111.7545639,39.8285601],[-111.7545693,39.8285575],[-111.7545864,39.8285572],[-111.7546082,39.8285555],[-111.7546178,39.8285531],[-111.7546194,39.8285478],[-111.7546162,39.8285388],[-111.7546077,39.8285286],[-111.7546023,39.8285175],[-111.7546029,39.8285126],[-111.7546055,39.8285085],[-111.7546156,39.8285048],[-111.7546369,39.8285028],[-111.7546662,39.8285024],[-111.7546832,39.8284999],[-111.7547029,39.8284922],[-111.7547066,39.8284889],[-111.7547066,39.828484],[-111.7547008,39.8284713],[-111.7546976,39.828464],[-111.7546987,39.8284566],[-111.754704,39.8284529],[-111.7547327,39.8284448],[-111.7547444,39.8284399],[-111.7547535,39.8284333],[-111.7547551,39.828428],[-111.7547615,39.828392],[-111.7547812,39.8283524],[-111.7547961,39.8283336],[-111.7548094,39.828325],[-111.7548269,39.8283164],[-111.7548461,39.8283083],[-111.7548509,39.8283021],[-111.7548509,39.8282956],[-111.754837,39.8282821],[-111.7548344,39.8282776],[-111.7548317,39.8282637],[-111.7548344,39.8282465],[-111.7548386,39.8282424],[-111.754845,39.828242],[-111.7548764,39.8282465],[-111.7548871,39.8282469],[-111.7548956,39.8282449],[-111.7549004,39.828238],[-111.7548993,39.8282294],[-111.7549004,39.8282196],[-111.7549052,39.8282089],[-111.7549142,39.8281995],[-111.7549254,39.828193],[-111.7549366,39.8281905],[-111.7549531,39.8281889],[-111.7549616,39.8281869],[-111.7549653,39.8281836],[-111.754969,39.828175],[-111.7549696,39.8281668],[-111.7549642,39.8281554],[-111.7549653,39.8281452],[-111.7549696,39.8281345],[-111.7549749,39.8281292],[-111.7549749,39.8281231],[-111.7549706,39.8281149],[-111.7549706,39.8281072],[-111.7549749,39.8281002],[-111.7549845,39.8280953],[-111.7550127,39.8280871],[-111.7550217,39.8280765],[-111.7550223,39.8280651],[-111.7550276,39.8280622],[-111.7550414,39.8280704],[-111.7550494,39.8280716],[-111.7550595,39.8280679],[-111.7550718,39.8280581],[-111.7550808,39.8280479],[-111.7550835,39.8280397],[-111.7550819,39.8280283],[-111.7550765,39.8280176],[-111.7550733,39.8280025],[-111.7550744,39.8279899],[-111.7550765,39.8279715],[-111.7550808,39.8279682],[-111.7550872,39.8279682],[-111.7551037,39.827978],[-111.755117,39.8279899],[-111.7551234,39.8279919],[-111.755134,39.8279899],[-111.7551431,39.8279784],[-111.7551452,39.8279706],[-111.755159,39.8279608],[-111.7551729,39.827958],[-111.7551819,39.8279592],[-111.7551958,39.8279674],[-111.7552224,39.8279841],[-111.7552453,39.8279915],[-111.7552692,39.8279964],[-111.7552852,39.8279968],[-111.7552963,39.8279919],[-111.7553139,39.8279805],[-111.755323,39.8279666],[-111.7553283,39.8279576],[-111.7553368,39.827948],[-111.7553459,39.8279452],[-111.7553555,39.8279452],[-111.7553799,39.8279513],[-111.7554204,39.8279591],[-111.7554369,39.8279595],[-111.7554671,39.8279494],[-111.7554852,39.8279314],[-111.755498,39.8279233],[-111.7555225,39.8279151],[-111.7555597,39.8279077],[-111.7555853,39.8279036],[-111.7556151,39.8278947],[-111.7557007,39.8278728],[-111.7557597,39.8278543],[-111.7558134,39.8278296],[-111.7558509,39.8277945],[-111.7559502,39.8276802],[-111.7559917,39.8276318],[-111.75604,39.8275505],[-111.7560695,39.827466],[-111.7561165,39.8273991],[-111.7561782,39.8273225],[-111.7562559,39.8272298],[-111.7563364,39.8271557],[-111.756494,39.8270455],[-111.7565785,39.8269806],[-111.7566427,39.8269053],[-111.7567236,39.8267508],[-111.7568019,39.8265406],[-111.7569116,39.8263902],[-111.7569477,39.8263501],[-111.7569956,39.8263215],[-111.7570318,39.8263068],[-111.7570595,39.8262888],[-111.7570819,39.8262578],[-111.757159,39.8260605],[-111.7571771,39.8260208],[-111.757216,39.8259822],[-111.7572361,39.8259698],[-111.7572536,39.8259642],[-111.7572683,39.8259662],[-111.7572824,39.8259729],[-111.7572938,39.8259765],[-111.7573065,39.8259729],[-111.7573213,39.8259662],[-111.7574018,39.8259164],[-111.7575099,39.8258489],[-111.7575792,39.8258009],[-111.757689,39.8257062],[-111.757782,39.8256166],[-111.757983,39.8253272],[-111.7580371,39.8252546],[-111.7580963,39.8251988],[-111.7581537,39.8251611],[-111.7582416,39.8251118],[-111.7582956,39.8250638],[-111.758392,39.8249327],[-111.7584747,39.8248082],[-111.7585322,39.8247485],[-111.7585913,39.8246836],[-111.7586184,39.8246382],[-111.7586674,39.8245006],[-111.7587654,39.8243527],[-111.7588144,39.8242735],[-111.7589208,39.8241463],[-111.7590145,39.8239948],[-111.7590618,39.8239117],[-111.7590821,39.8238845],[-111.7591277,39.8238469],[-111.7592677,39.8237337],[-111.7593156,39.8236834],[-111.7593188,39.8236732],[-111.7593172,39.8236667],[-111.7593124,39.8236618],[-111.759303,39.8236584],[-111.7592593,39.823647],[-111.7592434,39.8236396],[-111.7592402,39.8236306],[-111.7592423,39.8236208],[-111.7592625,39.8235865],[-111.7593221,39.8235113],[-111.7594806,39.8232794],[-111.7595014,39.8232501],[-111.7595175,39.8232171],[-111.7595577,39.8231193],[-111.7595618,39.8230915],[-111.7595624,39.823077],[-111.7595564,39.8230642],[-111.7595443,39.8230497],[-111.7595262,39.8230343],[-111.7595262,39.8230276],[-111.7595316,39.8230173],[-111.759541,39.823006],[-111.7595731,39.8229696],[-111.7595835,39.8229528],[-111.7596197,39.8228122],[-111.7596346,39.8227722],[-111.7596378,39.8227223],[-111.7596218,39.8225522],[-111.7596314,39.8225024],[-111.7596431,39.8224795],[-111.7596633,39.822455],[-111.7596942,39.8224288],[-111.7597399,39.8224059],[-111.7597868,39.8223838],[-111.7598432,39.8223699],[-111.7598762,39.8223667],[-111.7599964,39.8223575],[-111.7600178,39.8223534],[-111.76004,39.82234],[-111.7600494,39.8223323],[-111.7600735,39.8222674],[-111.7600997,39.8222226],[-111.7601285,39.8221628],[-111.7601406,39.8221247],[-111.7601459,39.822119],[-111.760154,39.8221154],[-111.7601707,39.8221134],[-111.7601795,39.8221118],[-111.7601902,39.8221062],[-111.7602143,39.8220804],[-111.7602371,39.8220572],[-111.7602546,39.8220325],[-111.7602686,39.8220088],[-111.7602928,39.8219923],[-111.7603186,39.8219791],[-111.7603307,39.8219631],[-111.7603347,39.8219507],[-111.760358,39.8218298],[-111.760272,39.821857]]}}]}
