{"type":"FeatureCollection","peaks_destination_id":"dqjHZh4OABNqZ4K1JyKC","peaks_trailhead_id":"AE4921E6E7C34F4589D7","peaks_source":"https://www.openstreetmap.org/","peaks_retrieval_source":"https://api.openstreetmap.org/api/0.6","peaks_license_name":"Open Data Commons Open Database License (ODbL) 1.0","peaks_license":"https://opendatacommons.org/licenses/odbl/1-0/","peaks_attribution":"© OpenStreetMap contributors","peaks_retrieved_at":"2026-07-31T08:25:11.575Z","features":[{"type":"Feature","properties":{"name":"Mount Peale OSM route candidate","trailhead_name":"La Sal Pass Trailhead","destination_name":"Mount Peale","distance_m":4115.052721374082,"trailhead_snap_m":6.206381009852396,"summit_snap_m":8.330119184886037,"osm_way_ids":[1122695665,984450433,1122695667,984450430],"osm_way_urls":["https://www.openstreetmap.org/way/1122695665","https://www.openstreetmap.org/way/984450433","https://www.openstreetmap.org/way/1122695667","https://www.openstreetmap.org/way/984450430"],"osm_way_names":["Burlfriends Trail","Mount Peale Trail"],"osm_foot_access_override_way_ids":[]},"geometry":{"type":"LineString","coordinates":[[-109.2516548,38.4189579],[-109.2516957,38.4189122],[-109.2516756,38.4190523],[-109.2516541,38.4191077],[-109.2516486,38.419119],[-109.2516262,38.4191313],[-109.2515506,38.4191692],[-109.2514462,38.4192435],[-109.251416,38.4192678],[-109.2513777,38.4193144],[-109.2513357,38.4193749],[-109.2512269,38.4194785],[-109.2509558,38.4196571],[-109.250734,38.4197295],[-109.2506242,38.4197457],[-109.2505169,38.4197783],[-109.2504941,38.4197867],[-109.2503506,38.4198098],[-109.2502983,38.4198266],[-109.250246,38.4198497],[-109.2501843,38.419856],[-109.2500663,38.4198728],[-109.2499631,38.4198928],[-109.2498585,38.4198896],[-109.2497203,38.4199075],[-109.2495513,38.4199737],[-109.2493515,38.420063],[-109.2491182,38.4201481],[-109.2490806,38.4201544],[-109.2490364,38.4201586],[-109.2490028,38.4201733],[-109.2489787,38.4201943],[-109.2489385,38.4202101],[-109.2488741,38.4202332],[-109.2488164,38.4202542],[-109.2487386,38.4202668],[-109.248685,38.4202742],[-109.2486166,38.42029],[-109.2485509,38.4203225],[-109.2485174,38.4203435],[-109.2484087,38.4203782],[-109.2482947,38.420395],[-109.2482156,38.4204181],[-109.2481338,38.4204497],[-109.2480185,38.4204833],[-109.2479608,38.4205222],[-109.2478616,38.4205768],[-109.2476832,38.4206482],[-109.2475236,38.4206966],[-109.2474686,38.4207334],[-109.2473855,38.4207596],[-109.2472768,38.4207869],[-109.247132,38.4208227],[-109.2470837,38.4208521],[-109.2470368,38.4208889],[-109.2469724,38.4209214],[-109.2468343,38.4210349],[-109.2465915,38.4212545],[-109.2464883,38.4213701],[-109.24644,38.4214783],[-109.246385,38.4215729],[-109.2463045,38.4216664],[-109.2461195,38.421908],[-109.2460202,38.4220804],[-109.2459625,38.4221686],[-109.2458781,38.4222779],[-109.2458499,38.4223409],[-109.2458298,38.4223851],[-109.2457574,38.4225343],[-109.2457144,38.4226498],[-109.2456675,38.4228043],[-109.2456554,38.4228841],[-109.2456233,38.4229409],[-109.2456018,38.4230617],[-109.2455817,38.4231205],[-109.2455549,38.4231647],[-109.245524,38.4232477],[-109.2454543,38.4233759],[-109.2454382,38.423399],[-109.2453341,38.4235305],[-109.2452492,38.4236275],[-109.2452032,38.4237135],[-109.2451395,38.4237606],[-109.2450439,38.4238105],[-109.2449023,38.4239685],[-109.244736,38.424085],[-109.2447112,38.4241626],[-109.2446758,38.4242541],[-109.2446227,38.4243013],[-109.244605,38.4244011],[-109.2444599,38.4245924],[-109.2444139,38.4247366],[-109.2443537,38.424878],[-109.2442476,38.4249889],[-109.2441095,38.4251164],[-109.2439149,38.4252273],[-109.2436813,38.4252773],[-109.2435645,38.4252883],[-109.2434619,38.42528],[-109.243338,38.4252495],[-109.2432566,38.4252551],[-109.2430735,38.4252507],[-109.2426265,38.4252225],[-109.2426793,38.4253331],[-109.2427563,38.4254514],[-109.2428434,38.4254954],[-109.2429436,38.4255316],[-109.243114,38.4255991],[-109.2432106,38.4256904],[-109.2433415,38.4259316],[-109.2434194,38.4261118],[-109.2434973,38.42711],[-109.2436141,38.4276007],[-109.2435964,38.4279417],[-109.2435114,38.4280915],[-109.2435043,38.4282606],[-109.2435256,38.4284658],[-109.2435327,38.4286072],[-109.243476,38.4288262],[-109.2433911,38.4291062],[-109.2432495,38.4293225],[-109.2430584,38.4295166],[-109.2429381,38.4296385],[-109.242885,38.4297605],[-109.2428744,38.4298742],[-109.2429062,38.4300322],[-109.2429451,38.4301126],[-109.2429947,38.430157],[-109.2430513,38.4302429],[-109.2430584,38.4303372],[-109.2429805,38.4304731],[-109.2429098,38.4305978],[-109.2429168,38.4307309],[-109.2429699,38.4308168],[-109.2430124,38.430864],[-109.243032,38.4309159],[-109.2430442,38.4309472],[-109.2429912,38.4310359],[-109.2428673,38.4312494],[-109.2428496,38.4313492],[-109.2428921,38.4316181],[-109.2429275,38.4317234],[-109.242977,38.4317817],[-109.2430655,38.4318427],[-109.2431115,38.4318926],[-109.2431469,38.4319813],[-109.2431575,38.4321643],[-109.2431823,38.4322169],[-109.2432141,38.4322862],[-109.2432354,38.4323583],[-109.2432247,38.4324387],[-109.2432106,38.4325025],[-109.2432165,38.4325554],[-109.2430335,38.4326637],[-109.2429929,38.432756],[-109.2429969,38.432877],[-109.2429847,38.4329758],[-109.2428994,38.4330426],[-109.2427489,38.4331159],[-109.2426636,38.4331605],[-109.2426364,38.4331875],[-109.2425944,38.4332305],[-109.242566,38.4333452],[-109.2425741,38.4334821],[-109.2425822,38.4336509],[-109.2425416,38.4337496],[-109.2424562,38.433807],[-109.2424457,38.4338306],[-109.2424779,38.4338622],[-109.2425101,38.4338937],[-109.2425262,38.4339252],[-109.242502,38.4339567],[-109.2424719,38.4339734],[-109.24244,38.4339928],[-109.2424153,38.4340094],[-109.2424047,38.4340413],[-109.2424082,38.4340829],[-109.242433,38.4341245],[-109.2424294,38.4341466],[-109.2424029,38.4341841],[-109.2423816,38.4342104],[-109.2423746,38.434234],[-109.2423816,38.4342672],[-109.2423781,38.434313],[-109.2423321,38.4343504],[-109.2422861,38.4343948],[-109.2422932,38.4344544],[-109.2422772,38.4345375],[-109.2422153,38.4345653],[-109.2421587,38.4345847],[-109.242141,38.4346027],[-109.242141,38.4346318],[-109.242118,38.4346873],[-109.2421127,38.4347413],[-109.2421781,38.4348009],[-109.2422011,38.434855],[-109.2421976,38.4349118],[-109.2421658,38.4349631],[-109.242141,38.4349936],[-109.2420755,38.4350393],[-109.2420613,38.4350781],[-109.2420596,38.4351253],[-109.2420543,38.4351738],[-109.2420366,38.4352195],[-109.2420136,38.4352389],[-109.2419552,38.4352625],[-109.2419039,38.4352888],[-109.2418968,38.4353124],[-109.2419127,38.4353263],[-109.2419481,38.4353498],[-109.2419534,38.4353637],[-109.2419375,38.4353845],[-109.2419215,38.4353983],[-109.2418313,38.4354358],[-109.241803,38.4354579],[-109.2417871,38.4354871],[-109.241757,38.4355356],[-109.2416827,38.4356077],[-109.2416296,38.4356548],[-109.241557,38.4357255],[-109.2413729,38.4358224],[-109.2411726,38.4358755],[-109.2410371,38.4359262],[-109.240957,38.4359696],[-109.2408984,38.435989],[-109.2408029,38.4359914],[-109.2406766,38.4360348],[-109.2405903,38.4360686],[-109.2404794,38.4361169],[-109.2403839,38.4361917],[-109.2403407,38.4362834],[-109.2402945,38.4364716],[-109.2401682,38.4366333],[-109.24017,38.4367418],[-109.2401713,38.436795],[-109.2401374,38.4369977],[-109.2400634,38.4372656],[-109.2399772,38.4375769],[-109.2399298,38.4377268],[-109.2398539,38.4379703],[-109.2397677,38.4385037],[-109.239592,38.4390611],[-109.2394571,38.4396739],[-109.2394074,38.4399413],[-109.2392595,38.4399485],[-109.2392287,38.4399847],[-109.2391578,38.439975],[-109.2391147,38.4400209],[-109.2389945,38.4400185],[-109.2388374,38.4400305],[-109.2386925,38.4401102],[-109.2385323,38.4400909],[-109.2384122,38.4402284],[-109.2382828,38.440337],[-109.2379932,38.4402067],[-109.2378083,38.4401174],[-109.2377497,38.4401971],[-109.237531,38.4402019],[-109.2374201,38.4401657],[-109.2372929,38.4400146],[-109.2371594,38.4400469],[-109.2370287,38.4399634],[-109.23698,38.4399916],[-109.2369029,38.4399815],[-109.236866,38.4400097],[-109.2368088,38.440003],[-109.236761,38.4400381],[-109.2366841,38.4400099],[-109.2366173,38.4400512],[-109.2365081,38.4400371],[-109.2364595,38.4400692],[-109.2363974,38.4400421],[-109.2363489,38.4400565],[-109.2362891,38.4400295],[-109.2362164,38.4400456],[-109.2361416,38.4399932],[-109.2360987,38.4400129],[-109.235935,38.4399437],[-109.2358303,38.4398664],[-109.2357255,38.439852],[-109.2356947,38.4397796],[-109.2357686,38.4397072],[-109.2357961,38.439669],[-109.2355018,38.4392191],[-109.2354365,38.4391294],[-109.2353617,38.4390874],[-109.2352637,38.4390673],[-109.2351376,38.4390051],[-109.2350559,38.4389722],[-109.2349858,38.4389648],[-109.2349018,38.4389338],[-109.2347897,38.4388953],[-109.2347453,38.4388588],[-109.2346496,38.4387966],[-109.2345702,38.4387509],[-109.2344091,38.4386064],[-109.2342316,38.4384857],[-109.2341475,38.4384308],[-109.2340378,38.4383485],[-109.2339094,38.4382223],[-109.2337506,38.4380632],[-109.2336385,38.4379681],[-109.2335591,38.4379388],[-109.2334494,38.437926],[-109.2333303,38.4379223],[-109.2330758,38.4379699],[-109.2328446,38.4380431],[-109.2325317,38.4381455],[-109.2321251,38.4382655],[-109.2316891,38.4383657],[-109.2312131,38.438344],[-109.2309112,38.4383681],[-109.2303489,38.4383681],[-109.2300931,38.4383572],[-109.2297079,38.4383603],[-109.2293646,38.4384317],[-109.2292117,38.4384906],[-109.229179,38.438561]]}}]}
