{"type":"FeatureCollection","peaks_destination_id":"sYJrDZqm11M4CSUPhpuD","peaks_trailhead_id":"C2E119BEE6AF1DE83769","peaks_source":"https://www.openstreetmap.org/","peaks_retrieval_source":"https://api.openstreetmap.org/api/0.6","peaks_license_name":"Open Data Commons Open Database License (ODbL) 1.0","peaks_license":"https://opendatacommons.org/licenses/odbl/1-0/","peaks_attribution":"© OpenStreetMap contributors","peaks_retrieved_at":"2026-07-30T21:07:47.121Z","features":[{"type":"Feature","properties":{"name":"Mount Stanley OSM route candidate","trailhead_name":"Rwenzori Central Circuit Trailhead","destination_name":"Mount Stanley","distance_m":23393.598303973507,"trailhead_snap_m":0,"summit_snap_m":11.43636740792773,"osm_way_ids":[125549612,125549595,125549611,125549608,125549610,125549613,125549607,138711172,138711168,138711163,138711156,138711151,138711178,138711174,138711175,138711176,138711177],"osm_way_urls":["https://www.openstreetmap.org/way/125549612","https://www.openstreetmap.org/way/125549595","https://www.openstreetmap.org/way/125549611","https://www.openstreetmap.org/way/125549608","https://www.openstreetmap.org/way/125549610","https://www.openstreetmap.org/way/125549613","https://www.openstreetmap.org/way/125549607","https://www.openstreetmap.org/way/138711172","https://www.openstreetmap.org/way/138711168","https://www.openstreetmap.org/way/138711163","https://www.openstreetmap.org/way/138711156","https://www.openstreetmap.org/way/138711151","https://www.openstreetmap.org/way/138711178","https://www.openstreetmap.org/way/138711174","https://www.openstreetmap.org/way/138711175","https://www.openstreetmap.org/way/138711176","https://www.openstreetmap.org/way/138711177"],"osm_way_names":["Kurt Schaffer Bridge"],"osm_foot_access_override_way_ids":[]},"geometry":{"type":"LineString","coordinates":[[30.0254721,0.3569785],[30.0254721,0.3569785],[30.0249055,0.3571662],[30.0245802,0.3575257],[30.0231425,0.358384],[30.0220267,0.3593925],[30.0212542,0.360401],[30.0209538,0.36068],[30.0202672,0.3607443],[30.016791,0.3614953],[30.0163833,0.3613237],[30.0156538,0.3613237],[30.0150315,0.3611306],[30.0145386,0.3606266],[30.0139372,0.3603152],[30.0136153,0.359886],[30.0118987,0.3596071],[30.0108687,0.3601221],[30.0083367,0.3600577],[30.0077788,0.3602723],[30.007178,0.3603152],[30.0061695,0.3605083],[30.0052683,0.3605941],[30.0047318,0.3607872],[30.0042649,0.3608634],[30.0015775,0.3613022],[30.0012342,0.3616241],[30.0005905,0.3617528],[30.0001399,0.361903],[29.9994103,0.3619459],[29.9988369,0.3622749],[29.9981014,0.3626969],[29.9973075,0.3626969],[29.9954979,0.3629872],[29.9936382,0.3628257],[29.9925868,0.3628257],[29.9915783,0.3622249],[29.9910847,0.3620103],[29.9859778,0.3603581],[29.9851195,0.3602079],[29.9837248,0.3600791],[29.9822871,0.3602079],[29.9815361,0.3600791],[29.9810426,0.3599719],[29.9802915,0.3593281],[29.9797122,0.3587703],[29.9789837,0.3579866],[29.9781187,0.3572555],[29.9773756,0.3564036],[29.9764444,0.3560908],[29.9750711,0.3559191],[29.973612,0.3565199],[29.9728565,0.3566781],[29.9724441,0.3575718],[29.9724302,0.358085],[29.9724623,0.3583957],[29.9720669,0.3585022],[29.9718918,0.3588009],[29.9712839,0.3592199],[29.9700823,0.3602964],[29.9685373,0.3608972],[29.9673357,0.3607256],[29.9659624,0.3610689],[29.9639024,0.3613264],[29.9622717,0.3623563],[29.9603834,0.3637296],[29.9584093,0.3644162],[29.9578943,0.3649312],[29.9578085,0.3658753],[29.9572935,0.3663903],[29.9561777,0.3675919],[29.9548902,0.3696518],[29.9542036,0.3707676],[29.9528892,0.3726132],[29.9513371,0.3746338],[29.9505371,0.3756048],[29.9496136,0.3766511],[29.9490983,0.3776195],[29.9478115,0.3786495],[29.9464185,0.3793235],[29.9450839,0.3799735],[29.943896,0.3797736],[29.9425858,0.3803979],[29.9413874,0.3810256],[29.9404124,0.3811088],[29.939275,0.3816978],[29.9381082,0.3817534],[29.9366955,0.381218],[29.9358628,0.3813547],[29.9354031,0.3812368],[29.9340753,0.3815354],[29.9319426,0.3813729],[29.9304395,0.3818603],[29.9293846,0.3832269],[29.9289993,0.3835306],[29.9289056,0.3836269],[29.9287558,0.3836175],[29.9285803,0.3836133],[29.9282208,0.3838361],[29.9276599,0.3840416],[29.9276077,0.3840743],[29.9275416,0.3841364],[29.9274362,0.384254],[29.9272574,0.384444],[29.9266302,0.3848731],[29.9257754,0.3854579],[29.9247858,0.3858648],[29.9231866,0.3863406],[29.9219062,0.3864464],[29.9215672,0.3870661],[29.9210684,0.3875287],[29.919987,0.3880423],[29.9190944,0.3881327],[29.9181215,0.3878606],[29.9171342,0.3872784],[29.9161113,0.3866501],[29.9151617,0.3852581],[29.9146699,0.3851596],[29.9141622,0.3849408],[29.9128015,0.3837458],[29.9121746,0.38344],[29.9113433,0.3829726],[29.9098892,0.3820648],[29.9095621,0.3819154],[29.9088152,0.3815743],[29.9081657,0.3810976],[29.9076791,0.3807404],[29.906887,0.3802089],[29.9056154,0.3794897],[29.9050317,0.3793855],[29.9045094,0.3790895],[29.9044063,0.3790311],[29.904267,0.3789906],[29.9031868,0.3786767],[29.9023217,0.3777074],[29.9007945,0.3764326],[29.8988852,0.375539],[29.8970546,0.3756195],[29.8959603,0.3764936],[29.8949245,0.3772654],[29.8940104,0.3782403],[29.8933402,0.3789106],[29.8925886,0.3789918],[29.8918574,0.3799464],[29.8909028,0.3808198],[29.8896531,0.3818046],[29.8884451,0.3835821],[29.8878358,0.3845774],[29.8876709,0.3841958],[29.8875152,0.3838356],[29.8877136,0.3833473],[29.8880341,0.3826759],[29.8881867,0.3818366],[29.8885377,0.3809362],[29.8884484,0.3805082],[29.8888913,0.3798391],[29.8889644,0.3797286],[29.8890217,0.3793617],[29.8888153,0.3788458],[29.8889415,0.3782725],[29.8889758,0.3774127],[29.889079,0.3762318],[29.8891593,0.3754636],[29.8893313,0.3751197],[29.88926,0.3744917],[29.8893098,0.3741429],[29.8892814,0.3736944],[29.8893953,0.3735306],[29.8892885,0.3730038],[29.8893383,0.3726408],[29.8894593,0.3722065],[29.8897939,0.3720357],[29.8898651,0.3718292],[29.8898082,0.3716299],[29.8893525,0.3711814],[29.8887047,0.3707543],[29.8885908,0.3703698],[29.8888533,0.3701761],[29.8888595,0.3701534],[29.8886784,0.3702155],[29.8884974,0.3702433],[29.8881878,0.3699324],[29.8881139,0.3698582],[29.8877598,0.3701567],[29.8872662,0.3703927],[29.8868693,0.3709398],[29.8864294,0.3713153],[29.8861075,0.3718947],[29.8857535,0.3720985],[29.8851956,0.3722809],[29.8846806,0.3722809],[29.884311,0.3723411],[29.8836978,0.3722552],[29.8833587,0.3723862],[29.8830752,0.3728851],[29.8827217,0.3730041],[29.8823846,0.3730212],[29.8822663,0.3727427],[29.881934,0.3727637],[29.8814941,0.3731178],[29.8812259,0.3736756],[29.8812287,0.3740025],[29.8810337,0.3743694],[29.8808861,0.3744709],[29.8803663,0.3750242],[29.879799,0.3750274],[29.8795563,0.3750695],[29.8792947,0.3750167],[29.8790601,0.3750097],[29.8787558,0.3754761],[29.8785292,0.3756994],[29.8781306,0.3757949],[29.878093,0.3759442],[29.8779489,0.3759909],[29.8778731,0.3760917],[29.8779898,0.3762409],[29.8779461,0.3763898],[29.878017,0.3765477],[29.8780339,0.3766638],[29.8780424,0.3768147],[29.8779445,0.3770294],[29.8779698,0.3771645],[29.8777968,0.3774085],[29.8775526,0.377549],[29.8772169,0.3775914],[29.8768821,0.3775198],[29.8764733,0.3778553],[29.8762318,0.3780137],[29.8758325,0.3781443],[29.8754734,0.3785837],[29.8755194,0.3789453],[29.8754671,0.3794595],[29.8758622,0.3801777],[29.8759925,0.380278],[29.8762355,0.38033],[29.8765444,0.3805413],[29.8759809,0.3810771],[29.875764,0.3815057],[29.8759084,0.3817801],[29.8757784,0.3822255],[29.8757255,0.3824467],[29.8756567,0.3827424],[29.8756192,0.3829504],[29.8753626,0.3831019],[29.875415,0.3833286],[29.8753228,0.3836266],[29.8751629,0.3839546],[29.8749474,0.3840627],[29.8748135,0.3842611],[29.874663,0.3841932],[29.8746435,0.3842892],[29.8742207,0.384147],[29.8737236,0.3842275],[29.8729352,0.384364],[29.8728445,0.3845751],[29.8727859,0.3847861],[29.8728669,0.3848631],[29.8729424,0.3849079],[29.8732607,0.3850172],[29.8734651,0.3850055],[29.87369,0.3851209],[29.8736562,0.3852878],[29.8733956,0.385289],[29.8731531,0.3853396],[29.8730867,0.3854838],[29.873188,0.385466]]}}]}
