{"type":"FeatureCollection","peaks_destination_id":"iShbcPxYIvbsvJ9Ax9zE","peaks_trailhead_id":"B5AE9BD3E7F446C4A9B9","peaks_source":"https://www.openstreetmap.org/","peaks_retrieval_source":"https://api.openstreetmap.org/api/0.6","peaks_license_name":"Open Data Commons Open Database License (ODbL) 1.0","peaks_license":"https://opendatacommons.org/licenses/odbl/1-0/","peaks_attribution":"© OpenStreetMap contributors","peaks_retrieved_at":"2026-07-31T07:52:33.013Z","features":[{"type":"Feature","properties":{"name":"Mount Eddy OSM route candidate","trailhead_name":"Deadfall Meadow Trailhead","destination_name":"Mount Eddy","distance_m":6382.774858506609,"trailhead_snap_m":0.03339683672086756,"summit_snap_m":21.231680541165144,"osm_way_ids":[1196874520,1196874519,1198850182,1198850183,1196874518,1196874517,356866206,356965952,356968358],"osm_way_urls":["https://www.openstreetmap.org/way/1196874520","https://www.openstreetmap.org/way/1196874519","https://www.openstreetmap.org/way/1198850182","https://www.openstreetmap.org/way/1198850183","https://www.openstreetmap.org/way/1196874518","https://www.openstreetmap.org/way/1196874517","https://www.openstreetmap.org/way/356866206","https://www.openstreetmap.org/way/356965952","https://www.openstreetmap.org/way/356968358"],"osm_way_names":["Deadfall Lakes Trail","Mount Eddy Trail"],"osm_foot_access_override_way_ids":[]},"geometry":{"type":"LineString","coordinates":[[-122.520707,41.334862],[-122.5207074,41.334862],[-122.5207382,41.3348278],[-122.5208509,41.3347946],[-122.5208898,41.3347825],[-122.5209166,41.3347623],[-122.5209481,41.3347392],[-122.5209756,41.3346521],[-122.5210071,41.3346153],[-122.5210038,41.3345438],[-122.5210219,41.3344819],[-122.5210615,41.3344134],[-122.5210722,41.3343887],[-122.5211017,41.3343223],[-122.5211164,41.3342931],[-122.5211272,41.3342347],[-122.5211285,41.3341843],[-122.5211687,41.3340967],[-122.5212358,41.333998],[-122.521264,41.3339457],[-122.5212868,41.3338691],[-122.5212988,41.3337946],[-122.5213029,41.3337302],[-122.5213149,41.3336617],[-122.5213364,41.333563],[-122.5214209,41.333272],[-122.5214164,41.3332444],[-122.5214147,41.3332228],[-122.5213444,41.3331552],[-122.521221,41.3330766],[-122.5211003,41.3329517],[-122.5210655,41.3328772],[-122.5210226,41.3327886],[-122.5209609,41.3327242],[-122.5208965,41.3326517],[-122.520808,41.3325912],[-122.5206819,41.332563],[-122.5204968,41.3325973],[-122.5203788,41.3325872],[-122.5202099,41.3324523],[-122.5201911,41.3323214],[-122.5201374,41.3322851],[-122.5200006,41.3322972],[-122.5197807,41.3321119],[-122.5196788,41.3319669],[-122.5195111,41.331835],[-122.5192818,41.3317071],[-122.5191638,41.3316285],[-122.5190619,41.3315379],[-122.5189412,41.3314493],[-122.518736,41.3312982],[-122.5185844,41.3312257],[-122.5184342,41.3311754],[-122.518335,41.331129],[-122.5182518,41.3311149],[-122.5181794,41.3311119],[-122.5180927,41.3311382],[-122.5179327,41.3311351],[-122.5177985,41.3310968],[-122.5176054,41.3310303],[-122.5174874,41.3310223],[-122.5173694,41.3310102],[-122.5172755,41.3309478],[-122.5171924,41.3308672],[-122.5170744,41.3307866],[-122.5169845,41.3307474],[-122.5168222,41.3307222],[-122.5166988,41.3306174],[-122.5163958,41.3305369],[-122.5160363,41.3303838],[-122.5154811,41.3303476],[-122.5151727,41.3302569],[-122.5149232,41.3301663],[-122.514773,41.3300857],[-122.5145799,41.3300595],[-122.5143868,41.3298722],[-122.5143734,41.3296708],[-122.5142634,41.3295902],[-122.5141675,41.3295681],[-122.5140924,41.3295772],[-122.5140764,41.3296033],[-122.5140086,41.3296225],[-122.5138879,41.3296124],[-122.513625,41.3295318],[-122.5133675,41.3292599],[-122.5132549,41.3291955],[-122.513161,41.3290686],[-122.5131395,41.3289195],[-122.5129598,41.3287926],[-122.5128177,41.3286537],[-122.5127238,41.3284523],[-122.5125951,41.3283717],[-122.512359,41.3283173],[-122.512182,41.3283314],[-122.5119057,41.3283717],[-122.5118226,41.3283334],[-122.5116831,41.3282972],[-122.5115034,41.3282408],[-122.5113505,41.3282206],[-122.5112325,41.3282387],[-122.5109467,41.3283716],[-122.510629,41.3284845],[-122.5105512,41.3284925],[-122.5104466,41.3284502],[-122.5103286,41.3284543],[-122.5102159,41.3284321],[-122.5100872,41.3282106],[-122.5099745,41.328138],[-122.5098404,41.3280373],[-122.5097975,41.327989],[-122.509709,41.3278762],[-122.5096232,41.3277412],[-122.5095522,41.3276358],[-122.5094649,41.3275459],[-122.5094274,41.3274512],[-122.5093871,41.3273928],[-122.5093925,41.3273042],[-122.5094837,41.3271994],[-122.5094891,41.3271168],[-122.5093496,41.327004],[-122.5093147,41.326859],[-122.5092155,41.3267684],[-122.509186,41.3267059],[-122.509135,41.3265529],[-122.5090699,41.3263766],[-122.5090277,41.326293],[-122.5088131,41.3259989],[-122.5087461,41.3258378],[-122.5087515,41.3256928],[-122.5086737,41.3254873],[-122.5087568,41.3253504],[-122.5087702,41.3252859],[-122.5087273,41.3252355],[-122.5085905,41.3251288],[-122.5085905,41.3249858],[-122.5084725,41.3249394],[-122.5082445,41.3247662],[-122.5081238,41.3246433],[-122.5079951,41.3244842],[-122.507928,41.3243311],[-122.5079,41.3242517],[-122.5078878,41.3240391],[-122.5078032,41.3238875],[-122.5078061,41.3237324],[-122.507692,41.3236221],[-122.507633,41.3235093],[-122.5075463,41.3234357],[-122.507499,41.3231616],[-122.5073533,41.3229808],[-122.5072145,41.3228345],[-122.5071663,41.3227519],[-122.5068525,41.3224792],[-122.5067747,41.3223289],[-122.5065896,41.3222302],[-122.5065011,41.3221416],[-122.5064126,41.3220348],[-122.5061873,41.321924],[-122.5060451,41.3218575],[-122.5060344,41.3217004],[-122.5060397,41.3214869],[-122.5059754,41.3213519],[-122.5054148,41.3210659],[-122.5051841,41.3208826],[-122.5049856,41.3207778],[-122.5047845,41.3206388],[-122.5046873,41.320554],[-122.5043392,41.3203387],[-122.5041997,41.3201272],[-122.5041273,41.3200768],[-122.5039423,41.3200768],[-122.5038198,41.3200429],[-122.5035292,41.3200305],[-122.5033173,41.3199459],[-122.503173,41.3199333],[-122.5029874,41.3198049],[-122.5029284,41.3196779],[-122.5027594,41.3196417],[-122.5026467,41.3196034],[-122.5023571,41.3195248],[-122.5019789,41.3193536],[-122.5017965,41.3193476],[-122.5017428,41.3193133],[-122.501716,41.3192106],[-122.501649,41.3191723],[-122.5015229,41.3192106],[-122.5014398,41.3192025],[-122.5012547,41.3190958],[-122.5010274,41.3190433],[-122.5009478,41.318941],[-122.5008204,41.3188705],[-122.5006507,41.3187462],[-122.5003795,41.3187015],[-122.5001067,41.3185278],[-122.4997167,41.318544],[-122.4995073,41.3184519],[-122.4993798,41.3183605],[-122.4992808,41.3182113],[-122.4992511,41.3180885],[-122.49921,41.3180399],[-122.4990207,41.3179229],[-122.4988986,41.3177501],[-122.4987216,41.3176797],[-122.4985836,41.3175428],[-122.4982049,41.3174179],[-122.4981487,41.3172908],[-122.4980629,41.3172263],[-122.4979582,41.3170349],[-122.4977077,41.3167334],[-122.4974164,41.3165938],[-122.4972494,41.3164119],[-122.4970838,41.3163037],[-122.4968966,41.3162476],[-122.4967378,41.3162392],[-122.4965179,41.316352],[-122.4961907,41.3163601],[-122.4958742,41.3164971],[-122.4956596,41.3166139],[-122.4954075,41.3166623],[-122.4951778,41.3166454],[-122.4947664,41.3166361],[-122.4945062,41.3166945],[-122.4943131,41.3166482],[-122.4942327,41.3166602],[-122.4942005,41.3167549],[-122.494171,41.3168718],[-122.4942032,41.3169987],[-122.4941983,41.3172076],[-122.4941736,41.3173013],[-122.494209,41.317413],[-122.494163,41.3175605],[-122.4940338,41.3176761],[-122.493843,41.3176805],[-122.4937049,41.31761],[-122.4936298,41.3176019],[-122.4934635,41.3176472],[-122.4932449,41.317751],[-122.4931201,41.3177661],[-122.4928989,41.3177439],[-122.4927736,41.3178186],[-122.4924973,41.3179777],[-122.4922854,41.3181288],[-122.4922418,41.3181912],[-122.4922022,41.318286],[-122.4921861,41.318433],[-122.4921432,41.3185337],[-122.4921137,41.3186324],[-122.4920601,41.3187473],[-122.4919769,41.3187956],[-122.4915075,41.3189346],[-122.4914297,41.3189527],[-122.4911535,41.3188057],[-122.4908617,41.318732],[-122.4903139,41.3186445],[-122.4901201,41.318548],[-122.4899581,41.3185922],[-122.4899009,41.3186143],[-122.4898285,41.3185962],[-122.4898177,41.3185297],[-122.4898312,41.318429],[-122.4897507,41.3183605],[-122.4896541,41.3183424],[-122.4895173,41.3183605],[-122.4892842,41.3184878],[-122.4891391,41.3184995],[-122.4889943,41.3184552],[-122.4889541,41.3183524],[-122.4887449,41.3181832],[-122.4886912,41.3181107],[-122.4887529,41.3180704],[-122.4888656,41.318014],[-122.4890104,41.3177501],[-122.4894422,41.3173935],[-122.4896434,41.3173029],[-122.4896407,41.3171498],[-122.4897239,41.3169544],[-122.4897158,41.3168939],[-122.4896622,41.3168718],[-122.4896514,41.3167771],[-122.489571,41.3167086],[-122.4894637,41.316628],[-122.4894449,41.3161747],[-122.4895307,41.3159249],[-122.4895277,41.3156396],[-122.4895632,41.3155817],[-122.4895334,41.3155361],[-122.4894874,41.3155263],[-122.4894412,41.3155893],[-122.4892702,41.3156799],[-122.4890169,41.3159108],[-122.4888435,41.3160065],[-122.4886666,41.3161607],[-122.4884684,41.3162298],[-122.4884497,41.3162695],[-122.4883834,41.3163282],[-122.48821,41.3163999],[-122.4879092,41.316477],[-122.4876003,41.3166746],[-122.4874467,41.3167267],[-122.4871094,41.3167611],[-122.4863767,41.3167349],[-122.4862221,41.3166687],[-122.4860492,41.3167046],[-122.4860412,41.3168033],[-122.4859902,41.3168234],[-122.4858588,41.3168053],[-122.485714,41.3168839],[-122.4853063,41.3169967],[-122.4851451,41.3169901],[-122.484161,41.3167771],[-122.4840993,41.3167771],[-122.4841744,41.3169806],[-122.4841717,41.3172626],[-122.4841399,41.3172931],[-122.4840376,41.3172344],[-122.4838356,41.3170937],[-122.4827555,41.3167167],[-122.4818382,41.3164024],[-122.4817336,41.3163883],[-122.4820045,41.316771],[-122.4822485,41.3170994],[-122.4809511,41.316679],[-122.4807317,41.3166578],[-122.4804839,41.3168013],[-122.4800486,41.3171761],[-122.4801323,41.3172022],[-122.48053,41.3172213],[-122.4807317,41.3173117],[-122.481167,41.3178274],[-122.4808484,41.3177441],[-122.4806963,41.3177237],[-122.4805293,41.3177702],[-122.480379,41.3177723],[-122.48018,41.3178732],[-122.4800921,41.3179354],[-122.4801484,41.3179777],[-122.4803898,41.3180603],[-122.4806929,41.3183746],[-122.4806151,41.3183706],[-122.4802971,41.3184273],[-122.4805735,41.3186044],[-122.4804032,41.3186405],[-122.4800089,41.3186284],[-122.4800491,41.3187029],[-122.4803281,41.3188742],[-122.4804327,41.3189991],[-122.4803335,41.3190253],[-122.4801162,41.3190333],[-122.4797487,41.319124],[-122.4796549,41.3191763],[-122.4797729,41.319273],[-122.4797675,41.3193355],[-122.4792656,41.3195285],[-122.4793664,41.3196679],[-122.4793477,41.3197404],[-122.479094,41.319728]]}}]}
