{"type":"FeatureCollection","peaks_destination_id":"eHPr7NAyEFjYNHJ6GWii","peaks_trailhead_id":"8CBE40665E824C17A6E6","peaks_source":"https://www.openstreetmap.org/","peaks_retrieval_source":"https://api.openstreetmap.org/api/0.6","peaks_license_name":"Open Data Commons Open Database License (ODbL) 1.0","peaks_license":"https://opendatacommons.org/licenses/odbl/1-0/","peaks_attribution":"© OpenStreetMap contributors","peaks_retrieved_at":"2026-07-31T08:29:53.470Z","features":[{"type":"Feature","properties":{"name":"North Schell Peak OSM route candidate","trailhead_name":"Timber Creek Trailhead","destination_name":"North Schell Peak","distance_m":5468.413499445497,"trailhead_snap_m":17.579472856492384,"summit_snap_m":1.0952511163792438,"osm_way_ids":[14433230,14426454,1236096001,1236095999,1180046853],"osm_way_urls":["https://www.openstreetmap.org/way/14433230","https://www.openstreetmap.org/way/14426454","https://www.openstreetmap.org/way/1236096001","https://www.openstreetmap.org/way/1236095999","https://www.openstreetmap.org/way/1180046853"],"osm_way_names":["Timber Creek Road","North Fork Timber Creek Trail","North Schell Peak Summit Route"],"osm_foot_access_override_way_ids":[]},"geometry":{"type":"LineString","coordinates":[[-114.6302878,39.4006349],[-114.6300858,39.4006098],[-114.6295679,39.4006549],[-114.6282206,39.40036],[-114.6275634,39.4002882],[-114.6270669,39.4002339],[-114.6267428,39.4002137],[-114.6265812,39.4002036],[-114.6258336,39.4003811],[-114.6253157,39.4004894],[-114.6244941,39.4006248],[-114.6223718,39.4007121],[-114.6211414,39.4006308],[-114.6186843,39.4001283],[-114.617891,39.399745],[-114.6173175,39.3994303],[-114.6169429,39.3994129],[-114.6168584,39.399409],[-114.6160698,39.399409],[-114.6156728,39.3995583],[-114.6145195,39.4004951],[-114.6142781,39.4007355],[-114.6138221,39.4010132],[-114.6129585,39.4013614],[-114.6125829,39.4017055],[-114.6123362,39.4021366],[-114.6121377,39.4027874],[-114.6121075,39.4035399],[-114.6123737,39.4045034],[-114.6126081,39.4051899],[-114.6129585,39.4056184],[-114.6133661,39.4058712],[-114.6136934,39.4060661],[-114.6142431,39.4061042],[-114.6145998,39.4062355],[-114.6147233,39.4064018],[-114.6150293,39.4066334],[-114.6156073,39.4068851],[-114.615879,39.4070591],[-114.6162227,39.40744],[-114.616499,39.407724],[-114.6167243,39.4081343],[-114.6171387,39.4086334],[-114.6174053,39.4090837],[-114.6174216,39.4094275],[-114.6175611,39.4096679],[-114.6178361,39.4101253],[-114.6180404,39.4102139],[-114.6179621,39.4104712],[-114.6180777,39.4109924],[-114.6182124,39.4111139],[-114.6181562,39.4114396],[-114.6182647,39.41187],[-114.6183511,39.4122092],[-114.6185526,39.4127714],[-114.6185582,39.4130267],[-114.6187571,39.4132772],[-114.618701,39.4136757],[-114.6187359,39.4138062],[-114.6188271,39.4139554],[-114.6188673,39.4141046],[-114.6187386,39.4142994],[-114.6187171,39.4144673],[-114.6187386,39.4146496],[-114.6188056,39.414948],[-114.6188619,39.4154018],[-114.6189129,39.4155821],[-114.6189987,39.4157644],[-114.6189559,39.4161872],[-114.6186554,39.4166182],[-114.6182933,39.4169539],[-114.6181109,39.4172688],[-114.6178401,39.4175714],[-114.6176657,39.4177433],[-114.6172607,39.4178863],[-114.6164641,39.4176603],[-114.6159415,39.4175167],[-114.6149741,39.4172607],[-114.6142278,39.4170925],[-114.6133015,39.4169283],[-114.6126907,39.4167437],[-114.6117932,39.4165639],[-114.6109902,39.4163985],[-114.6104465,39.4162136],[-114.6099384,39.4161198],[-114.6095233,39.4159116],[-114.6090933,39.4157745],[-114.6084196,39.4156721],[-114.6077517,39.415503],[-114.6070659,39.4156303],[-114.6064119,39.4155941],[-114.6059791,39.4157295],[-114.6054585,39.4156382],[-114.6050146,39.4157943],[-114.6045456,39.4158452],[-114.6039986,39.4159285],[-114.6033517,39.4157303],[-114.6029795,39.4156332],[-114.6026224,39.4156295],[-114.6021316,39.4152807],[-114.6019676,39.4149642],[-114.6016894,39.4146808],[-114.6010466,39.4143397],[-114.6007649,39.4140974],[-114.6003896,39.4138746],[-114.6000302,39.4133649],[-114.5997956,39.4132868],[-114.5995998,39.4132307],[-114.599604,39.41324]]}}]}
