{"type":"FeatureCollection","peaks_destination_id":"75Za8vKu3Un5WFcg3zcK","peaks_trailhead_id":"64DA46511CE2A37496A8","peaks_source":"https://www.openstreetmap.org/","peaks_retrieval_source":"https://api.openstreetmap.org/api/0.6","peaks_license_name":"Open Data Commons Open Database License (ODbL) 1.0","peaks_license":"https://opendatacommons.org/licenses/odbl/1-0/","peaks_attribution":"© OpenStreetMap contributors","peaks_retrieved_at":"2026-07-31T10:33:15.508Z","features":[{"type":"Feature","properties":{"name":"Red Mountain OSM route candidate","trailhead_name":"Red Mountain Trail #1330 Route Start","destination_name":"Red Mountain","distance_m":3730.9134502155716,"trailhead_snap_m":10.618322945203426,"summit_snap_m":7.901050533190632,"osm_way_ids":[510853858,510855116,991790932],"osm_way_urls":["https://www.openstreetmap.org/way/510853858","https://www.openstreetmap.org/way/510855116","https://www.openstreetmap.org/way/991790932"],"osm_way_names":["Red Mountain Trail","Red Mountain Road","Red Mountain Bootpath"],"osm_foot_access_override_way_ids":[]},"geometry":{"type":"LineString","coordinates":[[-121.111762,47.403924],[-121.1118224,47.4038377],[-121.112106,47.4037489],[-121.1124605,47.403733],[-121.1128437,47.4036582],[-121.113239,47.403718],[-121.1136369,47.4038328],[-121.114003,47.40377],[-121.1144616,47.4036275],[-121.1147438,47.4036401],[-121.1149153,47.4035364],[-121.115281,47.4035186],[-121.1157101,47.4034097],[-121.1159493,47.4034264],[-121.1160213,47.4034315],[-121.1163002,47.4033734],[-121.116665,47.4034823],[-121.1169439,47.403446],[-121.1172336,47.4033879],[-121.1177808,47.4033952],[-121.1182421,47.4033589],[-121.1184567,47.4032717],[-121.1190575,47.4029885],[-121.1193901,47.4029159],[-121.11983,47.4029232],[-121.1201831,47.4029627],[-121.1204941,47.4029025],[-121.1207174,47.4028434],[-121.1208136,47.4027162],[-121.1208585,47.4025739],[-121.1208624,47.4024427],[-121.1207856,47.4022933],[-121.1207291,47.4021484],[-121.1208614,47.4020515],[-121.1209768,47.4020926],[-121.121131,47.4019412],[-121.1213501,47.4018243],[-121.1217178,47.4019224],[-121.1219769,47.4017247],[-121.1222885,47.4017929],[-121.1225189,47.4019114],[-121.1226782,47.4016695],[-121.1228984,47.4015008],[-121.1234878,47.4015082],[-121.1236109,47.401447],[-121.1239219,47.4015117],[-121.12426,47.4014064],[-121.124348,47.401237],[-121.124547,47.4012101],[-121.1245722,47.4010868],[-121.1249058,47.4011144],[-121.1251584,47.4011968],[-121.1253386,47.4011285],[-121.1256399,47.4009106],[-121.1256064,47.4007034],[-121.1256946,47.4005053],[-121.1259183,47.4006489],[-121.1261312,47.4005087],[-121.1263846,47.4003183],[-121.1266772,47.4001843],[-121.1271183,47.4003265],[-121.1278703,47.4002675],[-121.1284416,47.4004146],[-121.1288702,47.4004416],[-121.1291095,47.4006058],[-121.1293727,47.4006414],[-121.1295301,47.4006387],[-121.1296156,47.4007085],[-121.1296547,47.4008035],[-121.1295464,47.4010986],[-121.1294451,47.4013036],[-121.1291719,47.4019421],[-121.1289291,47.4021436],[-121.1288681,47.4023463],[-121.1289286,47.4025437],[-121.1288,47.4026678],[-121.1288053,47.4028303],[-121.1288611,47.4029961],[-121.1287014,47.4030887],[-121.1285794,47.4032211],[-121.1283313,47.4034957],[-121.1282572,47.4036133],[-121.1284808,47.4037269],[-121.1287849,47.4037909],[-121.1290688,47.4038229],[-121.1294946,47.4037589],[-121.1296635,47.4035576],[-121.1299069,47.4035667],[-121.1300826,47.4036537],[-121.130407,47.4036811],[-121.1306976,47.4037497],[-121.1311031,47.4037635],[-121.1315965,47.403672],[-121.1317182,47.403553],[-121.1318669,47.4034936],[-121.1320899,47.4035667],[-121.1322251,47.4036262],[-121.1324954,47.4035805],[-121.1326306,47.4034707],[-121.1327928,47.4034707],[-121.1328942,47.40337],[-121.1331578,47.4033609],[-121.1333133,47.4033197],[-121.1334282,47.4032099],[-121.1337796,47.4031871],[-121.1340026,47.4030773],[-121.1341919,47.4029172],[-121.1344487,47.4028119],[-121.1346718,47.4027708],[-121.13503,47.4027891],[-121.1353071,47.4027342],[-121.1355301,47.4027067],[-121.1359086,47.4027159],[-121.1363006,47.4026839],[-121.1365912,47.4025878],[-121.1367399,47.4024231],[-121.1369495,47.4023682],[-121.1371252,47.4023591],[-121.1373482,47.4022447],[-121.137551,47.4021669],[-121.137916,47.4022127],[-121.1382607,47.402048],[-121.138558,47.4018193],[-121.1386797,47.4015539],[-121.1387,47.4013526],[-121.1389703,47.4012886],[-121.1391596,47.4012566],[-121.1393421,47.4011513],[-121.1398932,47.4009644],[-121.140187,47.400829],[-121.1403829,47.4006993],[-121.1408257,47.4005811],[-121.1410258,47.4005696],[-121.1412344,47.4005898],[-121.1413621,47.4005177],[-121.1415367,47.4004889],[-121.1418305,47.4004255],[-121.1423542,47.4003016],[-121.1428822,47.4001229],[-121.1435889,47.3998578],[-121.1438614,47.3998117],[-121.1440615,47.3997396],[-121.1443085,47.3996762],[-121.1444958,47.3995408],[-121.1446534,47.3994255],[-121.1447598,47.3993448],[-121.1449855,47.399339],[-121.1451089,47.3992785],[-121.1451473,47.3992266],[-121.1451788,47.3990971],[-121.1451788,47.3989095],[-121.1450571,47.3985984],[-121.1448341,47.3980311],[-121.1447141,47.3974052],[-121.144723,47.397476]]}}]}
