{"type":"FeatureCollection","peaks_destination_id":"NUCpKoRs3Taz8l3YcesF","peaks_trailhead_id":"C7D44D604E17425EAE3F","peaks_source":"https://www.openstreetmap.org/","peaks_retrieval_source":"https://api.openstreetmap.org/api/0.6","peaks_license_name":"Open Data Commons Open Database License (ODbL) 1.0","peaks_license":"https://opendatacommons.org/licenses/odbl/1-0/","peaks_attribution":"© OpenStreetMap contributors","peaks_retrieved_at":"2026-07-31T08:16:57.728Z","features":[{"type":"Feature","properties":{"name":"Sacajawea Peak OSM route candidate","trailhead_name":"Hurricane Creek Trailhead","destination_name":"Sacajawea Peak","distance_m":10498.066682286462,"trailhead_snap_m":0,"summit_snap_m":8.260043598910386,"osm_way_ids":[1001010958,305878821,661645953,454012497,973345722,973345721,973345720],"osm_way_urls":["https://www.openstreetmap.org/way/1001010958","https://www.openstreetmap.org/way/305878821","https://www.openstreetmap.org/way/661645953","https://www.openstreetmap.org/way/454012497","https://www.openstreetmap.org/way/973345722","https://www.openstreetmap.org/way/973345721","https://www.openstreetmap.org/way/973345720"],"osm_way_names":["Hurricane Creek Trail","Thorp Creek Trail","Matterhorn-Sacajawea Trail"],"osm_foot_access_override_way_ids":[]},"geometry":{"type":"LineString","coordinates":[[-117.3071457,45.3111071],[-117.3071457,45.3111071],[-117.3068201,45.3108252],[-117.3067691,45.3107041],[-117.3067565,45.3105566],[-117.3068644,45.3103138],[-117.306866,45.309911],[-117.306806,45.309575],[-117.306806,45.309432],[-117.307128,45.308415],[-117.3071708,45.3082551],[-117.3071322,45.3079814],[-117.3071648,45.3078693],[-117.3072396,45.3078309],[-117.3072516,45.3078149],[-117.3072774,45.3077806],[-117.3072735,45.3076365],[-117.307174,45.307479],[-117.3068875,45.3070698],[-117.3067487,45.3065938],[-117.3065567,45.3064827],[-117.3063067,45.3064607],[-117.3061576,45.3063233],[-117.306151,45.3061116],[-117.306192,45.305967],[-117.306215,45.30588],[-117.306337,45.305655],[-117.306577,45.3053],[-117.306732,45.304823],[-117.3067335,45.3044617],[-117.30704,45.303935],[-117.3070821,45.3035781],[-117.3071799,45.3034236],[-117.307543,45.303103],[-117.307781,45.302893],[-117.308179,45.302582],[-117.308472,45.302281],[-117.308566,45.302126],[-117.308755,45.301721],[-117.308794,45.301293],[-117.3088549,45.3009434],[-117.309057,45.300452],[-117.309076,45.300328],[-117.309075,45.299941],[-117.309065,45.299863],[-117.309021,45.299792],[-117.308882,45.299663],[-117.308645,45.299379],[-117.308628,45.299286],[-117.308645,45.298956],[-117.308558,45.298635],[-117.3085359,45.2984003],[-117.3085175,45.2981098],[-117.3085576,45.2979676],[-117.3086815,45.2978607],[-117.308862,45.297349],[-117.3088667,45.2971091],[-117.309131,45.296775],[-117.309205,45.29654],[-117.309202,45.296406],[-117.309177,45.296301],[-117.308936,45.295719],[-117.308645,45.2952],[-117.308184,45.294616],[-117.308031,45.294322],[-117.308002,45.294165],[-117.308063,45.293882],[-117.308191,45.293606],[-117.308219,45.293466],[-117.308215,45.293304],[-117.30819,45.293201],[-117.307984,45.292837],[-117.307578,45.292248],[-117.307533,45.292147],[-117.307517,45.292032],[-117.30741,45.291843],[-117.307337,45.291772],[-117.307165,45.291653],[-117.306973,45.291457],[-117.306632,45.291247],[-117.306553,45.29119],[-117.306507,45.29113],[-117.3063754,45.2908301],[-117.3063775,45.2908195],[-117.3064131,45.290637],[-117.306325,45.290405],[-117.306316,45.290201],[-117.306375,45.290067],[-117.306562,45.289849],[-117.30659,45.289766],[-117.306582,45.289568],[-117.30654,45.28937],[-117.30653,45.289066],[-117.306461,45.288646],[-117.306499,45.28842],[-117.306504,45.288195],[-117.30655,45.287966],[-117.306776,45.287395],[-117.306821,45.287321],[-117.3069515,45.2871555],[-117.3071245,45.2870559],[-117.3072156,45.286959],[-117.30716,45.286856],[-117.307097,45.28664],[-117.307106,45.28656],[-117.3071463,45.2864433],[-117.3070604,45.2863612],[-117.3068821,45.2862135],[-117.3067969,45.2860711],[-117.3068309,45.2859137],[-117.3068919,45.2857554],[-117.3069121,45.2856621],[-117.306764,45.285439],[-117.3068404,45.2851572],[-117.3067975,45.2849383],[-117.3068032,45.2848675],[-117.3067242,45.2848206],[-117.3066171,45.2848462],[-117.3065224,45.2847918],[-117.3065261,45.2846926],[-117.3063684,45.2846175],[-117.3061377,45.2845043],[-117.3058695,45.2844439],[-117.3057246,45.2843722],[-117.3055208,45.2843004],[-117.3052418,45.2841004],[-117.3050058,45.2838551],[-117.3049843,45.2837116],[-117.3049092,45.2835154],[-117.3048341,45.2832965],[-117.3045015,45.2829945],[-117.3043138,45.2828813],[-117.3042011,45.2827492],[-117.3039866,45.2826359],[-117.3037887,45.282546],[-117.3035467,45.2822698],[-117.3032785,45.2821905],[-117.3030585,45.2821377],[-117.30286,45.2820094],[-117.3027849,45.2818131],[-117.3028117,45.2815904],[-117.3028171,45.2814998],[-117.3028332,45.2813903],[-117.3028868,45.2812545],[-117.3028922,45.2811375],[-117.3028933,45.2811295],[-117.3029137,45.2809789],[-117.3028654,45.2808091],[-117.3027098,45.2806656],[-117.3025703,45.2805788],[-117.3023611,45.280492],[-117.3020768,45.2804807],[-117.3018462,45.2804392],[-117.301712,45.2803523],[-117.3015994,45.2801863],[-117.301476,45.2800692],[-117.3013258,45.2800957],[-117.3012346,45.2799975],[-117.3010093,45.279873],[-117.3008537,45.2798012],[-117.3007304,45.2798352],[-117.300489,45.2797786],[-117.3002529,45.2795219],[-117.2999754,45.2793723],[-117.2999732,45.2791807],[-117.2998763,45.2790841],[-117.2994161,45.2792804],[-117.2990084,45.2794162],[-117.2989199,45.2793672],[-117.2988904,45.2792464],[-117.2988367,45.2791426],[-117.2987697,45.2791294],[-117.2987106,45.2791501],[-117.2986677,45.2791331],[-117.2985619,45.2791118],[-117.2984505,45.2789633],[-117.2980857,45.2789482],[-117.2975278,45.2789029],[-117.2970772,45.2787821],[-117.296927,45.2784952],[-117.2966414,45.2783448],[-117.2961829,45.2781367],[-117.2957767,45.2779404],[-117.2955537,45.2779818],[-117.2952962,45.2777101],[-117.2949481,45.277435],[-117.2948469,45.2775139],[-117.2947344,45.2777493],[-117.2946175,45.2776225],[-117.2944406,45.2773821],[-117.2940172,45.2767196],[-117.293702,45.2761808],[-117.2936485,45.2759558],[-117.2936225,45.2755357],[-117.293563,45.2753322],[-117.2935581,45.2750526],[-117.2936342,45.2747421],[-117.2935479,45.2743614],[-117.2935967,45.2740236],[-117.2935587,45.2736729],[-117.2936085,45.2734459],[-117.293574,45.2731469],[-117.2934723,45.2728479],[-117.2931075,45.2724855],[-117.2929244,45.2722802],[-117.2928094,45.2722367],[-117.2926888,45.2723542],[-117.2925817,45.2723862],[-117.2924209,45.2721533],[-117.2919488,45.2719268],[-117.2915059,45.2717812],[-117.2913436,45.2715886],[-117.29085,45.2710772],[-117.2906813,45.2706397],[-117.2904184,45.2704827],[-117.290094,45.2699119],[-117.289962,45.269617],[-117.2897354,45.269265],[-117.2895434,45.2690814],[-117.2894605,45.2691213],[-117.2894172,45.2691984],[-117.2892216,45.2689321],[-117.2887827,45.2685182],[-117.2883367,45.2680663],[-117.2882147,45.2677857],[-117.2879919,45.2675526],[-117.2879507,45.2672909],[-117.2876465,45.2670816],[-117.2877006,45.2668961],[-117.2876399,45.2665013],[-117.2874913,45.2664204],[-117.287478,45.2662682],[-117.2871472,45.2658972],[-117.2869371,45.2655547],[-117.2866299,45.2652383],[-117.2863429,45.2649981],[-117.2861595,45.2644606],[-117.286214,45.2642418],[-117.2863091,45.2640895],[-117.2863901,45.263942],[-117.286255,45.2636899],[-117.2861635,45.2634806],[-117.2857747,45.2631096],[-117.2855176,45.2628217],[-117.2853214,45.2626766],[-117.2850925,45.262415],[-117.2849841,45.2621248],[-117.284714,45.2619773],[-117.2845616,45.2616943],[-117.2846119,45.261573],[-117.2845918,45.2614255],[-117.2842004,45.2609688],[-117.2839532,45.2607452],[-117.2834767,45.2604931],[-117.2830919,45.2601315],[-117.2830978,45.2599412],[-117.2829863,45.2598604],[-117.283032,45.2596724],[-117.2829838,45.2594655],[-117.282961,45.2592645],[-117.2831012,45.2591682],[-117.2830302,45.2585758],[-117.2831248,45.2581096],[-117.2830379,45.2579431],[-117.2828483,45.2575862],[-117.2826014,45.2572913],[-117.2820031,45.2569725],[-117.2817873,45.2567489],[-117.2817808,45.2565967],[-117.2816791,45.2564444],[-117.2812535,45.2561351],[-117.2811115,45.2559687],[-117.2810064,45.2557022],[-117.2809486,45.25545],[-117.2807154,45.2552264],[-117.280538,45.2549623],[-117.2804088,45.2547542],[-117.2802525,45.2546317],[-117.2801782,45.2543985],[-117.2800392,45.2542538],[-117.2800566,45.2538942],[-117.2800633,45.2538604],[-117.2800907,45.2537229],[-117.2801618,45.2535587],[-117.2801163,45.2533339],[-117.2801518,45.2531091],[-117.2799215,45.2528094],[-117.279307,45.252424],[-117.2791175,45.2523384],[-117.2789551,45.2519149],[-117.2786987,45.2515675],[-117.2783945,45.2512678],[-117.2781005,45.2509038],[-117.2780633,45.2507206],[-117.2778939,45.2504208],[-117.2776849,45.2498355],[-117.2776535,45.2495624],[-117.2778022,45.2493959],[-117.2778245,45.2491148],[-117.2779182,45.2489259],[-117.2780118,45.248887],[-117.278097,45.2489229],[-117.2783312,45.2489109],[-117.2786079,45.2489469],[-117.2787612,45.2489139],[-117.2788166,45.248854],[-117.2787399,45.2487431],[-117.2787442,45.2486591],[-117.2788421,45.2485183],[-117.2789358,45.2483984],[-117.2789315,45.2483204],[-117.2788421,45.2482005],[-117.2787357,45.2480296],[-117.2785739,45.2479337],[-117.2785143,45.2477659],[-117.278395,45.2476969],[-117.2783014,45.247592],[-117.2783184,45.2474541],[-117.278361,45.2473102],[-117.2784504,45.2472293],[-117.278527,45.2470974],[-117.2786718,45.2470464],[-117.2786931,45.2469085],[-117.2786931,45.2467527],[-117.2786037,45.2466208],[-117.2786079,45.2463689],[-117.2784632,45.2462251],[-117.2783379,45.2459087],[-117.2783004,45.2456594],[-117.278354,45.2453478],[-117.2783567,45.245125],[-117.2784318,45.2449739],[-117.2785015,45.2448738],[-117.2786571,45.2447794],[-117.2787188,45.2447039],[-117.2788449,45.2446151],[-117.2789629,45.244651],[-117.2789843,45.2447057],[-117.2789387,45.2447718],[-117.2789656,45.2448266],[-117.2791158,45.2449003],[-117.2791453,45.244989],[-117.2792499,45.2450287],[-117.2793089,45.2451325],[-117.2794403,45.2451967],[-117.2795074,45.245142],[-117.2796173,45.2451949],[-117.2796066,45.2452723],[-117.2797005,45.2453289],[-117.2797515,45.245429],[-117.2799231,45.2455065],[-117.2799365,45.2455763],[-117.2800572,45.2456122],[-117.2801189,45.2457104],[-117.2802182,45.2457916],[-117.280414,45.2458029],[-117.2805534,45.2459106],[-117.2807412,45.2459238],[-117.2808512,45.2459975],[-117.2809745,45.2460522],[-117.2811221,45.2460522],[-117.2811998,45.2461164],[-117.2812803,45.2461863],[-117.2813393,45.2462637],[-117.2814171,45.2462769],[-117.281452,45.2463449],[-117.2815405,45.2463109],[-117.281621,45.2463412],[-117.2817041,45.2463808],[-117.2818382,45.246377],[-117.2819187,45.2464205],[-117.2820796,45.2464375],[-117.2821225,45.2465168],[-117.2822727,45.24653],[-117.2823505,45.246581],[-117.2824578,45.2465715],[-117.2826107,45.2465772],[-117.282718,45.246649],[-117.2828011,45.2466565],[-117.282895,45.2466131],[-117.2829969,45.2465885],[-117.2831552,45.2465999],[-117.2832464,45.2466433],[-117.2832544,45.2467264],[-117.2833805,45.2467774],[-117.2833993,45.2468642],[-117.2834958,45.2468812],[-117.2836299,45.2468321],[-117.2837801,45.2468473],[-117.2838683,45.246851],[-117.2839196,45.2470266],[-117.2839786,45.2470682],[-117.2841691,45.2470512],[-117.2842871,45.2470965],[-117.2842978,45.2471815],[-117.2843461,45.2472551],[-117.2843756,45.2473326],[-117.28444,45.2473817],[-117.2845821,45.2474251],[-117.2846787,45.247546],[-117.2847699,45.2475932],[-117.2848369,45.2476385],[-117.2849549,45.2476536],[-117.2850435,45.2476366],[-117.2851239,45.2476725],[-117.2852795,45.2476291],[-117.285368,45.2476498],[-117.2854914,45.2476498],[-117.2856228,45.2476026],[-117.2857542,45.2476763],[-117.2859044,45.2477367],[-117.2860064,45.2477669],[-117.2861941,45.2477537],[-117.2862826,45.2477915],[-117.2862826,45.2478783],[-117.2863014,45.2479973],[-117.286339,45.2480502],[-117.2864436,45.2480445],[-117.2866421,45.2480181],[-117.286913,45.2479444],[-117.28709,45.2479425],[-117.2872616,45.2479765],[-117.287436,45.248003],[-117.2875996,45.2479973],[-117.2878276,45.247918],[-117.2879724,45.2478972],[-117.2881414,45.2478896],[-117.2883318,45.2478368],[-117.288651,45.2477631],[-117.2887878,45.2477707],[-117.2889273,45.2478103],[-117.2891982,45.2477046],[-117.289445,45.2476706],[-117.2896595,45.2476649],[-117.2897641,45.2476404],[-117.2899117,45.2476498],[-117.2900887,45.2475932],[-117.2902872,45.2475101],[-117.2904857,45.2473741],[-117.2906815,45.2473269],[-117.2908317,45.2472287],[-117.291065,45.2471248],[-117.2911803,45.2470701],[-117.2912447,45.2469152],[-117.2912796,45.2468624],[-117.2913547,45.2468133],[-117.2915156,45.2468133],[-117.2916283,45.2468435],[-117.2917141,45.2468189],[-117.2917999,45.2467604],[-117.291867,45.2466206],[-117.2920065,45.2464847],[-117.2921486,45.2462864],[-117.2921728,45.2461655],[-117.2923149,45.2460201],[-117.292331,45.2458709],[-117.2924249,45.2457387],[-117.2925322,45.2455971],[-117.2926529,45.2455083],[-117.2927924,45.2452628],[-117.2928487,45.2451779],[-117.2929989,45.2450797],[-117.292926,45.245026]]}}]}
