{"type":"FeatureCollection","peaks_destination_id":"llZTKgP4HbThNb9eHzIG","peaks_trailhead_id":"E997A49D032E44DD92D1","peaks_source":"https://www.openstreetmap.org/","peaks_retrieval_source":"https://api.openstreetmap.org/api/0.6","peaks_license_name":"Open Data Commons Open Database License (ODbL) 1.0","peaks_license":"https://opendatacommons.org/licenses/odbl/1-0/","peaks_attribution":"© OpenStreetMap contributors","peaks_retrieved_at":"2026-07-31T07:14:34.259Z","features":[{"type":"Feature","properties":{"name":"San Gorgonio Mountain OSM route candidate","trailhead_name":"Vivian Creek Trailhead","destination_name":"San Gorgonio Mountain","distance_m":14513.02668816419,"trailhead_snap_m":10.433416710156319,"summit_snap_m":10.259170010890491,"osm_way_ids":[7042095,293476199,1067410251,1190277471,7400412,293475627,1029896539,1066223435,160694006],"osm_way_urls":["https://www.openstreetmap.org/way/7042095","https://www.openstreetmap.org/way/293476199","https://www.openstreetmap.org/way/1067410251","https://www.openstreetmap.org/way/1190277471","https://www.openstreetmap.org/way/7400412","https://www.openstreetmap.org/way/293475627","https://www.openstreetmap.org/way/1029896539","https://www.openstreetmap.org/way/1066223435","https://www.openstreetmap.org/way/160694006"],"osm_way_names":["Falls Picnic Area","Vivian Trailhead","Vivian Creek Trail","San Gorgonio Mountain Trail"],"osm_foot_access_override_way_ids":[]},"geometry":{"type":"LineString","coordinates":[[-116.893032,34.081801],[-116.893113,34.0818666],[-116.8929466,34.0819773],[-116.8927612,34.0820708],[-116.8925809,34.0821258],[-116.8924178,34.0821077],[-116.8922932,34.0820138],[-116.8922077,34.0819387],[-116.8919818,34.0819451],[-116.8918549,34.0820267],[-116.8917803,34.0821194],[-116.8916082,34.0821877],[-116.8915035,34.0822118],[-116.8913962,34.0822026],[-116.8912734,34.0821693],[-116.8911599,34.0821079],[-116.8910602,34.0820307],[-116.890999,34.0819751],[-116.8909791,34.0819428],[-116.8909525,34.0818884],[-116.8908873,34.0819],[-116.890825,34.0818942],[-116.8907163,34.0818728],[-116.8906239,34.0818211],[-116.8905644,34.081747],[-116.890303,34.081709],[-116.8900935,34.081585],[-116.889928,34.081487],[-116.8897309,34.0813341],[-116.8894489,34.0812339],[-116.8892955,34.0812101],[-116.8888568,34.0810919],[-116.8887659,34.0810776],[-116.8886426,34.0811149],[-116.8885301,34.0810988],[-116.8883312,34.0810465],[-116.8881163,34.0809454],[-116.8878262,34.0808486],[-116.8876436,34.0808669],[-116.887461,34.080823],[-116.8872473,34.0807658],[-116.8870715,34.0806046],[-116.8869916,34.0805351],[-116.8869007,34.0804803],[-116.886783,34.0804567],[-116.8867137,34.0804094],[-116.8866604,34.08034],[-116.8864946,34.0801853],[-116.886345,34.080155],[-116.8859452,34.0800339],[-116.8856524,34.0798712],[-116.8854671,34.0798195],[-116.8853047,34.0797587],[-116.8848467,34.0796991],[-116.8844174,34.0795955],[-116.8841733,34.0795455],[-116.8838984,34.0795734],[-116.8837496,34.0795568],[-116.8836277,34.0795635],[-116.8834726,34.0795286],[-116.8834376,34.079553],[-116.8833837,34.079594],[-116.8833518,34.0796593],[-116.8832881,34.0797129],[-116.883136,34.0797949],[-116.8830918,34.0798328],[-116.8830048,34.0799072],[-116.8829555,34.0799661],[-116.8828268,34.0801216],[-116.8827867,34.0801772],[-116.8827195,34.0802327],[-116.882652,34.0802471],[-116.8826385,34.080282],[-116.8826887,34.0803261],[-116.882757,34.0803527],[-116.8828467,34.0804031],[-116.8829019,34.0804682],[-116.8830252,34.0806415],[-116.883154,34.0807215],[-116.883331,34.0807614],[-116.8833467,34.0808325],[-116.8832938,34.0808704],[-116.8831967,34.0809082],[-116.8831701,34.0809703],[-116.8830611,34.0810519],[-116.882755,34.0811543],[-116.8825777,34.0812639],[-116.8824816,34.0813506],[-116.8824352,34.0814901],[-116.8823547,34.0816767],[-116.8823011,34.0817478],[-116.8821955,34.0817967],[-116.8820181,34.0817798],[-116.8819685,34.0818011],[-116.8819281,34.0818345],[-116.8819524,34.0818766],[-116.8819854,34.0819269],[-116.8821313,34.0820122],[-116.8822701,34.0820432],[-116.8824604,34.0820448],[-116.8826365,34.0820566],[-116.8829418,34.0821173],[-116.8830999,34.0821348],[-116.8831164,34.0821742],[-116.8830829,34.082204],[-116.8829838,34.0822455],[-116.8828911,34.0823002],[-116.8828532,34.0823359],[-116.8828883,34.0823549],[-116.8829288,34.0823593],[-116.8830304,34.0823526],[-116.8832877,34.0823181],[-116.8833855,34.0823552],[-116.8836851,34.0825653],[-116.8839954,34.0826724],[-116.8842269,34.0827341],[-116.8844629,34.0827519],[-116.8845575,34.0827936],[-116.8846247,34.0828646],[-116.8843438,34.0829076],[-116.8841496,34.0829609],[-116.8839763,34.0830326],[-116.8838031,34.0830896],[-116.8836422,34.083094],[-116.8834712,34.0830451],[-116.8833673,34.08302],[-116.8832881,34.0830066],[-116.8832606,34.0830584],[-116.8833042,34.0830985],[-116.8833946,34.0832376],[-116.8834958,34.0833401],[-116.8836741,34.0834271],[-116.8841698,34.0835132],[-116.8843322,34.0835843],[-116.8845193,34.0836143],[-116.8843933,34.0836833],[-116.8844902,34.0837559],[-116.884518,34.0838256],[-116.8844683,34.084147],[-116.8845266,34.0844029],[-116.8845648,34.0844624],[-116.8847794,34.0847068],[-116.8849779,34.0848445],[-116.8850641,34.0849089],[-116.8850875,34.0849293],[-116.8850641,34.0849578],[-116.8850341,34.084953],[-116.8849227,34.0849423],[-116.8849695,34.0850051],[-116.8849886,34.0850356],[-116.8849642,34.0851013],[-116.8849908,34.0851171],[-116.8852366,34.085241],[-116.8854447,34.0852945],[-116.8856139,34.0853597],[-116.8857983,34.0855393],[-116.8859302,34.0855985],[-116.8860025,34.0856842],[-116.8860028,34.0858459],[-116.8859542,34.0860574],[-116.8858788,34.0863706],[-116.8856691,34.0867776],[-116.885391,34.0871281],[-116.8850862,34.0873694],[-116.8850154,34.0874258],[-116.8844621,34.0878572],[-116.8840767,34.0880256],[-116.8838567,34.0882432],[-116.8837864,34.0883008],[-116.8835349,34.0885098],[-116.8831862,34.0886342],[-116.882859,34.0886564],[-116.8826599,34.0887191],[-116.8816943,34.0889412],[-116.8810882,34.0891056],[-116.8807025,34.0891851],[-116.8802942,34.0892833],[-116.8801338,34.0892917],[-116.8799568,34.089154],[-116.8798543,34.0890389],[-116.8798978,34.0892473],[-116.8799783,34.0894294],[-116.87971,34.0890874],[-116.8793935,34.0888563],[-116.878996,34.0886835],[-116.8788244,34.0885058],[-116.878819,34.0882259],[-116.878996,34.0879016],[-116.8790448,34.0876657],[-116.878937,34.0874884],[-116.8787123,34.0872881],[-116.8783314,34.087137],[-116.8775959,34.0870486],[-116.8773652,34.0870708],[-116.8770654,34.0872037],[-116.8766738,34.0872747],[-116.876545,34.0872659],[-116.8763876,34.0872529],[-116.8760994,34.0870627],[-116.8759792,34.0870187],[-116.8758538,34.0870155],[-116.8755794,34.0871015],[-116.87504,34.0872082],[-116.8749992,34.0871873],[-116.8749523,34.0871907],[-116.8748733,34.0872307],[-116.8747538,34.0871787],[-116.8746924,34.0871838],[-116.8746586,34.0872141],[-116.8744953,34.0871419],[-116.8742473,34.0870012],[-116.8741828,34.0869154],[-116.8741406,34.0867882],[-116.8740577,34.0867484],[-116.8740323,34.0866942],[-116.8739805,34.0866738],[-116.8739287,34.0866757],[-116.8738736,34.0866572],[-116.8738227,34.0866683],[-116.8737805,34.0867317],[-116.8737202,34.0867461],[-116.8736463,34.0867233],[-116.8735785,34.0867105],[-116.8734359,34.0867502],[-116.8733975,34.0868073],[-116.8733565,34.0868421],[-116.8732677,34.0868247],[-116.8732267,34.0868175],[-116.873179,34.0868219],[-116.8730864,34.0867874],[-116.8730418,34.0867726],[-116.8728473,34.08681],[-116.8728068,34.0867827],[-116.8725593,34.086786],[-116.872492,34.0867314],[-116.8724018,34.0867212],[-116.8723179,34.0866661],[-116.8722159,34.0864973],[-116.8721602,34.0862098],[-116.8722015,34.0859731],[-116.8720604,34.0859641],[-116.8717458,34.0858401],[-116.8713558,34.0857413],[-116.8711038,34.0856847],[-116.8703325,34.0852626],[-116.8700587,34.0851415],[-116.869818,34.0849365],[-116.8695749,34.0848526],[-116.8693674,34.0848268],[-116.8690848,34.0846909],[-116.8688484,34.0846005],[-116.8686003,34.0845513],[-116.8682986,34.0843727],[-116.8680486,34.0843406],[-116.8679449,34.0843116],[-116.8676932,34.0842585],[-116.8674486,34.0841588],[-116.8673129,34.084067],[-116.8672426,34.0841341],[-116.8671278,34.0842615],[-116.8669471,34.0844388],[-116.8667383,34.084534],[-116.8660463,34.0846228],[-116.8658185,34.0846562],[-116.8655089,34.0846303],[-116.8654952,34.0846305],[-116.8652993,34.084626],[-116.8652204,34.0845654],[-116.8652014,34.0845686],[-116.8651183,34.0843252],[-116.8648757,34.0842429],[-116.8642385,34.0841519],[-116.863826,34.0841737],[-116.8636366,34.0841441],[-116.8629784,34.0837693],[-116.8624795,34.0834228],[-116.8617822,34.0830896],[-116.8614491,34.0829763],[-116.8610687,34.0828941],[-116.8606336,34.0828188],[-116.8602259,34.0827062],[-116.8598456,34.0826631],[-116.8597502,34.0826762],[-116.8596686,34.0826053],[-116.8595079,34.082545],[-116.8595192,34.0826212],[-116.8596031,34.0827067],[-116.8596057,34.0828101],[-116.8597325,34.0829643],[-116.8598589,34.0830294],[-116.860095,34.0832201],[-116.8607525,34.083471],[-116.8610489,34.0836026],[-116.8613065,34.0837849],[-116.8618674,34.0842185],[-116.8620659,34.0846495],[-116.8617071,34.0854221],[-116.8613928,34.0857792],[-116.8612515,34.0860579],[-116.8612217,34.0861786],[-116.861108,34.0863167],[-116.8608721,34.0864138],[-116.8606288,34.0864706],[-116.8597483,34.0865237],[-116.8591791,34.0865758],[-116.8590517,34.0865861],[-116.8590726,34.0865244],[-116.8593086,34.0863777],[-116.8599636,34.0860308],[-116.8603391,34.0858086],[-116.8604196,34.0854887],[-116.8605805,34.0851911],[-116.8607079,34.0851138],[-116.8607307,34.0849556],[-116.8606181,34.0848623],[-116.8602402,34.0847751],[-116.8593843,34.0848712],[-116.8583757,34.0846668],[-116.8577267,34.0844802],[-116.8571723,34.0842336],[-116.8570824,34.0842496],[-116.8572974,34.0844284],[-116.857429,34.0844394],[-116.857422,34.0844902],[-116.8575753,34.0845683],[-116.8576671,34.0847117],[-116.8578757,34.0848036],[-116.8580699,34.0849223],[-116.8581606,34.0850627],[-116.8583055,34.0852448],[-116.8583065,34.0853486],[-116.8582094,34.0853821],[-116.8579305,34.085431],[-116.8575121,34.0854843],[-116.8572734,34.0855735],[-116.8571956,34.0855643],[-116.8569595,34.0855954],[-116.8567289,34.0857686],[-116.8565197,34.0863595],[-116.8564945,34.0865837],[-116.8562944,34.0869104],[-116.855656,34.0876701],[-116.8551136,34.0883281],[-116.8550444,34.0883854],[-116.8551136,34.0880527],[-116.8551678,34.0878478],[-116.8554784,34.0871152],[-116.8556131,34.0867727],[-116.8555594,34.0865106],[-116.8554897,34.0859641],[-116.8554211,34.0857956],[-116.8552858,34.085662],[-116.8548728,34.0852088],[-116.854744,34.0850445],[-116.8545596,34.084818],[-116.8544552,34.0848056],[-116.8543642,34.0847912],[-116.8538081,34.0849335],[-116.853612,34.0849889],[-116.8530841,34.0850485],[-116.852804,34.0850264],[-116.8525768,34.0849689],[-116.8523837,34.0847734],[-116.8522171,34.0845295],[-116.8521268,34.0844686],[-116.8520421,34.084457],[-116.8519908,34.0844825],[-116.8517537,34.0845592],[-116.8514974,34.0846214],[-116.8513599,34.0846874],[-116.8511119,34.0847315],[-116.8508704,34.0848309],[-116.8507324,34.0849245],[-116.8503686,34.0851254],[-116.8500394,34.085271],[-116.8496979,34.0852455],[-116.8490347,34.0851629],[-116.8488633,34.0851163],[-116.8487408,34.0851344],[-116.8485692,34.0851264],[-116.8484799,34.0850977],[-116.8483713,34.0850995],[-116.8482442,34.0851318],[-116.8481663,34.0851946],[-116.8480098,34.0853732],[-116.8479614,34.085549],[-116.8478926,34.0856709],[-116.8477701,34.0858033],[-116.8476684,34.0858886],[-116.8476334,34.0859217],[-116.8475352,34.0858967],[-116.8474737,34.0858749],[-116.8474297,34.0858835],[-116.8473823,34.0859325],[-116.84737,34.0859975],[-116.8472879,34.086049],[-116.847226,34.0861286],[-116.8471544,34.0862125],[-116.8470872,34.0862139],[-116.8470376,34.0862153],[-116.8470304,34.0863107],[-116.8469794,34.0863393],[-116.8468704,34.0863907],[-116.8467457,34.0864084],[-116.8467053,34.0863916],[-116.8466283,34.0863589],[-116.8465767,34.0862757],[-116.8464426,34.0862076],[-116.8464006,34.0861025],[-116.8464376,34.0859345],[-116.8463811,34.0857834],[-116.8464033,34.0856858],[-116.8465555,34.0856151],[-116.8466169,34.0854132],[-116.8467886,34.08508],[-116.8464775,34.085351],[-116.8459893,34.0856931],[-116.8458445,34.0859241],[-116.8457425,34.0862262],[-116.8455739,34.0866221],[-116.8455717,34.0867152],[-116.8455228,34.0868072],[-116.8454769,34.0867955],[-116.8454686,34.0867171],[-116.8455113,34.0863697],[-116.8454952,34.0862933],[-116.8454469,34.0863265],[-116.8452754,34.0867107],[-116.8450905,34.0869883],[-116.8450291,34.0870171],[-116.8449645,34.0869971],[-116.8449432,34.086946],[-116.8450023,34.0867016],[-116.8452126,34.0857217],[-116.8451632,34.0856442],[-116.8450935,34.0856924],[-116.8449428,34.0860504],[-116.8445302,34.0867816],[-116.8441279,34.0874391],[-116.8441434,34.0872841],[-116.8442083,34.087097],[-116.8444604,34.0858842],[-116.84438,34.0859152],[-116.8439347,34.0867905],[-116.8434144,34.0875102],[-116.843446,34.0873551],[-116.8436826,34.0868349],[-116.8438167,34.0862485],[-116.8438328,34.0860263],[-116.8436558,34.0857509],[-116.8434729,34.0854359],[-116.8434144,34.0853288],[-116.8433883,34.0852374],[-116.8434196,34.0851528],[-116.8434782,34.0850138],[-116.8434818,34.0849477],[-116.8434327,34.0849051],[-116.8432118,34.0850154],[-116.8430861,34.085088],[-116.8430013,34.0852044],[-116.8429906,34.0856309],[-116.8427594,34.0853115],[-116.8426526,34.0850889],[-116.8426634,34.0849023],[-116.8428687,34.0845829],[-116.8427553,34.084536],[-116.8425966,34.0846014],[-116.8424971,34.0847024],[-116.8421908,34.0848894],[-116.8420938,34.0850247],[-116.8420215,34.0851323],[-116.8419606,34.0851289],[-116.8418963,34.0848801],[-116.8419347,34.0846843],[-116.8419358,34.0845774],[-116.8418771,34.0845449],[-116.8417846,34.0846525],[-116.8416626,34.0847312],[-116.8414531,34.0847535],[-116.84132,34.0848275],[-116.8411838,34.0848315],[-116.8411129,34.0848365],[-116.8410536,34.0848628],[-116.8410431,34.0849372],[-116.8410069,34.0850089],[-116.8410207,34.0851072],[-116.8409786,34.0851786],[-116.8407858,34.0854488],[-116.8402493,34.0859433],[-116.8398569,34.0860908],[-116.8395602,34.0861682],[-116.8393024,34.0862476],[-116.8391194,34.0863573],[-116.8390536,34.0864539],[-116.8390209,34.0865861],[-116.8390048,34.0868971],[-116.8390979,34.0870282],[-116.8391068,34.0872836],[-116.8390746,34.0875546],[-116.8389566,34.0878434],[-116.8388873,34.0880098],[-116.8388416,34.088188],[-116.838941,34.0882667],[-116.8390805,34.0884104],[-116.8390973,34.0884511],[-116.839085,34.0884963],[-116.8390638,34.0885705],[-116.8390672,34.0886027],[-116.8390925,34.0886292],[-116.8391313,34.0886601],[-116.8391014,34.088684],[-116.8391038,34.0887102],[-116.839135,34.0887642],[-116.8391331,34.0888541],[-116.8391509,34.0889284],[-116.8392301,34.0890651],[-116.8393642,34.0892917],[-116.8394191,34.089366],[-116.839399,34.089387],[-116.8393349,34.0893914],[-116.83924,34.0893991],[-116.8391046,34.0893698],[-116.839059,34.0893916],[-116.8390074,34.0895305],[-116.8389345,34.0896304],[-116.8390469,34.0895813],[-116.8391459,34.089581],[-116.8392613,34.0896629],[-116.8393392,34.089726],[-116.8393231,34.0897632],[-116.8392131,34.089797],[-116.8391595,34.0898642],[-116.8391314,34.0899023],[-116.8390415,34.0899226],[-116.8390768,34.0899692],[-116.8391802,34.0899459],[-116.8392891,34.0899803],[-116.8395305,34.0900692],[-116.8396812,34.0902196],[-116.8396422,34.0902457],[-116.8395791,34.0902096],[-116.8394696,34.0902374],[-116.8393666,34.0902601],[-116.8392609,34.0902585],[-116.839138,34.0903138],[-116.8390755,34.0904323],[-116.8390048,34.0906245],[-116.8392087,34.0905623],[-116.8393071,34.0905945],[-116.8394253,34.0906495],[-116.8394715,34.0906911],[-116.8394315,34.0907161],[-116.8393812,34.0907278],[-116.8392607,34.0908011],[-116.8391948,34.09091],[-116.8391869,34.0910943],[-116.8392122,34.0912648],[-116.8392785,34.0913445],[-116.839372,34.0913821],[-116.83942,34.091463],[-116.8393568,34.0915891],[-116.8392883,34.0916421],[-116.8392614,34.091724],[-116.8392934,34.0917973],[-116.8393066,34.091875],[-116.8392848,34.0920372],[-116.8393028,34.0920805],[-116.8394174,34.0922205],[-116.8394911,34.0922876],[-116.8395916,34.0924015],[-116.8397338,34.0926061],[-116.8398464,34.0927684],[-116.8400633,34.0929939],[-116.840153,34.0931255],[-116.840252,34.0932204],[-116.8404707,34.0935865],[-116.8405235,34.0937306],[-116.8405931,34.0938259],[-116.8406067,34.0939772],[-116.8406182,34.0941469],[-116.8405752,34.0943219],[-116.8405506,34.0944615],[-116.8404713,34.0945835],[-116.8403513,34.0947199],[-116.8402396,34.0947706],[-116.8401453,34.0948281],[-116.8400126,34.0948676],[-116.8398768,34.0949375],[-116.8398016,34.0949747],[-116.8397345,34.0949917],[-116.839703,34.0950338],[-116.8397152,34.0950591],[-116.8397914,34.0950841],[-116.8398518,34.0950815],[-116.8398948,34.095094],[-116.8399927,34.0950896],[-116.8400461,34.0951227],[-116.840067,34.0951424],[-116.8402333,34.095369],[-116.8402129,34.0954144],[-116.8402193,34.0954682],[-116.8402467,34.09549],[-116.8402578,34.0955151],[-116.8401825,34.0955184],[-116.8400616,34.0954889],[-116.8399651,34.0954712],[-116.8397991,34.0955073],[-116.8396566,34.0955838],[-116.839316,34.0958043],[-116.839214,34.0958951],[-116.8389297,34.0961508],[-116.8386132,34.0963152],[-116.8383611,34.096564],[-116.8382694,34.0967643],[-116.8380929,34.0972614],[-116.8374062,34.0981365],[-116.8370361,34.0984297],[-116.836623,34.0986829],[-116.8361992,34.0991804],[-116.8358184,34.0997979],[-116.8356789,34.1000022],[-116.835459,34.1001133],[-116.8353356,34.1001399],[-116.8352283,34.100211],[-116.8351854,34.1003176],[-116.8350454,34.1004202],[-116.8350083,34.1004731],[-116.8345148,34.1008817],[-116.8343324,34.1010949],[-116.8341018,34.1012282],[-116.834032,34.1012815],[-116.8339413,34.1013758],[-116.8338241,34.1014134],[-116.8336581,34.1013914],[-116.8333915,34.1014369],[-116.832987,34.10139],[-116.832597,34.1012763],[-116.8318717,34.1011757],[-116.8312414,34.1012133],[-116.8306677,34.1011842],[-116.8303023,34.1011527],[-116.8296774,34.1007796],[-116.8293164,34.1002248],[-116.8289296,34.1000249],[-116.8277076,34.0998912],[-116.826711,34.0995609],[-116.8264582,34.099417],[-116.8262217,34.0993427],[-116.8257452,34.0993046],[-116.8252571,34.0993245],[-116.824972,34.099403],[-116.8248967,34.0993991],[-116.8248355,34.0993644],[-116.8247808,34.0992969],[-116.8247867,34.0992522],[-116.82484,34.099254],[-116.8248857,34.0992502],[-116.824853,34.099162]]}}]}
