{"type":"FeatureCollection","peaks_destination_id":"YPFGHtqU09z6ujTv0n3Z","peaks_trailhead_id":"39873C2AA9554A9C8C57","peaks_source":"https://www.openstreetmap.org/","peaks_retrieval_source":"https://api.openstreetmap.org/api/0.6","peaks_license_name":"Open Data Commons Open Database License (ODbL) 1.0","peaks_license":"https://opendatacommons.org/licenses/odbl/1-0/","peaks_attribution":"© OpenStreetMap contributors","peaks_retrieved_at":"2026-07-31T07:22:31.858Z","features":[{"type":"Feature","properties":{"name":"San Jacinto Peak OSM route candidate","trailhead_name":"Palm Springs Aerial Tramway Mountain Station","destination_name":"San Jacinto Peak","distance_m":8087.877228285823,"trailhead_snap_m":1.4973540931994105,"summit_snap_m":14.288916874637282,"osm_way_ids":[1443948475,74436002,74458422,74458412,74458430,74458437],"osm_way_urls":["https://www.openstreetmap.org/way/1443948475","https://www.openstreetmap.org/way/74436002","https://www.openstreetmap.org/way/74458422","https://www.openstreetmap.org/way/74458412","https://www.openstreetmap.org/way/74458430","https://www.openstreetmap.org/way/74458437"],"osm_way_names":["Round Valley Trail","Peak Trail"],"osm_foot_access_override_way_ids":[]},"geometry":{"type":"LineString","coordinates":[[-116.638899,33.812728],[-116.6389148,33.812725],[-116.6388766,33.8126955],[-116.6388646,33.812673],[-116.6388584,33.8126521],[-116.6388568,33.812635],[-116.6388675,33.8126026],[-116.6388795,33.8125827],[-116.6388924,33.8125733],[-116.6389099,33.812573],[-116.6389331,33.8125827],[-116.6389647,33.8126034],[-116.6390161,33.8126311],[-116.6390707,33.8126493],[-116.6391194,33.8126596],[-116.6391601,33.8126619],[-116.6392,33.8126604],[-116.6393024,33.8126428],[-116.6393693,33.812629],[-116.6393954,33.8126296],[-116.6394378,33.8126371],[-116.6394894,33.8126478],[-116.6395295,33.8126475],[-116.6395847,33.812641],[-116.639636,33.8126346],[-116.6397044,33.8126232],[-116.6397943,33.8126074],[-116.6398788,33.8125984],[-116.6399389,33.8125936],[-116.6399777,33.8125976],[-116.6400472,33.8126167],[-116.6401467,33.8126381],[-116.6402385,33.8126609],[-116.6403065,33.8126801],[-116.6403991,33.812709],[-116.640481,33.8127274],[-116.6405498,33.8127344],[-116.6405708,33.8127324],[-116.6405865,33.8127215],[-116.6405885,33.8127074],[-116.6405839,33.8126838],[-116.6405955,33.8126717],[-116.6406125,33.8126655],[-116.640642,33.8126606],[-116.6406871,33.8126637],[-116.6407734,33.8126708],[-116.6412854,33.8126972],[-116.6418231,33.8127472],[-116.6420052,33.8126457],[-116.6421814,33.8125298],[-116.6422506,33.8125399],[-116.6424798,33.8126133],[-116.6427144,33.8127563],[-116.6431014,33.8128686],[-116.6433715,33.8128679],[-116.6435515,33.8127564],[-116.6436812,33.8126415],[-116.643892,33.8125169],[-116.6441153,33.8124483],[-116.6442464,33.8124796],[-116.6443425,33.8125035],[-116.6444726,33.8124115],[-116.6446392,33.8123573],[-116.6447228,33.8123043],[-116.6448627,33.8122023],[-116.6450155,33.8121285],[-116.6452422,33.812133],[-116.6455,33.8120857],[-116.6456595,33.8119293],[-116.6459759,33.8119194],[-116.6461453,33.8119966],[-116.6463694,33.8120922],[-116.6467561,33.8120775],[-116.6470707,33.8120231],[-116.6472817,33.8119786],[-116.6474078,33.8117573],[-116.647651,33.8115951],[-116.6478303,33.8115537],[-116.6480126,33.8114817],[-116.6482799,33.8114583],[-116.648502,33.8115091],[-116.6486549,33.8114784],[-116.6491293,33.8112848],[-116.6493059,33.8111409],[-116.6495142,33.8110915],[-116.6498061,33.8111623],[-116.6500335,33.8111823],[-116.6502172,33.8111941],[-116.6504545,33.811184],[-116.6505524,33.8111638],[-116.6505963,33.8111187],[-116.650547,33.8110627],[-116.6503196,33.8109536],[-116.6504117,33.8109058],[-116.6504129,33.8108371],[-116.6502851,33.81079],[-116.6503051,33.8107305],[-116.6504372,33.8106546],[-116.6505844,33.8106533],[-116.6505835,33.8106028],[-116.6504807,33.8105823],[-116.650506,33.8105316],[-116.6507201,33.8104859],[-116.6507698,33.8104516],[-116.650738,33.8103723],[-116.6507708,33.8103574],[-116.6510691,33.8105708],[-116.650974,33.8100976],[-116.6511252,33.8100587],[-116.6512079,33.8098935],[-116.6513065,33.8097582],[-116.6515496,33.8095344],[-116.6517304,33.8094596],[-116.6517806,33.8092721],[-116.6518502,33.809269],[-116.6518948,33.8091504],[-116.6518463,33.8090616],[-116.6519008,33.8089379],[-116.6519424,33.808844],[-116.6519171,33.8087439],[-116.651851,33.8086716],[-116.6519022,33.8085647],[-116.6519156,33.8084733],[-116.651984,33.8084066],[-116.6520948,33.8083882],[-116.6521446,33.8083448],[-116.6523314,33.8081141],[-116.6524622,33.8079303],[-116.6524376,33.8079099],[-116.6523254,33.8079374],[-116.6523409,33.8079013],[-116.652749,33.807491],[-116.6530602,33.807376],[-116.6532203,33.8073273],[-116.6534609,33.8072708],[-116.6535855,33.8072687],[-116.653817,33.8071201],[-116.6539022,33.8069919],[-116.6541889,33.8068483],[-116.6546305,33.806858],[-116.6547783,33.8068598],[-116.6550101,33.8067513],[-116.6551674,33.8065464],[-116.6553287,33.8063413],[-116.6553981,33.8061287],[-116.6554333,33.8059871],[-116.6555296,33.8058417],[-116.6555397,33.8055503],[-116.6554726,33.8053487],[-116.6554011,33.805093],[-116.6554327,33.8049006],[-116.6555174,33.8046675],[-116.6556306,33.8045243],[-116.6557582,33.8044305],[-116.6557969,33.8042815],[-116.6560328,33.8040971],[-116.656167,33.8040188],[-116.6562814,33.8039258],[-116.6563898,33.8037909],[-116.6565121,33.8036686],[-116.6566467,33.8035673],[-116.6568163,33.8033612],[-116.6570045,33.8032181],[-116.6572548,33.8030324],[-116.6574434,33.8029319],[-116.6576011,33.8028258],[-116.6577878,33.8026914],[-116.6579513,33.8026147],[-116.6581041,33.8025537],[-116.6582542,33.8024966],[-116.6584089,33.8024698],[-116.6587835,33.8024563],[-116.6590719,33.8024894],[-116.6594725,33.8026553],[-116.6596232,33.8028095],[-116.6597278,33.8029138],[-116.6598073,33.8029715],[-116.6599126,33.8029912],[-116.6600689,33.8029658],[-116.6603106,33.8029338],[-116.6605491,33.8030057],[-116.6607789,33.8029911],[-116.6610586,33.8029765],[-116.6612884,33.8030016],[-116.6615246,33.8029448],[-116.6615595,33.8028341],[-116.6615824,33.8027614],[-116.6615831,33.8025272],[-116.661531,33.8022314],[-116.6617441,33.8020267],[-116.6619692,33.8020041],[-116.6621761,33.8020996],[-116.6622885,33.802303],[-116.6625895,33.8025068],[-116.6629104,33.8027183],[-116.663097,33.8028381],[-116.6633794,33.8028844],[-116.6635607,33.802836],[-116.6637827,33.8029201],[-116.6639715,33.8030897],[-116.6641115,33.8032563],[-116.6641977,33.8034145],[-116.6641607,33.8035595],[-116.6644498,33.803449],[-116.6646593,33.8033854],[-116.6645998,33.8032527],[-116.6647347,33.8031886],[-116.6648687,33.8032182],[-116.6649778,33.8030762],[-116.6651839,33.8030458],[-116.6653771,33.8030932],[-116.6656319,33.8032198],[-116.6656391,33.8029288],[-116.6659943,33.8029405],[-116.6661922,33.8030198],[-116.6665214,33.8030901],[-116.6669323,33.8032192],[-116.6674858,33.8032675],[-116.6680126,33.803264],[-116.668185,33.8032675],[-116.6682103,33.803156],[-116.668639,33.8030381],[-116.6687718,33.8028961],[-116.6695328,33.8027373],[-116.6699477,33.8025311],[-116.6703735,33.8023353],[-116.6708522,33.8020496],[-116.6711603,33.8017585],[-116.6715679,33.8013136],[-116.672095,33.8010132],[-116.6723982,33.8009715],[-116.6725635,33.8011014],[-116.672845,33.8014393],[-116.672944,33.8013103],[-116.6731256,33.8013584],[-116.6731476,33.8012207],[-116.6732365,33.8010287],[-116.6732981,33.8008128],[-116.673427,33.8007656],[-116.6735116,33.8008069],[-116.6735833,33.8008451],[-116.6736655,33.8006708],[-116.6737736,33.8005897],[-116.6736683,33.8003794],[-116.6735501,33.8001964],[-116.6734119,33.7998937],[-116.6738132,33.7998684],[-116.6739745,33.7998527],[-116.673941,33.7997402],[-116.6740278,33.7996015],[-116.6741244,33.7994502],[-116.6741403,33.7993188],[-116.6741843,33.7993004],[-116.6742117,33.799287],[-116.6742424,33.799263],[-116.67429,33.7992075],[-116.6743069,33.7992045],[-116.6743345,33.7991856],[-116.6743744,33.7991742],[-116.6744067,33.799175],[-116.6744533,33.7992196],[-116.6744604,33.7992384],[-116.6744639,33.7992574],[-116.6744819,33.7992688],[-116.6745348,33.7992835],[-116.6746277,33.7993903],[-116.6747095,33.799659],[-116.6746333,33.7997339],[-116.6746614,33.7998476],[-116.6748969,33.8001387],[-116.6749448,33.8003052],[-116.6749966,33.8005537],[-116.6750174,33.8006035],[-116.6750277,33.8006717],[-116.6750535,33.8008986],[-116.6750526,33.8010145],[-116.6750456,33.8010431],[-116.6750182,33.8010977],[-116.6750123,33.8011365],[-116.6751172,33.8013008],[-116.6751199,33.8014468],[-116.6751102,33.8015365],[-116.6751073,33.8015831],[-116.6751055,33.8016306],[-116.6751023,33.8016619],[-116.6750839,33.8017169],[-116.6750618,33.8017814],[-116.6750682,33.8018061],[-116.675087,33.8018185],[-116.6751022,33.8018398],[-116.6751083,33.8018689],[-116.6750921,33.8019136],[-116.675082,33.8019641],[-116.6750882,33.8019942],[-116.6751072,33.8020467],[-116.6751044,33.802119],[-116.6751174,33.8021708],[-116.6751264,33.8022362],[-116.6751224,33.802268],[-116.6751276,33.8022813],[-116.6751566,33.802348],[-116.6751683,33.8024036],[-116.6751877,33.8024615],[-116.6751835,33.8024739],[-116.6751659,33.8024921],[-116.6751683,33.8025291],[-116.6751809,33.8025695],[-116.6751781,33.8025809],[-116.6751522,33.8026013],[-116.6751466,33.8026177],[-116.6751447,33.8026377],[-116.6751409,33.8026701],[-116.6751393,33.8026952],[-116.675144,33.8027274],[-116.675144,33.8027855],[-116.675138,33.802867],[-116.675131,33.8029427],[-116.675124,33.8029768],[-116.6751196,33.8029921],[-116.6750906,33.803047],[-116.6750848,33.8030686],[-116.6750795,33.8031066],[-116.6750735,33.8031825],[-116.6750798,33.8032147],[-116.6750903,33.8032384],[-116.6750962,33.8032701],[-116.6750968,33.8033018],[-116.675106,33.8033178],[-116.675117,33.8033344],[-116.6751148,33.8033449],[-116.6751032,33.8033486],[-116.6750909,33.8033613],[-116.6750863,33.803379],[-116.6750817,33.8033915],[-116.675071,33.8034035],[-116.6750665,33.8034186],[-116.6750621,33.8034488],[-116.6750518,33.8034848],[-116.6750328,33.8035147],[-116.6750102,33.8035335],[-116.6749896,33.8035532],[-116.674973,33.8035797],[-116.6749663,33.8035926],[-116.6749527,33.803601],[-116.6749378,33.803628],[-116.6749229,33.8036527],[-116.6749084,33.8036731],[-116.6748928,33.8036864],[-116.6748841,33.8036983],[-116.6748822,33.8037106],[-116.6748725,33.8037267],[-116.6748645,33.8037447],[-116.6748427,33.8037672],[-116.674833,33.8037828],[-116.6748321,33.8037998],[-116.6748318,33.8038261],[-116.6748157,33.8038724],[-116.6747821,33.8039355],[-116.6747503,33.8040016],[-116.6747482,33.8040262],[-116.6747308,33.8040831],[-116.6747052,33.804141],[-116.6746626,33.8042271],[-116.6746218,33.8042863],[-116.6745941,33.8043058],[-116.6745509,33.8043423],[-116.6745418,33.804368],[-116.6745365,33.8043866],[-116.6745289,33.8044352],[-116.6745215,33.8044532],[-116.6745124,33.8044699],[-116.6745156,33.8044961],[-116.6745205,33.804518],[-116.6745318,33.8045437],[-116.6745407,33.8045618],[-116.6745383,33.8045802],[-116.6745306,33.8046055],[-116.6745181,33.8046319],[-116.6744771,33.8047025],[-116.6744152,33.8048219],[-116.6743777,33.8049123],[-116.6743729,33.8049464],[-116.6743711,33.804992],[-116.6743691,33.8050166],[-116.6743493,33.8050472],[-116.6743124,33.8051022],[-116.6742601,33.8051713],[-116.6742388,33.8052146],[-116.6742379,33.8052333],[-116.6742392,33.805258],[-116.6742324,33.805284],[-116.6742164,33.8053132],[-116.6742028,33.8053332],[-116.674188,33.8053719],[-116.6741754,33.805416],[-116.6741686,33.8054478],[-116.6741529,33.8054855],[-116.6741409,33.8055107],[-116.6741294,33.8055188],[-116.6741184,33.8055255],[-116.6741141,33.8055363],[-116.6741211,33.8055513],[-116.6741199,33.8055745],[-116.6741117,33.8056456],[-116.6741078,33.8057214],[-116.6741076,33.8058077],[-116.6741119,33.8058875],[-116.6740978,33.8059622],[-116.6740865,33.8059956],[-116.6740729,33.8060469],[-116.674058,33.8060676],[-116.6740559,33.8060999],[-116.6740501,33.8061659],[-116.674047,33.806193],[-116.6740416,33.8062512],[-116.6740439,33.8063452],[-116.6740516,33.806427],[-116.6740445,33.8064431],[-116.6740173,33.8064925],[-116.6739846,33.8065496],[-116.6739745,33.8065807],[-116.6739699,33.8066109],[-116.6739621,33.8066622],[-116.6739497,33.8067791],[-116.6739546,33.8068421],[-116.673962,33.8068958],[-116.6739603,33.806922],[-116.6739348,33.8069969],[-116.6739252,33.8070223],[-116.6739258,33.8070613],[-116.6739419,33.8071642],[-116.6739574,33.8072475],[-116.6739797,33.8072863],[-116.6740107,33.8073081],[-116.6740246,33.807365],[-116.6740535,33.8074702],[-116.6740783,33.8076088],[-116.6740797,33.8076454],[-116.674128,33.8076932],[-116.6741642,33.8077209],[-116.6741937,33.8077852],[-116.674242,33.8078336],[-116.6743044,33.807959],[-116.6743345,33.8079819],[-116.6743815,33.8079854],[-116.6744593,33.8079902],[-116.674579,33.8080805],[-116.6746585,33.8081172],[-116.6747021,33.8081106],[-116.6747283,33.8081051],[-116.6748055,33.8080617],[-116.6748979,33.8080768],[-116.6749709,33.8080899],[-116.6750291,33.8080886],[-116.6750866,33.8081154],[-116.6750845,33.8082481],[-116.6751065,33.8082782],[-116.6751344,33.808283],[-116.6751913,33.8082843],[-116.6752103,33.8083117],[-116.6752374,33.8083257],[-116.6752963,33.8083273],[-116.6753258,33.8083578],[-116.6753283,33.8084054],[-116.6753549,33.808474],[-116.675416,33.8085042],[-116.6754874,33.8085022],[-116.6755858,33.8085053],[-116.6756534,33.8085606],[-116.6757033,33.8085807],[-116.6757607,33.8086016],[-116.6757785,33.8086442],[-116.6757796,33.8086867],[-116.6757981,33.8087545],[-116.6758214,33.8087708],[-116.6758462,33.8087695],[-116.6758723,33.8087872],[-116.6758797,33.8088427],[-116.6758863,33.8088948],[-116.675907,33.8089426],[-116.6759088,33.8089815],[-116.6758885,33.8090236],[-116.6758828,33.8090636],[-116.6759015,33.8090955],[-116.6759763,33.8091463],[-116.6760229,33.809204],[-116.6760352,33.809232],[-116.6760354,33.80926],[-116.6760314,33.8092891],[-116.6760446,33.8093124],[-116.6760686,33.8093625],[-116.6760653,33.8094064],[-116.676066,33.809447],[-116.6760729,33.8095398],[-116.6760692,33.8095937],[-116.6760651,33.8096069],[-116.6760587,33.809621],[-116.6760646,33.8096318],[-116.6760717,33.8096388],[-116.6760858,33.8096547],[-116.6760989,33.80967],[-116.6761158,33.8096774],[-116.6761374,33.8096855],[-116.6761508,33.8096965],[-116.6761683,33.8097002],[-116.6761951,33.8097017],[-116.6762359,33.8096998],[-116.6762778,33.809699],[-116.6763369,33.8097109],[-116.6763716,33.8097193],[-116.6764189,33.80973],[-116.6764719,33.8097373],[-116.6765699,33.8097497],[-116.676584,33.8097493],[-116.6765952,33.8097421],[-116.6766071,33.809731],[-116.6766206,33.8097269],[-116.6766428,33.8097379],[-116.6766642,33.8097522],[-116.6767011,33.8097871],[-116.6767434,33.8097997],[-116.6767726,33.8097979],[-116.6768031,33.8097826],[-116.6768345,33.8097672],[-116.676855,33.8097544],[-116.6768709,33.8097359],[-116.6768882,33.809727],[-116.6769163,33.8097219],[-116.6769452,33.8097158],[-116.6769565,33.8097083],[-116.6769607,33.8096956],[-116.6769627,33.809686],[-116.6769784,33.8096838],[-116.6769932,33.8096955],[-116.6770121,33.8096872],[-116.677017,33.8096722],[-116.6770117,33.8096622],[-116.6770206,33.8096501],[-116.6770303,33.8096374],[-116.6770495,33.8096194],[-116.6770676,33.8096104],[-116.6771305,33.8095943],[-116.6771805,33.8095882],[-116.6772027,33.8095911],[-116.6772931,33.8096922],[-116.6773115,33.8097056],[-116.6773337,33.8097343],[-116.6773504,33.8097586],[-116.6773531,33.8097762],[-116.6773467,33.8097979],[-116.677337,33.8098136],[-116.6773204,33.8098292],[-116.677277,33.809855],[-116.6772568,33.8098692],[-116.6772232,33.8099028],[-116.6771644,33.8099827],[-116.6771426,33.8100306],[-116.6771329,33.8100509],[-116.6771134,33.8100672],[-116.6770745,33.8100946],[-116.6770528,33.8101253],[-116.6770141,33.8101675],[-116.6769938,33.8101904],[-116.6769654,33.8102146],[-116.6769594,33.8102245],[-116.6769426,33.8103009],[-116.6769244,33.8103705],[-116.676905,33.8103997],[-116.6768889,33.8104241],[-116.6768674,33.8104415],[-116.676833,33.8104626],[-116.6767994,33.8104875],[-116.676772,33.8105217],[-116.6767507,33.8105572],[-116.6767402,33.810591],[-116.6767389,33.8106145],[-116.6767178,33.8106308],[-116.6766945,33.8106424],[-116.6766874,33.8106597],[-116.676682,33.8106855],[-116.6766618,33.8107186],[-116.6766526,33.8107355],[-116.6766496,33.8107525],[-116.6766544,33.8107672],[-116.6766634,33.8107799],[-116.6766656,33.8107927],[-116.6766599,33.8108038],[-116.6766249,33.8108469],[-116.6765842,33.8109164],[-116.6765691,33.8109442],[-116.6765521,33.8109741],[-116.6765259,33.811004],[-116.6765149,33.8110371],[-116.6765084,33.8110619],[-116.6765066,33.8110814],[-116.676511,33.8111315],[-116.6765141,33.8111518],[-116.6765164,33.8111715],[-116.6765088,33.811184],[-116.6764997,33.8112077],[-116.6764921,33.8112335],[-116.6764877,33.8112735],[-116.6764874,33.8112932],[-116.6764902,33.8113129],[-116.6764957,33.8113254],[-116.6765022,33.8113376],[-116.6765014,33.8113556],[-116.6764996,33.8113763],[-116.6765015,33.811388],[-116.6764834,33.8114023],[-116.6764703,33.8114269],[-116.6764672,33.811443],[-116.6764702,33.8114692],[-116.6764732,33.8114916],[-116.6764666,33.8115089],[-116.6764662,33.8115249],[-116.676466,33.8115425],[-116.6764626,33.8115607],[-116.6764581,33.8115748],[-116.6764351,33.8116016],[-116.6764261,33.8116259],[-116.6764182,33.8116352],[-116.6764018,33.8116439],[-116.676383,33.8116499],[-116.6763791,33.8116629],[-116.6763776,33.8116827],[-116.676373,33.8117044],[-116.6763668,33.8117163],[-116.6763729,33.8117654],[-116.6763727,33.8118007],[-116.6763663,33.8118152],[-116.6763549,33.8118376],[-116.6763405,33.8118719],[-116.6763291,33.8119087],[-116.6763281,33.8119308],[-116.6763302,33.81199],[-116.6763259,33.8120066],[-116.6763042,33.8120275],[-116.6762843,33.8120469],[-116.6762604,33.8120579],[-116.676234,33.8120689],[-116.6762245,33.8120853],[-116.6762231,33.812097],[-116.6762305,33.8121351],[-116.6762259,33.812154],[-116.6762114,33.8121684],[-116.6761847,33.812199],[-116.6761776,33.8122296],[-116.6761737,33.8122541],[-116.6761734,33.8122932],[-116.6761639,33.8123157],[-116.676164,33.8123349],[-116.6761659,33.8123658],[-116.6761554,33.8124108],[-116.6761532,33.8124432],[-116.6761564,33.8124918],[-116.6761464,33.8125304],[-116.6761474,33.8125685],[-116.6761413,33.8126021],[-116.6761273,33.8126164],[-116.6761112,33.8126278],[-116.6761017,33.8126535],[-116.6760728,33.8127689],[-116.6760557,33.8127997],[-116.6760329,33.8128283],[-116.6760164,33.8128539],[-116.6759864,33.81291],[-116.6759776,33.8129427],[-116.6759718,33.8129686],[-116.675959,33.8129909],[-116.6759411,33.8130124],[-116.6759346,33.8130318],[-116.6759281,33.8130894],[-116.6759239,33.8131092],[-116.6759049,33.8131324],[-116.6758794,33.8131622],[-116.6758437,33.8132515],[-116.6758423,33.8132696],[-116.6758425,33.8133059],[-116.6758391,33.8133304],[-116.6758251,33.8133552],[-116.6758182,33.8133764],[-116.6758182,33.8134128],[-116.675813,33.8134381],[-116.6757668,33.8135647],[-116.6757546,33.8135914],[-116.6757159,33.8136696],[-116.6757081,33.8136985],[-116.6756888,33.8137641],[-116.6756519,33.8138631],[-116.6756242,33.8139243],[-116.6756046,33.813953],[-116.6755721,33.8139995],[-116.6755062,33.8140899],[-116.6754658,33.8141335],[-116.6754395,33.8141536],[-116.6753873,33.8142049],[-116.6753282,33.8142543],[-116.6752718,33.8143104],[-116.6752559,33.8143292],[-116.6752245,33.8143518],[-116.675185,33.8143735],[-116.6751534,33.8143878],[-116.6751324,33.8144213],[-116.6751187,33.8144354],[-116.6751001,33.8144443],[-116.6750713,33.8144681],[-116.6750442,33.8144851],[-116.6750238,33.8145283],[-116.675015,33.8145647],[-116.6749904,33.8145794],[-116.6749628,33.8146024],[-116.6749306,33.8146371],[-116.6748588,33.8147166],[-116.6748311,33.8147491],[-116.6748077,33.8147568],[-116.6747558,33.8148071],[-116.6746834,33.8148665],[-116.6745994,33.814922],[-116.674554,33.8149467],[-116.6745206,33.8149716],[-116.6745106,33.8150014],[-116.6745263,33.8150196],[-116.6745624,33.8150346],[-116.6746251,33.8150342],[-116.6746343,33.8150333],[-116.6746577,33.8150398],[-116.6747722,33.8150366],[-116.6748704,33.8150147],[-116.6749605,33.8149846],[-116.6750226,33.8149583],[-116.6751014,33.8148882],[-116.6751305,33.814867],[-116.6751459,33.8148527],[-116.6751726,33.8148116],[-116.6751911,33.8147965],[-116.6752121,33.8147917],[-116.6752796,33.8147778],[-116.6753327,33.8147555],[-116.6753629,33.814743],[-116.6753891,33.8147238],[-116.6754239,33.8146966],[-116.6754936,33.8146722],[-116.6755686,33.8146513],[-116.6756207,33.8146251],[-116.6756876,33.814586],[-116.6757609,33.8145414],[-116.6758653,33.8144823],[-116.675924,33.8144433],[-116.6760415,33.814372],[-116.676133,33.8143174],[-116.676182,33.814285],[-116.6762394,33.8142398],[-116.6762875,33.8141979],[-116.6763085,33.8141788],[-116.6763641,33.8141219],[-116.6763922,33.8140951],[-116.6764364,33.8140592],[-116.6764738,33.8140287],[-116.6765111,33.8140067],[-116.6765481,33.8139661],[-116.6765751,33.813936],[-116.6766145,33.8139016],[-116.6766328,33.8138773],[-116.6766655,33.8138349],[-116.6766923,33.813807],[-116.6767269,33.8137845],[-116.6767614,33.8137741],[-116.676774,33.8137633],[-116.6767872,33.8137417],[-116.6768136,33.8137141],[-116.6768342,33.8136879],[-116.6768499,33.8136588],[-116.6768732,33.8136397],[-116.6768877,33.8136228],[-116.6768978,33.813601],[-116.676918,33.8135799],[-116.6769411,33.8135621],[-116.6769597,33.8135392],[-116.6769839,33.8134934],[-116.6770035,33.8134598],[-116.6770132,33.8134393],[-116.6770311,33.8134152],[-116.6770603,33.8133769],[-116.6770772,33.8133448],[-116.6770961,33.8133154],[-116.6771166,33.8133021],[-116.6771293,33.8132888],[-116.6771374,33.8132635],[-116.6771419,33.8132446],[-116.6771549,33.8132156],[-116.6771726,33.8131922],[-116.6771866,33.8131699],[-116.6771984,33.8131298],[-116.67721,33.8131087],[-116.6772211,33.8130731],[-116.677238,33.8130397],[-116.6772489,33.8129987],[-116.6772627,33.8129499],[-116.6772746,33.8129146],[-116.6772858,33.8128972],[-116.6773176,33.8128494],[-116.6773547,33.8128015],[-116.6773833,33.8127605],[-116.6774018,33.8127241],[-116.6774144,33.8127015],[-116.6774615,33.8126681],[-116.6774804,33.8126468],[-116.6775048,33.812605],[-116.6775187,33.8125858],[-116.6775372,33.8125743],[-116.677554,33.8125534],[-116.6775707,33.8125321],[-116.6775814,33.8125148],[-116.6776028,33.8125022],[-116.6776347,33.8124884],[-116.677692,33.8124606],[-116.6777127,33.8124486],[-116.6777202,33.8124335],[-116.6777392,33.8124146],[-116.6777744,33.8123911],[-116.6778006,33.8123776],[-116.6778262,33.8123673],[-116.6778532,33.8123534],[-116.6778763,33.8123446],[-116.6778971,33.8123313],[-116.6779048,33.8123208],[-116.6779246,33.8123092],[-116.677944,33.8123004],[-116.6779547,33.8122918],[-116.6779881,33.8122668],[-116.6780337,33.8122371],[-116.6780593,33.8122203],[-116.6780849,33.8122022],[-116.678104,33.812195],[-116.6781287,33.8121896],[-116.6781486,33.8121798],[-116.6781657,33.8121648],[-116.678181,33.8121481],[-116.6781929,33.8121358],[-116.6782476,33.8121013],[-116.6782806,33.8120857],[-116.6783049,33.8120823],[-116.6783329,33.8120797],[-116.6783623,33.8120736],[-116.6783795,33.812066],[-116.6784004,33.8120619],[-116.6784158,33.8120568],[-116.6784561,33.8120411],[-116.6784642,33.8120264],[-116.6784777,33.8120171],[-116.6784942,33.8119943],[-116.6785171,33.8119825],[-116.6785412,33.8119769],[-116.678552,33.8119702],[-116.6785708,33.8119529],[-116.6785842,33.8119479],[-116.6786154,33.8119404],[-116.6786424,33.81194],[-116.6786626,33.8119351],[-116.6786973,33.8119235],[-116.6787253,33.8119185],[-116.6787571,33.8119208],[-116.6788092,33.8119249],[-116.6788459,33.8119309],[-116.6789302,33.8119778],[-116.6790034,33.8120242],[-116.6790174,33.8120452],[-116.6790222,33.8120806],[-116.6790318,33.8121514],[-116.6790306,33.812185],[-116.6790245,33.8122018],[-116.6790073,33.8122125],[-116.6789907,33.8122251],[-116.6789414,33.8123135],[-116.6789192,33.8123542],[-116.678877,33.8124094],[-116.6788185,33.8124714],[-116.6788018,33.8125042],[-116.6788047,33.8125183],[-116.6788149,33.8125302],[-116.6789214,33.8126173],[-116.6790444,33.8126773],[-116.6790916,33.812685],[-116.6791007,33.8126984],[-116.6790944,33.8127163],[-116.679083,33.8127318],[-116.679067,33.8127619],[-116.679063,33.8127742],[-116.6790497,33.8127875],[-116.6790097,33.8128228],[-116.6789744,33.8128719],[-116.6789536,33.8129063],[-116.6789463,33.8129367],[-116.6789407,33.8129597],[-116.6789353,33.8129845],[-116.6789215,33.8130134],[-116.678907,33.8130298],[-116.6788595,33.8130405],[-116.6788453,33.8130462],[-116.6788261,33.813062],[-116.6788117,33.8131079],[-116.6788082,33.8132083],[-116.6788099,33.8132488],[-116.678801,33.8132765],[-116.6787318,33.8133602],[-116.678675,33.8134156],[-116.6786546,33.8134341],[-116.6786353,33.8134472],[-116.6785968,33.8134677],[-116.6785722,33.8134902],[-116.6785354,33.8135243],[-116.6785073,33.8135468],[-116.6784697,33.8135734],[-116.6784133,33.8136053],[-116.6782958,33.813671],[-116.678226,33.8137148],[-116.6782088,33.8137474],[-116.6781961,33.81377],[-116.6781898,33.8137973],[-116.6781936,33.8138158],[-116.6782013,33.8138313],[-116.6782143,33.8138425],[-116.6783586,33.8138565],[-116.6785004,33.8138637],[-116.678561,33.8138695],[-116.6787056,33.8139151],[-116.6787418,33.8139349],[-116.6787602,33.8139501],[-116.6787619,33.8139619],[-116.678756,33.813977],[-116.6787297,33.8140005],[-116.6786823,33.8140666],[-116.678643,33.8141051],[-116.6786214,33.8141478],[-116.6785804,33.8141744],[-116.6785555,33.8142051],[-116.678543,33.8142253],[-116.6784788,33.8142855],[-116.6784737,33.8142946],[-116.6784709,33.8143226],[-116.6784747,33.8143485],[-116.6785448,33.8144147],[-116.6785693,33.8144251],[-116.6785955,33.814426],[-116.6786211,33.8144349],[-116.6786253,33.8144456],[-116.6786056,33.8144731],[-116.6785925,33.814485],[-116.6785638,33.8145143],[-116.6785466,33.8145561],[-116.6785497,33.8145853],[-116.6785594,33.814602],[-116.6785728,33.8146123],[-116.6785963,33.8146151],[-116.6786279,33.814617],[-116.678651,33.8146109],[-116.6787288,33.8146044],[-116.6787812,33.8145998],[-116.6788255,33.8145887],[-116.6788454,33.8145798],[-116.6788769,33.8145865],[-116.6788856,33.8146054],[-116.6788947,33.8146226],[-116.6789184,33.8146273],[-116.6789457,33.8146272],[-116.6790025,33.814628],[-116.6790417,33.814619],[-116.679063,33.8146187],[-116.6791136,33.8146257],[-116.6791494,33.8146247],[-116.679166,33.814614],[-116.6792015,33.8146177],[-116.6792463,33.8146319],[-116.6792669,33.8146361],[-116.6792741,33.8146539],[-116.6792894,33.8146824],[-116.6793075,33.8147018],[-116.6793448,33.8147183],[-116.679477,33.814785]]}}]}
