{"type":"FeatureCollection","peaks_destination_id":"7FqoDdqPnf090rhSpRhA","peaks_trailhead_id":"1C68030FEE25B8A740BD","peaks_source":"https://www.openstreetmap.org/","peaks_retrieval_source":"https://overpass-api.de/api/interpreter","peaks_license_name":"Open Data Commons Open Database License (ODbL) 1.0","peaks_license":"https://opendatacommons.org/licenses/odbl/1-0/","peaks_attribution":"© OpenStreetMap contributors","peaks_retrieved_at":"2026-07-30T18:10:05.719Z","features":[{"type":"Feature","properties":{"name":"Volcán Tajumulco OSM route candidate","trailhead_name":"San Sebastián Trailhead","destination_name":"Volcán Tajumulco","distance_m":11130.018401647178,"trailhead_snap_m":0,"summit_snap_m":2.3095757342292633,"osm_way_ids":[375977274,546153996,546157975,1330049871,1062050557,1062050555,1111972144,1330188575,1111972145,1329206026,995650033,391616911,1120225706,878651836,878651837,878651838,1120225562],"osm_way_urls":["https://www.openstreetmap.org/way/375977274","https://www.openstreetmap.org/way/546153996","https://www.openstreetmap.org/way/546157975","https://www.openstreetmap.org/way/1330049871","https://www.openstreetmap.org/way/1062050557","https://www.openstreetmap.org/way/1062050555","https://www.openstreetmap.org/way/1111972144","https://www.openstreetmap.org/way/1330188575","https://www.openstreetmap.org/way/1111972145","https://www.openstreetmap.org/way/1329206026","https://www.openstreetmap.org/way/995650033","https://www.openstreetmap.org/way/391616911","https://www.openstreetmap.org/way/1120225706","https://www.openstreetmap.org/way/878651836","https://www.openstreetmap.org/way/878651837","https://www.openstreetmap.org/way/878651838","https://www.openstreetmap.org/way/1120225562"],"osm_way_names":["Sendero Volcán Tajumulco"],"osm_foot_access_override_way_ids":[]},"geometry":{"type":"LineString","coordinates":[[-91.8334132,15.0633888],[-91.8334132,15.0633888],[-91.8336113,15.0632691],[-91.8336458,15.0632672],[-91.8336897,15.063305],[-91.8337637,15.0634241],[-91.833868,15.0635209],[-91.8340198,15.0635863],[-91.8341273,15.0637022],[-91.8341865,15.0637689],[-91.8342433,15.0639383],[-91.8342905,15.0640718],[-91.8343443,15.0641906],[-91.8344681,15.0642627],[-91.8346594,15.064363],[-91.8347693,15.0644206],[-91.8350308,15.0645626],[-91.8353459,15.0647559],[-91.8362278,15.0652414],[-91.83716,15.0656314],[-91.8372522,15.0655375],[-91.8373271,15.0654392],[-91.8375275,15.0653446],[-91.8376106,15.0652418],[-91.8376311,15.0651806],[-91.8376042,15.06501],[-91.8375771,15.06485],[-91.8376072,15.0648151],[-91.8376735,15.064818],[-91.8377821,15.0648955],[-91.837841,15.0649992],[-91.8379242,15.0653941],[-91.8379779,15.0654582],[-91.8380095,15.0654666],[-91.8380028,15.0655055],[-91.8380386,15.0655581],[-91.8380879,15.0656275],[-91.8382598,15.0658638],[-91.8385045,15.0661163],[-91.8385362,15.0661867],[-91.838534,15.0662655],[-91.83858,15.0663148],[-91.838643,15.0663148],[-91.8387081,15.0663887],[-91.8387281,15.0664392],[-91.8387298,15.0664677],[-91.8387692,15.0664558],[-91.8388115,15.0664575],[-91.8388577,15.0665119],[-91.8391179,15.0668196],[-91.8392449,15.0669736],[-91.8392355,15.0670159],[-91.8393042,15.0671862],[-91.8394357,15.0672988],[-91.8396689,15.0673594],[-91.8399941,15.0674944],[-91.8402786,15.067521],[-91.840688,15.0675008],[-91.8410971,15.0675639],[-91.8412549,15.0675696],[-91.8413545,15.0670679],[-91.8413695,15.0665975],[-91.8413366,15.0663348],[-91.8411005,15.0659741],[-91.8410744,15.0658706],[-91.841232,15.0654806],[-91.8412499,15.0652151],[-91.8411864,15.064854],[-91.8414233,15.0643983],[-91.8415707,15.0641158],[-91.8418086,15.0639058],[-91.8420823,15.0636464],[-91.842264,15.0633574],[-91.8424379,15.0630708],[-91.8428242,15.0627274],[-91.8429176,15.0621336],[-91.8431862,15.0619387],[-91.8435882,15.0616457],[-91.8438811,15.0614171],[-91.8440116,15.0612589],[-91.8440298,15.0610537],[-91.8440328,15.0608047],[-91.8440723,15.0607138],[-91.8442225,15.0605468],[-91.8444986,15.0601629],[-91.8447793,15.059801],[-91.8449568,15.0596399],[-91.8451039,15.0593612],[-91.8454351,15.0590522],[-91.8457239,15.058798],[-91.8461053,15.05853],[-91.8464068,15.0582689],[-91.8467183,15.0581103],[-91.8469313,15.0580737],[-91.8469338,15.058056],[-91.8470218,15.0580018],[-91.8471644,15.0578802],[-91.847474,15.0576722],[-91.8480505,15.0570714],[-91.8483642,15.0567718],[-91.8485148,15.0569308],[-91.8487212,15.0571652],[-91.848926,15.057441],[-91.8490393,15.0573827],[-91.8492325,15.0573286],[-91.8494542,15.0572864],[-91.8495925,15.0572295],[-91.8498076,15.0571456],[-91.8499161,15.0570106],[-91.8500663,15.0568003],[-91.8501943,15.0566064],[-91.8503016,15.0564497],[-91.8504287,15.0563187],[-91.8505144,15.0561155],[-91.8506691,15.0558887],[-91.8507172,15.0557501],[-91.8507904,15.0555196],[-91.8508381,15.0552293],[-91.8508733,15.0550511],[-91.8509151,15.0548321],[-91.850922,15.0546217],[-91.8509346,15.054409],[-91.850912,15.0543506],[-91.8509362,15.0539854],[-91.8510193,15.0535503],[-91.8515423,15.0529908],[-91.8517837,15.0529442],[-91.852119,15.0527629],[-91.8522987,15.0525168],[-91.8524033,15.0520972],[-91.8524945,15.0515947],[-91.8525505,15.0514839],[-91.8525995,15.0513678],[-91.8529008,15.05097],[-91.8531449,15.050701],[-91.8534466,15.0503341],[-91.8536694,15.050155],[-91.8536949,15.0499883],[-91.8537211,15.049815],[-91.8537931,15.0497145],[-91.854293,15.0491857],[-91.8544793,15.0489482],[-91.8545156,15.0489009],[-91.8547688,15.0485713],[-91.8548497,15.048444],[-91.8549516,15.0483338],[-91.8551735,15.0481779],[-91.8551818,15.0479725],[-91.8552862,15.0479037],[-91.855714,15.0478563],[-91.8558251,15.0478137],[-91.8559998,15.0475668],[-91.8562226,15.046992],[-91.8562204,15.0468349],[-91.8562879,15.0467075],[-91.85649,15.0466929],[-91.8566452,15.0467539],[-91.8576055,15.0467156],[-91.8577117,15.0467114],[-91.857845,15.0466648],[-91.8579022,15.0466154],[-91.8579136,15.0465225],[-91.8579125,15.0463676],[-91.8579018,15.046176],[-91.8579315,15.0461223],[-91.8580681,15.0460585],[-91.8581549,15.0458764],[-91.8581308,15.0456063],[-91.8580814,15.045329],[-91.8581511,15.0452387],[-91.858372,15.0452229],[-91.8588362,15.0453708],[-91.859167,15.0453605],[-91.8597593,15.0452639],[-91.8600071,15.0451751],[-91.860092,15.0453049],[-91.8602619,15.0451751],[-91.8604247,15.0449973],[-91.8605309,15.0450315],[-91.8606087,15.0451409],[-91.8608635,15.0452503],[-91.8609343,15.0451135],[-91.8612175,15.0445462],[-91.8613166,15.0443548],[-91.8613095,15.044136],[-91.8612599,15.0438489],[-91.8612104,15.0437737],[-91.8613095,15.0437122],[-91.8617979,15.0437806],[-91.8622509,15.043931],[-91.8626756,15.0441907],[-91.8631145,15.0442933],[-91.863702,15.0442522],[-91.8640984,15.0442591],[-91.864332,15.0444573],[-91.8644311,15.0447034],[-91.8646576,15.0449563],[-91.8650186,15.0450999],[-91.8652451,15.0451067],[-91.8656202,15.0451751],[-91.8658821,15.0452708],[-91.8662927,15.0454417],[-91.8670005,15.0459202],[-91.8674323,15.0462004],[-91.8678582,15.0464093],[-91.8680996,15.0464505],[-91.8683583,15.0464488],[-91.8687444,15.0465785],[-91.8689364,15.0465749],[-91.869063,15.0465102],[-91.8693886,15.0463119],[-91.8695582,15.0461792],[-91.8697614,15.0460629],[-91.8698859,15.045891],[-91.8701223,15.0457758],[-91.870455,15.0457964],[-91.8710124,15.0458228],[-91.8716832,15.0457343],[-91.8724155,15.0457615],[-91.8728107,15.0456327],[-91.87288,15.0455837],[-91.8734209,15.0452016],[-91.8737111,15.0452153],[-91.8741355,15.0453665],[-91.8745248,15.0454553],[-91.8747797,15.0456946],[-91.8748628,15.04597],[-91.8749354,15.0464192],[-91.8751619,15.0464807],[-91.87553,15.0465422],[-91.875891,15.046761],[-91.8761387,15.0467815],[-91.8765634,15.0467815],[-91.8771863,15.0466447],[-91.8776747,15.0466037],[-91.8778375,15.0466721],[-91.8779138,15.0466914],[-91.8779083,15.0469182],[-91.8777667,15.0472941],[-91.8777314,15.0476974],[-91.8777951,15.0481076],[-91.8779083,15.048463],[-91.8779437,15.0488663],[-91.8780145,15.0488595],[-91.8781348,15.0485998],[-91.8782835,15.047964],[-91.8783826,15.0475607],[-91.8785595,15.0474924],[-91.8790055,15.0474719],[-91.8794797,15.0472805],[-91.8798195,15.0469934],[-91.8800177,15.0467404],[-91.8801097,15.0467131],[-91.8804565,15.0471369],[-91.8807397,15.0476769],[-91.8808317,15.047759],[-91.8809874,15.0479025],[-91.8815466,15.0478615],[-91.8820421,15.0479914],[-91.8824951,15.0481349],[-91.8829057,15.0482306],[-91.8831463,15.0481691],[-91.8835073,15.0479914],[-91.8840028,15.047759],[-91.8843638,15.0474514],[-91.8845549,15.0472258],[-91.8848168,15.0472189],[-91.8852415,15.0471164],[-91.8855742,15.0468361],[-91.8867973,15.046707],[-91.8875536,15.0457667],[-91.8879855,15.0454403],[-91.8887553,15.0454792],[-91.8890771,15.0454429],[-91.8893614,15.0451994],[-91.8893373,15.0450311],[-91.8890905,15.0448886],[-91.8893373,15.0448549],[-91.8896753,15.0450052],[-91.8905872,15.0452124],[-91.8907535,15.0451658],[-91.8909198,15.0451295],[-91.8910915,15.0452642],[-91.8912792,15.0453419],[-91.891467,15.0454041],[-91.8915743,15.045518],[-91.8916762,15.045689],[-91.8919444,15.0459066],[-91.8922556,15.0462122],[-91.892615,15.046321],[-91.8928832,15.0464557],[-91.8931192,15.0464453],[-91.8934679,15.046492],[-91.8945107,15.0466486],[-91.8949056,15.0463676],[-91.8961609,15.0457563],[-91.8967992,15.0453212],[-91.8972713,15.0453471],[-91.8976253,15.0449585],[-91.8981028,15.044684],[-91.8983388,15.044741],[-91.8983978,15.0445752],[-91.8990791,15.0443783],[-91.8998408,15.0443006],[-91.9000983,15.0443887],[-91.9005275,15.0446218],[-91.9010586,15.0444664],[-91.9017828,15.0446322],[-91.9023407,15.0449741],[-91.9026464,15.0449119],[-91.902861,15.0446425],[-91.9030541,15.0446218],[-91.9033867,15.0443628],[-91.9041753,15.0442695],[-91.9044918,15.0440209],[-91.9043362,15.0437204],[-91.9041377,15.0436582],[-91.9037032,15.0432956],[-91.9036335,15.0431246],[-91.9036275,15.043072],[-91.9036488,15.0430335],[-91.90367,15.04303]]}}]}
