{"type":"FeatureCollection","peaks_destination_id":"ZuM8euuEHwaMw580RZxQ","peaks_trailhead_id":"AC104C1E48DAA30F8B7B","peaks_source":"https://www.openstreetmap.org/","peaks_retrieval_source":"https://api.openstreetmap.org/api/0.6","peaks_license_name":"Open Data Commons Open Database License (ODbL) 1.0","peaks_license":"https://opendatacommons.org/licenses/odbl/1-0/","peaks_attribution":"© OpenStreetMap contributors","peaks_retrieved_at":"2026-07-31T11:03:37.994Z","features":[{"type":"Feature","properties":{"name":"Vinson Massif OSM route candidate","trailhead_name":"Vinson Base Camp","destination_name":"Vinson Massif","distance_m":16579.215011619435,"trailhead_snap_m":0,"summit_snap_m":72.99998896048443,"osm_way_ids":[1151629790],"osm_way_urls":["https://www.openstreetmap.org/way/1151629790"],"osm_way_names":[],"osm_foot_access_override_way_ids":[]},"geometry":{"type":"LineString","coordinates":[[-86.0010625,-78.5340554],[-86.0010625,-78.5340554],[-85.9893895,-78.5346867],[-85.9820939,-78.5349767],[-85.9706784,-78.5354714],[-85.9651853,-78.5358467],[-85.9607221,-78.5362562],[-85.9567078,-78.5366243],[-85.9514523,-78.5369214],[-85.94656,-78.5370238],[-85.9379769,-78.5370067],[-85.9274197,-78.5370408],[-85.9100819,-78.5369555],[-85.8876801,-78.5366997],[-85.8754923,-78.5365973],[-85.8669949,-78.5365461],[-85.8604718,-78.5364609],[-85.8476831,-78.5363244],[-85.8332636,-78.5361197],[-85.820546,-78.5358456],[-85.8183289,-78.5358297],[-85.8161832,-78.535932],[-85.8142949,-78.5359662],[-85.8124925,-78.5358638],[-85.8107758,-78.5357103],[-85.8081151,-78.5352155],[-85.8053685,-78.5347378],[-85.8035661,-78.5342942],[-85.801592,-78.5335094],[-85.799532,-78.532605],[-85.7962384,-78.5309903],[-85.794498,-78.5300559],[-85.7941248,-78.5294648],[-85.7922365,-78.5285089],[-85.7891466,-78.5272798],[-85.7865717,-78.5262896],[-85.7815935,-78.5240357],[-85.7795336,-78.5230452],[-85.7795336,-78.5222255],[-85.7795336,-78.5215081],[-85.7800485,-78.5199024],[-85.7805635,-78.517579],[-85.7822801,-78.5136143],[-85.7827951,-78.5122469],[-85.7836534,-78.5113238],[-85.787945,-78.5092722],[-85.7912065,-78.5072544],[-85.7953264,-78.5048942],[-85.7968714,-78.5041758],[-85.8011771,-78.5033935],[-85.8044245,-78.5030125],[-85.808201,-78.5022598],[-85.8124925,-78.5015754],[-85.8212473,-78.4999328],[-85.8236505,-78.4992825],[-85.800064,-78.494862],[-85.7972504,-78.4936412],[-85.7770908,-78.4929526],[-85.7682041,-78.4914421],[-85.7510379,-78.4928805],[-85.7359315,-78.4944557],[-85.7293168,-78.4951975],[-85.7266619,-78.4953801],[-85.7203103,-78.4960135],[-85.7141305,-78.4967495],[-85.7085515,-78.4973315],[-85.7040025,-78.4980503],[-85.6983376,-78.4987691],[-85.6921578,-78.4995905],[-85.6883813,-78.5000012],[-85.6834031,-78.5006344],[-85.6796266,-78.501199],[-85.677395,-78.5015754],[-85.676365,-78.5019005],[-85.6749059,-78.5023111],[-85.6731035,-78.5034915],[-85.6705286,-78.5047916],[-85.6675244,-78.5066901],[-85.666237,-78.5074083],[-85.6649495,-78.508041],[-85.6629754,-78.5089986],[-85.6597997,-78.5104861],[-85.6579114,-78.5114777],[-85.6552506,-78.5125717],[-85.6527615,-78.5135631],[-85.6515599,-78.5141271],[-85.650015,-78.5147423],[-85.6488133,-78.5151696],[-85.6481267,-78.5155285],[-85.6462384,-78.5158361],[-85.6438352,-78.5163658],[-85.6421185,-78.5166905],[-85.6400586,-78.5171006],[-85.6382562,-78.5175619],[-85.636797,-78.5179378],[-85.6340505,-78.5184845],[-85.6318189,-78.5188262],[-85.6297589,-78.51898],[-85.6282998,-78.5191337],[-85.627184,-78.5194071],[-85.6246091,-78.520005],[-85.62315,-78.5202954],[-85.6193734,-78.5211665],[-85.6167127,-78.5217131],[-85.6146527,-78.5219864],[-85.611992,-78.5224987],[-85.6076146,-78.5230452],[-85.6022931,-78.523882],[-85.5974866,-78.5245651],[-85.5961133,-78.5249066],[-85.5961133,-78.5251798],[-85.5967141,-78.5255042],[-85.5985166,-78.5258969],[-85.6002332,-78.5261701],[-85.601349,-78.5265457],[-85.6028081,-78.5265457],[-85.6040955,-78.5263238],[-85.6055547,-78.5259652],[-85.6066705,-78.5258116],[-85.6078721,-78.5257945],[-85.6105328,-78.5257433],[-85.6139661,-78.5256579],[-85.617147,-78.525483]]}}]}
