{"type":"FeatureCollection","peaks_destination_id":"hWFWni7L3jiYB87CgRpP","peaks_trailhead_id":"F2D5A981A175CDAF83EB","peaks_source":"https://www.openstreetmap.org/","peaks_retrieval_source":"https://api.openstreetmap.org/api/0.6","peaks_license_name":"Open Data Commons Open Database License (ODbL) 1.0","peaks_license":"https://opendatacommons.org/licenses/odbl/1-0/","peaks_attribution":"© OpenStreetMap contributors","peaks_retrieved_at":"2026-07-31T06:59:43.747Z","features":[{"type":"Feature","properties":{"name":"Wheeler Peak OSM route candidate","trailhead_name":"Summit Trailhead","destination_name":"Wheeler Peak","distance_m":6746.800312966084,"trailhead_snap_m":0,"summit_snap_m":5.956141952865649,"osm_way_ids":[121856963,1218295254,27420591],"osm_way_urls":["https://www.openstreetmap.org/way/121856963","https://www.openstreetmap.org/way/1218295254","https://www.openstreetmap.org/way/27420591"],"osm_way_names":["Wheeler Peak Summit Trail","Alpine Lakes Loop Trail"],"osm_foot_access_override_way_ids":[]},"geometry":{"type":"LineString","coordinates":[[-114.303417,39.0171926],[-114.303417,39.0171926],[-114.3034362,39.0170945],[-114.3034368,39.0168809],[-114.3036273,39.0165621],[-114.3038204,39.0163287],[-114.3040189,39.0160369],[-114.3044883,39.0157285],[-114.304668,39.0156806],[-114.3047806,39.0156868],[-114.304904,39.0156535],[-114.305124,39.015468],[-114.3053358,39.0152512],[-114.3054378,39.0149866],[-114.3055942,39.0147296],[-114.3058083,39.0145262],[-114.3060064,39.0142384],[-114.3063605,39.0139842],[-114.3065697,39.0138654],[-114.3071088,39.0133193],[-114.3076372,39.0130088],[-114.3080154,39.0128671],[-114.3084578,39.0128206],[-114.309276,39.0126233],[-114.30985,39.0124065],[-114.3104455,39.0122273],[-114.3116061,39.012255],[-114.3121057,39.0122898],[-114.3132552,39.0121942],[-114.3135488,39.012146],[-114.3138492,39.0121252],[-114.3140262,39.0120439],[-114.3145533,39.011521],[-114.3150179,39.0111042],[-114.3151837,39.0109082],[-114.3155023,39.0105573],[-114.3159261,39.0098812],[-114.3163697,39.0093201],[-114.3165232,39.0091088],[-114.3167903,39.0083893],[-114.3169123,39.0080339],[-114.316986,39.0079912],[-114.3172067,39.0079257],[-114.3173774,39.0078783],[-114.3175929,39.0077835],[-114.3176661,39.007733],[-114.3177947,39.0076806],[-114.3178694,39.0076003],[-114.3179141,39.0074929],[-114.3180279,39.0073349],[-114.3181133,39.0072844],[-114.3182678,39.0072022],[-114.3181997,39.0075129],[-114.3180522,39.0078338],[-114.3177786,39.0083257],[-114.3176418,39.0085258],[-114.3176365,39.0090302],[-114.3177169,39.0091698],[-114.3177089,39.0095054],[-114.3178591,39.0098013],[-114.3175587,39.0101598],[-114.3173487,39.0105371],[-114.3172479,39.0108698],[-114.3171671,39.0111894],[-114.3171662,39.0113329],[-114.3172475,39.0115479],[-114.3175131,39.0120522],[-114.3173682,39.012319],[-114.3172609,39.0127254],[-114.3170893,39.0130463],[-114.3171483,39.0130776],[-114.3174138,39.0129671],[-114.317792,39.0129046],[-114.3181327,39.0128546],[-114.3184973,39.0127073],[-114.3187979,39.0126524],[-114.3189802,39.0125566],[-114.3190607,39.0124169],[-114.3190553,39.0122669],[-114.3191224,39.0121335],[-114.3194604,39.0119939],[-114.3195516,39.0119292],[-114.319565,39.0118709],[-114.3196034,39.0118703],[-114.3198117,39.0119709],[-114.319919,39.0119772],[-114.320147,39.0118876],[-114.3202811,39.0118771],[-114.3204859,39.0119941],[-114.3207423,39.0119107],[-114.3207192,39.0117052],[-114.3208497,39.0115708],[-114.3210616,39.0114166],[-114.3211993,39.011125],[-114.3211957,39.0106767],[-114.3212869,39.0102619],[-114.321335,39.009579],[-114.3214085,39.0091109],[-114.3217798,39.0081509],[-114.3219112,39.0074785],[-114.321995,39.0068938],[-114.3221724,39.0064981],[-114.3221855,39.0061706],[-114.3223196,39.0059893],[-114.3225828,39.0057473],[-114.3227244,39.0054505],[-114.3229728,39.0052387],[-114.323094,39.0048681],[-114.3232986,39.0045469],[-114.3232947,39.004242],[-114.3233925,39.0040884],[-114.3234166,39.0038883],[-114.3235266,39.0037486],[-114.3236337,39.0035104],[-114.3236063,39.0033674],[-114.3234783,39.0032505],[-114.3233817,39.0031108],[-114.3232369,39.0030253],[-114.323143,39.0030087],[-114.3230921,39.0029232],[-114.3230787,39.0028377],[-114.3230223,39.0027335],[-114.3230062,39.0026543],[-114.3230474,39.0025674],[-114.3233388,39.0024104],[-114.3235829,39.0021707],[-114.3236231,39.0020498],[-114.3235963,39.0019831],[-114.3233683,39.0018622],[-114.3231135,39.0017455],[-114.3229553,39.0017476],[-114.3226254,39.0014954],[-114.3226361,39.0014266],[-114.3228641,39.0012328],[-114.3232476,39.0010097],[-114.323623,39.0008344],[-114.323658,39.0007096],[-114.3236205,39.0006679],[-114.3233817,39.0007096],[-114.3233177,39.0006643],[-114.3233576,39.0005053],[-114.3231332,39.0003412],[-114.323027,39.0001987],[-114.3231756,38.9999389],[-114.3230706,38.9998174],[-114.3231404,38.9997111],[-114.3231622,38.9995932],[-114.3234239,38.9993153],[-114.323422,38.9992338],[-114.3233469,38.999167],[-114.3233139,38.9990649],[-114.3233955,38.9988542],[-114.3233859,38.9986924],[-114.3234572,38.9984731],[-114.3234036,38.9983339],[-114.3233362,38.9982999],[-114.3230357,38.9983374],[-114.3227974,38.9983276],[-114.3226027,38.9982568],[-114.3224859,38.9982853],[-114.3223688,38.9982238],[-114.3223974,38.9981102],[-114.3224975,38.9979382],[-114.3226896,38.9976402],[-114.3226844,38.9975953],[-114.3226032,38.9975764],[-114.3224262,38.9975347],[-114.3224054,38.9975015],[-114.3226736,38.9972368],[-114.3228709,38.9969523],[-114.3228714,38.9968205],[-114.3228212,38.9967907],[-114.3227192,38.9967678],[-114.3227051,38.996572],[-114.3226683,38.9965614],[-114.3224993,38.9966302],[-114.322402,38.9966204],[-114.322628,38.9961215],[-114.3225529,38.9960111],[-114.3225556,38.9958902],[-114.3224165,38.9958645],[-114.322392,38.9954065],[-114.3221855,38.9947561],[-114.3221157,38.9943871],[-114.3220282,38.9941694],[-114.3219253,38.9940724],[-114.3218661,38.9939471],[-114.321872,38.9937265],[-114.3218119,38.9934616],[-114.3217966,38.9932302],[-114.3217054,38.9930592],[-114.3217536,38.9928779],[-114.3217402,38.992463],[-114.3217322,38.991921],[-114.3216893,38.9918793],[-114.3215149,38.9919231],[-114.3214559,38.9919106],[-114.3214493,38.9918791],[-114.3215148,38.9917732],[-114.3213645,38.9917327],[-114.3213619,38.9916373],[-114.3210588,38.9912528],[-114.3208484,38.9911347],[-114.3205674,38.9911207],[-114.3203255,38.9910289],[-114.3202514,38.9909164],[-114.3203512,38.9907746],[-114.3203213,38.9907244],[-114.3201685,38.9906556],[-114.3200719,38.990543],[-114.3199297,38.9905326],[-114.3198949,38.9904283],[-114.3197715,38.9904533],[-114.3196453,38.9902968],[-114.3195307,38.9902347],[-114.3194412,38.9902542],[-114.3193692,38.9901656],[-114.319227,38.9901719],[-114.3191193,38.9901037],[-114.3191075,38.9900368],[-114.3190077,38.9900097],[-114.3189865,38.989954],[-114.318825,38.9898928],[-114.3186687,38.9897912],[-114.3185911,38.9896755],[-114.3183597,38.9895623],[-114.3182999,38.9894062],[-114.318125,38.9893545],[-114.3180976,38.9892844],[-114.3180939,38.9891781],[-114.3179125,38.9890286],[-114.3177843,38.9888756],[-114.3176368,38.9887949],[-114.3175419,38.9886629],[-114.3173957,38.9885547],[-114.3172229,38.9884526],[-114.3172221,38.9883821],[-114.3171975,38.9882991],[-114.3170768,38.988217],[-114.3169368,38.9881976],[-114.3169663,38.9880946],[-114.3167804,38.9880066],[-114.3166355,38.987893],[-114.3166302,38.9877075],[-114.3162616,38.987695],[-114.3162925,38.9875688],[-114.3162708,38.9874594],[-114.3160675,38.9874335],[-114.3161181,38.987348],[-114.3159264,38.9873061],[-114.31594,38.9872325],[-114.3158357,38.9871104],[-114.3157482,38.9870718],[-114.3157214,38.9869634],[-114.3156087,38.9868591],[-114.3155497,38.986782],[-114.3153787,38.9867874],[-114.3149956,38.986684],[-114.3145678,38.9865053],[-114.3142889,38.9863354],[-114.3142031,38.9862283],[-114.3143592,38.9861532],[-114.3142575,38.9860438],[-114.3142814,38.9859554],[-114.3140791,38.985893],[-114.3139136,38.9858834],[-114.3138384,38.9858626],[-114.3138629,38.9858155],[-114.313908,38.985775]]}}]}
